DataType=double
version=3
OpenSimVersion=4.5
endheader
time	pelvis_tilt	pelvis_list	pelvis_rotation	pelvis_tx	pelvis_ty	pelvis_tz	hip_flexion_r	hip_adduction_r	hip_rotation_r	knee_angle_r	knee_adduction_r	knee_angle_r_beta	ankle_angle_r	subtalar_angle_r	mtp_angle_r	hip_flexion_l	hip_adduction_l	hip_rotation_l	knee_angle_l	knee_adduction_l	knee_angle_l_beta	ankle_angle_l	subtalar_angle_l	mtp_angle_l	lumbar_extension	lumbar_bending	lumbar_rotation	arm_flex_r	arm_add_r	arm_rot_r	elbow_flex_r	pro_sup_r	wrist_flex_r	wrist_dev_r	arm_flex_l	arm_add_l	arm_rot_l	elbow_flex_l	pro_sup_l	wrist_flex_l	wrist_dev_l
0	-0.5348472418112918	-0.001307464155940084	-0.1590969566077488	-0.161255059	0.9403797740000002	0.3774675260000002	0.4328588774080491	-0.07040863339818754	-0.1822436041317115	0.3614407798401865	0.1021521049148762	0.3555293809999998	0.04660681117952545	0.2269102551791182	0	0.902587487935164	-0.2101214367325455	-0.1461404716570466	0.7812039342231141	0.08218151389187184	0.7812039340000003	0.2531487174668465	-0.1123902515111026	-0.0004759512870188535	-0.1308556600628516	0.08870948660083207	0.06756247435495882	0.001722590945419701	-0.2722836989492027	-0.392541385266687	1.53589373157768	1.570796326969429	0	0	-1.034518324451213	-0.7732366604748659	-0.968369188996399	0.5829859442329989	1.570796326969429	0	0
0.0004542507337261803	-0.5347011057538702	-0.001256902095414223	-0.1595818042375098	-0.1605334574760147	0.9407214082794098	0.3773398372667487	0.4318706089163725	-0.07121034674538351	-0.1836140302894385	0.3618903336970317	0.1021521049148762	0.3559707198146013	0.04408918172088104	0.2269494478443515	0	0.9019643935022135	-0.2099696411503597	-0.1473851552238051	0.7761330576921036	0.08218151389187181	0.7761330574663673	0.2533279919121561	-0.1105894927592921	-0.0004737384572368384	-0.1310228543483614	0.08840396417027961	0.06801219835046884	0.002025168728845098	-0.272538784638916	-0.392302535211822	1.536303061076634	1.570796326969429	0	0	-1.035181275283665	-0.7709561941330974	-0.9685212617361743	0.5828860839484942	1.570796326969429	0	0
0.001515784775164009	-0.5343216610219224	-0.001153719293135352	-0.1607254242060806	-0.1588427876791727	0.941513521779235	0.3770406927945413	0.4295658160700765	-0.07309099042856096	-0.1867765473246255	0.3630869721002533	0.1021521049148762	0.357154777192474	0.03824633771842183	0.2269768434107148	0	0.9004517985474153	-0.2096267953108558	-0.1503361425991814	0.7642762151284335	0.08218151389187178	0.7642762149102764	0.2537468263146758	-0.1063241910189038	-0.0004685964032215709	-0.1314358652579314	0.0877049656141434	0.06907071582964802	0.002728121861412581	-0.2731359682071364	-0.3917405925838778	1.53724331851651	1.570796326969429	0	0	-1.036704346851657	-0.7656193591981326	-0.9688536098467267	0.5826486135493508	1.570796326969429	0	0
0.003164446411839883	-0.5336269995070485	-0.001035062419388999	-0.1625309214323658	-0.1562048980799929	0.9427263709836342	0.3765740134722482	0.4259985887731438	-0.07603156317389578	-0.191576778709749	0.3653518613614605	0.1021521049148762	0.3594176581759657	0.02928537875597836	0.2268412516577277	0	0.8979459113711212	-0.2091273389131894	-0.1550367530601592	0.7458431052374237	0.08218151389187182	0.7458431050679367	0.2543971053531366	-0.0995412312620113	-0.0004606910950053273	-0.1321391858369435	0.08666096693617037	0.07073566628159905	0.003808359286582999	-0.274066447249368	-0.3908573671749617	1.538658359699937	1.57079632696943	0	0	-1.038997302159567	-0.7573096615352559	-0.9693059250354278	0.5822683916963862	1.57079632696943	0	0
0.005374104194047435	-0.532495064043078	-0.0009555246437437646	-0.1650062795747063	-0.1526463177601551	0.9443184595072268	0.375944595901317	0.4212385556443669	-0.0800100197529149	-0.1977939619365278	0.3691627075120725	0.1021521049148762	0.3632583083968083	0.01749532844796556	0.2263210018438963	0	0.8942905301952159	-0.2085211019238024	-0.1615608655892536	0.7211079558584801	0.08218151389187184	0.721107955811143	0.2552693717381626	-0.09014870338918377	-0.0004502501131932598	-0.133199444986151	0.08534147551885199	0.07300688605926417	0.005233924702179376	-0.2753193575355421	-0.3896537358957411	1.540468515658257	1.570796326969429	0	0	-1.04193396369751	-0.7461334153275645	-0.9697914437510765	0.5817370125440573	1.570796326969429	0	0
0.008109887166813518	-0.5307754723905922	-0.0009839500386872692	-0.1681561375451894	-0.1482040405774997	0.9462347328170807	0.3751592324848477	0.4153715614884688	-0.08499248393386441	-0.2051257297557439	0.3751038446588012	0.1021521049148762	0.3692886876817331	0.003262580758700895	0.2251478659727308	0	0.889306523974811	-0.2078718015152773	-0.1699932871730149	0.6904669230480277	0.08218151389187187	0.6904669231653404	0.256357018339654	-0.07804732784089646	-0.0004375688459834665	-0.1346961625226656	0.08383646189322928	0.07588023349046226	0.00696197189690051	-0.2768803689946817	-0.3881327116435181	1.54257248871007	1.57079632696943	0	0	-1.045364035519992	-0.7322417196352806	-0.9702076420167183	0.5810444931844544	1.57079632696943	0	0
0.01132864367758793	-0.5283042291069805	-0.001199200596217023	-0.1719733794077051	-0.1429267524820925	0.9484061669403507	0.3742271334218238	0.4084917463377312	-0.0909273935102972	-0.213166971582283	0.3838072141722212	0.1021521049148763	0.378167583584368	-0.01291159715533449	0.2230448837675134	0	0.8828328115448755	-0.2072543196959429	-0.1804145440708713	0.6544868411357053	0.08218151389187185	0.6544868413055492	0.2576670213523757	-0.06315991721444587	-0.0004229983608751662	-0.1367092763707359	0.0822541372912608	0.07934244394266166	0.008937673221764459	-0.2787323132199355	-0.3863019806946549	1.544853161039769	1.570796326969431	0	0	-1.049140773270065	-0.7158434887702728	-0.9704552342864927	0.5801806373960191	1.570796326969431	0	0
0.01497960949210789	-0.5249219918028176	-0.001683194727032784	-0.1764327014752502	-0.1368757688410302	0.9507523093725554	0.3731601356118036	0.4006925983312751	-0.09774208052041301	-0.221421719969059	0.3958784720099396	0.1021521049148763	0.3905233699873868	-0.0304305707517599	0.2197657859706167	0	0.8747577112766899	-0.2067492942939595	-0.1928811329999502	0.6139151331252489	0.08218151389187189	0.6139151332729303	0.2592207766931272	-0.04546213644960367	-0.0004069246842600536	-0.1393065920934458	0.080714387167781	0.08336729757518453	0.01109501959989582	-0.2808543532020887	-0.3841768524040626	1.547184000021721	1.570796326969429	0	0	-1.053136234415278	-0.6972095218060229	-0.9704493020624304	0.579137236530838	1.570796326969429	0	0
0.01900520557876997	-0.5204944785181362	-0.002511746964414252	-0.1814866007039095	-0.1301256697599291	0.9531864907967867	0.371972708615759	0.3920603785771294	-0.1053418646692462	-0.2293469556776182	0.4118143555819225	0.1021521049148763	0.4068721335509212	-0.04864699742532304	0.2151320614516677	0	0.8650384986477975	-0.2064354392036981	-0.2074021719282536	0.569651271858808	0.08218151389187184	0.5696512721159456	0.2610448361055181	-0.02501264171683917	-0.0003897510473723148	-0.1425321107833336	0.07933835896926703	0.08791330564462937	0.01335942099463657	-0.283219716629373	-0.3817833697674148	1.549435612275013	1.570796326969429	0	0	-1.057243247920791	-0.6766677792585128	-0.9701220442430767	0.5779107886445644	1.570796326969429	0	0
0.02334194532480019	-0.5149324112138852	-0.00374675151122235	-0.1870583350468092	-0.1227650034893458	0.9556186219166118	0.3706821700057745	0.3826692317938386	-0.1136062981419543	-0.23636822267634	0.4319273725433994	0.1021521049148763	0.4275344438325858	-0.06688924474524273	0.209074445853487	0	0.8537350324650574	-0.2063834079041016	-0.223915891903478	0.5227560142836286	0.08218151389187181	0.5227560144266771	0.2631697420046127	-0.001988412720325646	-0.0003718879455932353	-0.1463921042436497	0.07824087019092738	0.09291954096775235	0.01564841699189176	-0.2857943076269246	-0.3791617836546653	1.551482344436359	1.57079632696943	0	0	-1.061391325707062	-0.6546076910911265	-0.969434385800596	0.5765045182957577	1.57079632696943	0	0
0.02792143545395889	-0.5082089152708924	-0.005427565293939244	-0.193040277471676	-0.1148962917433108	0.9579607527940229	0.3693085934594385	0.3725823557407625	-0.1223897274505711	-0.2419317976447753	0.4562791910424401	0.1021521049148762	0.4525699338803563	-0.08451773080139549	0.2016562661655244	0	0.8410199626746243	-0.2066482263298749	-0.2422677644635922	0.4744085340132621	0.08218151389187185	0.4744085342002293	0.2656173306571114	0.02329165030451195	-0.0003537144382564247	-0.1508464537148115	0.07751964421239056	0.09830454850514019	0.01787500633248679	-0.2885343371062045	-0.3763686240883399	1.553208603636578	1.570796326969429	0	0	-1.065543881115134	-0.6314716419903679	-0.9683761210328524	0.5749300653894622	1.570796326969429	0	0
0.0326714545037473	-0.5003713146382399	-0.007564024541190283	-0.1992960098993866	-0.1066353801451058	0.9601328561007391	0.3678745491801542	0.3618580702820658	-0.1315242426834562	-0.2455627639361112	0.484640978615374	0.1021521049148762	0.4817389352974847	-0.1009693806113214	0.1930774217646586	0	0.8271749509278845	-0.2072626516745739	-0.2621952904376297	0.4258457784515886	0.08218151389187182	0.4258457782483646	0.2683865801537955	0.05035718146970338	-0.0003356077446337443	-0.1558053442236239	0.07724522452166958	0.1039672371253803	0.019952108666386	-0.2913846392553327	-0.3734767509204392	1.554514980417325	1.570796326969429	0	0	-1.069689417846546	-0.6077409863405819	-0.9669626996874703	0.5732081136707967	1.570796326969429	0	0
0.03751709174442691	-0.4915449636136495	-0.01013262254682597	-0.2056659900185004	-0.09811009175757028	0.9620677161644621	0.3664046986339011	0.3505605993826409	-0.14082464576622	-0.2469142657554997	0.516490059076205	0.1021521049148762	0.5144989084974895	-0.1157998051669137	0.1836573387704826	0	0.8125752685241627	-0.2082328522277575	-0.2833242498108247	0.3782973801144898	0.08218151389187184	0.3782973797844417	0.2714434802130302	0.07859517214061704	-0.0003178999542348811	-0.1611322428105499	0.07745371919471253	0.1097896511708214	0.02179766532157478	-0.2942787871094962	-0.3705727439962845	1.55532418701784	1.570796326969429	0	0	-1.073831732240961	-0.5839188689096478	-0.9652317567517983	0.5713677304551485	1.570796326969429	0	0
0.04238192853981579	-0.4819281115496026	-0.01307612254641298	-0.2119779550825863	-0.08945804410676787	0.9637154017473155	0.3649251439181094	0.3387679263166554	-0.1500965691087453	-0.2458118929910494	0.5510242790360657	0.1021521049148762	0.5500392658504163	-0.1287287460350155	0.1737962116837254	0	0.7976581027486839	-0.2095365577718538	-0.3051796341753694	0.3329066909380853	0.08218151389187184	0.3329066910172629	0.2747145679815962	0.1072817846005383	-0.0003008707380746897	-0.1666544780497652	0.07814241049881326	0.1156424654759062	0.02334088163862945	-0.2971412513056191	-0.3677512354796272	1.555586606894521	1.57079632696943	0	0	-1.077975597976195	-0.5605069055065424	-0.9632367831199665	0.5694447614266313	1.57079632696943	0	0
0.04718924350439309	-0.4717781828426165	-0.01630738268618599	-0.2180598655523584	-0.08082378989076443	0.9650460210811932	0.3634626170727711	0.3265929775153512	-0.159146092421206	-0.242275388857636	0.5872473881955106	0.1021521049148762	0.5873482621607087	-0.1396460883168955	0.1639241551862093	0	0.7828839925489096	-0.2111247202337559	-0.3272124561146886	0.2906607997422618	0.08218151389187187	0.2906607996514927	0.2780898408706803	0.1356335415085591	-0.0002847628509371496	-0.1721794262241151	0.07927016958350407	0.1213921423537792	0.02452836305199022	-0.2998921859638127	-0.3651067708524073	1.55528505102233	1.57079632696943	0	0	-1.082115567664382	-0.5379809225907464	-0.961042089549851	0.5674795693676908	1.57079632696943	0	0
0.0518632224455918	-0.4613916111101714	-0.01971670851442656	-0.2237540731973436	-0.07235541243337129	0.9660508876526038	0.362043542007034	0.3141929196399351	-0.1677902074162259	-0.2365186597531346	0.6240555903338741	0.1021521049148762	0.6253006417649233	-0.1486153060454084	0.1544478157567558	0	0.7686950160502666	-0.2129263045954282	-0.34883970593368	0.2523323725028494	0.08218151389187182	0.2523323723696667	0.281433979224176	0.162871948981207	-0.0002697862482574939	-0.1775141795615404	0.08076228447613086	0.1269092580040469	0.0253296738680871	-0.3024542213857876	-0.3627242659411505	1.554438025057131	1.57079632696943	0	0	-1.086227694907349	-0.5167669245608723	-0.9587181980201539	0.5655146942574334	1.57079632696943	0	0
0.05633015401013977	-0.4510804676789296	-0.02318170956385935	-0.2289301860806921	-0.06420082410209282	0.9667418273541614	0.3606930906752356	0.3017741761540811	-0.1758664449049523	-0.2289261542642336	0.6603305758569019	0.1021521049148762	0.6627502912946869	-0.1558303317800173	0.1457057598716798	0	0.755477560065963	-0.2148556267721712	-0.369491410395615	0.218444284768441	0.08218151389187181	0.2184442847460321	0.284604603932505	0.1882905891233516	-0.0002560859948673704	-0.1824851403896844	0.08251920350933202	0.1320767001308476	0.02574128730853582	-0.3047602451780959	-0.360669713073119	1.553100737832402	1.570796326969429	0	0	-1.090266564166537	-0.497221128269117	-0.9563385829626714	0.5635928201639352	1.570796326969429	0	0
0.06051959218465776	-0.4411495804128984	-0.02657798907750724	-0.2334946141176232	-0.05650401257829532	0.9671488723591589	0.3594343397554787	0.2895907622225721	-0.1832403729520559	-0.2200118562209497	0.6950242198581983	0.1021521049148762	0.6986128974528868	-0.1615387027823125	0.1379401393709658	0	0.7435346258300666	-0.2168209489551254	-0.3886564434816403	0.1892596831721123	0.0821815138918718	0.1892596832512891	0.2874730528403632	0.2113129752165691	-0.0002437514198908767	-0.1869542363562948	0.08442754907455957	0.1367965814510662	0.02578822785493028	-0.3067605889628858	-0.3589828643248449	1.551363212822814	1.570796326969429	0	0	-1.094167009007625	-0.4796164341059161	-0.9539771863783104	0.5617552745729293	1.570796326969429	0	0
0.06436546733510043	-0.4318773995073202	-0.02978896684829323	-0.2373951968504324	-0.04940147770169626	0.967316620299553	0.3582876289342046	0.277936326094724	-0.1898098730346523	-0.2103683278179058	0.7272220222253927	0.1021521049148762	0.7319274362698142	-0.166000231881517	0.1312877186844794	0	0.7330713314040045	-0.2187329047895223	-0.4059187230730171	0.1647982292205446	0.08218151389187184	0.16479822948963	0.2899428032318637	0.2315308362334819	-0.0002328720913216324	-0.1908290727602529	0.08637152097099568	0.1409947769283907	0.02552286122585463	-0.3084280755011083	-0.357673349986208	1.549345248136117	1.57079632696943	0	0	-1.09784963690877	-0.4641373312058261	-0.9517064614111803	0.5600410410433778	1.57079632696943	0	0
0.06780712831226307	-0.4235027910706163	-0.03271338979241711	-0.2406203217633446	-0.04301904395148341	0.9672996945240814	0.3572701833588787	0.2671251282347305	-0.1955057485414936	-0.2006144619372721	0.7561700170093307	0.1021521049148761	0.7618914517803196	-0.1694438120449004	0.1257884219324738	0	0.7241943694740268	-0.2205114140414755	-0.4209776105780411	0.1448747088817432	0.08218151389187178	0.1448747092314614	0.2919611529187118	0.2487168033019209	-0.0002234791633175839	-0.1940657047331211	0.08824281779947511	0.1446224487504194	0.02502071528052088	-0.3097597636373039	-0.3567210387070223	1.547188449407534	1.570796326969428	0	0	-1.101228351874415	-0.4508837352969792	-0.9495955488750999	0.558486124862754	1.570796326969428	0	0
0.07079029933648544	-0.41621855013948	-0.03526968791362207	-0.2431929165298535	-0.03746917609907006	0.9671577338866482	0.356396020999964	0.2574703805038411	-0.2002888302348196	-0.1913487723220171	0.7812759367037034	0.1021521049148762	0.7878711612168375	-0.1720556127336924	0.1214063140067247	0	0.7169239562927937	-0.2220901957412124	-0.4336500333835934	0.1291539832669328	0.08218151389187187	0.1291539836948073	0.2935217873601267	0.2628108591154054	-0.0002155948693712681	-0.1966641725188178	0.08994775661805826	0.1476544546755215	0.024373634843297	-0.3107749546144438	-0.3560806264358606	1.545046028386252	1.570796326969429	0	0	-1.104218136452212	-0.4398829602194043	-0.9477084568286139	0.5571230717538184	1.570796326969429	0	0
0.07326793709552543	-0.4101710893195947	-0.03739704620366121	-0.2451605510140226	-0.0328488623269796	0.9669503547466755	0.355676087676379	0.2492591349434684	-0.2041442996405599	-0.1831124346480462	0.8020883608220651	0.1021521049148762	0.8093919217177563	-0.1739850576951815	0.118056677275705	0	0.7112150101090102	-0.2234185762728843	-0.4438558447013409	0.1172148428156848	0.08218151389187184	0.1172148434222367	0.2946582376680966	0.2738850168690541	-0.000209232002446736	-0.1986582457782681	0.09141103812373427	0.1500850936489129	0.02368098223607572	-0.3115098167316175	-0.3556896636792805	1.54307136703623	1.570796326969429	0	0	-1.106741659238608	-0.4311078058068994	-0.9461022550330856	0.555980490748977	1.570796326969429	0	0
0.07520097689840965	-0.4054647841924048	-0.03905372011059382	-0.2465833841467986	-0.02923805093215695	0.9667324454887204	0.355118553162682	0.2427359563414769	-0.2070743066345725	-0.1763633497265562	0.8182761723831682	0.1021521049148762	0.8261167093726244	-0.1753506367700876	0.1156334676449851	0	0.7069834076654573	-0.2244608886524894	-0.4515910897060738	0.1086153365026982	0.0821815138918718	0.1086153373045252	0.2954303359791051	0.2820941627172021	-0.0002043849864663094	-0.2001016370499816	0.09257639774132137	0.1519220633881256	0.02303987449630104	-0.3120096395609974	-0.3554786809830263	1.541406455686891	1.570796326969428	0	0	-1.108733910403588	-0.4244979926261068	-0.9448253955963812	0.5550825253235345	1.570796326969428	0	0
0.0765589714577417	-0.4021689247746031	-0.0402135828128226	-0.2475218175383962	-0.02669855353593638	0.9665500809266843	0.3547291761667853	0.2380939459502409	-0.2090901099884449	-0.1714601287813232	0.8296116441832195	0.1021521049148762	0.8378202665761486	-0.176240841347473	0.1140331548222904	0	0.7041330537018187	-0.2251942065111794	-0.4568955654530905	0.1029530239536058	0.08218151389187185	0.1029530248773908	0.2959070337991568	0.2876223786026413	-0.0002010398658000672	-0.2010532112232236	0.09340499014529283	0.1531797325022621	0.02253555460308412	-0.3123201027788702	-0.3553818383382558	1.540171228514087	1.570796326969431	0	0	-1.110144753182364	-0.4199819061207817	-0.9439162713938802	0.554448292452018	1.570796326969431	0	0
0.07732081165962061	-0.400324734967009	-0.04086223123287702	-0.2480256398949761	-0.02527294748759362	0.9664372318892012	0.3545115958920309	0.2354692317809959	-0.2102051791386013	-0.168652865345143	0.8359554945388491	0.1021521049148762	0.8443666518827128	-0.1767162244563646	0.1131727077914144	0	0.7025796446322984	-0.2256054705042524	-0.4598219064039259	0.0999143144320695	0.08218151389187188	0.09991431540083909	0.2961492888556871	0.2906342125918468	-0.000199184144481819	-0.2015636224470631	0.09387276654946945	0.1538730009657963	0.02223285889752301	-0.3124790400240113	-0.3553465886912839	1.539454454591292	1.570796326969432	0	0	-1.110940013477097	-0.4174952556214989	-0.9434019542452595	0.5540912629673949	1.570796326969432	0	0
0.0775	-0.3998915350821737	-0.04101454788628394	-0.2481417453478499	-0.02493754561516207	0.9664095910427278	0.3544605117293225	0.234849860284899	-0.2104657740280456	-0.1679867982790809	0.8374458827641897	0.1021521049148762	0.8459042131896994	-0.1768255497732971	0.1129742471487948	0	0.7022191234072702	-0.2257021572676935	-0.460504873871848	0.0992140415087983	0.08218151389187188	0.09921404248461341	0.2962035559463262	0.29133307755452	-0.0001987497984778721	-0.2016811776903108	0.09398305744691936	0.1540347530276255	0.0221595828461954	-0.3125148006725831	-0.3553403197990991	1.539283374707872	1.570796326969432	0	0	-1.111127437530266	-0.4169153288632381	-0.9432805407663557	0.5540071605844364	1.570796326969432	0	0
0.07795425073372618	-0.3987943750476553	-0.04140021689425151	-0.2484319573456076	-0.02408713353970191	0.9663376488214707	0.3543311693162651	0.2332765892919096	-0.2111235116789683	-0.1662885371593412	0.8412211085355097	0.1021521049148762	0.8497981249730768	-0.1770985296945886	0.1124778499298519	0	0.7013135404579293	-0.2259471548646804	-0.4622269890789006	0.09746351728963604	0.08218151389187188	0.09746351827632561	0.2963364105551324	0.2930882767639488	-0.0001976522877110092	-0.2019748758661408	0.09426306685765524	0.1544425446976661	0.02197025750646628	-0.3126026550590388	-0.3553279087773898	1.538845422424737	1.570796326969432	0	0	-1.11160318612786	-0.415453675774327	-0.9429719997217446	0.5537937399738652	1.570796326969432	0	0
0.07901578477516402	-0.3962365676765884	-0.04229865688266854	-0.2490868924812752	-0.02209899652357089	0.9661590815607931	0.3540298074514912	0.2295804685821982	-0.2126442854935463	-0.1622662021316734	0.8500245561069706	0.1021521049148762	0.8588750306546158	-0.1777142845834972	0.1113554579618132	0	0.6992445661107486	-0.2265188666561062	-0.4661986525428816	0.09351117957108226	0.08218151389187187	0.0935111805396636	0.296619927218707	0.2970966928741834	-0.0001951071921207324	-0.2026367758195449	0.0949194773556855	0.155382714452145	0.02150776511794906	-0.3127920812725455	-0.3553185758041885	1.537798135415027	1.570796326969429	0	0	-1.112718282577886	-0.4120857527052754	-0.9422467997637992	0.5532937863075003	1.570796326969429	0	0
0.08066444641183987	-0.3922832507567914	-0.04368487998733499	-0.2500383944174648	-0.0190091570838285	0.9658528440542923	0.3535643157705685	0.2237844466536497	-0.2149601041653393	-0.1558744451335078	0.8636352602301679	0.1021521049148762	0.8729038806745808	-0.1786136984005005	0.1097172224267546	0	0.6961653193001749	-0.2274033793362323	-0.4722151305912105	0.08775882906932635	0.08218151389187185	0.08775882988750967	0.2969824207713501	0.3030566249953937	-0.0001912078680335335	-0.203595178958876	0.09594325061995208	0.1568064768416469	0.02073319652137915	-0.3130410549797309	-0.3553597455148904	1.536105223234199	1.570796326969431	0	0	-1.114458587745844	-0.4069894819352349	-0.9411090793585116	0.5525139488609874	1.570796326969431	0	0
0.08287410419404742	-0.3870276375794265	-0.04552155436531729	-0.2511852755316001	-0.01486454302850593	0.9653875755552613	0.352945468936896	0.2159112453855875	-0.217973516416169	-0.1470448176362124	0.881737011676163	0.1021521049148762	0.8915610040198623	-0.1797218004840225	0.1077223870422915	0	0.6923020217210412	-0.2285790073773701	-0.4799732040890582	0.08078967183722702	0.08218151389187187	0.08078967234596991	0.2973110172154291	0.3105194761801008	-0.0001860840257087983	-0.2047420191066797	0.09731941109814721	0.158642678797675	0.01958605157865284	-0.3132851748863609	-0.3555241297507117	1.533709149946385	1.570796326969431	0	0	-1.116804738979579	-0.4004204253736606	-0.9395629502731864	0.5514623542183412	1.570796326969431	0	0
0.08560988716681352	-0.3806017065096758	-0.04775381735532595	-0.2523953747656534	-0.009728965045101096	0.964725290466163	0.3521876097291425	0.2060033079164583	-0.2215558485063351	-0.1357239561587205	0.9038871337732037	0.1021521049148762	0.9144010252147984	-0.1809596546517112	0.1055705431399297	0	0.6879532103122681	-0.2300117782008696	-0.4890609162909413	0.07334335929604741	0.08218151389187185	0.07334335970366228	0.2974503209001332	0.3188888101286781	-0.0001799103588797835	-0.2059336550437331	0.09902072492898834	0.1607965069217364	0.01798947864305699	-0.3134384797402183	-0.3559070047951163	1.530540072241364	1.570796326969431	0	0	-1.11972545033117	-0.3927117174975134	-0.9376160212907858	0.5501502591182441	1.570796326969431	0	0
0.08882864367758794	-0.3731778801254124	-0.05030724886374915	-0.2535121875311833	-0.003683149632163617	0.9638254532139512	0.3513083042903963	0.1941389234726186	-0.2255516545992272	-0.1219039667400899	0.9295268753500874	0.1021521049148762	0.9408617367529885	-0.1822599352303511	0.1034833709541403	0	0.6834772103789083	-0.2316528026929162	-0.4989657401086515	0.06626571040918111	0.08218151389187177	0.06626571128616347	0.2972052659200584	0.3274426547383014	-0.0001728917651141748	-0.206996726360425	0.1010033463963531	0.1631523563563136	0.01585599743576541	-0.3133964615982566	-0.3566213480932858	1.526523740536323	1.570796326969429	0	0	-1.123173180608326	-0.3842590726434509	-0.9352810546003901	0.5485923162272263	1.570796326969429	0	0
0.09247960949210787	-0.3649672057705344	-0.05308751922728958	-0.2543646319734413	0.003175687119551014	0.9626496160634401	0.3503277889828748	0.1804520152464182	-0.2297853688686938	-0.1056512102567186	0.9580162314356868	0.1021521049148762	0.9702813491130636	-0.183579395694858	0.101680569513765	0	0.6792724773254486	-0.2334368700114877	-0.5090936002922307	0.06044645751426676	0.08218151389187177	0.06044645874175445	0.2963496359560688	0.3353713298023853	-0.0001652293229761409	-0.2077382218036631	0.1032038900458928	0.165578640499139	0.01309505508038395	-0.3130413715018299	-0.3577903699744341	1.521590879935826	1.570796326969429	0	0	-1.127079648134958	-0.3755001203218916	-0.9325775735728138	0.5468069017626764	1.570796326969429	0	0
0.09650520557876997	-0.3562128506664988	-0.05598262243510728	-0.2547799687100222	0.01073472988399895	0.9611662680531469	0.3492682135726428	0.1651505289444616	-0.2340701763851101	-0.08712848289502091	0.9886798517956681	0.1021521049148762	1.001929155792547	-0.1849040645505781	0.1003522719840044	0	0.6757505445934903	-0.2352831535761574	-0.5188011383872566	0.05674863473962399	0.08218151389187181	0.05674863598883498	0.2946420801878005	0.3418323702883914	-0.0001571362109550305	-0.2079602455772908	0.1055391698194744	0.1679347705176565	0.009622367946424282	-0.3122502784537707	-0.3595371905823179	1.515687523052808	1.57079632696943	0	0	-1.131352091552293	-0.3668884696392156	-0.9295332144212889	0.5448165953904608	1.57079632696943	0	0
0.1008419453248002	-0.3471784204505374	-0.05886828909679688	-0.2545992348651482	0.0188670199304627	0.9593554815710386	0.3481527096569834	0.1485231427843766	-0.2382188302537979	-0.06660610464132505	1.020831091875156	0.1021521049148762	1.03504741236078	-0.1862548673440995	0.09963206490353187	0	0.6733027338249478	-0.2370986812225535	-0.52744128287527	0.05593488475294339	0.08218151389187178	0.0559348858987791	0.2918500467452227	0.3460206437449563	-0.0001488333848921146	-0.2074790014750252	0.1079095385953728	0.1700802145654016	0.005370655445372563	-0.3109058737798425	-0.3619719791061026	1.508785452642939	1.57079632696943	0	0	-1.135871488410442	-0.3588636827473148	-0.9261845485621807	0.5426488496668068	1.57079632696943	0	0
0.1054214354539589	-0.3381317550333897	-0.06161655345471932	-0.2536937496166941	0.02743355531905575	0.957212904014435	0.3470043563841324	0.1309390850873165	-0.2420556982760541	-0.04445924341058472	1.053771366458613	0.1021521049148762	1.068898386533167	-0.1876859965451964	0.09957590343577764	0	0.6722635210437634	-0.2387847203187682	-0.534418693115802	0.05859754092782279	0.08218151389187181	0.05859754143218525	0.2877798692894895	0.3472471914440959	-0.0001405152311015509	-0.2061462615455819	0.1102060810077322	0.1718850536268107	0.0003009487456247331	-0.3089093208781369	-0.3651776130748197	1.500891708466675	1.570796326969429	0	0	-1.140493960997707	-0.3518194626906868	-0.9225771167880384	0.5403367988503889	1.570796326969429	0	0
0.1101714545037473	-0.3293260766589529	-0.06410666697716169	-0.2519805463697654	0.03628606172887221	0.9547526360602675	0.3458451639885218	0.1128429826661208	-0.2454289089554295	-0.02115140352623862	1.086840842424728	0.1021521049148762	1.102807943634571	-0.1892626092648357	0.1001520148682395	0	0.6728749898182295	-0.2402455562955471	-0.5392480653042522	0.06510017264911881	0.08218151389187178	0.06510017328337731	0.2823087909145509	0.3450161227060142	-0.0001323624198598153	-0.2038703735347375	0.1123209853816501	0.173240940990065	-0.005586784336748513	-0.3061936912125628	-0.3691956578756017	1.492056054594248	1.570796326969428	0	0	-1.145056284145204	-0.3460733911097457	-0.918764520194473	0.537920014210938	1.570796326969428	0	0
0.1150170917444269	-0.3209813269605308	-0.06623680164121096	-0.2494342455945951	0.04527039202726481	0.9520085948322269	0.3446952209584855	0.09474182694567058	-0.2482212097508616	0.002793287390221018	1.119476630124702	0.1021521049148762	1.136196899088647	-0.1910251030981048	0.1012450774265012	0	0.6752576898571411	-0.241398464132577	-0.5416058613154149	0.07553796405323655	0.08218151389187177	0.07553796552796779	0.2754128375426328	0.3390866343163338	-0.0001245233649260163	-0.2006330755617442	0.1141594763950236	0.1740710041942531	-0.01224528624552702	-0.3027359372125262	-0.3740149743716861	1.482375440713587	1.570796326969429	0	0	-1.149385766945168	-0.3418421176406051	-0.9148066193078928	0.5354448559397861	1.570796326969429	0	0
0.1198819285398158	-0.3132689153945865	-0.06793450850608952	-0.2460931120806851	0.0542304466085796	0.9490340657692621	0.3435721260165082	0.07716954468045059	-0.2503581389645311	0.02682431178948692	1.151237924305392	0.1021521049148762	1.16859403446444	-0.1929712848566366	0.1026749161007106	0	0.6793930868178589	-0.2421831947097021	-0.541365842550364	0.08972263696237641	0.0821815138918718	0.0897226379719091	0.2671840552464618	0.329508162255343	-0.0001171231659031975	-0.196498402481074	0.1156510332921141	0.1743371509038673	-0.0195755724004517	-0.2985651880226666	-0.379565290320143	1.47199482642986	1.57079632696943	0	0	-1.1533139131717	-0.3392256895022437	-0.9107671610180087	0.5329639849277005	1.57079632696943	0	0
0.1246892435043931	-0.306302704071115	-0.06916389931001836	-0.2420578789109438	0.0630124163573008	0.9458993267807733	0.3424908061045597	0.06064309370198927	-0.2518123987580215	0.05039999943805955	1.181787232025198	0.1021521049148762	1.199629505426519	-0.1950600850231506	0.1042265416767117	0	0.685121436853483	-0.2425692046405717	-0.5386113121318096	0.1071946967342849	0.08218151389187185	0.1071946975622651	0.2578321960097606	0.3166210594955466	-0.0001102557566468955	-0.1916109800607019	0.1167575253069754	0.1740435334148039	-0.02742770597328413	-0.2937655526685223	-0.3857174770890317	1.461104199367785	1.570796326969431	0	0	-1.156692353287899	-0.3382036034768661	-0.9067113831771826	0.530534643437352	1.570796326969431	0	0
0.1293632224455918	-0.3001378945301755	-0.06992807876300261	-0.2374832405854778	0.07146905631219383	0.942687488768281	0.3414637026477811	0.04561257453949009	-0.2526038316107059	0.07301873656812626	1.210857158394475	0.1021521049148763	1.229012642442086	-0.1972242876336591	0.1056856288113132	0	0.6921564601475987	-0.2425592329391356	-0.5336216247940966	0.1272619504162626	0.08218151389187191	0.127261951454346	0.2476692702873534	0.30102204634867	-0.0001039852280669181	-0.1861829374663467	0.1174764843403258	0.1732355545411814	-0.03560730848256059	-0.2884725561208751	-0.3922911100625237	1.449932099922066	1.570796326969431	0	0	-1.159408808419335	-0.3386432909030954	-0.9027042095573448	0.5282155340910222	1.570796326969431	0	0
0.1338301540101398	-0.2947778163229903	-0.07026635968070823	-0.232563353661439	0.07946366016724701	0.9394890028847332	0.3405012562528298	0.03242129373921835	-0.2527950567149426	0.09424257897168754	1.238212762078603	0.1021521049148763	1.256501988745518	-0.1993852507342975	0.1068723292177135	0	0.700115052314342	-0.2421885880704717	-0.5268359363940461	0.1490592155986515	0.08218151389187185	0.149059216818435	0.2370795153099964	0.2835009874301137	-9.835384228983373e-05	-0.1804711123760303	0.1178388755350337	0.1719946015936811	-0.04388726982802318	-0.2828636012644171	-0.3990684190572686	1.438736351554762	1.570796326969429	0	0	-1.161400505094886	-0.3403195779623321	-0.8988094603738891	0.5260624985398449	1.570796326969429	0	0
0.1380195921846578	-0.2901868962136115	-0.07024694945428051	-0.2275138386646746	0.08687337151959358	0.9363955329503604	0.339612542200771	0.021272570529249	-0.2524834624632951	0.1137115547806028	1.263619258245289	0.1021521049148762	1.281876594434752	-0.201462529857324	0.1076669691800078	0	0.7085572573129191	-0.2415204253309081	-0.5188016220872221	0.1716208076386095	0.08218151389187182	0.1716208089788416	0.2264808273124595	0.2649610259833471	-9.338002991894833e-05	-0.1747484935191448	0.1179020638971063	0.1704294501595258	-0.05202305730871394	-0.2771440346098067	-0.4058123743446211	1.427792933604673	1.57079632696943	0	0	-1.162662625618936	-0.3429417730557895	-0.8950901207943368	0.5241236083231043	1.57079632696943	0	0
0.1418654673351004	-0.2863068203934934	-0.06995673770193322	-0.2225533089816355	0.09359153443304243	0.9334940365405162	0.338805884886727	0.01222099723008656	-0.2517907373756645	0.1311486332026426	1.286825844970888	0.1021521049148762	1.304915776736009	-0.203383332516176	0.1080233954513656	0	0.7170296663188207	-0.2406380796065165	-0.5101170413152569	0.1939556313419334	0.08218151389187184	0.1939556325044515	0.2162854176535148	0.2463362130119692	-8.906573436636773e-05	-0.1692752350579199	0.1177397677888679	0.1686657756261633	-0.0597692827606179	-0.2715311766936425	-0.4122858199846812	1.417383990725992	1.57079632696943	0	0	-1.163250063138952	-0.3461839614276547	-0.8916092492317671	0.5224346170164854	1.57079632696943	0	0
0.1453071283122631	-0.2830724598318118	-0.06949025657441542	-0.2178872367809422	0.0995288990587682	0.9308618915021848	0.3380892986874074	0.005179061160961168	-0.2508513568713777	0.1463565428199089	1.307562106876846	0.1021521049148762	1.325390890409655	-0.2050912657672606	0.107968740320428	0	0.7251049875913214	-0.2396359536204879	-0.5013779494215074	0.2151150399677911	0.08218151389187182	0.2151150408463963	0.2068668695458328	0.2285191989306128	-8.540234605974194e-05	-0.1642746213668679	0.1174312931369895	0.166835335963445	-0.06689501397792898	-0.2662388196600883	-0.4182685204365343	1.40778590234555	1.570796326969429	0	0	-1.163271812903873	-0.3497141004486248	-0.8884307873768954	0.5210158203705088	1.570796326969429	0	0
0.1482902993364854	-0.2804245911670221	-0.06893973786324235	-0.2136961182689869	0.1046136489665596	0.9285636698068552	0.3374706711944019	-5.226694977299477e-05	-0.2498013877315755	0.159208298432888	1.325548475655187	0.1021521049148762	1.343068595687755	-0.2065492190870107	0.1075912480914464	0	0.7324118744699757	-0.2386104669837323	-0.493134377229324	0.2342459745562502	0.0821815138918718	0.2342459754095508	0.1985383215928161	0.2123072843293142	-8.237269810950544e-05	-0.1599180279094891	0.1170521570492691	0.1650661584582703	-0.07319576202978371	-0.2614642212241117	-0.4235697095188132	1.399258165631682	1.57079632696943	0	0	-1.162878525697615	-0.3532184892658198	-0.8856194797059608	0.5198711882813188	1.57079632696943	0	0
0.1507679370955254	-0.2783176123134367	-0.06838757867455646	-0.2101287269674682	0.1087903888523172	0.9266498093219495	0.3369576688213581	-0.003745688349975722	-0.2487686606830932	0.1696335586871394	1.340512731583236	0.1021521049148762	1.357722128604171	-0.2077377444787094	0.1070198039460327	0	0.7386517906764888	-0.237652218706688	-0.4858612790094285	0.2506256111581631	0.08218151389187185	0.2506256122174124	0.191543215257688	0.1983697968504747	-7.995554464652698e-05	-0.1563206435801866	0.1166674877275756	0.1634745960023146	-0.0785009863961473	-0.257378755897023	-0.4280349709633899	1.392033629089756	1.57079632696943	0	0	-1.162244821966373	-0.3564197495515253	-0.8832393584099749	0.5189901802096303	1.57079632696943	0	0
0.1527009768984096	-0.2767219146629287	-0.06790170549335557	-0.2073000870383419	0.1120183783424363	0.9251570421065425	0.3365574099030881	-0.006198928738457376	-0.247864911135183	0.1776029544366821	1.352210709550943	0.1021521049148762	1.369145964311193	-0.2086488250976642	0.1063996006457407	0	0.7436029061298574	-0.2368399842243459	-0.4799427962216434	0.263677802780596	0.08218151389187187	0.2636778040655898	0.1860570142313777	0.1872349623470189	-7.813051491756216e-05	-0.153547171901601	0.1163286355450508	0.1621595793652029	-0.08267705220799838	-0.2541224125002092	-0.4315476483145243	1.386310387877068	1.57079632696943	0	0	-1.161548699418327	-0.3590880913784714	-0.8813507028126785	0.5183520499472732	1.57079632696943	0	0
0.1540589714577417	-0.2756218833600277	-0.06753356408959378	-0.205292922895122	0.1142694101731748	0.9241100859872592	0.3362759994586452	-0.00769165141255329	-0.2471800297549845	0.1831124544221579	1.360442861967009	0.1021521049148762	1.377169933825074	-0.2092804854981977	0.1058680818908162	0	0.7471138692718494	-0.2362366402486605	-0.4756673726379372	0.2729750627966346	0.08218151389187194	0.2729750642120913	0.1821962699695678	0.179291117795289	-7.68798541561693e-05	-0.1516245886583356	0.1160725660851864	0.1611989204361696	-0.08562656135279059	-0.2518015065982662	-0.4340261259297129	1.382245407673612	1.57079632696943	0	0	-1.160950657478732	-0.3610469382884558	-0.8800058600352062	0.5179318511657204	1.57079632696943	0	0
0.1548208116596206	-0.2750112208581886	-0.06731789524137356	-0.2041606420647695	0.1155260639575837	0.9235237604267428	0.3361179930381243	-0.00844395135579647	-0.2467781165539229	0.1861703567846779	1.36506708107393	0.1021521049148763	1.381671542142008	-0.2096321159124957	0.1055342380125647	0	0.7490925815028285	-0.2358866393381251	-0.4732290160804011	0.2782331576043386	0.08218151389187199	0.2782331590681933	0.1800301394266567	0.1747946189446686	-7.618949435502291e-05	-0.1505575300587298	0.1159230032361031	0.1606470875909944	-0.0872859960961062	-0.2504881848070802	-0.4354193137732211	1.379949223543741	1.570796326969431	0	0	-1.160574952736893	-0.3621749792072388	-0.8792445049057094	0.5177068755438151	1.570796326969431	0	0
0.155	-0.2748681969917888	-0.0672662477891588	-0.2038937291591015	0.11582098	0.9233859840000005	0.3360808120000002	-0.008611976071919197	-0.2466817598104732	0.1868861066381879	1.366155441773268	0.1021521049148763	1.382730389000001	-0.2097146000239471	0.1054519350700246	0	0.7495587618315593	-0.235803133229301	-0.472651503830516	0.2794740685279243	0.08218151389187199	0.2794740700000001	0.1795207575045114	0.1737330799160726	-7.602828754612504e-05	-0.150307886465418	0.1158872453159299	0.1605159718596739	-0.08767674201645141	-0.2501781513719888	-0.4357472173722573	1.379407527249964	1.570796326969431	0	0	-1.160482340498015	-0.3624432603322625	-0.8790646878013032	0.5176551200115515	1.570796326969431	0	0
0.1554542507337262	-0.2745065893962698	-0.06713378213305624	-0.2032161368602511	0.1165674791409873	0.9230369607660436	0.3359865236943601	-0.00902240844339678	-0.2464344004225479	0.1886945785703624	1.368916024729568	0.1021521049148763	1.385414728015369	-0.2099233473086339	0.1052367829558249	0	0.7507417040777151	-0.2355894404166755	-0.4711808239817363	0.2826267295814021	0.08218151389187195	0.2826267310686423	0.1782297560209428	0.1710355432523055	-7.562160652463923e-05	-0.1496774405277096	0.1157956461002999	0.1601813572325852	-0.08866799128519876	-0.2493903131213207	-0.436578771633635	1.378031550622048	1.570796326969431	0	0	-1.16024027235555	-0.3631283346483688	-0.8786075510451944	0.5175259348318689	1.570796326969431	0	0
0.156515784775164	-0.2736664592626942	-0.06681586961395224	-0.2016277415584364	0.1183056013792306	0.9222228765276561	0.3357659772475283	-0.009894938542121647	-0.2458392273882993	0.1928870053365442	1.375373649289636	0.1021521049148762	1.391688559797515	-0.2104081959326675	0.104697211494434	0	0.7535113688368679	-0.2350790121726445	-0.4677078928664217	0.2900310481220761	0.08218151389187182	0.2900310496132847	0.1752154239951554	0.1646970568745776	-7.468226818035943e-05	-0.1482185796017749	0.1155765347757798	0.1593871054803376	-0.09098788700505199	-0.2475389722952529	-0.4385232355035901	1.374800783539164	1.570796326969429	0	0	-1.159633483428492	-0.3647565013251469	-0.8775318783412631	0.5172355894169887	1.570796326969429	0	0
0.1581644464118399	-0.2723727292456424	-0.06630018568434501	-0.1991492247460249	0.12098706471169	0.9209636879974266	0.3354227626147795	-0.01100660323144319	-0.2448681733542944	0.1993029526396766	1.385419134617077	0.1021521049148762	1.401435542885963	-0.2111494942098722	0.1037551990816443	0	0.7578212814918754	-0.2342563121787876	-0.4622196862056594	0.3016244627651116	0.08218151389187187	0.3016244641891836	0.170545690414989	0.1547650538205536	-7.325357385003741e-05	-0.1459977555793615	0.1152235973364481	0.158120346084113	-0.09459837661932105	-0.2446368491193756	-0.4415440118920332	1.369741377112174	1.570796326969429	0	0	-1.158575280668052	-0.3673578544161806	-0.8758398283609006	0.5168181113465958	1.570796326969429	0	0
0.1603741041940474	-0.2706521710188066	-0.06557101423332323	-0.195811508232988	0.1245456322929536	0.9192884852537049	0.3349611112276663	-0.01202326466336468	-0.2434801783945925	0.2077159328789449	1.398912539780083	0.1021521049148762	1.414506851152582	-0.212113361950411	0.1022891693294444	0	0.763594934578459	-0.233098759631612	-0.4547013177964426	0.317315984467759	0.0821815138918718	0.3173159857429813	0.1643230244798971	0.1413110462314765	-7.139485228510172e-05	-0.1431215805595356	0.1147306947555924	0.1563619626479514	-0.09944530340055624	-0.2407009663404069	-0.4455867227151181	1.362882746489554	1.570796326969429	0	0	-1.156931221041102	-0.3709742663145327	-0.8735283766132405	0.5163266521942432	1.570796326969429	0	0
0.1631098871668135	-0.2685263598411897	-0.06461631396043108	-0.1916673173460998	0.1288933783364321	0.9172397892210249	0.3343862016834099	-0.01251465597488072	-0.2416300500614721	0.2178277317302509	1.415663067501366	0.1021521049148762	1.430703782640471	-0.2132471809192225	0.1001420255098183	0	0.7706982313223489	-0.2315834598730381	-0.4451720294064004	0.3369313374493623	0.08218151389187181	0.3369313386451329	0.1567042835997292	0.1244804972053243	-6.917960109740382e-05	-0.1397513131080631	0.1140981799826039	0.1540948107318955	-0.1054449918212123	-0.2357651498010364	-0.4505663072361417	1.354272110945405	1.570796326969429	0	0	-1.154527546180399	-0.3756392303480451	-0.870591176867673	0.5158355520539737	1.570796326969429	0	0
0.1663286436775879	-0.2660012354849304	-0.06343475210246739	-0.1867981370897676	0.1339227515356595	0.9148753235531168	0.333703832908289	-0.01198195615270624	-0.2392770386819461	0.2292784855824055	1.435421652043013	0.1021521049148762	1.449775053349203	-0.2144797824040167	0.09713298094056126	0	0.7789191685664723	-0.2296935246713011	-0.43371333328669	0.3601773570221955	0.08218151389187185	0.3601773584215243	0.1479101124529596	0.1045251278558932	-6.669098479184941e-05	-0.1361121763335262	0.113339231006242	0.1513105824577463	-0.1124773322760668	-0.2298877705850591	-0.4563598204134435	1.343980526122937	1.570796326969429	0	0	-1.151161640560966	-0.3813606912023912	-0.8670173301540727	0.5154411285859057	1.570796326969429	0	0
0.1699796094921079	-0.2630579707671571	-0.06204228377450834	-0.1813190945604976	0.1395095988843488	0.9122688961396721	0.3329201912019695	-0.009896158814341274	-0.2363936477343649	0.2416607788837355	1.45786600385074	0.1021521049148762	1.47140933364008	-0.215724609359499	0.09307567198674425	0	0.7879522714966426	-0.227424506176275	-0.4204932098263466	0.3866127338864619	0.08218151389187185	0.3866127354165951	0.1382282198804913	0.081827500043531	-6.401746530003062e-05	-0.1324979089402025	0.112485447917874	0.1480164701075336	-0.1203806329052506	-0.2231582821104587	-0.4628016134578223	1.332108719005253	1.570796326969429	0	0	-1.146616617056857	-0.3881055422387004	-0.8627906269214974	0.5152613009638985	1.570796326969429	0	0
0.17400520557877	-0.2596478022814221	-0.06047680732906845	-0.175379985967921	0.1455170990339018	0.9095097525684063	0.3320418152665722	-0.005746167892922627	-0.2329734483533691	0.2545373202515641	1.482586383750421	0.1021521049148762	1.495222826156734	-0.2168883820274152	0.08780231914008699	0	0.7973933574222066	-0.2247899033925329	-0.4057807806619961	0.4156327467681301	0.08218151389187178	0.4156327478649494	0.1280069547598612	0.05691082107457902	-6.124544512906486e-05	-0.1292666994614597	0.1115901738508988	0.1442405475903614	-0.1289500529971092	-0.2157009408723344	-0.4696830322608949	1.318792104765009	1.57079632696943	0	0	-1.140680120813861	-0.3957889192170888	-0.8578900539852627	0.515433172841342	1.57079632696943	0	0
0.1783419453248002	-0.2556932240329496	-0.05879948703389308	-0.1691610904085108	0.151800567744848	0.9066998405949134	0.3310758133886065	0.0009066216704093357	-0.2290366506283341	0.267461514462606	1.509070926394628	0.1021521049148762	1.520744809088759	-0.2178801863815148	0.08119175613965814	0	0.8067496456499101	-0.2218246465053201	-0.3899469116025491	0.446474698223413	0.08218151389187177	0.4464746993506788	0.1176370585196913	0.03042884193438362	-5.84512985032895e-05	-0.1268252906370204	0.1107281067161053	0.1400348626084613	-0.1379413297189477	-0.2076742732937887	-0.4767584619844728	1.304204207851794	1.570796326969429	0	0	-1.13316662518866	-0.4042708879938079	-0.8522923504285785	0.5161076753731227	1.570796326969429	0	0
0.1829214354539589	-0.2510970525489197	-0.05709179102909492	-0.1628633744559101	0.1582129699810641	0.9039487022560914	0.3300303360536502	0.01037534771656978	-0.2246324573642795	0.2799998437716557	1.536700904790448	0.1021521049148762	1.547406912735244	-0.2186256093758253	0.0731971960189174	0	0.8154680692521924	-0.21858568666713	-0.3734486286899321	0.4782477243588714	0.08218151389187184	0.4782477253116498	0.1075221560011986	0.003134485283252822	-5.570610922699339e-05	-0.1255998288143201	0.1099903185992997	0.1354755731555388	-0.1470808096864517	-0.1992655334465833	-0.4837585512205981	1.288557795367392	1.57079632696943	0	0	-1.123941533144575	-0.4133618023147219	-0.8459772180350449	0.5174405805916493	1.57079632696943	0	0
0.1876714545037473	-0.2457593125328217	-0.05544811819208454	-0.1566939489480524	0.1646108288681004	0.9013661817542616	0.3289152194786426	0.0228024859496593	-0.2198377653063412	0.2917546605637376	1.56475696869672	0.1021521049148762	1.574543581982587	-0.2190816113701619	0.06386831341497606	0	0.8229811191375203	-0.215149297590851	-0.3567984439534051	0.5099861505253759	0.08218151389187178	0.5099861512290741	0.09804172465657847	-0.0241696791031544	-5.306508912619058e-05	-0.1259947791603088	0.1094747525911542	0.1306599818836031	-0.1560816406006475	-0.1906804112967082	-0.490409954954667	1.272103188871942	1.570796326969428	0	0	-1.11294450559016	-0.4228357737300294	-0.8389353358442012	0.5195796847797414	1.570796326969428	0	0
0.1925170917444269	-0.2395999242730611	-0.05396492275080114	-0.1508488687771892	0.1708601142356103	0.8990536409192971	0.3277426585668266	0.03812832549594408	-0.2147524748186422	0.3023858001067313	1.592450631447718	0.1021521049148762	1.601410605856262	-0.2192330239684688	0.05336223592962969	0	0.8287652995372918	-0.2116053604762032	-0.3405228858521964	0.5407205363099687	0.08218151389187175	0.5407205375344442	0.08951298351759719	-0.05069199106672367	-5.056917643116578e-05	-0.1283444071030093	0.1092734184197492	0.1257008908605372	-0.1646645770194289	-0.1821293558724272	-0.4964592494735225	1.255123461277259	1.570796326969429	0	0	-1.100208902854759	-0.4324498112846957	-0.831178628688198	0.5226486921578991	1.570796326969429	0	0
0.1973819285398158	-0.2325833337052486	-0.05272820710433265	-0.1454961702149356	0.1768415754567571	0.8970948419894024	0.3265277535037051	0.05607920369359574	-0.2094923466776129	0.3116293262203687	1.618968225915364	0.1021521049148762	1.627225284414952	-0.2190967788416512	0.04193967405865835	0	0.8324034437401201	-0.208049574230967	-0.3251168330704342	0.569556276399787	0.08218151389187182	0.5695562775234897	0.08215935537773374	-0.07571375378145176	-4.824949609010451e-05	-0.1328640786770381	0.10945851861395	0.1207191575273267	-0.1725805635618626	-0.1738127437538896	-0.5016972919646416	1.237926542983937	1.570796326969429	0	0	-1.085874301015594	-0.4419648150978274	-0.8227514599624334	0.5267292047570359	1.570796326969429	0	0
0.2021892435043931	-0.2247401326437959	-0.05180182192102759	-0.1407621218316455	0.1824550018750538	0.8955479354338317	0.3252887509461876	0.07618026107362898	-0.2041807755517627	0.3193117274247044	1.643533254054091	0.1021521049148762	1.651226286780345	-0.2187178126173462	0.02994544310266304	0	0.8336399960086228	-0.2045750297898392	-0.311001042100601	0.595747389948622	0.08218151389187185	0.5957473909470783	0.07609225278602663	-0.09864303492512837	-4.612148153391334e-05	-0.1396100027675747	0.1100702474861675	0.115835559727301	-0.1796314910927383	-0.1659074513414087	-0.5059797140256097	1.220834663886345	1.570796326969431	0	0	-1.070189840724191	-0.4511642446737705	-0.8137407978867038	0.5318430492089907	1.570796326969431	0	0
0.2068632224455918	-0.2161808700058186	-0.05121895560969623	-0.1367229711115848	0.1876219831439473	0.8944399120610735	0.3240469026441945	0.09779053850140743	-0.1989409070456857	0.3253580554885274	1.665470909385029	0.1021521049148762	1.672745087190658	-0.2181608172254156	0.01777623010678013	0	0.8324188362827034	-0.2012647284627339	-0.2984893958086202	0.6187536896146725	0.08218151389187185	0.6187536905824769	0.07131000760296273	-0.1190523857404213	-4.419209191612587e-05	-0.1484553553389152	0.111108791566906	0.1111630523193293	-0.1856855790868499	-0.15855705102631	-0.5092397470848882	1.204172011216438	1.57079632696943	0	0	-1.053507538263931	-0.459867089150463	-0.8042831810754529	0.5379376879928687	1.57079632696943	0	0
0.2113301540101398	-0.2070987495915172	-0.05097848202873486	-0.1334032231194983	0.1922868922431644	0.8937644876741327	0.3228259194014252	0.1201583380428231	-0.1938892190474289	0.3297929039327488	1.684280884337096	0.1021521049148762	1.691276161193946	-0.2175043813926665	0.00584150790056237	0	0.8288963943262179	-0.198186356318419	-0.2877702477952439	0.6382727479329734	0.08218151389187185	0.6382727486139439	0.06771365199760507	-0.1366960418393603	-4.246218135005144e-05	-0.1590879440345067	0.112532144909744	0.1068002946514454	-0.1906847860784936	-0.1518669557294252	-0.5114911136398762	1.188251872423908	1.570796326969431	0	0	-1.036266286622957	-0.4679334660780042	-0.794566621247899	0.5448774810291164	1.570796326969431	0	0
0.2155195921846577	-0.1977603608231448	-0.05104667234941743	-0.1307801057954388	0.1964160557186885	0.8934837726324971	0.3216510781485926	0.1424847475107251	-0.1891311473718332	0.3327337749006721	1.699691916772266	0.1021521049148762	1.706531643964048	-0.2168232149606618	-0.005475001521861658	0	0.8234278188748524	-0.1953900180103144	-0.278903453639043	0.6542430274511148	0.08218151389187177	0.6542430281116478	0.06513528264308095	-0.1515060528895227	-4.092887064323011e-05	-0.1710303810432241	0.1142600132677295	0.1028270534584729	-0.1946432380581022	-0.1459046854409307	-0.5128208295728381	1.173364742992969	1.57079632696943	0	0	-1.018968641322328	-0.4752631807382888	-0.7848264036662852	0.5524429832919292	1.57079632696943	0	0
0.2193654673351004	-0.1884862395402841	-0.05136353277048589	-0.1287927747757819	0.1999952995117194	0.8935333705497527	0.3205481302958873	0.1639837532624362	-0.1847587780251405	0.3343771993808863	1.711692303884123	0.1021521049148762	1.718468519829035	-0.2161821338206286	-0.01584640448958834	0	0.8165293478427349	-0.1929088702119391	-0.2718319845705903	0.6668197990567383	0.0821815138918718	0.6668197994197861	0.06337216120386605	-0.1635701973609004	-3.958720963039259e-05	-0.1836793446839816	0.1161827432118202	0.09930181722196978	-0.1976374240736633	-0.1407043871513254	-0.5133737911629916	1.15976879096018	1.57079632696943	0	0	-1.002153283940969	-0.4817891927274864	-0.7753348728253076	0.5603393637066227	1.57079632696943	0	0
0.2228071283122631	-0.1796250746980527	-0.05185209284486098	-0.127354243997658	0.2030262623383793	0.8938300008452956	0.3195421424035459	0.1839275527773292	-0.1808502170549202	0.3349787904874736	1.720513983721839	0.1021521049148762	1.727281931583035	-0.2156298884302328	-0.02502154763767047	0	0.8088242007451483	-0.1907619406791347	-0.2664049786384803	0.676329713699671	0.08218151389187184	0.6763297141372363	0.06221921801758096	-0.173096802829476	-3.843144869340708e-05	-0.1963571944557334	0.1181732788739076	0.0962617134462842	-0.1997903383153289	-0.136274085075218	-0.5133323827640881	1.147683669148212	1.570796326969429	0	0	-0.9863661630426508	-0.4874687074108642	-0.7663864017580444	0.5682136532425688	1.570796326969429	0	0
0.2257902993364854	-0.171526212898029	-0.05242859539368468	-0.1263640278352111	0.2055219711991992	0.8942804549953132	0.3186564216283783	0.2016769609801163	-0.1774700609125003	0.3348290593194404	1.726584570321371	0.1021521049148762	1.733365143754284	-0.2151932750581715	-0.0328301443656868	0	0.8009812744505312	-0.1889580506398036	-0.2624079771536673	0.683212282208787	0.08218151389187185	0.6832122828579156	0.06149413753318935	-0.1803724728478287	-3.746007234461978e-05	-0.2083678069918281	0.1200998504345517	0.09372458247498117	-0.2012524852294927	-0.1326039759596316	-0.5128947361276606	1.137288056376913	1.570796326969429	0	0	-0.9721328353709212	-0.4922744569964191	-0.7582795201214532	0.5756791887133749	1.570796326969429	0	0
0.2282679370955254	-0.1645146446971256	-0.0530117626233345	-0.1257198960040269	0.2075022019710101	0.8947906714311116	0.3179116170154236	0.2166987125778902	-0.1746704021590687	0.3342271908169912	1.730449060882647	0.1021521049148762	1.73724301631734	-0.2148785654202696	-0.03917548390017035	0	0.7936554590230933	-0.1874997650126528	-0.2595959327181225	0.687956892075036	0.08218151389187189	0.6879568926812306	0.06105196956276434	-0.1857183792324776	-3.667229170700785e-05	-0.2190491684278635	0.1218374248401828	0.09169282459934004	-0.2021826310036343	-0.1296743417148242	-0.5122547448372557	1.128720641145914	1.57079632696943	0	0	-0.9599337635057054	-0.4961879140270851	-0.7512984233964449	0.5823446182121075	1.57079632696943	0	0
0.2302009768984097	-0.1588712374319682	-0.05352996187056246	-0.1253277479580283	0.2089890911570913	0.8952739707581341	0.3173250441495192	0.2285714936519374	-0.1724919378970257	0.3334550373265888	1.732690652980668	0.1021521049148762	1.739490033314626	-0.2146743805670151	-0.04401824641588671	0	0.7874360879963023	-0.186386591361719	-0.257725139851525	0.6910427605189949	0.08218151389187181	0.6910427609303034	0.06078922584149059	-0.1894496243761486	-3.606753472051526e-05	-0.2278174665614694	0.1232766876892704	0.0901584244401101	-0.2027305522930561	-0.1274621502722404	-0.5115858339463223	1.122083710545622	1.570796326969429	0	0	-0.9501835210073458	-0.4991951321473577	-0.7456958238425694	0.5878443463677517	1.570796326969429	0	0
0.2315589714577417	-0.1548191428052909	-0.05392589763244451	-0.1251092025916203	0.2100033514678759	0.8956578482510555	0.3169102272349767	0.236982719569114	-0.1709649074961787	0.3327533879455586	1.733847333436833	0.1021521049148762	1.740645402304658	-0.214556940302756	-0.04735598445229679	0	0.7828068707087518	-0.1856170813642859	-0.2565812150602084	0.6928871161758895	0.08218151389187182	0.6928871164343858	0.06063983980505272	-0.1918407167845176	-3.564695967819132e-05	-0.2342003346082256	0.1243301883428582	0.08910840122785955	-0.2030231098929355	-0.125945945898579	-0.5110292151163196	1.117448138224173	1.57079632696943	0	0	-0.9432141637689831	-0.5012850239587919	-0.7416784683526481	0.5918673726460491	1.57079632696943	0	0
0.2323208116596206	-0.1525151798417633	-0.054159189885004	-0.1250069177780851	0.2105614461715075	0.8958891285853509	0.3166765590716558	0.2417244734863117	-0.1701095309216373	0.3323021006000914	1.734342729250883	0.1021521049148762	1.741136921518609	-0.2145015070553664	-0.04920324219354566	0	0.7801171114796432	-0.1851897880600709	-0.2560011912775769	0.6938048644466472	0.08218151389187182	0.6938048646446344	0.06056669549936061	-0.1930991053701046	-3.541237576771657e-05	-0.2378603402198342	0.1249361233073151	0.08852975265986274	-0.2031541178747122	-0.1251088615725415	-0.510686234734921	1.114857865826851	1.570796326969431	0	0	-0.9392616816870896	-0.5024496283735627	-0.7393954158555768	0.5941824787303308	1.570796326969431	0	0
0.2325	-0.1519701257552054	-0.05421520531157275	-0.1249849654499932	0.2106915763298832	0.8959451825139452	0.3166215017666466	0.242842029475713	-0.1699084812814264	0.332189928316428	1.734443136870153	0.1021521049148762	1.741235958012735	-0.2144895677313082	-0.04963497738674405	0	0.779474860893403	-0.1850897387477495	-0.2558712187679918	0.6940085162827763	0.08218151389187182	0.6940085164711066	0.06055048138446704	-0.1933864277423939	-3.535733332245338e-05	-0.2387293717358983	0.1250801743252705	0.0883947590476334	-0.2031814909814731	-0.1249133745630001	-0.5106023955468258	1.114249729671752	1.570796326969431	0	0	-0.9383276219372607	-0.5027227543339691	-0.7388553809820059	0.5947331094741481	1.570796326969431	0	0
0.2329542507337262	-0.1505830714861413	-0.05435913511192382	-0.1249328910059977	0.2110195263205743	0.8960900995530613	0.316481764903057	0.2456788530620352	-0.1693990518348484	0.3318952741183823	1.734670900774602	0.1021521049148762	1.741458523216789	-0.214461296107339	-0.05072463873916828	0	0.7778304169832259	-0.1848368717589355	-0.2555527475974746	0.6945039600941338	0.08218151389187181	0.69450396026754	0.06051093795593247	-0.194100046324979	-3.521801591110861e-05	-0.2409462737142705	0.1254479380987494	0.08805445337664439	-0.2032450311981333	-0.1244201806784934	-0.5103844934046771	1.112710000204043	1.57079632696943	0	0	-0.9359522352045621	-0.5034138105576721	-0.7374811726599496	0.5961394386272978	1.57079632696943	0	0
0.234015784775164	-0.1473123701780175	-0.05470609623953376	-0.1248310742048905	0.2117751049791874	0.8964444566674133	0.3161543135709877	0.2523281893949343	-0.1682099405368424	0.3311491005768765	1.735046361419113	0.1021521049148762	1.741817808921547	-0.2144075651408246	-0.05324338407942373	0	0.7738969293916086	-0.1842501511412801	-0.2548701402495228	0.6955453839458632	0.0821815138918718	0.6955453841463397	0.06042637250781107	-0.19568528539036	-3.489360628799882e-05	-0.2462038156755888	0.1263216437703368	0.08727000922072221	-0.203360932094299	-0.1232808304541693	-0.5098455607221907	1.109122804721947	1.570796326969429	0	0	-0.9303595136478383	-0.5050214633042628	-0.7342408247584775	0.5994845601577159	1.570796326969429	0	0
0.2356644464118399	-0.1421535728054738	-0.05527351575769926	-0.1247274904801907	0.2129187065949015	0.8970381020700035	0.3156433303753761	0.2627058679082913	-0.1663670512219496	0.3298300674014634	1.735185422678805	0.1021521049148762	1.741921769158911	-0.2143640422235992	-0.05707433878816685	0	0.7675395320832842	-0.183350235112655	-0.2539811780063804	0.6968401663916823	0.08218151389187182	0.6968401668136436	0.06031221115627424	-0.1979191378089634	-3.43926888718938e-05	-0.2545792133022134	0.1277172341637736	0.08608241870168146	-0.2034512218298137	-0.1215474495283659	-0.5089275644712931	1.103583211477861	1.570796326969429	0	0	-0.921558976683997	-0.5074990211208965	-0.7291282428692998	0.6048439153213796	1.570796326969429	0	0
0.2378741041940474	-0.1350956896830378	-0.05608560765622616	-0.1246907263372494	0.2143948212295732	0.897915345559899	0.3149541081168379	0.2766975739114336	-0.1639048080332876	0.3277560931656185	1.734503621188877	0.1021521049148762	1.741173492393385	-0.2143961001259832	-0.06204278717401299	0	0.7585555915700499	-0.1821645314145653	-0.2531161915123973	0.6979621452875223	0.08218151389187185	0.697962146149511	0.06017817663827164	-0.200480144055644	-3.372592013070884e-05	-0.266193870372699	0.1296582536109317	0.08455140069907208	-0.2034035994563867	-0.1192916328648249	-0.5075475158080857	1.096222435132362	1.570796326969431	0	0	-0.9095491853746671	-0.5107856248975954	-0.7221248201445969	0.6123430487487378	1.570796326969431	0	0
0.2406098871668135	-0.1261459256784688	-0.05716626655781906	-0.1248026201832215	0.2161334908341402	0.8991284866869046	0.3140944138079524	0.2941213508572348	-0.1608689827538289	0.3247017064882148	1.732237756283192	0.1021521049148763	1.738795896892321	-0.2146053897124535	-0.06790660624029327	0	0.7467221483485955	-0.1807261172444547	-0.2525618630732027	0.6983847828583001	0.08218151389187188	0.6983847837785901	0.06001265121207854	-0.2029701380371077	-3.290534117242924e-05	-0.281165896480784	0.1321661094110525	0.08275644639107826	-0.2030831965363498	-0.1166020090017092	-0.5056123702436083	1.08721734593705	1.57079632696943	0	0	-0.8943473664433514	-0.5148069220318967	-0.7132178372192814	0.6221353389210823	1.57079632696943	0	0
0.2438286436775879	-0.1153486150486528	-0.05853144861049873	-0.1251486854558568	0.2180550666704142	0.9007307413810746	0.313074955971302	0.3147077038846351	-0.1573155699420387	0.3204180345314819	1.727484634709616	0.1021521049148762	1.733874769147917	-0.2151308709922004	-0.07435812792193992	0	0.7318420418571122	-0.1790700525904111	-0.2526365038382551	0.6975297656506086	0.08218151389187191	0.6975297658967564	0.05976603130113378	-0.2049489398740905	-3.194270526440526e-05	-0.2995696371215658	0.1352511818330893	0.08079453715775045	-0.2023483427821786	-0.1135769008774061	-0.5030356410411539	1.076787955154135	1.570796326969429	0	0	-0.8760052097240781	-0.519481309831054	-0.7024122502989752	0.6343842800952531	1.570796326969429	0	0
0.2474796094921079	-0.1028050995834562	-0.06018109245731204	-0.1258076940320148	0.2200757636753526	0.9027681911857522	0.3119097937731031	0.33808712547594	-0.1533090486523621	0.3146562393910872	1.719256180109399	0.1021521049148763	1.725422084339207	-0.2161467310629442	-0.08103317012528773	0	0.7137950529653589	-0.1772291666329552	-0.2536602023218458	0.6948247896245203	0.08218151389187189	0.6948247900138282	0.05933765301609564	-0.2059747966396	-3.084837174638747e-05	-0.3213920343811608	0.1389035349602457	0.07877647658616412	-0.201068572962419	-0.1103161082999655	-0.4997552007847323	1.065192356519358	1.57079632696943	0	0	-0.8546244936311662	-0.5247259878563871	-0.6897440362094055	0.6492412886457627	1.57079632696943	0	0
0.25150520557877	-0.08869131901775891	-0.06209199829088092	-0.1268417056089178	0.2221135171991736	0.9052715788337314	0.3106166093796721	0.3637948486490309	-0.1489202124047165	0.3071929519804624	1.706578935487732	0.1021521049148762	1.712460393954792	-0.2178596072930589	-0.08752910823595615	0	0.6925877457683277	-0.1752300654741659	-0.2559221608466216	0.6897655603481065	0.08218151389187181	0.6897655611303994	0.05857081627380582	-0.2056468898243343	-2.963024817958165e-05	-0.3464916447193863	0.1430847741091571	0.0768216711258717	-0.1991428680428624	-0.106912925234696	-0.4957497118770056	1.052718844316791	1.57079632696943	0	0	-0.8303708035314807	-0.5304613234782194	-0.6752938186237493	0.6668197379712649	1.57079632696943	0	0
0.2558419453248002	-0.07326902602221931	-0.06421336311097985	-0.1282879029691318	0.2240936087035732	0.9082490237024123	0.3092167428981689	0.3912852508536596	-0.1442238098233367	0.2978558439360318	1.688602400370269	0.1021521049148762	1.694124578729329	-0.2204874966383698	-0.0934322070967767	0	0.668393924350713	-0.1730903035150388	-0.2596484847997534	0.6819752673612648	0.08218151389187181	0.6819752679041321	0.05725956703438691	-0.2036454309030245	-2.829316062946637e-05	-0.3745675858906675	0.1477228515439003	0.07505134992017912	-0.196515604177473	-0.1034475823100934	-0.4910507738098653	1.03967514123447	1.57079632696943	0	0	-0.8034835548498801	-0.5366122930355653	-0.6591987769762512	0.6871670214482427	1.57079632696943	0	0
0.2604214354539589	-0.05688665488825762	-0.06646654602950101	-0.130153412580256	0.2259534712616091	0.9116808049988346	0.3077349147114758	0.419960377597729	-0.1392963043983337	0.2865472028143313	1.664713574312732	0.1021521049148762	1.669771624998281	-0.2242196229043711	-0.09835208795244638	0	0.641577402566171	-0.1708176578460208	-0.2649743435709084	0.6712537756418341	0.08218151389187182	0.671253776444912	0.05516877199419607	-0.1997645875293511	-2.683993474476284e-05	-0.4051455909983609	0.1527114249556682	0.07358049839494056	-0.1931875596081351	-0.09998318492039679	-0.485748133390201	1.026375229742406	1.57079632696943	0	0	-0.7742810780179542	-0.5431064314456245	-0.6416605595790505	0.7102374213501111	1.57079632696943	0	0
0.2651714545037473	-0.0399671550776954	-0.06875000338200328	-0.1324138286568174	0.227646138089494	0.9155171788610752	0.3061986063432984	0.449207208489825	-0.134214044960541	0.2732633583851691	1.634624390998322	0.1021521049148762	1.639084209051162	-0.2291920296794932	-0.1019589903015223	0	0.6126906481503648	-0.1684121195923194	-0.2719243709776463	0.6576092913287038	0.08218151389187178	0.6576092913849703	0.05206597897371393	-0.1939341167991866	-2.527209168842178e-05	-0.4375863790803101	0.1579146643517031	0.07250910720347968	-0.1892198349341489	-0.09656480314216169	-0.4799862973723599	1.013124881185139	1.57079632696943	0	0	-0.7431602995796374	-0.5498687553859375	-0.622947186520962	0.7358692151382152	1.57079632696943	0	0
0.2700170917444269	-0.02298246672045957	-0.0709492430006452	-0.135015531226599	0.2291419571671179	0.9196797886940919	0.3046371234511847	0.4784322956771813	-0.1290520499727091	0.2581079549826283	1.598444747432393	0.1021521049148762	1.602150983342411	-0.2354553839576868	-0.1040179818894476	0	0.5824466667536237	-0.1658705647753094	-0.2804044238720357	0.6412672526234215	0.08218151389187173	0.6412672532100477	0.04776020980356625	-0.1862269540996234	-2.359075584895928e-05	-0.471117867283832	0.163177289551478	0.0719136373198935	-0.1847296216445654	-0.09322172665850194	-0.4739524816445538	1.000207430776686	1.570796326969429	0	0	-0.7105912761022616	-0.5568152765699752	-0.6033877482094693	0.7637696347412396	1.570796326969429	0	0
0.2748819285398158	-0.006417335038782467	-0.07295037801791779	-0.1378812183701238	0.2304283939300595	0.9240666041056883	0.3030804320798945	0.5070888504649861	-0.1238834723786938	0.2412975448179644	1.556707388531503	0.1021521049148763	1.559507947381142	-0.2429611403766403	-0.1044142301413881	0	0.5516667773430943	-0.1631932866581138	-0.2902062071897131	0.6226547686255519	0.08218151389187177	0.6226547690084872	0.04214042736058245	-0.1768520912871192	-2.180209793026098e-05	-0.5048878975851	0.1683383802182674	0.07183976388514519	-0.1798782909095681	-0.08997220105876159	-0.4678576799266255	0.9878714694796487	1.57079632696943	0	0	-0.6771073857295778	-0.5638474169144464	-0.5833600302773723	0.79351062090531	1.57079632696943	0	0
0.2796892435043931	0.009272072548223723	-0.07465481167371718	-0.1409175707600492	0.2315080751720465	0.9285596768456483	0.3015578948086167	0.5346939127801175	-0.1187796768051558	0.2231585663091181	1.510368536746777	0.1021521049148762	1.512130647509282	-0.2515597109532753	-0.1031647775587791	0	0.5212120796685867	-0.1603909139947973	-0.3010243103701381	0.6023629400080519	0.08218151389187178	0.6023629405451707	0.03520566632743662	-0.1661341807722909	-1.99181262775979e-05	-0.5380296057989519	0.1732465377197328	0.07229742466356909	-0.174853768165337	-0.08682942471632508	-0.4619141836514767	0.9763218646585833	1.570796326969429	0	0	-0.6432921697157838	-0.5708496527883593	-0.5632725699315847	0.8245370050332763	1.570796326969429	0	0
0.2843632224455918	0.02369765624699819	-0.07599214536910273	-0.1440237318145628	0.2323954476480214	0.933034481141751	0.3000970800037942	0.5608417501482048	-0.1138107428259136	0.2041155042184871	1.46075015821216	0.1021521049148762	1.461375504830583	-0.2610041413326161	-0.100414746618832	0	0.4919100160147142	-0.1574899921992968	-0.3124831925877648	0.5810930540706607	0.08218151389187187	0.5810930541573077	0.02708024405588006	-0.1544831202588842	-1.796099371433697e-05	-0.569728624598448	0.177773625925576	0.07325893644706051	-0.1698502526824686	-0.08380737786395082	-0.4563136606356564	0.9657149643386743	1.57079632696943	0	0	-0.6097637450512758	-0.5776918602595764	-0.5435437221289218	0.8561869378583902	1.57079632696943	0	0
0.2888301540101398	0.03656985693879057	-0.07692878497175692	-0.1470992508940731	0.2331127255565464	0.9373692535345797	0.2987227677674931	0.5852067652928066	-0.1090460837075695	0.1846713840040609	1.409466303986451	0.1021521049148762	1.408880707291322	-0.2709765313060601	-0.09641944927074185	0	0.4644890185033117	-0.1545358604027179	-0.324169457743513	0.559596098106687	0.08218151389187177	0.5595960984830749	0.01801129319171854	-0.1423586899038998	-1.595698511201266e-05	-0.5992805003638016	0.1818246658350312	0.07466047352641277	-0.1650489634047153	-0.08092523782940143	-0.4512097338261135	0.956158101345453	1.57079632696943	0	0	-0.5771577421046991	-0.5842361070565556	-0.5245809703511832	0.8877219251876508	1.57079632696943	0	0
0.2930195921846577	0.04771449748855006	-0.07747067552567172	-0.1500508186414413	0.233685534218341	0.9414533253795249	0.2974562400440815	0.6075385618874497	-0.1045549348672012	0.165380676227893	1.358285380673807	0.1021521049148762	1.356434897848366	-0.2811169160583068	-0.09151413551463515	0	0.4395295452062037	-0.1515919249906837	-0.335666442653702	0.5386115128122512	0.0821815138918718	0.5386115132101409	0.008347703303386153	-0.1302330948388702	-1.394792576554894e-05	-0.6261310071782501	0.18534256650287	0.0764068679833264	-0.1606021564186092	-0.07820959967224299	-0.4467074914221716	0.947713053094062	1.570796326969429	0	0	-0.5461087602818161	-0.5903474003340607	-0.5067625004581385	0.9183645318521308	1.570796326969429	0	0
0.2968654673351004	0.05707237342152272	-0.07766029035175913	-0.1527962405341464	0.2341397026078581	0.9451920983065401	0.2963150021082087	0.6276433199406	-0.1004060760950674	0.1468223149466454	1.309001563874359	0.1021521049148762	1.305859897398249	-0.2910445266264748	-0.08608279943944738	0	0.4174444113144797	-0.1487362465214137	-0.3465800231699683	0.5188238373537581	0.08218151389187178	0.518823837499337	-0.001489156061218983	-0.1185625579694206	-1.198343113200171e-05	-0.6498898283322421	0.1883071341213995	0.07837873323105524	-0.1566251125059039	-0.07569440677683896	-0.4428617125768686	0.9404021966371854	1.570796326969429	0	0	-0.5172332758739876	-0.5959026545613213	-0.4904253570795474	0.9473335692483148	1.570796326969429	0	0
0.3003071283122631	0.06468686679126191	-0.0775684034468879	-0.1552680202204211	0.2344975239547034	0.9485115053052748	0.2953126575581268	0.6453596307562938	-0.09666735578299356	0.1295629721637826	1.263284937312898	0.1021521049148762	1.258861649661425	-0.3003869021127528	-0.08051621212520485	0	0.398472158780317	-0.1460546739008262	-0.3565680687044985	0.5008157852901977	0.08218151389187184	0.5008157855400871	-0.01105088031156634	-0.1077544807720092	-1.011997028328413e-05	-0.6703304047850136	0.1907301026948049	0.08044204912113302	-0.1531901095209163	-0.07341888361892072	-0.4396809743245716	0.9342172660339947	1.57079632696943	0	0	-0.491109358619898	-0.6008033814347481	-0.4758549337502082	0.9738868409283972	1.57079632696943	0	0
0.3032902993364854	0.07067658024912606	-0.07728360740566569	-0.1574124684582644	0.2347773396096929	0.951356318414725	0.2944593486871588	0.6605406391214201	-0.09340365016371176	0.1141360556379499	1.222608625571253	0.1021521049148762	1.216975888282402	-0.3087997965816047	-0.07519036122734019	0	0.3827090433779684	-0.1436348661400507	-0.3653441974164252	0.4850657883273378	0.08218151389187175	0.4850657887076757	-0.01989160366840711	-0.0981607793527844	-8.419384124601471e-06	-0.6873588442199969	0.1926462287585353	0.08245748304350013	-0.150333323247981	-0.07142444668060741	-0.4371391233841445	0.9291280397458603	1.570796326969429	0	0	-0.4682636714436735	-0.6049760369295979	-0.4632859667972384	0.997343420424175	1.570796326969429	0	0
0.3057679370955254	0.07520449236114977	-0.07690069906490928	-0.1591887371618669	0.234993074919984	0.9536880924958473	0.2937622550841498	0.6730491003676369	-0.09067466690550144	0.1010185190994217	1.188198390158366	0.1021521049148762	1.181512147016345	-0.3159804783969156	-0.07044379966947091	0	0.3701456931144215	-0.1415597255522605	-0.3726812483029568	0.4719464102565838	0.08218151389187182	0.471946410672565	-0.02759951442088425	-0.09007088126043949	-6.943023942463219e-06	-0.7009783942866749	0.194103557767057	0.08429013504215285	-0.1480625718293078	-0.06975124549305413	-0.4351882569029425	0.9250915743236378	1.570796326969429	0	0	-0.4491579111491673	-0.6083721005482423	-0.4529044290215462	1.017106347348956	1.570796326969429	0	0
0.3077009768984096	0.07845001465180788	-0.07650941410273074	-0.1605691733912284	0.2351527833412159	0.9554846706976351	0.2932259616661506	0.6827555296146756	-0.08853316571763874	0.09060242480281958	1.161012356733382	0.1021521049148762	1.153472494665158	-0.3216947330624014	-0.06654941457746487	0	0.3606947772371054	-0.139900504797138	-0.3784216825411351	0.4617107695345436	0.08218151389187188	0.4617107699243593	-0.0338326226450572	-0.08369718824006102	-5.749301873925713e-06	-0.7112608720501731	0.1951546492460324	0.08581932634704482	-0.14636166126353	-0.06843495909583548	-0.4337701002316468	0.9220616113511375	1.570796326969429	0	0	-0.4341733204222941	-0.6109711450281369	-0.4448467935176444	1.032690451177583	1.570796326969429	0	0
0.3090589714577417	0.08057853997867494	-0.07618597678280049	-0.1615356865069273	0.2352608182275965	0.9567343422407915	0.2928532241402437	0.6895496711137308	-0.08702209683497353	0.08319151416996937	1.141751607733567	0.1021521049148763	1.133589829918344	-0.325766540115567	-0.06371567575281092	0	0.3542425603597569	-0.1387139898702717	-0.3824602589547412	0.4545245249530506	0.08218151389187184	0.4545245252959785	-0.03832449509533172	-0.07918979679315732	-4.888448484676959e-06	-0.7183019876261263	0.1958477764962767	0.08694556840144854	-0.14520499931405	-0.06750449863949817	-0.4328288054698437	0.9199953994179679	1.57079632696943	0	0	-0.4236061330287104	-0.6127692704684392	-0.4392092279834924	1.043722898405492	1.57079632696943	0	0
0.3098208116596206	0.08171782330681729	-0.07598697898748792	-0.1620766891915003	0.2353199490432721	0.9574308665263844	0.2926455725771746	0.6933523739103369	-0.08617197542375002	0.07900035538636278	1.130891874144053	0.1021521049148763	1.122369768450163	-0.3280715867525539	-0.06209075504730855	0	0.3506907482719458	-0.138040819235397	-0.3847278145622489	0.4504949781960386	0.08218151389187184	0.4504949785023474	-0.04088512986657201	-0.07665059247458227	-4.397446049993541e-06	-0.7221859368269111	0.1962202407063607	0.08759615997852989	-0.1445700248280551	-0.06698042635695038	-0.4323206455040918	0.9188587818224687	1.570796326969429	0	0	-0.4176634213702907	-0.6137679006937532	-0.4360549492472711	1.049942445684364	1.570796326969429	0	0
0.31	0.08198006240455306	-0.07593834151443135	-0.1622038082382316	0.235333703	0.9575942170000001	0.2925968840000002	0.6942458631411523	-0.08597177158354725	0.07801106817962801	1.128332035823933	0.1021521049148762	1.119723897	-0.3286159632564951	-0.06170489509079385	0	0.3498624390898281	-0.1378817002427934	-0.3852613497467101	0.449547419703381	0.08218151389187184	0.4495474199999999	-0.04149164811445134	-0.07605226208686205	-4.281118122216892e-06	-0.7230925510061393	0.1963061352089966	0.08775114131839348	-0.1444221302043832	-0.06685694486668703	-0.4322032032803703	0.9185937969127846	1.570796326969429	0	0	-0.4162641571977269	-0.6140017247163457	-0.4353139282153423	1.051408473572564	1.570796326969429	0	0
