DataType=double
version=3
OpenSimVersion=4.5
endheader
time	pelvis_tilt	pelvis_list	pelvis_rotation	pelvis_tx	pelvis_ty	pelvis_tz	hip_flexion_r	hip_adduction_r	hip_rotation_r	knee_angle_r	knee_adduction_r	knee_angle_r_beta	ankle_angle_r	subtalar_angle_r	mtp_angle_r	hip_flexion_l	hip_adduction_l	hip_rotation_l	knee_angle_l	knee_adduction_l	knee_angle_l_beta	ankle_angle_l	subtalar_angle_l	mtp_angle_l	lumbar_extension	lumbar_bending	lumbar_rotation	arm_flex_r	arm_add_r	arm_rot_r	elbow_flex_r	pro_sup_r	wrist_flex_r	wrist_dev_r	arm_flex_l	arm_add_l	arm_rot_l	elbow_flex_l	pro_sup_l	wrist_flex_l	wrist_dev_l
0	47.15944810635173	-18.61320213099617	-13.15755703647221	5.42733798159521	-7.765400656673699	-0.9322359103457616	5.88396126779113	-8.860792041522247	49.72927005345447	181.4780048272073	2.896375753296893e-11	189.8005544959053	50.37033530896643	-79.79450893911678	0	-70.22408416942132	-14.77051989670615	-52.57604077096336	-8.420812274837788	4.863262388345883e-11	-8.420795189627071	-0.14060648050787	71.0093576860061	-0.0361522444096948	-27.71485122734882	18.61074991864547	9.40012382549784	-5.14236600089006	-1.33756019449949	4.694196428330444	-20.26102266212651	1.430429274880906e-09	0	0	32.53628845671295	9.494972059618449	28.6280031055976	-5.105929867055377	1.430429274880906e-09	0	0
0.0004542507337261803	47.15937539460923	-18.61327911864177	-13.15724768576847	5.427312160074024	-7.765587008174536	-0.9322180509242297	5.867643329100857	-8.860537833869214	49.7315862118083	181.5028631361573	2.798222405723658e-11	189.7998523270877	50.3870693825204	-79.79364495879645	0	-70.22275418524831	-14.77062695973284	-52.57597874061341	-8.417605597296648	5.204129454234004e-11	-8.41758852145267	-0.1399239474719838	71.00872814439644	-0.03615236879343578	-27.71457407342789	18.61096684892646	9.399945896241864	-5.142537188370673	-1.337617515490625	4.694120143936868	-20.26103281914627	1.419324735966009e-09	0	0	32.53516031969652	9.494191753131441	28.62731379395685	-5.10593475009817	1.419324735966009e-09	0	0
0.001515784775164009	47.15694210928613	-18.61601702272467	-13.14647177329922	5.426413186054998	-7.772129537257465	-0.9315918686166675	5.584373550223736	-8.851649238261686	49.81279110604139	181.886154259673	1.153986458667395e-11	189.7758287848293	50.71029698144467	-79.76384349860412	0	-70.17633328135715	-14.7744057446127	-52.5739037414634	-8.305316677315643	8.045626100868436e-11	-8.305299900957653	-0.1159812131008368	70.98692171097352	-0.03615597356155757	-27.70496646381502	18.61859538522701	9.393737058551871	-5.148514973869687	-1.339651321345914	4.691500311852409	-20.26136948186872	9.381320424572433e-10	0	0	32.49562256304212	9.46687911166592	28.60312460275763	-5.106147208725296	9.381320424572433e-10	0	0
0.003164446411839883	47.13731712891627	-18.63870367052392	-13.05797849005195	5.419032505474155	-7.82604087696561	-0.9264352812570602	5.031800464276181	-8.778536547560245	50.48155139995855	182.0206711558189	-7.7895467667035e-12	189.5800984387466	51.50929380696682	-79.52014809279109	0	-69.79478475760301	-14.80561593911196	-52.5571860271473	-7.381076505448249	-4.433892054147245e-11	-7.381062095368568	0.08125178221410018	70.80829668284133	-0.03618318324532688	-27.62623556904276	18.68150258860366	9.342710991864941	-5.197657504315714	-1.35648880776527	4.670120778261808	-20.2640718543356	-1.098434469870236e-09	0	0	32.17006814719476	9.242116270449314	28.40384195237345	-5.108040951878802	-1.098434469870236e-09	0	0
0.005374104194047435	47.05050101663913	-18.73720695890434	-12.67131006403039	5.386776478790618	-8.061069706835188	-0.9039399880269948	4.007120772524742	-8.459383669526506	53.39776995241037	180.9058634164262	1.948695068095886e-12	188.7204398352175	53.24973500994528	-78.4526109642842	0	-68.1286605779481	-14.94143543325644	-52.48288891064205	-3.348880708107979	1.752784146668708e-11	-3.348876690960219	0.9410155834723435	70.02623852925737	-0.03630480285577475	-27.28171843448123	18.9555554678979	9.119853256518775	-5.41223807199427	-1.429607570217582	4.576293939533008	-20.27608134336632	7.12989047735001e-10	0	0	30.75018816156965	8.261327473321423	27.53497185925954	-5.115933584914398	7.12989047735001e-10	0	0
0.008109887166813518	46.79782736053336	-18.96727778818051	-11.69017937983447	5.304695653962054	-8.641612013984791	-0.8477070144248894	2.51625527745119	-7.657314839012836	60.60728758700723	179.020506918769	1.106127953377969e-11	186.4132330700227	59.32681672541537	-75.67636804055394	0	-63.93445025521586	-15.26842335631047	-52.24475855090435	6.694378608466013	-1.579793083704072e-11	6.694362090660526	3.051915191442618	67.98575324907955	-0.03651229252140178	-26.39202246236074	19.62440325218863	8.556779710709741	-5.952647561897426	-1.599464859518255	4.325455298387883	-20.3133124224562	-1.627685533744229e-10	0	0	27.2286799417082	5.808767600047544	25.38725466690078	-5.12684847423126	-1.627685533744229e-10	0	0
0.01132864367758793	46.24298626268961	-19.14411015237462	-10.37306602142435	5.192962933531593	-9.315487847223899	-0.7779393453740846	0.4580466670924334	-6.632726285194142	69.02347877633576	175.6809934240531	-6.63815319789889e-12	182.4747979913188	65.91696704277376	-71.49517169893925	0	-58.52578815232033	-15.59021058425361	-51.59857062715326	18.92447427983796	1.603800004360991e-11	18.92446331254192	5.418033939546818	64.87583926387009	-0.03623800661040109	-25.09437418727187	20.34617518216603	7.817092638057225	-6.65092085230083	-1.72375837062797	3.903839953628271	-20.4080828268712	-3.10495731633042e-10	0	0	23.04195095527557	2.757804569468041	22.88340547520374	-5.080013365086	-3.10495731633042e-10	0	0
0.01497960949210789	45.25900129363176	-19.09718480208249	-8.949607469975561	5.069411211754115	-9.857186629811475	-0.7119802426209532	-2.009846125993968	-5.613074078064887	75.83656738806829	170.2739642658324	-7.624503860714058e-12	176.7457692048538	71.02339136545653	-66.21422589883575	0	-53.0815058375042	-15.72644406182616	-50.28190562425233	29.91493971119335	-1.599265602066473e-11	29.91495890604435	7.114529551369015	60.82725842486987	-0.03542613480419196	-23.50736142411218	20.80708454550664	7.044680408532257	-7.358272725691802	-1.66714921950209	3.295918380878145	-20.59226714615015	1.315754211713744e-10	0	0	19.48618678218879	-0.1203004094872472	20.85208881097817	-4.92761200093275	1.315754211713744e-10	0	0
0.01900520557876997	43.77827933028654	-18.91088195391938	-7.078476761707732	4.905441791120879	-10.48253605963926	-0.6275100696453189	-4.978822515625431	-4.299593731540772	83.57751234462967	162.8054390363537	5.924901129406781e-12	168.5814137577465	76.28623144993966	-59.05206535712541	0	-46.13877949197268	-15.79372976482107	-48.13779223482957	43.28970792537191	6.644830749886655e-12	43.28968164162202	8.841475198007288	55.08841452619895	-0.03546804288267105	-21.33002788230064	21.24085752399447	6.036319003126057	-8.268558310737419	-1.480983589451041	2.419642869637466	-20.87965105404704	2.242876570399548e-10	0	0	15.30062939691721	-3.732885383876189	18.50564905591645	-4.701553328161344	2.242876570399548e-10	0	0
0.02334194532480019	41.7213034721249	-18.48113975495513	-4.875654709091593	4.709252079128595	-11.0730549136617	-0.5314572188819171	-8.2559705524677	-2.799656054841727	90.64690369252718	152.8603468586526	-7.672725796643174e-12	157.9225060104873	80.11996778932193	-50.28212457515824	0	-38.32801634977953	-15.68304667847638	-44.9162475923217	57.22540776887941	2.517916221326756e-12	57.2254305634999	10.02838340776972	47.63520557857995	-0.03349651433941018	-18.615438933133	21.46017694880392	4.858728807837218	-9.307204111361761	-1.07357165892209	1.258922861167331	-21.29138000124366	-2.779534987106154e-10	0	0	11.19195861091907	-7.696948068588265	16.28172717846275	-4.392282046227335	-2.779534987106154e-10	0	0
0.02792143545395889	39.05764363773563	-17.77108111064111	-2.353242567334624	4.481323342967815	-11.60937569636196	-0.4228344968489693	-11.79466562301464	-1.115698286813013	96.62577823081138	140.3078255125971	4.091709323927645e-12	144.7933345612046	82.81495622931223	-40.10362067047129	0	-29.76456841587047	-15.35643908956572	-40.43107642584292	71.39352975045703	-5.36411884774032e-12	71.39349699406961	10.47356403326532	38.34422092026826	-0.0337174403069154	-15.35997597883735	21.40399161550717	3.510030981455559	-10.46732041144104	-0.4029002575638399	-0.1999436488137205	-21.83482258450656	1.184595330019811e-10	0	0	7.30788907612232	-11.97861315854075	14.25241112390669	-4.017437899691687	1.184595330019811e-10	0	0
0.0326714545037473	35.80480351478643	-16.76898537734651	0.4702181588381303	4.222333411406172	-12.0904462418709	-0.3000879126569955	-15.31259885619398	0.7534782852404749	101.3235260792802	125.8045826428225	3.251046979801896e-12	129.4295929028933	84.20743102105305	-28.85554811758384	0	-20.54398008733737	-14.79628037439433	-34.57200087454878	85.66155734005385	6.90453082911909e-12	85.66157193412749	10.06587680655117	27.19426651034057	-0.03284529226483357	-11.58961851354919	21.04219423407669	1.986711859612614	-11.74502212214525	0.5516153749124925	-1.951181195660158	-22.50369467285914	-3.015384972304316e-11	0	0	3.701676410926656	-16.5770402887811	12.4171381954645	-3.60600031277372	-3.015384972304316e-11	0	0
0.03751709174442691	32.0255469018652	-15.46544686056321	3.509367009843054	3.938449193907789	-12.48867792645486	-0.1653110474386952	-19.11603909383278	2.75545344600689	104.2603220246906	108.3904910911681	9.232086332250939e-14	112.3277513650017	83.12510355659883	-17.10015028626547	0	-11.01096236732704	-13.97819776823882	-27.32419585672709	99.37416789596139	-4.783671493670327e-12	99.37420211872936	8.639662894577478	14.38364677599353	-0.0316767583453583	-7.405885203001411	20.32470709916308	0.3219988024989396	-13.10343760119249	1.802818587478003	-3.960558664021409	-23.27827957922896	1.231578535436466e-10	0	0	0.5897209491006737	-21.34644739535792	10.8686310047294	-3.186152144230429	1.231578535436466e-10	0	0
0.04238192853981579	27.83036899892332	-13.88891712921531	6.69184571563658	3.635034597042039	-12.80809641995536	-0.02012062645499623	-22.47305102141852	4.854347213893152	105.4157643129265	90.206756759059	-2.983299122455028e-12	94.12457473375758	80.18370298095392	-5.397613519212512	0	-1.385458895155268	-12.91386938811783	-18.80660032899214	112.3194348205161	3.575680774111581e-12	112.3193938017472	6.215101881259213	0.2165863323392442	-0.0308829646384245	-2.923424510197568	19.26002351438058	-1.459361278341095	-14.51939021323731	3.327053466118242	-6.175965830903714	-24.12509423759798	-1.200890041420261e-10	0	0	-1.997704315238836	-26.21982493947849	9.579261498909622	-2.78920823518304	-1.200890041420261e-10	0	0
0.04718924350439309	23.3623787422313	-12.08143625844327	9.911842529985357	3.31992266377061	-13.04354329411177	0.1312166646220849	-25.47101800021854	6.985716238105684	104.7497357162567	71.5676250526295	2.513009716191956e-12	75.57497740249785	74.42016412088992	5.668009507800083	0	8.016894769692852	-11.62501761280165	-9.262339012316863	124.1051471414354	-6.709062647770431e-12	124.1051620235518	2.855506617825837	-14.83587470850893	-0.03093625733924185	1.701665999810086	17.86708581752081	-3.309856699159261	-15.95326296824918	5.081261907475382	-8.524795446884056	-25.00247075649365	5.166343975236659e-11	0	0	-3.985447096255387	-31.0593532377416	8.553678004684986	-2.438218627598008	5.166343975236659e-11	0	0
0.0518632224455918	18.785433639083	-10.10900169151766	13.07035298710655	3.000688237864578	-13.20338657143935	0.2842396419179815	-27.89182946453515	9.090574367680656	102.4856465334761	53.45135094126128	-2.024544204570997e-12	57.43252199548792	66.33140225462736	15.62978070769997	0	16.95496624617146	-10.15839241043374	0.9540379431704082	134.5637680945193	6.354662777896595e-12	134.5637743610046	-1.250272707053194	-30.22784054834018	-0.03023856495255548	6.309957950295015	16.2042463304159	-5.180684537415675	-17.36974232898517	6.996377149477631	-10.92418220985183	-25.8656383685997	-6.954190743287502e-11	0	0	-5.392836483731375	-35.75541162294015	7.748180319170888	-2.14863981781839	-6.954190743287502e-11	0	0
0.05633015401013977	14.26608028361663	-8.048185848515489	16.06726684927517	2.685375566331836	-13.29502873249665	0.4336505145377194	-29.67670273018811	11.10596323831717	98.91704314420041	36.60774539959685	-3.352758975098404e-12	40.38012017165113	58.2836698784567	24.15631955897675	0	25.20232223796325	-8.573237952374399	11.41968013850208	143.5494316790241	-6.504179663488629e-12	143.5494288806306	-5.860344600764982	-45.3717683657647	-0.02790603186377632	10.74198219431266	14.34771262214385	-7.015362079441761	-18.72987226579758	8.990459316383767	-13.28671242325976	-26.67383007436111	-7.664165244694394e-11	0	0	-6.251936210443261	-40.18550482791031	7.12743911871983	-1.925306512941204	-7.664165244694394e-11	0	0
0.06051959218465776	9.959172853329889	-5.982978349299408	18.81952565258612	2.381300160316089	-13.33069086552837	0.5744272658300987	-30.49451140635636	12.9789385629325	94.44585719107401	22.12097377726942	1.246262168903472e-11	24.95450987217531	50.08549452780584	31.09327325670364	0	32.60227110446835	-6.940128057505602	21.69198163603203	151.0476043176611	1.279498820027443e-11	151.0476150308257	-10.68778329525561	-59.71641363867059	-0.02914999383802672	14.85960867804474	12.39211733414598	-8.760135892962033	-19.99907723579163	10.97493400838303	-15.52981731516548	-27.39479654650407	3.410616154570109e-10	0	0	-6.640025356594156	-44.25037153113077	6.64688376121493	-1.764707083509633	3.410616154570109e-10	0	0
0.06436546733510043	5.996206387960883	-3.99532659138909	21.26275775281704	2.095396812521865	-13.32199803838666	0.7017496170213643	-30.51375662558343	14.66621736662001	89.48797656108957	10.16362279802499	-3.013444611477609e-11	11.51365301544022	43.47649021320402	36.44543469051035	0	39.05029972395113	-5.33169356052721	31.35938368608398	157.1057484281725	-1.932579383692632e-11	157.1057369978906	-15.45075326257127	-72.79462250387373	-0.02706812258652856	18.55300374716938	10.43623098702701	-10.36585540079548	-21.14692120128074	12.86575180917015	-17.58261131515436	-28.0084143076204	-5.174450506873117e-10	0	0	-6.648761640146495	-47.86818325478045	6.27179319398781	-1.657183203507501	-5.174450506873117e-10	0	0
0.06780712831226307	2.478405320624568	-2.159665720809421	23.35679357338077	1.834291527206893	-13.28237730836617	0.8129944270154759	-29.58141237802615	16.13788822958182	84.45030763778561	1.062764584581185	4.740726164035188e-11	0.2309060617071684	38.65450753656496	40.34971021816297	0	44.50157639543992	-3.817588654644897	40.08004363376771	161.8430492004221	2.577721575593901e-11	161.8430504728871	-19.89777855548012	-84.2626240972276	-0.02679956756500136	21.74823607744056	8.575534986199512	-11.79299376858446	-22.15049579831351	14.59046802315792	-19.39111190924461	-28.50685147805584	5.131277513946213e-10	0	0	-6.3845104810312	-50.98560442155769	5.974221485653262	-1.590206983335092	5.131277513946213e-10	0	0
0.07079029933648544	-0.5243108453668848	-0.5380195102609815	25.08407820345372	1.60373172222819	-13.22398503786342	0.9059732148259598	-28.43054249092365	17.37611039678264	79.6897148522193	-6.19276138980322	-2.99203294230154e-11	-8.87977062240164	35.25763057352347	43.02945142216121	0	48.95717760942604	-2.458573648332792	47.60281054927446	165.4167943623283	-2.114819179159473e-11	165.4168137139665	-23.83107450386179	-93.90940932482104	-0.02747180898948154	24.40628832507997	6.893769727305853	-13.01289139639981	-22.99488959391647	16.09322419744741	-20.92012683266407	-28.89309963689371	-2.258779681792601e-10	0	0	-5.954297763183245	-53.57560212061343	5.736256435219264	-1.55126331097776	-2.258779681792601e-10	0	0
0.07326793709552543	-2.97057569495626	0.8219605244017646	26.44628715173924	1.409042187032877	-13.15850653117903	0.9798712431164769	-27.2838438564578	18.3733467043687	75.4991153243017	-12.1036323678371	-1.740915708170697e-11	-15.91982481927604	32.55598404085612	44.74769850567513	0	52.45272878827606	-1.303903926947052	53.76919100926835	168.0044009555964	-1.54095090487341e-11	168.0044144772704	-27.11300137573959	-101.6448976540843	-0.0275590171852104	26.5183601571822	5.458645206047587	-14.00789184314251	-23.67327109286761	17.33588254411394	-22.15228783092881	-29.17773980674675	-5.33415586253962e-10	0	0	-5.459564481250131	-55.63491093779726	5.547687861499103	-1.529941649379068	-5.33415586253962e-10	0	0
0.07520097689840965	-4.841599222386756	1.886661332761869	27.45813533729848	1.255102334415936	-13.09678843027131	1.035160975589292	-26.54759832457325	19.12937621825484	72.10238297284222	-17.00442830153624	9.438660595932599e-11	-21.05590684462305	30.77570922724577	45.76688394895156	0	55.04337617238346	-0.3906232306969286	58.49906612692649	169.7813065836105	8.88673581171411e-11	169.781297772269	-29.661104016946	-107.4700023427603	-0.0267865428078664	28.09718828907113	4.32062746625078	-14.76946234658365	-24.18528657827921	18.29606261186123	-23.0842303765818	-29.37533174433344	2.792891260102976e-09	0	0	-4.989529617506445	-57.17698971164534	5.404129782490521	-1.518715351547097	2.792891260102976e-09	0	0
0.0765589714577417	-6.133284684950605	2.634624331933785	28.14011233436084	1.145860543355991	-13.04787019315303	1.072643493924604	-25.29816377643589	19.64801298420514	69.65843198161018	-19.41709045754259	-3.253146427188153e-11	-24.46768719490145	29.57609764515162	46.31421481650496	0	56.78881044980932	0.2558375937524631	61.76722879602211	170.9020163063952	-6.723021362535158e-11	170.9019836499394	-31.43558221644941	-111.4375961893459	-0.02572551918766971	29.16658942594501	3.513974365763603	-15.29541942660783	-24.53476555124058	18.96327811791848	-23.72123082070267	-29.50065514740601	-1.759268575507441e-09	0	0	-4.616347169295903	-58.2237218489865	5.304311582655715	-1.513002970646464	-1.759268575507441e-09	0	0
0.07732081165962061	-6.848947801955498	3.053722805300009	28.51174019518301	1.084158193097168	-13.0183993818794	1.093136833574191	-23.03487401997681	19.93423082737898	68.26876215552724	-20.45915431539221	-2.958976533487746e-10	-26.30882244259947	29.41923448788602	46.56066197676643	0	57.74034115095047	0.6198269282616321	63.57788677495983	171.4844338468066	-1.322697332232582e-10	171.4843889154564	-32.42308600078586	-113.6148457442654	-0.02507874461693794	29.75125957216598	3.059503841739843	-15.58686584154732	-24.72680517518152	19.33431411490006	-24.07159653185511	-29.5659595633064	-6.671712119606887e-09	0	0	-4.391739824719146	-58.79701021064157	5.24853712829823	-1.510388581574773	-6.671712119606887e-09	0	0
0.0775	-7.01629277169716	3.152213023916755	28.59797263531973	1.06960038638287	-13.01125459512195	1.097898210531566	-21.50586206303418	20.00104247856847	67.9400961039446	-20.3512273719503	-2.300795445378312e-10	-26.73414546070303	29.17130107942587	46.6123217029497	0	57.96121447371927	0.7055511242051177	64.00120237036563	171.6165759845282	-6.833120876088149e-11	171.6165285383429	-32.65437865425848	-114.1216634340325	-0.0249309338938181	29.88712922926641	2.952447452560546	-15.65501740310364	-24.77153472685735	19.42120447998336	-24.15323856292669	-29.5807897043684	-4.737131199037705e-09	0	0	-4.337335738025391	-58.93035420096666	5.235433241048168	-1.509823573029234	-4.737131199037705e-09	0	0
0.07795425073372618	-7.438796914502301	3.40171595391507	28.81453562751384	1.032616955501994	-12.99277734128873	1.10986509062083	-23.77969998043503	20.16953213351566	67.10396371276858	-22.42689510436139	-4.89722519978e-11	-27.79906841524841	28.01352826375521	46.73254568845347	0	58.51609213966971	0.9230304774955256	65.0697695288337	171.9432819600327	1.359144000476064e-11	171.9432292880483	-33.23890994529684	-115.3972368621016	-0.02458017829517574	30.22869819534884	2.680817651153525	-15.8270841765883	-24.88415667278875	19.64078983848942	-24.35886124333715	-29.61747325643711	-1.166364180859813e-09	0	0	-4.196747353145398	-59.2657902683741	5.202230321707386	-1.508464063264152	-1.166364180859813e-09	0	0
0.07901578477516402	-8.416198004682139	3.983586279561377	29.30899714052674	0.9457403440616365	-12.94754432690368	1.137233687129789	-24.94207450570565	20.55825757151773	65.13443522615114	-27.09555607155132	1.298728808363549e-10	-30.21270467145035	25.78608997736836	46.95369463140314	0	59.78426386461275	1.431990576996994	67.54017955708616	172.6603771262793	1.831023218401705e-11	172.6603193428886	-34.59382592530208	-118.3250741489284	-0.02393213016400744	31.01050381544788	2.045005372026942	-16.22512660489857	-25.14289686331623	20.14984292987236	-24.83161834043053	-29.69805763990357	3.638473861961491e-09	0	0	-3.85338903905211	-60.03485679652788	5.124681665837191	-1.505607425908642	3.638473861961491e-09	0	0
0.08066444641183987	-9.904933511356479	4.882872968243529	30.0435112273917	0.8095049305511638	-12.87154150223099	1.177974582428197	-24.75693108645658	21.1475673617539	62.03718660645875	-32.4465506144072	-2.701569727181013e-11	-33.74904393264724	23.06713428118372	47.13191844225953	0	61.67310479952548	2.223548129219345	71.296162003597	173.6448956863878	1.397799438446416e-11	173.6448618924558	-36.66229064636105	-122.7173159814286	-0.02382748458751432	32.17721863302144	1.056066784404665	-16.83130659553058	-25.53169193068964	20.92771957871647	-25.5430069306933	-29.80866417487857	-1.199551658043546e-09	0	0	-3.279578391957291	-61.18663279090416	5.004039893131077	-1.501630322011845	-1.199551658043546e-09	0	0
0.08287410419404742	-11.83974055903488	6.076379129871796	30.96096376493317	0.6242926693392422	-12.75847308148483	1.228959637518225	-23.80274016897203	21.90855248598239	57.82660012097502	-38.41343029835542	-2.630501205829345e-12	-38.07506872364267	20.04686270231289	47.06005706033927	0	64.04608388871652	3.283626538830127	76.15737705833493	174.7167232366527	-1.031229650474154e-11	174.7167637479111	-39.35127496208079	-128.2872982894126	-0.0251124102954569	33.64460450605827	-0.2677531093143384	-17.61865845677028	-26.02563185377959	21.94200876742515	-26.44907665753761	-29.92859964732901	2.802720017138304e-10	0	0	-2.435035777143449	-62.64452355841262	4.841428485163883	-1.495791750517285	2.802720017138304e-10	0	0
0.08560988716681352	-14.12948407742881	7.528092847251381	31.98393742490742	0.3906442073109234	-12.60012472615464	1.285898016171382	-21.86508700430748	22.80220100724964	52.54799538001548	-43.88388478776693	-3.789395348969154e-12	-42.76004907106856	16.47822739385598	46.49009937900988	0	66.72297201445447	4.588450587071947	81.86289372736631	175.6482119396609	-1.095445952434568e-11	175.6482901563438	-42.51658839247744	-134.6372966001857	-0.02592058062043315	35.29647277674764	-1.894579032086477	-18.54908070366747	-26.58914702552787	23.144463920752	-27.48766791067953	-30.03129400140045	-4.738944147970945e-10	0	0	-1.273717270546014	-64.3040783306453	4.637960839877571	-1.484684328776091	-4.738944147970945e-10	0	0
0.08882864367758794	-16.65700236614979	9.186462902634107	33.01649124249907	0.1091620623463966	-12.38672516095541	1.343349191574743	-18.53533421133404	23.7802951903819	46.29323326744525	-47.43905468287841	9.477855904463837e-12	-47.30378786635803	12.51099932616376	45.16353565552346	0	69.48610864048588	6.101574872771946	88.06693850261779	176.1793467756035	1.185682016552746e-11	176.1793224056461	-45.95425777173074	-141.263099335201	-0.02367924457311189	36.98555847036764	-3.774272716296492	-19.57304321300819	-27.17516719966303	24.46908241687127	-28.57780675141341	-30.08622185867909	3.73945511475506e-10	0	0	0.2492087305599693	-66.0346620179879	4.395248723568556	-1.46050086115719	3.73945511475506e-10	0	0
0.09247960949210787	-19.2813666900758	10.98263383715456	33.94814939322897	-0.2197241248763431	-12.10742340148195	1.394783564652593	-13.80781011193822	24.7873033038567	39.2102979654284	-48.5895634066081	-3.948089908549147e-12	-51.18161767467301	8.551012710577442	42.84858354466827	0	72.08962181630343	7.771700377369338	94.34553693594773	176.0354542340997	2.733442959491523e-12	176.0354271732763	-49.398543565582	-147.5735177981225	-0.0229301702222721	38.53725106147986	-5.834834503999761	-20.63042413400926	-27.72482662511437	25.83192095615641	-29.62075910833271	-30.06186731099816	1.801030862959767e-11	0	0	2.170056948846307	-67.68373700610957	4.117155449725111	-1.409347174469422	1.801030862959767e-11	0	0
0.09650520557876997	-21.84339007225985	12.83077715921713	34.66078484807967	-0.5954797276010787	-11.75010829141375	1.433216660485021	-8.090411304364741	25.76321140013364	31.50344264899513	-48.5138033116007	-6.460602151050374e-13	-53.89991242940244	4.314978450839007	39.37642892311282	0	74.27160746654044	9.5321700024367	100.218380525129	174.9464190479341	-4.615438353977216e-12	174.9464222249904	-52.53149431767832	-152.9282406659801	-0.02311181329399854	39.75730782806907	-7.98155688311344	-21.65301509082549	-28.1685980346251	27.13383803894591	-30.50407584584514	-29.92938925875985	-2.690575669172561e-11	0	0	4.509882042901308	-69.08486242856878	3.812267623021955	-1.310529524943129	-2.690575669172561e-11	0	0
0.1008419453248002	-24.17464045717279	14.63122859746898	35.03808978474314	-1.017064753033296	-11.30216547911856	1.451558420697755	-1.451089066087258	26.64753665834216	23.4217386692155	-49.58834208337134	2.013350557483562e-12	-55.05958333990536	-0.2053815644583207	34.6724285081356	0	75.76945873920093	11.30303855600235	105.1874324758987	172.6666364743283	2.832524053327256e-12	172.6665947383194	-55.00611105490218	-156.6943363969839	-0.02189259564683261	40.44388285125823	-10.10000958658397	-22.56892467879943	-28.42934202066471	28.2665550599998	-31.10867356982897	-29.66636398372805	-9.790697384779904e-11	0	0	7.269033073658821	-70.06949485424158	3.496601915987995	-1.136781204697419	-9.790697384779904e-11	0	0
0.1054214354539589	-26.10962669102672	16.27697012975079	34.97725664947729	-1.482620329808039	-10.75183482615494	1.443472953539353	6.238960008054977	27.38392940828417	15.23724398458959	-49.72881717035668	-3.480146331983115e-12	-54.41468100188583	-4.269149042850032	28.77507759671834	0	76.33802603559825	12.99622779599232	108.7892233692273	168.9952015834621	-4.433510927750342e-12	168.9952444783723	-56.483200946282	-158.316545193655	-0.02155676195234376	40.40402967574921	-12.06370879574863	-23.30877032834002	-28.42785019505536	29.12222712294908	-31.31906771190959	-29.25988451480777	-3.787819217944483e-11	0	0	10.42367838807339	-70.48249329741643	3.195336080336719	-0.8560336574853464	-3.787819217944483e-11	0	0
0.1101714545037473	-27.50031838637796	17.66320031669768	34.40153894373775	-1.989232845036188	-10.08924760294246	1.404632399490848	15.33422980844599	27.92473336765475	7.217321797720821	-47.54545559340286	6.313878489855872e-12	-51.91292636674138	-6.764166156191149	21.83896147337455	0	75.77024683543834	14.52336924333341	110.6523595254233	163.7959710082997	3.648011042246354e-12	163.7960195070721	-56.67700515545136	-157.3903477644779	-0.02048256123740919	39.47379889166026	-13.74607307774456	-23.81293101528931	-28.09086069403351	29.60558361520128	-31.03611285663471	-28.70851248823831	1.811180376076336e-10	0	0	13.92468536301521	-70.19976206145753	2.942560367663464	-0.4349526754643149	1.811180376076336e-10	0	0
0.1150170917444269	-28.23156365258247	18.69895933930829	33.27106699304672	-2.53195776492073	-9.308516100386147	1.332344434820699	25.34971981753166	28.23548978883519	-0.4029483759797517	-42.63816464629485	-6.107827766588481e-12	-47.71014513469264	-7.58042245219957	14.12045393579152	0	73.91939517746638	15.80533411177591	110.5490850248686	157.0165172105618	1.346972861609007e-12	157.0164309847369	-55.40059547644474	-153.7223441887074	-0.01992979764838212	37.53918914354111	-15.03523125722167	-24.03868591472078	-27.36083151442544	29.64620536478003	-30.19040447711452	-28.02236332398348	-5.396176453108474e-11	0	0	17.69888280093408	-69.14485693522386	2.778332645462042	0.1566281707337241	-5.396176453108474e-11	0	0
0.1198819285398158	-28.23483320379069	19.31888004932684	31.59074060387656	-3.103186756743121	-8.410206053303117	1.227766835348205	36.08291487144707	28.29772927118762	-7.441906332558611	-36.03742788324349	4.540842158248712e-12	-42.14864088838644	-7.185688928767807	5.948627502318065	0	70.71994939558263	16.78194174096046	108.4281137878521	148.7040853410932	-9.610581084856586e-13	148.7041160531877	-52.60114074333089	-147.3644384756387	-0.01915725167690104	34.55526390252744	-15.84908612977698	-23.96585925524835	-26.20584494131411	29.20906134215025	-28.75384790140986	-27.22164100953838	2.120848952163134e-11	0	0	21.65280583572282	-67.3023451332128	2.743001170330009	0.9405777387800429	2.120848952163134e-11	0	0
0.1246892435043931	-27.49815344111056	19.4926850877649	29.41200940720717	-3.693229563040811	-7.403583563364668	1.09417052965551	46.8928884019443	28.11088078998711	-13.7819018635516	-28.48725622501569	3.990909951429463e-12	-35.70443169819153	-6.032983130887073	-2.313624738785149	0	66.20443090491383	17.41968276705399	104.4217493828393	139.0152081291434	4.207840570775491e-12	139.0152227865179	-48.37576570726196	-138.6123558738865	-0.01830633207353529	30.55947763091214	-16.14740428603452	-23.59966415463541	-24.62759079354364	28.30120100407679	-26.74714788755484	-26.33374175048992	-5.577504829711103e-11	0	0	25.67881877830441	-64.72344840741383	2.869684429880242	1.925458261445337	-5.577504829711103e-11	0	0
0.1293632224455918	-26.06994021814375	19.23012643212376	26.82889267607742	-4.289538664469053	-6.307312095839578	0.937783800365966	57.67359631555182	27.69236802274992	-19.36826148721856	-20.75779908199275	-5.344242101615194e-12	-28.91479061529336	-4.542172622103948	-10.31150199072333	0	60.51050469835423	17.7156959334308	98.8246735749822	128.2154269134253	-9.320141791649655e-12	128.2154240152274	-42.9618129288333	-127.9669287397088	-0.01771569720066134	25.67551659975408	-15.93801659472559	-22.97013186047886	-22.66530900711088	26.97164982666769	-24.24102023596412	-25.39031895521671	-6.344041166546392e-11	0	0	29.66276653379312	-61.52329794478946	3.177385334106661	3.103060582638192	-6.344041166546392e-11	0	0
0.1338301540101398	-24.05529571472275	18.57996737471155	23.9680662006773	-4.878252563603328	-5.149591627767172	0.7666381788504479	67.65443564085881	27.07623878027141	-24.19887197427056	-13.59688288163319	-1.223367369333032e-11	-22.29652569947554	-2.774528616296564	-17.73639587452242	0	53.87655727243893	17.69705285684802	92.05122006668198	116.6666354582994	1.369955806482524e-12	116.6666357380587	-36.70475919746029	-116.0678653367447	-0.01695151709219549	20.10593757444899	-15.27559332306748	-22.12817735066018	-20.39452131346371	25.30620136573269	-21.35062668217724	-24.42411558654367	1.31902797460534e-10	0	0	33.49272241160925	-57.86909832010984	3.665434054442493	4.446204332580875	1.31902797460534e-10	0	0
0.1380195921846578	-21.60504867261454	17.62320388202183	20.97524339060908	-5.444759572487285	-3.967379252872454	0.5898448651046933	76.8775872923452	26.31038132478572	-28.30848721170011	-7.298892417677738	1.703577358817946e-11	-16.27847922642477	-0.8420433870413988	-24.35418455106056	0	46.62313761361624	17.41581461773828	84.58036566509455	104.8018109910306	5.997727868919471e-12	104.8017888353604	-30.0096695997281	-103.6138041550194	-0.0162557230913297	14.11425817314136	-14.25322486922239	-21.13924090063109	-17.9204966746342	23.41659272495345	-18.22382975026109	-23.46714863029062	-6.485644276316402e-11	0	0	37.06740718228233	-53.96144177348673	4.311993446244855	5.909743509435936	-6.485644276316402e-11	0	0
0.1418654673351004	-18.89975172830713	16.46212639623427	18.0002099986881	-5.974595694359301	-2.802579231744406	0.4161218169945123	84.64684970275829	25.45241132877913	-31.75229625496165	-2.276832931329288	-9.283817462464278e-12	-11.15455076605733	0.9407566523589781	-30.01991593944249	0	39.12427976838971	16.941064338241	76.90125510900869	93.09112966061711	-6.954484717046567e-12	93.09111756920474	-23.28880925968226	-91.28629491959839	-0.0157340798265503	7.999412334802164	-12.98909586834575	-20.07579504860376	-15.36781383817629	21.42731301880456	-15.02596475192564	-22.54930696089261	-1.212865679493817e-10	0	0	40.30282306027607	-50.01297568645907	5.075878146756324	7.433228640048295	-1.212865679493817e-10	0	0
0.1453071283122631	-16.13126701200582	15.20781557851993	15.18360702021301	-6.454596102036168	-1.698962218850359	0.2535382868754403	91.43346887040397	24.56443584676983	-34.5919908472157	1.549056800088704	2.710368125474371e-12	-7.065985518191739	2.442575001048791	-34.67813442869549	0	31.77302532416207	16.34968199695337	69.46844566941353	82.00464106959993	1.397459666570352e-12	82.00466816784771	-16.91683006402943	-79.69086824931148	-0.01519074690785977	2.0679516420995	-11.61136777447465	-19.01017071138851	-12.86822666256742	19.46271974111584	-11.92380162958643	-21.69782459243255	2.653104502333943e-10	0	0	43.13655368762049	-46.22801670875292	5.9017458513366	8.945780977516025	2.653104502333943e-10	0	0
0.1482902993364854	-13.48525521882843	13.96848030018762	12.64707794719089	-6.873572273194201	-0.6988843269766969	0.108915322893181	96.51579569382712	23.70779405178062	-36.88601710769707	3.973080288881556	1.825390450460135e-12	-4.013213880530298	3.362287413495857	-38.35029821608615	0	24.94771205166362	15.71788377010981	62.67215927618118	71.97835738411985	1.261516479963792e-11	71.97839305810172	-11.20089167356106	-69.32274000380515	-0.01460382251953715	-3.391516013095103	-10.24425979308658	-18.00877799395284	-10.54896361846892	17.6363329235129	-9.071619966545001	-20.93735068979916	-1.552408953242924e-10	0	0	45.52876565099601	-42.78676383632592	6.727105802188112	10.37203352181806	-1.552408953242924e-10	0	0
0.1507679370955254	-11.12775448484367	12.84077513779563	10.4879907270036	-7.222546820170002	0.1598970594394377	-0.01294004894211979	100.9163732980122	22.93869675998057	-38.68406772304852	5.540070679838321	-6.470403572001095e-13	-1.888242419195775	3.87827623617171	-41.11373999766439	0	18.98581583320122	15.11489144459471	56.82444676116425	63.38993346829204	-9.913867647155099e-12	63.38994782263313	-6.368910415063793	-60.55660499232458	-0.01423373626789152	-8.127053779065099	-8.9979273713585	-17.1283643729051	-8.523684273602427	16.04396481112436	-6.601751712890986	-20.28990573940963	3.121326924707017e-11	0	0	47.45987715914872	-39.83636276870346	7.489137098013226	11.63798092309111	3.121326924707017e-11	0	0
0.1527009768984096	-9.195781963670665	11.9041021799962	8.778444799109906	-7.494883501950883	0.8461467080229329	-0.1086099050555664	103.4094611873936	22.30456108377604	-40.02499446846549	6.346645053512731	3.259064697824491e-11	-0.5204803926511624	3.740866852791336	-43.07537979240017	0	14.16523813063419	14.59847887214173	52.15844068087769	56.54330758396681	3.101038134276784e-11	56.54329159936469	-2.573093651856282	-53.65526326793876	-0.01406111436328414	-11.93516104082783	-7.962049232722832	-16.41410168013062	-6.886235122598952	14.76049660489739	-4.619122031403968	-19.77463312624853	-3.038027750194705e-10	0	0	48.92588368171819	-37.48776499276392	8.131060558213033	12.67676955042021	-3.038027750194705e-10	0	0
0.1540589714577417	-7.793718088454172	11.21863322738937	7.567730261501576	-7.686019246239456	1.336008352042748	-0.1758813837605751	105.7263595819199	21.84225685086641	-40.9368186707733	7.473407182386497	1.034668484250838e-10	0.276738751157958	3.32894880001712	-44.34652184496687	0	10.69735753428023	14.21311180598349	48.83601857865582	51.66530255479746	6.988098939858607e-11	51.66526936364815	0.09574030536602773	-48.78849926752672	-0.01393276581600446	-14.66379489540983	-7.203948716775122	-15.89938651084804	-5.708211588733963	13.8401030946014	-3.200703533067373	-19.40717029981639	2.543514935057205e-09	0	0	49.93221771116972	-35.81827097604874	8.606256111637972	13.43311487664247	2.543514935057205e-09	0	0
0.1548208116596206	-6.991911454192557	10.82476530514208	6.885861888515564	-7.793123930933186	1.613435716426093	-0.2135783320590795	106.3676452912296	21.57709476995717	-41.4380139541021	9.524423969952275	-3.317652129175505e-10	0.6619002559991655	2.379185493698615	-45.01970839737599	0	8.724327274434842	13.98914496412946	46.95856303174646	48.90623349363661	-3.604284074651812e-10	48.9061948296311	1.59087042016815	-46.05513603967179	-0.01384083262518017	-16.21230550559584	-6.768411930084879	-15.60631482976514	-5.037932186580694	13.31770396223984	-2.396629537562086	-19.19900344054686	-3.187874153944259e-09	0	0	50.48768699623167	-34.87585908551095	8.881445531494844	13.86697894139279	-3.187874153944259e-09	0	0
0.155	-6.801789379959882	10.7311893235844	6.725257894099266	-7.818299283994778	1.678948999816217	-0.2224364144276528	107.7808642489291	21.51413750412246	-41.55485118789765	11.01273096163209	-3.480637621222009e-10	0.7458407221009934	2.288018850304995	-45.17380232067989	0	8.257500010858625	13.9356785082145	46.5157085711591	48.25506875280961	-3.867326781368643e-10	48.2550294489836	1.942141123481224	-45.41212362598863	-0.0138157786337933	-16.57827996345083	-6.664947385345494	-15.53695399379535	-4.879334262029081	13.19424409810107	-2.206692384364049	-19.14982809776809	-4.334405692056027e-09	0	0	50.61735302215414	-34.65366680345461	8.947059433882497	13.97001938419185	-4.334405692056027e-09	0	0
0.1554542507337262	-6.317264810325302	10.49240928048832	6.317787312685013	-7.882088600813323	1.845461722298863	-0.2448741076509812	107.5951520426587	21.35354851404857	-41.84928743816322	8.578119953827283	-1.91399937214458e-10	0.9471134771449619	3.295950701773905	-45.55712350288418	0	7.069476987875097	13.79881709396943	45.39103834317154	46.60068261913856	-1.883406062056419e-10	46.60064285950742	2.83178738035888	-43.78207784155691	-0.0137460464587534	-17.5089437990663	-6.400957977138255	-15.36041072542309	-4.475706391101587	12.88030618602153	-1.723858621332154	-19.02479917992529	-4.708459778873486e-09	0	0	50.94435069687047	-34.08956673986484	9.114898433727797	14.23292314894391	-4.708459778873486e-09	0	0
0.156515784775164	-5.171149381212499	9.925960086129745	5.364088743831545	-8.030950422972364	2.236917468618044	-0.2971874525782096	108.7226504149802	20.97287414382075	-42.52777831687388	7.254845487309112	1.542776135702975e-10	1.352022994375029	5.054538232233933	-46.41156434627227	0	4.268414860496678	13.47177575858061	42.7525565046644	42.71512892177894	2.426260078655328e-10	42.71509373806434	4.904889548380424	-39.97434216591388	-0.01355392022625848	-19.69929513827796	-5.774869672591407	-14.94403043569617	-3.523955882970188	12.1416087056897	-0.5884893315437677	-18.7305413204444	3.134411758963289e-09	0	0	51.69870138564168	-32.76721983031422	9.515432792989511	14.85671593976561	3.134411758963289e-09	0	0
0.1581644464118399	-3.355157616124649	9.02422968803976	3.880695464622895	-8.26140673204614	2.850880999298127	-0.377996152235858	110.7958500003792	20.36740323880298	-43.55604599991783	6.938215248810984	-3.307549092504083e-11	1.794242275386051	6.816797244427302	-47.62169326543692	0	-0.1458811312157754	12.94475914399543	38.63139023337532	36.63175552495701	-1.00779963873662e-10	36.63173872009712	8.102126401451624	-34.07169210434719	-0.01320555584283841	-23.14024964717716	-4.778817783326902	-14.28753640710158	-2.023686807568183	10.98193740624893	1.192178720030717	-18.26761327599147	-8.454861090989241e-10	0	0	52.84185727536389	-30.70491249177734	10.16001409187923	15.85141753982065	-8.454861090989241e-10	0	0
0.1603741041940474	-0.8597679346350683	7.778055334615717	1.894015837421031	-8.56838088646421	3.683790278057776	-0.4851561146281137	113.3104570316988	19.53086316040605	-44.88888096235181	6.685900769168201	2.097034914081448e-11	2.015662209422309	8.713813141058214	-49.01405198986201	0	-6.170196547756856	12.20473917715422	33.07866223591076	28.40073775794853	5.035604630832795e-11	28.40075216089493	12.3261621901236	-26.2027126355333	-0.01274066847752558	-27.8153490709772	-3.403953954857218	-13.39127233758704	0.02477253706659924	9.408861823117729	3.605315186846804	-17.63545721716284	4.866813612249824e-10	0	0	54.31620496519044	-27.93287803851825	11.06526720977699	17.23329082601229	4.866813612249824e-10	0	0
0.1631098871668135	2.311318554409503	6.18498795134003	-0.5513204655561527	-8.944482655073227	4.727658996222548	-0.6152996896567644	115.8265119032673	18.46022367409421	-46.47374656213725	5.508567063410315	-1.095249069587806e-11	1.67222177597839	10.51132385392459	-50.36155670781432	0	-13.76863775649527	11.24107844980754	26.1889124496961	18.12037706691777	-1.139464189695187e-11	18.12041359480308	17.4211106496149	-16.5692767296742	-0.01229419117791464	-33.67876745392031	-1.649997390039498	-12.26051678833439	2.61075659829755	7.441836827730511	6.620881008587684	-16.8331757863305	-2.305026266195272e-10	0	0	56.04253745935619	-24.50602815217545	12.24769032981394	19.01964625603017	-2.305026266195272e-10	0	0
0.1663286436775879	6.127832192242158	4.257002012179743	-3.386962207621545	-9.380050738247231	5.967232832031918	-0.7633509370021454	118.1356361690302	17.1602111436516	-48.25644741206979	2.842545373128675	5.777090497721708e-12	0.3523897596461935	12.21453453960827	-51.39652827032798	0	-22.84734224643649	10.05096687367258	18.11447702608595	5.959844303862734	3.58418952877642e-12	5.959842267971773	23.16023271129295	-5.458380000853563	-0.01191698065135941	-40.6370054795856	0.4658814918461478	-10.90870992778619	5.705100663908953	5.118611945588838	10.18218076480544	-15.8592756802029	5.20249987619173e-11	0	0	57.92094018253358	-20.5130923338983	13.71791881558911	21.22424686726626	5.20249987619173e-11	0	0
0.1699796094921079	10.52038303215653	2.027392586317663	-6.517553691276269	-9.862657574526922	7.377933349498599	-0.9227552136133159	119.7965128255021	15.64765331207866	-50.18575878404338	-1.444006617105193	-4.604703453364279e-12	-2.39129311540471	13.50959850388736	-51.83026104534371	0	-33.23115139308128	8.644469434614093	9.073636992147691	-7.822010291087968	-1.111418838643009e-11	-7.822068969884162	29.24190915845389	6.75619290565172	-0.01145061597323402	-48.53263722541102	2.901376260232238	-9.359771812300737	9.252667401730168	2.500141635587047	14.19792275756144	-14.7117605389684	9.058460309262951e-11	0	0	59.83389226113837	-16.08275631790284	15.47464841040241	23.85223732372607	9.058460309262951e-11	0	0
0.17400520557877	15.37052173672902	-0.4442729533027154	-9.821206890107687	-10.37694016512477	8.924207003382502	-1.08583344654998	120.4423576319111	13.95493978546502	-52.21564651632484	-7.779738412064687	-2.436819159411003e-13	-6.993651660823337	14.47267503505111	-51.3804863850737	0	-44.64590337873317	7.048376324201385	-0.6518290316188063	-22.86566622213559	5.302142066448887e-12	-22.8656167189878	35.29857105298375	19.62802953631979	-0.01054589377849289	-57.13280182272837	5.583981405773049	-7.648753080941816	13.16666687979479	-0.3273541268338654	18.53742286605582	-13.3884318224487	-2.400205614115156e-10	0	0	61.65240879955086	-11.38459907888032	17.49856624463676	26.89465727110172	-2.400205614115156e-10	0	0
0.1783419453248002	20.50725791961656	-3.071018041893626	-13.15535157241156	-10.90548757552855	10.55790040597227	-1.243444323109554	119.8264811538971	12.13104171922169	-54.30482503833466	-16.16878162634316	9.603160278763716e-12	-13.81677694368239	14.88384061285864	-49.80398198297523	0	-56.71433924594285	5.307609525752791	-10.73116327834428	-38.71457029057694	8.030702797865049e-12	-38.7145903874693	40.92098618394826	32.66714468830663	-0.01011338135469004	-66.12775472499636	8.410780978882006	-5.820129439278294	17.32704813880151	-3.25487237545161	23.03183420919837	-11.88754226856552	3.185991326876517e-10	0	0	63.2456780102406	-6.622376183430319	19.74801260399358	30.32322590866191	3.185991326876517e-10	0	0
0.1829214354539589	25.71187838993614	-5.742003614879635	-16.36779283080666	-11.43010486247225	12.22120639229668	-1.386539087802319	117.7632696644439	10.23908316720862	-56.41461155357672	-26.94932791334556	-1.43622137770419e-11	-23.08656604024203	14.32304818348011	-46.93043756285691	0	-68.9689996261735	3.484313059430064	-20.80946994023101	-54.83663713151512	-9.799463699728291e-12	-54.83664730627738	45.69633858886504	45.37978259103825	-0.009321412114526084	-75.14235904276001	11.25393039972493	-3.923846278048411	21.58423268653357	-6.157964260924082	27.48237335230434	-10.21006537066464	-3.387823314378356e-10	0	0	64.49339208381798	-2.018778953264472	22.15743161809816	34.08718909461284	-3.387823314378356e-10	0	0
0.1876714545037473	30.73309144216471	-8.331034942095208	-19.31211537571486	-11.93135991117208	13.84942983812864	-1.507271656079193	114.08957124742	8.350964890709841	-58.50598725543796	-39.63643645203803	1.243631699143637e-11	-34.83885852704188	13.55476239375177	-42.6917489635436	0	-80.88515339297072	1.653412521503389	-30.53886796026408	-70.66257009208293	1.116658230587762e-12	-70.662516394931	49.25502421451107	57.31175882288467	-0.00850419007538023	-83.76194720158642	13.97180436471473	-2.009947708880421	25.76883206592429	-8.908394893147332	31.6765950686622	-8.362360922107209	2.427283923612122e-10	0	0	65.29929818870261	2.206335493336898	24.63983415351786	38.11196931938802	2.427283923612122e-10	0	0
0.1925170917444269	35.31091914053513	-10.7091882357444	-21.86429090353382	-12.39149215265919	15.37637024627185	-1.598682683395324	108.7038870748039	6.539058415223043	-60.53753131976048	-54.31449378266375	-1.043290479174975e-11	-48.88758516420856	12.2392901622424	-37.14009355491993	0	-91.92993869517184	-0.103874363789354	-39.60957210274818	-85.6365744381294	6.94565274496076e-12	-85.63662020153853	51.31783093817755	68.087125715369	-0.007916147198242244	-91.57068929967937	16.42434589655602	-0.1232605581929159	29.70678280942214	-11.38825472769222	35.41024709422713	-6.359618405844958	-1.504197613017953e-10	0	0	65.6036992404524	5.861527793951251	27.09320147275745	42.30093722819892	-1.504197613017953e-10	0	0
0.1973819285398158	39.20678606513669	-12.75975441449548	-23.93689112930282	-12.79515033445607	16.74190052217935	-1.657357897378196	101.7158625394212	4.867499807454077	-62.46585223769968	-70.41858479044927	1.19556805574104e-11	-64.82473111217186	10.51694755996196	-30.44943077754745	0	-101.6210423322131	-1.708831232469535	-47.77536796652375	-99.27012130153801	-3.884114877780697e-12	-99.27011503686114	51.73421269141913	77.43598523174927	-0.007043496780983163	-98.19724340067127	18.49000176618801	1.700237827568932	33.23760757341894	-13.50361337240187	38.5113251201694	-4.228969209747416	3.129870296134967e-10	0	0	65.39162133737653	8.807455183043242	29.41034894101749	46.54088582975727	3.129870296134967e-10	0	0
0.2021892435043931	42.23399655935832	-14.39280250389858	-25.48780179166288	-13.13027026106965	17.89821512117446	-1.682130677122287	93.28911721335926	3.384942761152115	-64.24837301229661	-87.93330986986592	-1.160341515275548e-11	-82.05618175753271	8.551961168511344	-22.8984327414284	0	-109.5834781058603	-3.094293156579519	-54.8692833905021	-111.1884259289264	-1.473304500325329e-12	-111.1884174953071	50.50347657530745	85.20820754119741	-0.006296321982548005	-103.3596848513482	20.08099492928009	3.434395267178695	36.23283094078583	-15.19479875182376	40.86155354802379	-2.01067116296172	-4.013816997449331e-10	0	0	64.69478334432462	10.97325775264089	31.49082736832548	50.71016662810686	-4.013816997449331e-10	0	0
0.2068632224455918	44.28272729390552	-15.5564879543744	-26.52158997230092	-13.38996373897956	18.81489539021122	-1.674562025510453	83.91860894893094	2.120084077977651	-65.84783486160913	-105.8051769675689	9.890320610498677e-12	-99.86790757206612	6.032652674159149	-14.83721659045721	0	-115.5934422789489	-4.212778840648451	-60.80871901811346	-121.161437329964	2.814594901707836e-12	-121.1614623845648	47.77405186761372	91.37265275440079	-0.005572669877259103	-106.9009410273811	21.15394034044185	5.061393252346829	38.61061778630736	-16.44126371275271	42.41051962886807	0.2427598569175847	3.127914471919192e-10	0	0	63.58620694229217	12.36236015989282	33.25310043783746	54.68906874319789	3.127914471919192e-10	0	0
0.2113301540101398	45.33431178445259	-16.2429277852973	-27.08387880229619	-13.57252599189319	19.48249749623561	-1.639446564261826	74.16708681268676	1.081244742135416	-67.23706199150374	-123.4353926143146	-1.339522373433083e-11	-117.5089512967464	3.59202379116247	-6.64452492766574	0	-119.6009887679131	-5.042247163171369	-65.59096129710106	-129.1144955697966	-9.574818609349266e-12	-129.1144643394277	43.82097886188976	96.00392713628747	-0.004897280357083521	-108.8075622852623	21.71383858761914	6.568764652428653	40.34383115732999	-17.26043809774769	43.17954438402563	2.470351204511243	-3.079275135678753e-10	0	0	62.16915183595265	13.04586235884392	34.64476063393792	58.37062362126179	-3.079275135678753e-10	0	0
0.2155195921846577	45.46178080185602	-16.48754298929092	-27.25074076474426	-13.68209120393982	19.91201634721849	-1.58229561111819	64.69883956400454	0.2591195725791901	-68.40218604716229	-139.3942104538013	1.495838525308067e-11	-134.2756187480859	0.9762005367428674	1.315543911633649	0	-121.7274454840663	-5.587579214820984	-69.28125757690694	-135.1190326028307	1.148492929748136e-11	-135.1190701353441	39.00699271687288	99.26020986378533	-0.004270145350914924	-109.2083396860711	21.81097745350215	7.946372659712921	41.46025529143791	-17.70141596895174	43.25515506918879	4.608351890390939	2.055405683876428e-10	0	0	60.56286536349633	13.14614299321938	35.64874914646029	61.66981608243774	2.055405683876428e-10	0	0
0.2193654673351004	44.81777123387489	-16.36228518395602	-27.11593999861888	-13.72744406324819	20.13184383636691	-1.510669295943395	55.86143552513459	-0.3683029780060129	-69.34376497106635	-153.5146689148378	-6.719994499011857e-12	-149.5810858205191	-1.792698096869431	8.728773190243599	0	-122.2406636944644	-5.878513316793824	-71.99671047817918	-139.3671440368699	1.352222380196768e-12	-139.3671025562504	33.73604252248561	101.3564918710821	-0.003520629167688776	-108.353874777234	21.5318143969612	9.184463143874645	42.03501649278819	-17.83535950455774	42.77438373647541	6.596124623640166	-9.448131505083204e-11	0	0	58.88787784804003	12.81499808259307	36.28430051928897	64.52992260048735	-9.448131505083204e-11	0	0
0.2228071283122631	43.61197464964987	-15.96439021848603	-26.77872750323895	-13.72152444515437	20.18436187794128	-1.431779229809187	47.91025902858362	-0.8302187890675478	-70.07540958622788	-164.9002366979848	5.052844645945655e-13	-162.9975839589251	-4.493070859993896	15.35220659153482	0	-121.5134162416342	-5.963495194686718	-73.88807735790293	-142.1360350474181	-8.00390459030756e-12	-142.136020024627	28.40865994580409	102.5373757749853	-0.003165983873609382	-106.5816931222377	20.98595584544509	10.27311203045185	42.17758936075386	-17.74486990181146	41.90493512960156	8.381490976636314	-1.244786004666e-11	0	0	57.25483299933924	12.21100435503157	36.60202859342878	66.92441062282762	-1.244786004666e-11	0	0
0.2257902993364854	42.08453514223548	-15.40334108972278	-26.33401406542274	-13.68009834350673	20.11872551903915	-1.352865581020719	41.0091372989922	-1.158063004573541	-70.62053834472761	-174.7262440599996	-7.07830629944144e-12	-174.2676178773019	-7.184158483032826	21.02042431347984	0	-119.9745728279703	-5.902064204246868	-75.12222081735283	-143.7490512823666	1.715544766937404e-11	-143.7490898762932	23.38696293875547	103.0524278950831	-0.002802722015220557	-104.2748356282484	20.29217890621934	11.20267869698233	42.01634372267957	-17.51416386604675	40.82535811030844	9.923641811532798	4.564834874332592e-10	0	0	55.75689431298586	11.4813113040608	36.67525946933485	68.85469838728878	4.564834874332592e-10	0	0
0.2282679370955254	40.47817822181574	-14.7879409468366	-25.86556814993166	-13.61967884778162	19.98573671778899	-1.280418701924046	35.47131904068824	-1.381695931874561	-71.00816873416424	-181.8334770025723	3.929062372235763e-12	-183.2860222406087	-9.948690930810955	25.63825768389653	0	-118.0596300564992	-5.756291922360742	-75.86570695691769	-144.5376958437387	-5.295202713647329e-11	-144.5377354796562	18.9723398361639	103.1360502561549	-0.002270964265120234	-101.8192143438892	19.56540435450234	11.96476605507917	41.68274998959716	-17.22114685868168	39.70674377411564	11.19402322492542	-1.211427813848727e-09	0	0	54.46688318375703	10.74935330554203	36.58844742157905	70.34386063860806	-1.211427813848727e-09	0	0
0.2302009768984097	39.01537359152258	-14.21629884921415	-25.44228485226157	-13.55586081843235	19.83300130585226	-1.219823243161032	31.05100847283975	-1.526999315449304	-71.26858505750988	-187.8391110145634	3.297853538491452e-11	-190.0612907420289	-11.79232525626823	29.16526278594141	0	-116.1696323878502	-5.583876813843501	-76.27102386941385	-144.8097904685601	6.096684928933966e-11	-144.8097944901204	15.39741910080852	102.9926282535703	-0.001872273556400693	-99.56829581981472	18.90716479831539	12.55278060480805	41.29837491659153	-16.93226576817893	38.69948776083248	12.17502193940623	1.713339319549087e-09	0	0	53.43781966157715	10.11008158629836	36.42595591649411	71.4279720199105	1.713339319549087e-09	0	0
0.2315589714577417	37.87950283742652	-13.76795678096224	-25.11653572128856	-13.50218984970448	19.70025597224934	-1.175233287592425	28.07180366768212	-1.614407923902258	-71.42913296265394	-190.7279228257422	-8.21702157795579e-11	-194.6658765407858	-13.13580743418059	31.59560897786763	0	-114.6369048741659	-5.432510155833095	-76.4652907108802	-144.8228960157178	-7.67522579172917e-11	-144.8228584181882	12.82707037394249	102.7858938499384	-0.00165332274338965	-97.81378090632067	18.39854733644054	12.96227747904589	40.96411945123641	-16.69926683556168	37.92370021543569	12.85740582080356	-4.087115780418169e-10	0	0	52.70559616043794	9.629886396398225	36.26154302798977	72.14646401521166	-4.087115780418169e-10	0	0
0.2323208116596206	37.20380273746103	-13.49996257997153	-24.92402645259157	-13.46888689134198	19.61667300925549	-1.149518845445749	26.6393263830046	-1.658310642059655	-71.51102815317572	-189.2217574940855	-4.284334798451569e-11	-197.1885059900218	-13.15200000567753	32.94009450488063	0	-113.7039755359153	-5.336887943383221	-76.54189804672212	-144.7665522933697	1.125497576999229e-10	-144.7664925753453	11.36635858847372	102.6325130758175	-0.00154871734993131	-96.7678440210868	18.09703360270227	13.19063729356322	40.75371227164004	-16.55812562091308	37.46456345565577	13.23740142717245	-1.692724737538562e-09	0	0	52.29207345794886	9.350510039752226	36.15110695885361	72.53339084354167	-1.692724737538562e-09	0	0
0.2325	37.04089691028819	-13.43523476744776	-24.87775731470439	-13.46072088553003	19.59606729607331	-1.143399491324002	26.39249278960552	-1.66811064716273	-71.52943229124298	-185.0097480528359	4.925281418525507e-12	-197.7752522001959	-13.62027909981003	33.25423932215188	0	-113.4769788919311	-5.313293210966585	-76.55655489635041	-144.7466882326049	9.381343679403747e-11	-144.7466238745698	11.02098748710015	102.5925850042931	-0.001525235736903298	-96.51545574027008	18.02445806109062	13.24420123753207	40.70185317478539	-16.52386556455715	37.35411831007655	13.32646121768698	-2.452551585986254e-09	0	0	52.19456068618367	9.283831173747082	36.12322999540697	72.6226781298536	-2.452551585986254e-09	0	0
0.2329542507337262	36.62117541643394	-13.26828233271399	-24.75880423089703	-13.43945219654809	19.54222026642011	-1.127767081753735	25.30570246508383	-1.692066933085793	-71.57461917203281	-192.9699656978464	7.088162500002591e-11	-199.2511620390761	-14.81808270388226	34.04694313710868	0	-112.8886830692808	-5.251610033471932	-76.58799436339304	-144.6850907640974	-4.237463259421704e-12	-144.6850166560571	10.14253473019413	102.4848477401784	-0.001466944566952435	-95.86481434134382	17.83767889464595	13.37973216254739	40.56636376710213	-16.43522796596757	37.06999249154158	13.55166781651772	-1.470157743173714e-09	0	0	51.94697239346621	9.113223644333072	36.04931332002637	72.8460557759574	-1.470157743173714e-09	0	0
0.234015784775164	35.60292164301055	-12.86231829689459	-24.4717530868303	-13.38657826930471	19.40742317917537	-1.090580505413999	23.03907892209394	-1.74315842623932	-71.67197302845449	-198.1980040811098	3.536858062219347e-11	-202.6339872638175	-17.48108477189501	35.87818948870817	0	-111.4425535952984	-5.09712510653493	-76.62963667540316	-144.4785882165653	1.112100827597807e-11	-144.4785029834802	8.074429219105944	102.1970042855205	-0.001333884430709084	-94.28427537095038	17.38579414252703	13.69498424156978	40.22739511421618	-16.21828818921308	36.38318410925519	14.07464507410488	9.053518404785413e-10	0	0	51.36645078419356	8.706260865437246	35.85843439726134	73.35123197509597	9.053518404785413e-10	0	0
0.2356644464118399	33.91900550746666	-12.18883648023796	-24.00182192781165	-13.29567198038552	19.17335608530374	-1.031072819487505	19.81101179612297	-1.809290943236122	-71.80011953110777	-203.276280192201	-2.191622681928432e-11	-207.6942484878622	-20.88276288983019	38.65948214744067	0	-109.0006888065088	-4.82898787852579	-76.60662198882682	-143.9855834863712	5.922859073789601e-12	-143.9855361892434	4.825648071390987	101.6517290154788	-0.001110086667847059	-91.66485849536132	16.64233884739842	14.18036076425962	39.63960855593832	-15.85508327627004	35.25466807731731	14.87688566075076	9.544881707676755e-10	0	0	50.46080288801961	8.053973309418176	35.51153073536013	74.08784566283445	9.544881707676755e-10	0	0
0.2378741041940474	31.47210624341698	-11.20759222421135	-23.32912501448379	-13.15707460701389	18.81329633234813	-0.948178965201508	15.26033733537653	-1.873784153157589	-71.92746010377516	-209.5908149930149	2.100680884287344e-11	-214.0799118414001	-24.84837137292739	42.25692643926082	0	-105.3627888409017	-4.417788929495254	-76.41062466976406	-143.0012047526137	-6.980664681338135e-12	-143.0012764660308	0.4179357877792816	100.7393050998876	-0.0007612818975829278	-87.84798779264156	15.5703660671787	14.82216916283045	38.73749928452586	-15.3211428725138	33.62946388200401	15.93073559866103	-9.157521257229107e-10	0	0	49.24285620628297	7.149375808427958	34.95086587971785	74.98017328441021	-9.157521257229107e-10	0	0
0.2406098871668135	28.15433852364912	-9.875986286750452	-22.434923768636	-12.95883751793678	18.29605340635894	-0.8410179072025474	9.387700209048857	-1.917615975160593	-72.01385489998837	-217.3978924445598	-3.725809473975083e-11	-221.3008478663497	-28.95433087777731	46.48325500540999	0	-100.2998644925441	-3.83126610119287	-75.9105905370611	-141.2807952028591	-3.479806918044427e-12	-141.2809066078747	-5.087874459077888	99.33391246978438	-0.0003147105269331993	-82.65582530497598	14.13220906407329	15.601385464562	37.44566328791923	-14.59184279928789	31.45047589808456	17.19676058584647	5.151093697055461e-11	0	0	47.73564846858217	5.999046467648844	34.10677296651532	75.92730726950778	5.151093697055461e-11	0	0
0.2438286436775879	23.86863459107144	-8.159268580737651	-21.30750739657747	-12.68807781229814	17.59025631790276	-0.7092978882918513	2.505325866853751	-1.922101605055611	-72.0131806802661	-226.1260649498695	3.585495376172151e-11	-228.7331315422248	-33.27077134454328	51.09925349385585	0	-93.59195977085145	-3.04109734104542	-74.96634832593179	-138.5687827122692	2.702083785737872e-12	-138.568677525116	-11.57101223715664	97.31171360425927	0.0001728562604573161	-75.92432157576584	12.29966322352176	16.49333699166451	35.69050844617231	-13.64898278532016	28.67277170061335	18.6233343416904	2.772731255575675e-10	0	0	45.97515196334396	4.633751674633448	32.90637870132309	76.80685717912897	2.772731255575675e-10	0	0
0.2474796094921079	18.55398580323066	-6.042146366153353	-19.94739777426403	-12.33304703626644	16.66917480359396	-0.5536301796597802	-4.411745592957898	-1.871424899352784	-71.87647869488619	-233.2759800435501	-3.087661605103887e-11	-235.6418672258642	-38.22910530673148	55.82307207937867	0	-85.07237069365529	-2.031028567567068	-73.44385526640777	-134.6317475853899	-1.193889541743917e-11	-134.6317318154827	-18.83418660750908	94.56920640158094	0.0007222671880820426	-67.54217487228894	10.06504690141466	17.46737849712802	33.41378818431018	-12.48735280650148	25.27899659524149	20.14766765804866	-2.151170459937382e-10	0	0	44.01071390062478	3.116902682552857	31.28514387884266	77.48165454772862	-2.151170459937382e-10	0	0
0.25150520557877	12.20915422409782	-3.539046942313386	-18.37063034882205	-11.88366438915249	15.51617348001238	-0.3761598806861289	-11.20055190929406	-1.754443218606864	-71.55435345115632	-238.4288741917266	1.529701861375465e-11	-241.2212488222082	-43.2132382888994	60.34645432898235	0	-74.66932558798894	-0.8043430437498773	-71.22932126975441	-129.2892401459828	9.719158252356352e-12	-129.2893052462034	-26.59670976071108	91.03801476357957	0.001354331134989738	-57.48709979455209	7.450247459387016	18.48713127572214	30.58506977143976	-11.11972920129569	21.29217845683474	21.69883794502532	1.476451464405193e-10	0	0	41.90246146450533	1.547638477702342	29.19891809022321	77.80838883908437	1.476451464405193e-10	0	0
0.2558419453248002	4.912349599227042	-0.7012840877547212	-16.609768192945	-11.33431533655718	14.12926637778436	-0.1804186377191075	-17.35586465314746	-1.565655109501851	-71.00051031031263	-240.4763843370894	-8.845955156063935e-14	-244.6655346059685	-46.87599149283484	64.36052170767783	0	-62.44245683835062	0.6106955556764263	-68.24389132218081	-122.4435692358443	6.273698068223302e-13	-122.4435000499094	-34.50342671097865	86.69680288146279	0.002013036874646265	-45.85708229598077	4.512335266699878	19.51168633575825	27.21233609198832	-9.579321382095209	16.78439798136292	23.20311104416579	-1.307636057491068e-10	0	0	39.71610586977177	0.05580367292552797	26.63569433048036	77.65092599345351	-1.307636057491068e-10	0	0
0.2604214354539589	-3.169338687507386	2.381300405784069	-14.7118983820512	-10.68559360219568	12.52352160021926	0.0289639598850645	-22.44647131007867	-1.305095955199118	-70.17319459272687	-240.0142582695817	-2.636623800300146e-12	-245.2508765564073	-49.81737604579418	67.58447781963457	0	-48.60240985022944	2.159164205193735	-64.45420542266835	-114.0986778860143	-4.150721003249726e-12	-114.098779454016	-42.14877032818416	81.57565036649223	0.002705510074572756	-32.8860890120966	1.343326693547526	20.49797518038636	23.34710658180597	-7.918764357133183	11.87809162870703	24.59093733567247	1.318922851204559e-10	0	0	37.51507437342012	-1.210845795666823	23.62310937693365	76.89413705655284	1.318922851204559e-10	0	0
0.2651714545037473	-11.78462199598441	5.585506515934378	-12.73394429012023	-9.943094129263484	10.73129410512032	0.2461671654072983	-26.3448821414246	-0.9774338703288166	-69.0341108072158	-236.1337196107553	-5.579499355060475e-13	-242.4124068792442	-51.3125856146074	69.79166799168476	0	-33.50728577861967	3.762710345203353	-59.87683050980155	-104.3640114624895	-8.532187350596319e-13	-104.3638972678187	-49.11299601800337	75.75207638150859	0.003540973103568245	-18.93782678353035	-1.936707807047887	21.4041067686958	19.08253155900427	-6.205629281519695	6.73869715957458	25.80438538497188	-2.070912298457049e-10	0	0	35.3516122449372	-2.105113533573163	20.22923136477905	75.4553821518725	-2.070912298457049e-10	0	0
0.2700170917444269	-20.61404644080108	8.767372333655763	-10.73871547635266	-9.121788096075477	8.802783763255256	0.4649834058418433	-29.04775706457344	-0.5916317373833025	-67.55944612575705	-229.5849239795471	1.028062091026695e-11	-235.8710999013918	-51.62856702374721	70.8440503573469	0	-17.65058209521185	5.329549179764539	-54.59253815716112	-93.46980085969761	7.351441315286247e-12	-93.46988182779056	-55.01998269182824	69.35675909071242	0.004238848927455974	-4.488400219816485	-5.191581511605552	22.19419350263	14.55075928362427	-4.515014966325483	1.561461886821274	26.80416232099192	3.265160934809498e-10	0	0	33.26450922630211	-2.508400040141957	16.56135540892702	73.30664971988391	3.265160934809498e-10	0	0
0.2748819285398158	-29.30996532180512	11.77809589903417	-8.783811417118054	-8.238541446072	6.795275420073983	0.6789143827427822	-30.75805546033003	-0.1588099461493211	-65.71577889336287	-219.2965699568509	-1.848378845036624e-11	-225.5516262774998	-50.93210725936203	70.67509147419494	0	-1.581013573416304	6.763599231584729	-48.7112729988724	-81.69604467594093	-7.409921113668924e-12	-81.69598907819835	-59.55467985349267	62.53026680280751	0.005052148626862776	9.944436401455574	-8.287019464721761	22.84011460228069	9.897181435674625	-2.921062325702672	-3.453044907126515	27.57071155281776	-3.474272972011283e-10	0	0	31.26555088306256	-2.335189587433111	12.74270623194498	70.45262987289991	-3.474272972011283e-10	0	0
0.2796892435043931	-37.51590665207796	14.4860589993984	-6.929051299998402	-7.323422933656383	4.783573178830008	0.8822148124445852	-31.30193346150372	0.3038993607671628	-63.53025874370435	-206.3131747981398	1.668312273496299e-11	-211.9290311735228	-48.97625988995546	69.37099508432543	0	14.0698987457532	7.987202008474932	-42.44528237988435	-69.48212318152753	1.252323238782673e-11	-69.48218722756968	-62.57491896161832	55.49679860370765	0.005602324423112958	23.7958237674455	-11.10269894404723	23.32926849156134	5.298456416436408	-1.487769562079335	-8.110780643080558	28.10918145606555	2.569014363009141e-10	0	0	29.36949703474252	-1.587369925319233	8.927625225907256	67.00493906664666	2.569014363009141e-10	0	0
0.2843632224455918	-44.95521853795785	16.78613899881967	-5.202350748421648	-6.390849449930814	2.814072074243857	1.071357913090535	-30.69590134007357	0.7829531161865982	-60.93903411919646	-189.1371857748165	-1.419776547397649e-11	-195.2068333652235	-46.33743087155814	66.97523129749017	0	28.85917849621941	8.931971032587375	-35.9019925580924	-57.06827026517381	-1.877893436529236e-11	-57.06820354632406	-63.95428093478435	48.34882952139148	0.006616127140374389	36.66436029773493	-13.55620530735083	23.65321484425429	0.8657767509177455	-0.2636476310348496	-12.26995811259965	28.43374849551775	-9.993781674140711e-11	0	0	27.53310454170844	-0.2591201623120881	5.212832077474618	63.00194574627607	-9.993781674140711e-11	0	0
0.2888301540101398	-51.35122200169964	18.62814007908305	-3.668551523031086	-5.497685281560919	0.9917951855562035	1.239437688772777	-28.70714817952077	1.247227667866182	-58.16091396305836	-169.9830845013527	1.249552372201706e-11	-177.0989121659374	-43.42655093154402	63.90694097883284	0	42.10397943298594	9.595476902692553	-29.51973820109597	-45.21889296389811	1.453352794167636e-11	-45.21892250229081	-63.99606733450284	41.51037006161292	0.007127285994844757	48.00815755630018	-15.58586507516913	23.83558659338592	-3.179830662104201	0.7259862208822976	-15.79754808650642	28.58958050892126	-3.109086864784391e-11	0	0	25.82033325067544	1.439671167129662	1.795496045806888	58.80392338766757	-3.109086864784391e-11	0	0
0.2930195921846577	-56.69879924483833	19.9821435077606	-2.271805890764829	-4.607452240737235	-0.7333400743057761	1.39232548631672	-25.59375363330682	1.699182736468492	-54.88547466963102	-148.1977624362527	-1.244040618064934e-11	-156.6333639050168	-39.99329687871943	59.96557906791787	0	53.99731278702991	9.93297067503107	-23.04192572666801	-33.50480977938395	-1.132459357476386e-11	-33.50483067799634	-62.49182040651035	34.66901049011604	0.007796509433835643	57.96204004199649	-17.20679091135829	23.86606681015336	-6.938191735014485	1.472314909613641	-18.70638637246074	28.58655223761378	-7.02856677281176e-11	0	0	24.06278456071242	3.612598348082217	-1.415863119656173	54.17291685355612	-7.02856677281176e-11	0	0
0.2968654673351004	-60.77465942553987	20.91041057720427	-1.146407231411266	-3.850976562511276	-2.157918488042855	1.515421325172975	-21.83219113199801	2.081030115736313	-51.87936263469953	-128.0397767748503	1.64300636398172e-11	-138.1292856206157	-36.40115192960008	56.21325594190569	0	63.50808841998705	10.06892743367517	-17.48099570726103	-23.59375467867267	2.117482542863156e-11	-23.59371723406602	-60.49890112021902	28.84470535051501	0.008444032325753661	65.80104676552095	-18.39820628875058	23.82324411658698	-10.00651247221226	1.996512918831216	-20.89983869323741	28.51275595030815	3.996527471051322e-10	0	0	22.54948551858078	5.685883647398612	-4.055109700363828	50.03460598549842	3.996527471051322e-10	0	0
0.3003071283122631	-63.83895037171341	21.44923645525381	-0.1729010672717385	-3.147370661280504	-3.418543529061758	1.621434318955204	-18.16765409013794	2.416464326466496	-48.66910183738735	-108.651299935947	-1.381227445341456e-11	-119.4758473100512	-32.888229621692	52.19920323768447	0	71.42427229287138	9.978109912071227	-12.25024122925669	-14.4599895928218	-3.331107801993482e-11	-14.45999082405621	-57.68829089811121	23.3878478304799	0.008909058847208133	72.15432082220248	-19.25012788856604	23.69035361899091	-12.67196961383321	2.323633950735679	-22.52953001311637	28.36066843731809	-7.023400301741318e-10	0	0	21.04432105397429	7.885003188205432	-6.376796243522401	45.90026111415453	-7.023400301741318e-10	0	0
0.3032902993364854	-66.22852658297488	21.65383996513622	0.7797439466355975	-2.40597897411298	-4.67201910290936	1.724457867760169	-14.50466799490611	2.73739870277029	-44.7705872946858	-91.78625215338293	2.808596156427462e-12	-98.30329402543798	-28.17409518992642	47.41457997668843	0	78.68803889710635	9.641867044422494	-6.688192406027344	-4.944118135109234	3.198350833630457e-11	-4.944129118457252	-53.70245860337941	17.58179805297658	0.009500662125999438	77.77843910989898	-19.86920885096734	23.44927245956152	-15.26590255763608	2.488394127120078	-23.78425285703941	28.11641217837103	6.547423176412211e-10	0	0	19.31170460416817	10.46974112672802	-8.672381255757255	41.22914855268153	6.547423176412211e-10	0	0
0.3057679370955254	-67.47598535406948	21.71345929854999	1.319761848163525	-1.976597930262767	-5.385801898731698	1.782730209930641	-12.14747999194192	2.917837773299554	-42.42827188861908	-78.23706452559829	1.348494588767625e-11	-85.79666637711736	-26.03053412817209	44.5540914614256	0	82.71961952419267	9.40816555537617	-3.458957087340853	0.5492750806472018	1.177445535992241e-11	0.5492620564282048	-51.22873729818068	14.20988135699029	0.009857636595360954	80.86182551528516	-20.18272082150748	23.29332160556459	-16.73333591919983	2.554641371185637	-24.43590462797999	27.9614970135164	-2.470262333979796e-10	0	0	18.28386456507245	12.00951977416887	-9.977413633544865	38.47289973500145	-2.470262333979796e-10	0	0
0.3077009768984096	-67.84000840513961	21.72938782600248	1.478701883586574	-1.849967355250532	-5.59595981406331	1.799877317945837	-10.93300933377615	2.970884185940718	-41.73504827443125	-72.12360057623427	3.697919439223737e-11	-82.10153318487521	-25.68694002861355	43.70801197119232	0	83.90361335475362	9.338153779878359	-2.506409217036183	2.168833931222673	-7.062683433948921e-11	2.168821289626675	-50.4946136684772	13.21518254675283	0.00996487590689725	81.76624563258324	-20.27392409298759	23.24687305304236	-17.16511702066598	2.573357709125916	-24.62597275176863	27.91544063601058	6.305076855546675e-10	0	0	17.98001035984796	12.46477778065823	-10.36159494965389	37.65861479792167	6.305076855546675e-10	0	0
0.3090589714577417	-67.90716982121991	21.73217915601807	1.508151199148525	-1.826476182715788	-5.634913693707395	1.803054114282019	-10.96488538008277	2.980714200172722	-41.60623456878093	-66.4187515195765	-1.649690804900764e-10	-81.41533716739937	-25.68968988684363	43.55079804201378	0	84.12278429765806	9.325056275207908	-2.329673709991102	2.469234494310121	5.839710178216327e-11	2.469221675160266	-50.35795079659275	13.03063396086034	0.009984352590452224	81.93355022857874	-20.29071529227556	23.23821036029375	-17.24512164553651	2.576749108060641	-24.66102539544843	27.90685688084583	-2.224217369050776e-09	0	0	17.92358813387067	12.54936556454283	-10.43279740809576	37.50741467272257	-2.224217369050776e-09	0	0
0.3098208116596206	-67.91123860269195	21.73240048502576	1.509890442705184	-1.825098675120834	-5.637209443821627	1.803241849358124	-10.95552451786736	2.981294636626673	-41.59875773705906	-66.19761122286417	-2.063900600421913e-10	-81.37534849445557	-26.49271335125704	43.54166951275553	0	84.13580337063961	9.3243268104056	-2.319319789611733	2.486865334967025	7.552614903851429e-11	2.486852578310385	-50.35010370589013	13.01982028429775	0.009985613734472423	81.94352846557106	-20.2917448222594	23.2377185717122	-17.24984662436789	2.576976431567477	-24.66315385327024	27.90636741356682	-1.02437837501575e-09	0	0	17.92029954414544	12.55427969329562	-10.4369963019503	37.49859857269603	-1.02437837501575e-09	0	0
0.31	-67.91124324933772	21.73240251228141	1.509890904022026	-1.82509865300716	-5.637209885077317	1.803241903217133	-10.95477532933283	2.981294787125734	-41.59876031225387	-66.20656168754263	-2.068787892877272e-10	-81.37535660581733	-26.51376265039467	43.54167253874809	0	84.13580944438789	9.324328152353289	-2.319319964794747	2.48686616405965	7.556488266898592e-11	2.486853409929988	-50.35010943163597	13.01982039667767	0.009985617892414738	81.94353450999729	-20.29174641486697	23.23771913198168	-17.24984787841703	2.576977434108919	-24.66315644991706	27.90636789287478	-9.84004876300915e-10	0	0	17.92030019381479	12.55427815698185	-10.43699719881177	37.49860019264513	-9.84004876300915e-10	0	0
