DataType=double
version=3
OpenSimVersion=4.5
endheader
time	pelvis_tilt_moment	pelvis_list_moment	pelvis_rotation_moment	pelvis_tx_force	pelvis_ty_force	pelvis_tz_force	hip_flexion_r_moment	hip_adduction_r_moment	hip_rotation_r_moment	hip_flexion_l_moment	hip_adduction_l_moment	hip_rotation_l_moment	lumbar_extension_moment	lumbar_bending_moment	lumbar_rotation_moment	knee_angle_r_moment	knee_adduction_r_moment	knee_angle_r_beta_force	knee_angle_l_moment	knee_adduction_l_moment	knee_angle_l_beta_force	arm_flex_r_moment	arm_add_r_moment	arm_rot_r_moment	arm_flex_l_moment	arm_add_l_moment	arm_rot_l_moment	ankle_angle_r_moment	ankle_angle_l_moment	elbow_flex_r_moment	elbow_flex_l_moment	pro_sup_r_moment	pro_sup_l_moment	subtalar_angle_r_moment	subtalar_angle_l_moment	wrist_flex_r_moment	wrist_dev_r_moment	wrist_flex_l_moment	wrist_dev_l_moment	mtp_angle_r_moment	mtp_angle_l_moment
0	109.5932636791744	-79.94044477495936	-33.86814019671215	38.47441160489009	203.8181865893443	44.64941018978536	-12.57434501582868	-43.14023308257659	9.309038679989236	31.45718936231471	17.96098280976817	-11.14135425648793	83.14366081426601	10.59010878060666	-6.093135162054475	29.96761555319772	-17.51262747347479	-0.02198262393363818	1.448271620662013	13.02388709437812	0.01648696212127994	-5.331166625162261	2.959828802344321	0.9284427156387989	2.203555410460373	4.239510540802835	1.24527430639774	0.1315709334824241	3.542047998743466	-1.285800267307969	1.566774669718631	0.0393416328281703	0.0005191561691791913	-1.301384954521055	-0.4486935645442586	0.06860961776538417	0.1767638418836202	0.3687847963735005	-0.1489656813006875	0.00694554747198213	-0.1463586136170484
0.0004542507337261803	110.5805423969973	-78.06151014266732	-33.05293420527494	38.53149798633487	203.1763299831303	42.26315328388822	-11.62960773868146	-42.19027192640203	9.128127114210555	31.15249015276693	17.04103745976035	-10.78427846332809	83.18611974205555	10.67776488143179	-6.17418806536646	29.35596462078014	-17.07336715247055	-0.0215695267498243	1.399110531916732	12.55963509544466	0.01637025364829913	-5.332717148733934	2.952495375593805	0.9239690057256769	2.290533296056045	4.247742697383631	1.268710069012006	0.1582103247990565	3.55468727198882	-1.287528243074044	1.601302448153041	0.03918796056541696	0.001036434889231219	-1.276798122312429	-0.4776999549227894	0.06796666150065377	0.1767613813344456	0.3746169202879649	-0.1521615725512571	0.005066472878423919	-0.1461561072068265
0.001515784775164009	110.357739832047	-72.87028528252598	-31.17232904100145	37.63294296287305	203.2257754695071	35.90708045123965	-11.85269326397939	-39.57338467422368	8.858653645895853	30.43949691481709	14.87347245624324	-9.961160609369806	83.27924357934707	10.92960587939921	-6.361314503760831	29.54457810943091	-15.96271156536595	-0.02142579967399327	1.293241831913577	11.4707326977681	0.01607368674247815	-5.336446398016717	2.935274145842281	0.91350297050365	2.493309347584549	4.259051623216064	1.320925994402596	0.1424148454764637	3.58436398543774	-1.293591903097349	1.682382282460969	0.03886753598661175	0.002116739194651607	-1.206004966413414	-0.5458673028828119	0.06641364574345597	0.1769511984977484	0.3876700182339456	-0.1598054123285259	0.00421024607867107	-0.1456949385208521
0.003164446411839883	109.7186985785167	-64.51580588100708	-28.32374308247684	34.80310235710689	201.2861698072377	26.61750942384685	-12.62900021550323	-35.63318639954325	8.496914540708094	29.30811424578274	11.50822753342887	-8.728411746621155	83.37859118881946	11.61020061130534	-6.627169524013331	29.91502234626433	-14.31959859870525	-0.02083915040171164	1.212976195994977	9.78642847805947	0.01553518745227093	-5.342304653449296	2.907640048570353	0.8973803551569892	2.792171447106719	4.226183154907874	1.384159504786217	0.1245541577312859	3.630022763941734	-1.315982802814143	1.807678820182738	0.03863546540315943	0.002951149783279816	-1.099097485733078	-0.6529080431703446	0.06371568509836437	0.1785146360014606	0.4037972192573027	-0.1724930911569719	0.001902670942844902	-0.144951989112509
0.005374104194047435	108.5300662289247	-52.3536503700151	-24.52946381628669	28.02121548248778	191.0172403118905	16.40392384129369	-14.54586355731557	-30.53588488613979	8.194000411947455	27.66628641219762	7.159259534473388	-7.20097507212421	83.34281755917364	13.53713592562738	-6.880272497573138	30.69581073359598	-12.29296396316982	-0.01935523579311255	1.438758139980713	7.594596761834511	0.01466885023595628	-5.349898162168219	2.867054175532266	0.8764393649042701	3.113572712470574	4.001001548264062	1.402038514003278	0.08656532484646862	3.685865470488123	-1.392379669564974	1.9679806843743	0.03929584402262701	0.0009922297171839345	-0.9515308468899448	-0.7982045078678297	0.05911664760871128	0.1851620559899176	0.4097195834117431	-0.1919144946451846	-0.001278725008960833	-0.1436534956692953
0.008109887166813518	107.0976849470026	-35.9080335862927	-19.79838626145041	15.70486669784768	164.6341496619777	8.008142887624469	-17.76640137025733	-24.59891285623791	8.11649891560225	25.32025050686697	2.123848024748745	-5.507791087628329	82.98441333683007	17.69781247569138	-6.991889687954549	31.94923150908707	-10.10994841871818	-0.01655990477075529	2.323102426295844	4.996826781229407	0.01395549826643237	-5.358757802301663	2.809473500622773	0.8509219159879506	3.343621590538115	3.393561486706638	1.299878100363908	0.05977300726919943	3.735580990042771	-1.568820891860392	2.14595462585004	0.04180785997099953	-0.007067216755071049	-0.7696810828940044	-0.9785475815500637	0.05158932844305468	0.2014492692854617	0.3877166220376731	-0.2197215574886231	-0.008920749445026042	-0.1411291525709258
0.01132864367758793	104.9214577155596	-16.549599982608	-14.22113900356052	1.124243870684097	134.6919811289829	-1.565815413398965	-21.59811912037133	-18.00947064828932	8.058582929703462	22.30209048906526	-4.133755378327595	-3.569312976686967	82.43732845247293	22.69697501112474	-7.050519714509063	33.39012531429072	-7.760731087750805	-0.01338345068973763	3.379227067317525	1.781735730509175	0.01485754899392345	-5.364748407145142	2.732871945430209	0.8151301551299803	3.567795576478067	2.627666109634818	1.158626338204789	0.04600495127888363	3.770117102658349	-1.778216930058358	2.346080328014484	0.04456829084424641	-0.01737603380345221	-0.5707836510378028	-1.191675654214221	0.04189314615704216	0.2209968879055226	0.3569751719667001	-0.2525689828982756	-0.01841074487445972	-0.1373504681906926
0.01497960949210789	101.4798367027905	4.296051696221451	-7.937953759565787	-12.63475827536547	112.8756399061633	-14.64917709874126	-25.45319479421776	-11.02711953504943	7.833318346460194	18.72302685673233	-11.97018452294699	-1.406670498312878	81.79645053166931	27.27392178707474	-7.138541308429362	34.78297889628235	-5.263005579995614	-0.01063450883672781	4.193780801775445	-2.159484606484139	0.01597282995969053	-5.360839473552828	2.6354401534386	0.7645896354347755	3.885453295430666	1.906940146589208	1.055111844348674	0.06445117252902971	3.788088220057753	-1.960603531585314	2.578852008974667	0.04616109667835772	-0.02634421712893675	-0.3743394026890621	-1.433933242599116	0.03076680729169548	0.238171288235386	0.3358554714547541	-0.2879998264265181	-0.02915754406541426	-0.1326040952018764
0.01900520557876997	96.87949829679417	26.31021417947344	-1.369883857320957	-28.19222308604708	88.11491253781162	-26.85672999079256	-29.80975752894445	-4.378155012121308	7.701912434821792	14.38730381941496	-20.48077289905732	0.6803109959951854	80.82760330132733	32.53088438632619	-7.116796178616044	36.2836577167103	-3.051547194188397	-0.007572814714713293	5.267003436184208	-6.475628203349332	0.01737217623260517	-5.345758648376208	2.517185255221787	0.7023009362746848	4.16013265431735	0.9963866207636032	0.8991006142695364	0.1080590263585846	3.76410926885195	-2.173940711517081	2.824742868360507	0.04790014320137442	-0.03804232751145697	-0.1915597536842205	-1.68795545854526	0.01722717481924778	0.2587298597704021	0.3027610844390038	-0.3280951708325991	-0.04156090368377068	-0.1260834740720901
0.02334194532480019	90.8739088483008	47.63938457976735	5.068138888393077	-43.790486656307	65.99815531523528	-38.28943586757862	-34.16302731384552	1.396377860134367	7.604227828516472	9.349771485661025	-29.3227128654621	2.556079248181093	79.55907631249576	37.65358195521029	-7.021396870956268	37.63273267195046	-1.300184739253307	-0.004501690571919841	6.451355797916009	-11.01113948667859	0.01881071661764805	-5.312834805864636	2.379174171755533	0.6271169826849664	4.439343396520363	0.001446364764534025	0.7300517520778804	0.1901859421948715	3.685288674104318	-2.384678049322694	3.085515783221466	0.04905617235495802	-0.05055765731473238	-0.04492950866389288	-1.937122061499824	0.001837290103762317	0.2796081148264259	0.2669345138948852	-0.3710952459374486	-0.05505373718156714	-0.1176833569876099
0.02792143545395889	83.49294734806512	66.63854552672463	10.915141025202	-58.67294501823369	46.9988549558676	-47.58024394382353	-38.15430735043453	5.767588285393241	7.582706199607481	3.674655698865125	-37.74467815053812	4.053156788336697	77.94257345179966	42.31432791383919	-6.851802812456707	38.63913079878385	-0.2127153951774387	-0.001404907318602294	7.809208716467218	-15.45391308150138	0.01782802246421596	-5.256435653957938	2.225048579426026	0.5410736955078991	4.727098511049917	-1.064541228523352	0.5534535012957384	0.3232541485823172	3.538393246214395	-2.584780679585225	3.358792596033271	0.04954877876923691	-0.06357187950372545	0.04749621863485287	-2.160460921257869	-0.01501010017972696	0.3002112293602954	0.2295229414080519	-0.4163436650265036	-0.06993209237059222	-0.107192183864684
0.0326714545037473	74.56354436157469	81.93226169137908	15.70477934064967	-72.57860910473411	30.6193589244069	-53.43904338894784	-41.74821311120757	8.458400412948791	7.713063889246756	-2.557589243929548	-44.83969531129026	5.059142317183989	75.93717701247594	46.25154936332648	-6.608652450484712	39.31266658678553	0.09727921747086687	0.001740711710393483	9.4447157332137	-19.43895915592583	0.01648271342493064	-5.173191881100833	2.06043235250194	0.4477229544996705	5.019642987250134	-2.198905214613862	0.3699032473827435	0.492766822317014	3.314035250287884	-2.770311770496716	3.640027477999313	0.04944653250690034	-0.07697286473705556	0.07832794538155594	-2.335894567073259	-0.03279625066767579	0.3203156462512401	0.1904496771497676	-0.4631074214660413	-0.08485978802632484	-0.09444996449315235
0.03751709174442691	64.28159519738357	92.165307894131	19.06566047227824	-85.46027467171905	17.21488884410348	-55.02562621532385	-44.56118571620005	9.202030134425026	8.030207409207609	-9.152895450408264	-49.85395567945988	5.562730078847293	73.5370080333404	49.08233168498062	-6.317161788450631	39.29639544517722	-0.4324471920028891	0.005225089805037575	11.3804561750252	-22.65314496887609	0.01496324296524476	-5.061205850500905	1.891715200503244	0.3510587651376232	5.336158247559936	-3.363367087365197	0.1929666025408538	0.706037130740267	3.012543929389491	-2.930091457242701	3.927666121000975	0.04868717030287156	-0.0900500167670335	0.03907072865236461	-2.445874128743625	-0.05074566466895041	0.3389616598675527	0.152791269949666	-0.5103293600222398	-0.09973817000159628	-0.07952886847202398
0.04238192853981579	53.10715542789461	96.95925760861056	20.95446821256548	-95.96358684923935	6.353871439134593	-52.10477023018881	-46.32006443747438	8.398178630389291	8.53850331911465	-15.87270249084942	-52.1861272200279	5.633214148588313	70.73741390386805	50.65141533314093	-5.997193791378484	38.6984432287523	-1.60418270688635	0.008117329375253442	13.6572227977572	-24.84360311395143	0.01408973402874046	-4.923117253341057	1.72620929680732	0.2560020943667648	5.674911043466804	-4.545526760113416	0.02460253420775427	0.9469263870331031	2.640687575879444	-3.062043374332758	4.217075630162543	0.04743138306632266	-0.1026247182951294	-0.05697371099898853	-2.47889530459932	-0.06813529424615272	0.3560040959410309	0.1168783379918315	-0.557136636502691	-0.1138892759407646	-0.06259119703136695
0.04718924350439309	41.39928127438843	96.53436912728833	21.42496681364387	-103.8395359890831	-2.046052598531915	-45.14933694186248	-46.96911643417812	6.521469589528266	9.198217818484833	-22.4458128144237	-51.62627273560097	5.408785872510892	67.57060665574204	50.86015606158472	-5.679618140157512	37.54637972270323	-3.181291284482683	0.01067771685683231	16.23873384788123	-25.90150446634685	0.01373622720340158	-4.765359731738672	1.570439280094061	0.1669091942571416	6.039403306141807	-5.717240435097344	-0.1290821334322043	1.186241431002032	2.214831331179183	-3.163063419221101	4.504294512269938	0.04579476109250541	-0.1143268019048098	-0.1900905865039255	-2.43338679625318	-0.08425041032543519	0.371118923313132	0.08410768259167503	-0.6025508299804434	-0.1253015107796414	-0.04406690053695044
0.0518632224455918	29.71257593569678	91.64515748971134	20.71628223097695	-108.8410980481036	-8.408069397795089	-34.90792785747886	-46.43196971907231	4.112168777019951	9.935753469408347	-28.64148419113982	-48.31860716644653	5.04700532159084	64.0917229158383	49.80229872112966	-5.391359436532898	35.90390245265271	-4.903858495334145	0.01307423161801801	19.05931703270783	-25.85656177720842	0.01270260974185852	-4.598294665439789	1.429492428947331	0.08726825699135543	6.419740287197804	-6.859972022163946	-0.2676458810421547	1.410650606397023	1.756216089577864	-3.235360061739667	4.78372419375657	0.04396734520586443	-0.1250581443362104	-0.3402415660311881	-2.316906622957712	-0.09857655413900065	0.384397800023994	0.05456154123192807	-0.6457287993453054	-0.1335825127176434	-0.0245464773178496
0.05633015401013977	18.5837966255787	83.39246139086644	19.15648315241617	-110.8956637665755	-12.77140592860778	-22.47020654258298	-44.73617287927447	1.629757305258863	10.65945977731596	-34.25275406385864	-42.76822328915478	4.685920738907322	60.39007017854041	47.68034071858019	-5.157934661159103	33.86132683232245	-6.551763887529997	0.01529073132738724	22.00266137824283	-24.87256057150074	0.01116817804584132	-4.434208229910811	1.30644204376336	0.01911639688438294	6.804274940088249	-7.951126229422083	-0.3904277549559416	1.630137699612972	1.289620110108785	-3.282473612772938	5.049967590945658	0.04210700935856276	-0.134726397783151	-0.4939626970127158	-2.145039460863107	-0.1108015518036849	0.3959701380564985	0.02841693227934533	-0.6859144445951869	-0.1404837362972673	-0.004798488296217499
0.06051959218465776	8.504278647188102	73.06734824908759	17.11406750744508	-110.3354482824841	-15.55126114222045	-8.940611145650735	-42.01107664052309	-0.5822058848215867	11.28793949240336	-39.15077819454115	-35.69228898241448	4.416104486673186	56.58262970010419	44.8004428062754	-4.99622102485647	31.51579510431683	-7.967084117325729	0.01733820165369393	24.93720920428709	-23.19895256226728	0.009370159546469676	-4.28539568187824	1.202529379089477	-0.03686356089038612	7.17684210480701	-8.971554144581253	-0.4986547689721617	1.830365377897906	0.8386739559174229	-3.310177852267929	5.297526210063263	0.04036189585501088	-0.1433458181568223	-0.6358081038563783	-1.937768895059085	-0.1208446808445024	0.4061033006569086	0.005404645425306914	-0.7225123250608578	-0.145291934647524	0.01436042640599362
0.06436546733510043	-0.176379177454649	61.86965423260953	14.93297567968711	-107.6396554780922	-16.94593036929906	4.649641868922885	-38.46015882509741	-2.362374821122723	11.76987650238913	-43.28357933531652	-27.88824282467191	4.274782637090731	52.81142223816164	41.5003049032761	-4.913947870891854	28.98233405127531	-9.080997801759247	0.02017986195728465	27.72907589439866	-21.1218705421669	0.007485785894491071	-4.161763420528731	1.117554720226134	-0.08113960091418559	7.522336301815104	-9.902755009747228	-0.5933689979344359	2.023022400570962	0.4234289039334801	-3.324227309751375	5.521642789857064	0.03883069615828894	-0.1509372991289586	-0.7614510713574596	-1.716095084180179	-0.1287996948645613	0.4150148951778969	-0.01469692717162427	-0.755074544253528	-0.1496422758400124	0.0321704036114946
0.06780712831226307	-7.166714466287516	50.87479097323309	12.92403165676155	-102.9516857908535	-17.1404506074999	17.44585231909664	-34.27841040816352	-3.59183379014719	12.06626050137771	-46.66354753825571	-20.09178156618382	4.255430234782015	49.21901327916258	38.11715815912744	-4.906552767632081	26.43947978847503	-9.847751857898325	0.02222435887356151	30.26466935198558	-18.91284480464052	0.00571638907193821	-4.068499326811359	1.049649863848448	-0.1151847345070385	7.828866074618617	-10.72862552927075	-0.6753718461008398	2.203694817011964	0.05823722674080611	-3.330159822354311	5.718683241578529	0.0375685463651203	-0.1575252527798512	-0.864980728799577	-1.498826405162856	-0.1349173874665316	0.4228812115453643	-0.03207104961556217	-0.7833163357987751	-0.1536025588173204	0.04801430980039588
0.07079029933648544	-12.33884938415642	40.8472656350289	11.29306339121362	-96.70001261622889	-16.38913020723626	28.83205814250172	-29.70972798926707	-4.304615858773765	12.17979836230671	-49.34419499116562	-12.90378636414447	4.325533949821334	45.95338393214594	34.93292854421198	-4.959889345373425	24.02599608913582	-10.29394105925383	0.02336512409101024	32.45881709198795	-16.7987763872105	0.004186821914265638	-4.006339026646825	0.9969184916781639	-0.1406329734487077	8.088242009617016	-11.4363706595277	-0.7450369994042672	2.374682776417509	-0.2483286861838122	-3.332023356717615	5.885984334930145	0.0365885448792666	-0.1631164975982426	-0.9466744039259372	-1.300922605533544	-0.1394811889794867	0.4297534864337579	-0.04680907959046174	-0.8070668431018382	-0.1576826745571748	0.06147285453332813
0.07326793709552543	-16.27496317221264	32.32212906155495	9.972164398246038	-91.27700412204598	-15.40004936932312	38.42900700432446	-25.53126957870536	-4.776457755291696	12.21541027476795	-51.39725265887464	-6.752145965202319	4.443481906971352	43.14540287329409	32.16196399039559	-5.052021755819485	21.79050483508104	-10.58703075557286	0.02425613722238486	34.25816364754047	-14.94643866466913	0.002922713111175295	-3.971350757693174	0.9573185857164388	-0.1591111867447818	8.29652042455508	-12.01679845562819	-0.8022989776746461	2.525978764813096	-0.4929220696948603	-3.332412593919368	6.021980958664751	0.0358722926754344	-0.1676997586989251	-1.012838933097485	-1.132836472382144	-0.1427780027209676	0.4355836427790823	-0.05890835391080568	-0.82625627739789	-0.1614371757363526	0.07232913365842383
0.07520097689840965	-19.10285894810126	25.63921371326516	8.9907172106789	-87.04204429746929	-14.44847851594616	45.96178597342865	-22.0408810552431	-5.070439674227487	12.20695527941859	-52.89310771521466	-1.901994571120163	4.570433408864713	40.89909389539301	29.95034502437026	-5.15676573067618	19.8835853838199	-10.77074013055033	0.02493318931542182	35.63670279272318	-13.46385720862024	0.001939733669955726	-3.956228950893642	0.9288362427719995	-0.1720460625859327	8.453256527501404	-12.46390906321896	-0.8467506307778239	2.651022586035752	-0.6759707747563386	-3.332641524804796	6.12600467612118	0.03538252082647569	-0.1712480690317109	-1.063722914334855	-1.000932004032658	-0.1450646120268233	0.4402558608009255	-0.06829152385505338	-0.8408818470889535	-0.1646967357673507	0.08052930454210655
0.0765589714577417	-20.96622373560876	20.99440479668467	8.339886188688769	-83.94479857793277	-13.57639403877048	51.20689485354696	-19.48723493542884	-5.205318063580326	12.1751021079407	-53.89051274273215	1.505919156647921	4.676301292129772	39.2943334194909	28.38303351431854	-5.24873384629325	18.50692841778313	-10.86291847950977	0.02532259148592052	36.58749170844535	-12.41230660587414	0.001249752958343259	-3.952695394031752	0.9099996150940406	-0.180443895112485	8.559871546920004	-12.7745468808156	-0.8779145954913798	2.740167100635498	-0.7999193048999766	-3.333033969572041	6.197912763998112	0.03507743980799943	-0.1737306590368848	-1.097848099385372	-0.908500612038633	-0.1465330263344915	0.443621477215822	-0.07486486726206795	-0.8509733129720585	-0.1670597460447439	0.08612127791186522
0.07732081165962061	-22.01494718899207	18.54938046240802	8.002461384901588	-81.24981685013458	-12.34820410663844	53.87031005861975	-18.08437600204373	-5.095112437875535	12.11147666665967	-54.43143310223792	3.411408895880424	4.741224584462895	38.38527408572271	27.5020118840753	-5.307253256524518	17.99869981661266	-10.8291221550306	0.02508435559581616	37.1134042148484	-11.82120535976251	0.0008623650766700782	-3.953464328837072	0.8998386827793047	-0.1849270716744608	8.61829013899473	-12.94743777293903	-0.8953867986934521	2.778515081235146	-0.867634877028553	-3.333404717435637	6.237805361910831	0.03492106765877062	-0.17512062375083	-1.110158301662072	-0.8568909195738681	-0.1473097674045497	0.4455441971679754	-0.07854845162755195	-0.8565675578202591	-0.1679078109807536	0.08919027428952661
0.0775	-22.35777489863469	18.17855218954443	7.932547895917349	-79.3271388753533	-11.08082133484856	54.11204819258271	-17.87249005623151	-4.836414603144751	12.04480315083859	-54.55676061412473	3.858538554060536	4.75704003966766	38.17060039157707	27.2947939640554	-5.321757727827421	18.2882915217514	-10.71691840046243	0.02442002143483047	37.23625533288261	-11.68219612018924	0.0007711810472212175	-3.953943967707024	0.8974904603740284	-0.1859589402724723	8.631877480890761	-12.98795133688285	-0.8994959226120938	2.768650094279167	-0.8833637549425128	-3.333511546383662	6.247140029779436	0.03488587136760413	-0.1754473143739044	-1.103772837990557	-0.8447869665589858	-0.147487712519944	0.4460002988069591	-0.07941457339262029	-0.8578762985731837	-0.167297167881913	0.08990458428138144
0.07795425073372618	-22.71842034121824	16.28906800564525	7.726619719608859	-80.53972743556218	-12.49863733980142	56.54449818501654	-16.73552312030042	-5.267267252816908	12.11304920058343	-54.8712785526459	4.989845200196045	4.798027885150937	37.62498932577663	26.76968320125769	-5.359809248246816	17.0632312598454	-10.91683265718947	0.0256029635302419	37.54617811078661	-11.3299832003875	0.0005398681522632847	-3.955681726186649	0.891608002165126	-0.1885374879312338	8.666053913465184	-13.09038924790867	-0.909912592230842	2.829868678589492	-0.9228908464354043	-3.33381995251928	6.270720120196573	0.03479939115170017	-0.1762751399760265	-1.130259998687216	-0.814171937440978	-0.1479308829281955	0.4471634074268706	-0.08160988063745978	-0.8611819470102331	-0.1692029990104304	0.09170210103460495
0.07901578477516402	-23.96226265726233	12.68085823115829	7.272593480345404	-78.7863190432052	-12.16188184630737	60.75973060708022	-14.56556544858317	-5.399732075783067	12.08226211775592	-55.58876963118788	7.618684160013046	4.898568750602913	36.34252024344528	25.54497875823565	-5.456016756901435	15.71133209865454	-10.99707488941656	0.02613997251682338	38.26153999770329	-10.50891382841051	-1.869242732175334e-06	-3.962739012322443	0.8782475946330157	-0.1943644287395007	8.744369126125923	-13.32823509241235	-0.9342585993272889	2.903274530507518	-1.01326978530058	-3.334777711636711	6.32534586397797	0.03461287344071762	-0.1782080554061842	-1.157878407629487	-0.7430785545594223	-0.1489234645764069	0.4499215893072476	-0.08673898330558061	-0.8688390902131777	-0.1708079165559385	0.09582549127099814
0.08066444641183987	-25.71145755283999	7.274373159587696	6.656208667532459	-75.30045121082091	-11.03022322456125	67.06805800537379	-11.07656383712887	-5.425029586818813	11.97921929276821	-56.6563223808583	11.64657127771305	5.066572918651239	34.33235511958046	23.65634707042218	-5.626343697968581	13.72988228148703	-11.03489169275479	0.02657165722547446	39.34555440462341	-9.24436549056378	-0.00084813983973423	-3.982437498544878	0.8585443877528955	-0.2029102241505031	8.861465495582005	-13.69308548349186	-0.972097253458176	3.015042394234159	-1.14783246276492	-3.33706498637146	6.408814556545668	0.03436778022721065	-0.1812074553286689	-1.195728351474515	-0.6342393520136764	-0.1503520104606821	0.4543256110201575	-0.09470545082029161	-0.8805425718466988	-0.1733741352895293	0.1020001729746279
0.08287410419404742	-27.55001044257148	0.3388839346469015	6.035790905970718	-69.66688829103026	-8.84808432672866	75.25148814568134	-6.033660156396422	-5.222571944488637	11.75167948756434	-58.00362122939502	16.90097213015438	5.31013224717125	31.60946621952786	21.1711351603435	-5.896287980731531	11.07831646168403	-10.96469791763983	0.02647358503877821	40.74017617981049	-7.58455123427495	-0.001997305421415137	-4.026644259392397	0.8339925065070506	-0.213571339485631	9.00903586290236	-14.1725610652255	-1.022907134625634	3.168670688545536	-1.316330372276516	-3.342054046216336	6.517935320959918	0.03412703014255819	-0.1852270745734841	-1.240563720024867	-0.4923119431885127	-0.1520729752766412	0.460481457271776	-0.1053920062044172	-0.8958655300289303	-0.1770839435097573	0.1097962064027923
0.08560988716681352	-29.26876520133888	-7.587126277153512	5.550329681588157	-61.63504060347297	-4.930199622957602	84.80758218188016	0.5331256687600074	-4.624566591616134	11.346593450057	-59.55154117325145	23.09839612246333	5.631361176189825	28.20578736595266	18.21062859507555	-6.300211544259817	7.910553059710817	-10.70979288001983	0.02572847707245282	42.36051414921582	-5.614967333075514	-0.003457045666347199	-4.111858217781299	0.8061663087254013	-0.2259133603263496	9.175440480423946	-14.74923827619305	-1.086027889538653	3.35137860640017	-1.50460480836536	-3.352084478745192	6.648407902959827	0.03397183010503968	-0.1902113810882211	-1.285312891805439	-0.324751654293539	-0.1539473149405729	0.4685492448575864	-0.1186474682495453	-0.9142570857492256	-0.1811716627328135	0.1186025050911765
0.08882864367758794	-30.89903948549879	-15.7638182150938	5.301283915000758	-51.56790413033724	1.731894048019143	95.00895840509875	8.320612059805475	-3.526257434694878	10.73845521313262	-61.22587522540841	29.82430679599258	6.02014411889113	24.18039437573873	14.96577798088219	-6.880394338861951	4.470940399670634	-10.23270011305502	0.02418111038804842	44.09361829872812	-3.467579165161555	-0.005251609833321113	-4.259025293827378	0.7764937736468281	-0.2399220783765689	9.346053318224621	-15.40043755289284	-1.160608604224779	3.55437054615712	-1.694891028992927	-3.370686841656904	6.794963380238729	0.03399673207017861	-0.1960970525084926	-1.326318776829076	-0.1422510893008086	-0.155879252497579	0.4787429831499013	-0.1342734474293373	-0.9350732854424395	-0.1855984638289931	0.1276224926178324
0.09247960949210787	-31.44880014546236	-23.62118180583555	5.677301665026057	-40.11361708975272	10.52514778017157	105.7291624698296	17.88731710271736	-1.975901605063934	9.901870740767176	-62.97086383835072	36.53554923311848	6.449890686350939	19.62979103360162	11.70261891317172	-7.685013820954607	0.3063166569112389	-9.547473561425621	0.02196860014392626	45.80177339982664	-1.321964579246488	-0.007426563538077565	-4.492672609868748	0.7462150899233411	-0.256157475818085	9.504229511793685	-16.09846651650613	-1.245485863599535	3.803338720422127	-1.866675041961211	-3.402611135818911	6.951623318339603	0.0343035860919747	-0.202809725471893	-1.36861297702336	0.04133922445124553	-0.1578444205076066	0.4913157111999356	-0.1519952100697263	-0.9576163298419686	-0.1913389786702989	0.1358894037021458
0.09650520557876997	-31.27951408646964	-29.97595289274816	6.73145121800332	-27.89945637072778	23.2000149464795	115.7206085836088	28.48470715423564	0.1477545996841014	8.83198795370941	-64.75326581140781	42.59493475758563	6.877963717549015	14.69253781441451	8.75266177297827	-8.764219446566521	-3.990511785942873	-8.625593423958616	0.0187572547665214	47.33043539636527	0.6061351694619266	-0.01005001779906939	-4.838590155360707	0.7160146178388964	-0.2759545069557812	9.632035177524388	-16.81160604095517	-1.339132948044868	4.073821697547241	-1.998153529632408	-3.453224728769565	7.11191804722646	0.03498224537186201	-0.2102580254141648	-1.406108614915895	0.2098333657191951	-0.1599112754816584	0.5064876068345412	-0.1714454313131825	-0.9811645908310314	-0.1979418392390417	0.1423292769941051
0.1008419453248002	-28.84474601223222	-34.17619994365926	9.004748703980445	-15.47237200159472	38.42145400622782	124.9909008572223	41.05291234989089	2.788218268939608	7.508997153391851	-66.55926889757504	47.33796593648957	7.252743865212516	9.544410134012949	6.477032226227484	-10.16558761542121	-9.098388257892635	-7.497038563385116	0.01460448544994992	48.52283037483257	2.088713748522288	-0.0131993617608238	-5.320330186213766	0.6864366865020421	-0.301144294942385	9.711960526662041	-17.50671855294316	-1.439648025379766	4.405509241852991	-2.068300370624682	-3.52762542234687	7.269413012220732	0.03609992987246158	-0.2183302474013586	-1.447078612018799	0.3462485286348176	-0.1622107735556256	0.524368119954206	-0.192155293577577	-1.005024149158614	-0.2067453816608679	0.1458478557031771
0.1054214354539589	-24.11200844492337	-35.18235333546046	12.55763925783311	-3.882178448755614	56.72605363990225	132.5674645274801	55.1430145528264	6.006093954218272	5.948532323716957	-68.38314929898858	50.1661520256856	7.526627869290362	4.385027499820509	5.213708488597732	-11.9276814256859	-14.76485902604675	-6.170712329657868	0.009488689553088601	49.23985447952923	2.919463759805367	-0.01693390834790151	-5.954944065246803	0.6583602044733816	-0.3335625004540681	9.72872830112745	-18.1525185685561	-1.544806848328305	4.791192734839717	-2.059284857152319	-3.629505337445162	7.418195663655727	0.03769322267745745	-0.2268886820209945	-1.490261662104464	0.434895243042406	-0.1648762743836568	0.5448720972880741	-0.2135665253092439	-1.028564119001984	-0.2180487986920549	0.145442533948861
0.1101714545037473	-17.59855023519416	-32.16895338421906	17.20841493891295	6.322304906239562	79.54089782629924	137.2405475329747	69.87895267960309	9.823950665858897	4.177904166240943	-70.20869213568663	50.64739658428581	7.670981241053588	-0.5801397328277772	5.217751311341428	-14.07189269529749	-20.32856479691561	-4.652595664413401	0.002910106555701317	49.38067474689615	2.95084091353251	-0.02126318664052666	-6.748733599167372	0.6331857096390905	-0.3745080673651904	9.669794438718871	-18.7229386583956	-1.652317680617079	5.209301822606912	-1.958820581218947	-3.759757365561981	7.55295669099945	0.03975730385298859	-0.2357638876186141	-1.531344952398171	0.4636388652414489	-0.1679666756356144	0.5676250080523613	-0.2350979109206788	-1.051205304859559	-0.2319306653931139	0.1403369375149518
0.1150170917444269	-9.641972630738934	-24.82285791486657	22.68781689710288	14.12451387623715	107.072234780633	138.2377063775697	84.65104020445192	14.1660629660412	2.236904678594065	-71.9918365336149	48.59340795119078	7.68714536102198	-5.16924717744272	6.592264995339545	-16.59705172477455	-25.53775691605447	-2.978255782636432	-0.005043468705026852	48.89912728024242	2.123385240784839	-0.02611751244695424	-7.693512707811192	0.6141714993648376	-0.4236288499991769	9.525911820390624	-19.20209783586895	-1.760340681066949	5.644319685941234	-1.762193077969421	-3.915323226251532	7.669382864942492	0.04225468963438506	-0.2447729965983714	-1.567690820738812	0.4258268090490483	-0.1713397025337022	0.591915614963556	-0.2562667265827221	-1.072447155962835	-0.2479977784516786	0.1301046154139769
0.1198819285398158	-0.1716720198863886	-13.38541939231098	28.74590325810029	18.96931966010334	138.3504679497022	135.4397491588676	99.34383994390541	18.96173309455752	0.1475896907453205	-73.65302227872303	44.11234227078615	7.608296545435377	-9.254977849404003	9.268470046932634	-19.47103881964058	-30.5218162995962	-1.172381593472845	-0.01404181421702663	47.8138183939741	0.4833148338669387	-0.03133542609366265	-8.764683322447077	0.6052168288711886	-0.4789030152874323	9.29151982729908	-19.58487977953247	-1.867566003862223	6.094217898456844	-1.473611637139247	-4.088958126761054	7.764077222693953	0.04511247841896493	-0.2537145333525985	-1.598027979938299	0.3217018057355917	-0.1746473577762396	0.6167168084492637	-0.27673366617797	-1.09183441147859	-0.2659136185110894	0.1147751877341797
0.1246892435043931	10.31995744181167	1.495208181672133	34.91658594229895	20.85671645674118	172.9355267336701	128.6884822410518	113.4921078817555	24.12444860014758	-2.069557324644215	-75.087876198853	37.59237286587721	7.490057925670928	-12.77024556991663	12.99639343957742	-22.63017187457419	-35.11055348913424	0.7571372985186218	-0.02383831744055024	46.20521475897728	-1.824060767004873	-0.0366823731403006	-9.92346669693841	0.6119993283304181	-0.536025686357871	8.965590450193847	-19.87782976232752	-1.973369733726024	6.539705908680043	-1.106285935759052	-4.269953326058594	7.834695896810959	0.04824980391363931	-0.2623860739045254	-1.616719615181994	0.1585748694289456	-0.1772960594129085	0.6408067502317257	-0.2963588226820321	-1.108968249206547	-0.2847969947745235	0.09488019399216932
0.1293632224455918	21.28861812901582	18.75395676156513	40.72877645769607	20.07232356064528	210.0412985043047	118.2806271022772	126.7386304818878	29.51806564948019	-4.383134857113994	-76.18518056012958	29.64449435333987	7.393055426271423	-15.7183120851388	17.39818240485398	-25.97983984216966	-39.24335479893441	2.788284084026313	-0.03412798905267875	44.20254867834936	-4.577095949010491	-0.04189517072105033	-11.12026937087178	0.639627386708989	-0.589513430622012	8.552165138050368	-20.09589467992371	-2.077552123460639	6.965623789568381	-0.6812077039080821	-4.445513125351907	7.880018747814473	0.05157032397885919	-0.2705904025277568	-1.620028675707416	-0.04995850939484418	-0.1785926355781081	0.662902763807433	-0.3151555878686287	-1.123516878411768	-0.3038059170781083	0.07142615476780181
0.1338301540101398	32.16448863965186	37.11162366899185	45.76186476974275	16.89940909701409	248.5857446722528	104.8967475225671	138.8078951737132	34.97446663285971	-6.749105462808998	-76.85823887768179	20.99595184586887	7.364303354082508	-18.15078849224483	22.04082929338177	-29.40211666088021	-42.96717874038591	4.884718312610866	-0.04447984599104655	41.96281446170216	-7.517824167732201	-0.04673413005026698	-12.30195540640254	0.6916852291004476	-0.6337316260534074	8.061799891338627	-20.25791705958275	-2.179850116251877	7.365708745814498	-0.2244950325860496	-4.60318680066794	7.90009428292476	0.05497474461287843	-0.2781422876702668	-1.607454973430247	-0.2860641484813672	-0.1779028231895723	0.6818832667922738	-0.3331903097239477	-1.135243030150674	-0.3226856347292032	0.04577659296563049
0.1380195921846578	42.25352662019844	55.27754265879385	49.6799577987583	11.84380044131584	287.6392447518605	89.42057658655985	149.3675733411149	40.2875556996474	-9.108534323773206	-77.0703569752156	12.36930392998407	7.424746423300178	-20.14859162434919	26.51893840593735	-32.76748336273539	-46.22534892964606	6.997059537336429	-0.05426084619366113	39.64727819463759	-10.39625272959726	-0.05102010307570887	-13.41855143822201	0.7687653817549384	-0.664269023172102	7.513211780076483	-20.38196728697907	-2.279375470673214	7.726610779220558	0.2360826099145088	-4.733284651905617	7.896753528165417	0.05836451145026011	-0.2848802299190696	-1.578396950769861	-0.5304316536449113	-0.1748427256469998	0.6969854417341799	-0.3504408970040773	-1.14407638327287	-0.3407207596986453	0.0194652615039159
0.1418654673351004	51.03822628211985	72.12384984260585	52.33966974905918	5.572982935382221	326.1573530681966	72.91415388461043	158.2361496226758	45.25133874616496	-11.39282360352117	-76.8464531112966	4.372012912438587	7.567193552663072	-21.79603684183663	30.51573045967275	-35.94988695099158	-48.98934450002447	9.063268509992733	-0.06313741131803513	37.40039855866429	-13.00893538067165	-0.05471723524545012	-14.42920221534744	0.8678405207936879	-0.6789630079695388	6.931734581247277	-20.48270409786716	-2.374616804106996	8.03798366101147	0.6748692086622972	-4.830257157787692	7.873569697751874	0.06163686060121265	-0.2906901884141815	-1.534329830421221	-0.7652050573890928	-0.1694012814687252	0.7078960875852452	-0.3667717001539114	-1.150145254234053	-0.3571979420756446	-0.0060185611616023
0.1453071283122631	58.24089203739936	86.83088775055116	53.79922647711992	-1.21802564466563	362.9380652780004	56.51531306667997	165.3895789255118	49.68599897348274	-13.52578232006291	-76.26859055864936	-2.572775829067561	7.763894355400248	-23.16252155550359	33.84225662364747	-38.8386240027053	-51.26615797936026	11.01045538267674	-0.0708732037392347	35.33708024694437	-15.222348279631	-0.05774119271230863	-15.30577539352486	0.9820526545307647	-0.6784684745820342	6.347792197329823	-20.56912521788308	-2.463361745986553	8.294954842042436	1.071223162038953	-4.893513816349664	7.83567116868519	0.06468685242207106	-0.2955112135592046	-1.479283088089729	-0.9763075403480233	-0.1619950031950985	0.714792322767577	-0.3818951278991298	-1.153774109557619	-0.3715795697930856	-0.02941163159693524
0.1482902993364854	63.79966935398923	98.94507260743023	54.27267978621752	-7.88058027717598	396.6844954141199	41.28211180183719	170.9191682372836	53.4602504283792	-15.4337457942571	-75.46215751939266	-8.245066463497384	7.979007267068541	-24.29416637379286	36.43674793613717	-41.34713493074408	-53.0754537532835	12.76604799969673	-0.07734488839506977	33.53857975314499	-16.97834470146069	-0.06009587495966995	-16.03347482365012	1.101766527773041	-0.665942083129623	5.794101550269129	-20.6448868876743	-2.542975357640992	8.496285625023162	1.410970345560284	-4.927048577740026	7.789314622714459	0.06741470100454572	-0.2993415367196157	-1.418612742403561	-1.154674672176002	-0.1534022018369565	0.7182831390893792	-0.395414156262921	-1.15545278407796	-0.3834678217542654	-0.04978164757595331
0.1507679370955254	67.82017409423163	108.3476072341643	54.06306018559038	-13.90197651118201	426.0937769256886	28.0546743015142	174.991496900576	56.50124925054458	-17.05164874523167	-74.57135993585244	-12.60432547453761	8.180079155696269	-25.21363733744555	38.33264414475944	-43.41686746397376	-54.45452824112895	14.26436567149731	-0.08249802761421823	32.05477040392238	-18.28321201943771	-0.06183752894562773	-16.60889532531963	1.216390909402467	-0.6460992002593762	5.302050382329617	-20.71042783477071	-2.610918054565087	8.645909700806399	1.68638607228032	-4.938028152267472	7.741198238020499	0.06973304484275578	-0.3022405830781429	-1.35880300684348	-1.296230033945342	-0.1446098596159691	0.7192634382031423	-0.4069246906172228	-1.155773985322557	-0.3927909133190288	-0.06654469449782355
0.1527009768984096	70.5300659272698	115.1612497441006	53.50565933547934	-18.84342700310054	449.9422986357883	17.46105312819319	177.821301362699	58.78976203058271	-18.3302480864283	-73.73714918841033	-15.73199681306922	8.344643079748234	-25.92602956901474	39.62435786639161	-45.01382870992381	-55.44175018178057	15.45452701865729	-0.08636620022154895	30.91154590677071	-19.18573896633453	-0.0630474780015676	-17.03651936874931	1.315504528401126	-0.6243117002878718	4.898936315796371	-20.76393148715232	-2.664966436289923	8.747972162812641	1.894916469147778	-4.935134943508285	7.697616269003397	0.07157031142928427	-0.3043040062605793	-1.30553146310114	-1.400805642283979	-0.1366595572395395	0.7187445635686373	-0.416064141869485	-1.15533431296866	-0.3994288960999811	-0.07941179159449635
0.1540589714577417	72.18475578451451	119.6313482218572	52.90364611654827	-22.40424365058961	467.1943038199802	9.913601424384282	179.6146105139285	60.34107705032215	-19.23459612023837	-73.079108860807	-17.76629242616675	8.461137176946536	-26.42672121895092	40.42538514299311	-46.12245793116009	-56.07656303410471	16.29948649015699	-0.08900321040211208	30.11909315202966	-19.7521265310327	-0.06381337689510681	-17.32459486109331	1.390158482672641	-0.6056094841381632	4.606277259641518	-20.80291296437782	-2.703407182653532	8.809327215008777	2.037250408015703	-4.926814274942418	7.663871207346645	0.07287327749017469	-0.3056406390930797	-1.264147704838091	-1.47051066956802	-0.130491273956257	0.7176811641858281	-0.4225533281148641	-1.154660653134462	-0.4035429103915446	-0.08829494738357829
0.1548208116596206	72.97225767839561	122.0012399513484	52.48352027768453	-24.2814488905337	477.1943909370831	5.615789231017061	180.5081008796572	61.17599198530429	-19.74447650871282	-72.68440170668552	-18.84409862763905	8.525933280781278	-26.70831664493862	40.83462602666489	-46.738615639195	-56.3404240946948	16.77716645950264	-0.0905070288598275	29.679115417207	-20.04378687145283	-0.06421106233087287	-17.48147463754075	1.433829013716478	-0.5938751255991104	4.438841251740968	-20.82530053512885	-2.725120664725882	8.831948931770697	2.115392604322003	-4.919813081684451	7.643822122132687	0.07360791080335394	-0.306347311219187	-1.237616983617912	-1.508089751656951	-0.1268183699713845	0.7168263081217489	-0.4262140192542905	-1.154150470215004	-0.405075996587222	-0.09321090896982102
0.155	72.43940409062252	122.5047579727425	52.17881352895381	-24.83529625055294	480.7117010160109	4.240292055477084	180.114352476546	61.25682746133383	-19.8628205209703	-72.58893339743642	-19.09072617879963	8.541060718623555	-26.7746560994246	40.92660496128816	-46.88287545609635	-55.96372444537154	16.89233975751244	-0.09081507897813694	29.57615111580792	-20.10957233941167	-0.06430116312923638	-17.51786409691795	1.444285204239974	-0.5909849069446307	4.399130600959969	-20.83062040975378	-2.730241783380859	8.802125145561492	2.133581963287395	-4.917919563737214	7.638990684991803	0.07378103258821322	-0.3065088735217141	-1.223709530906273	-1.516759656889269	-0.1259322486020573	0.7165979686816694	-0.4270768376995233	-1.154016659400035	-0.4038381364154879	-0.09435947645345978
0.1554542507337262	73.67116243609962	123.9173932907837	52.11283319017669	-26.11112744403304	485.3699084641172	2.100461319203191	181.3004102218012	61.87547558217112	-20.16261006278002	-72.34246573396803	-19.70395389658708	8.57915833466126	-26.94304601916374	41.15239538581874	-47.24738905925549	-56.68447946261865	17.16816018956165	-0.09162048642318164	29.31605969089201	-20.27144929710001	-0.06452360682546331	-17.60922835336875	1.471105027074348	-0.5834353513592077	4.297912497508021	-20.84419905622822	-2.743246428818612	8.873286747019765	2.179356706032065	-4.9126951460189	7.626546328613188	0.07422041950910108	-0.306910364453632	-1.220950932233791	-1.538440431164882	-0.1236479055241787	0.7159722788496669	-0.4292668748064298	-1.153653890753668	-0.4082386216511861	-0.09725738497012942
0.156515784775164	74.65405613565865	126.9649614028824	51.39000166379749	-29.13400567978493	499.4527308996959	-3.855836925620892	182.4823634971504	63.00230371358797	-20.86293506417373	-71.74184576145777	-21.06837137748271	8.666373961319255	-27.3380152155446	41.63817003918715	-48.09215067938239	-57.16918454906872	17.82438677073262	-0.09346198089874469	28.71369222742138	-20.62178712863971	-0.06500937576960035	-17.81768187329864	1.535514441049253	-0.5645452455411055	4.058391178018865	-20.87645598091316	-2.773751835095496	8.937781926193527	2.284368117222472	-4.898092492922748	7.5963789382371	0.07524968800692555	-0.3078026165367591	-1.19140131313626	-1.587375177697071	-0.1180971818757211	0.7142461280829402	-0.4343978602634839	-1.152675051606374	-0.4135155764157306	-0.1039481747055836
0.1581644464118399	75.90286446278429	131.2967041164572	50.06398653713173	-33.76604739089664	521.8679513991892	-13.12092688910843	184.1155247857876	64.67117111231603	-21.95156449136656	-70.74194372562255	-22.98904421685044	8.794598529375836	-27.95670132223892	42.27359494482783	-49.38246351160784	-57.83210735698979	18.84770297826328	-0.09622805381239707	27.79445693639934	-21.08538114943148	-0.06566555938160819	-18.12686321233191	1.640272560309677	-0.5317413320935009	3.678595069851762	-20.92803157906189	-2.821391471651823	9.02156055447697	2.441621587988409	-4.868669709988779	7.54658239581246	0.07685286702421112	-0.3090564719451894	-1.140211189188234	-1.658240028732807	-0.108887670352706	0.7108227188291096	-0.4423899827724697	-1.150794955245284	-0.4206449454027478	-0.1140921372416848
0.1603741041940474	77.00901217330251	136.3007792652296	47.89159757042656	-40.09879476237261	552.8793194301761	-25.47963378329693	185.9034467061824	66.73839786108269	-23.40227628622861	-69.27918391251964	-25.16458474525756	8.94601216201413	-28.79892445639754	42.89234444417943	-51.06445335980346	-58.61202670969119	20.21723569935154	-0.09968577488910478	26.59676270890501	-21.5457096815859	-0.06634636986243618	-18.51202707061836	1.789343460821428	-0.4812036240216488	3.156180840786162	-20.99992871618353	-2.885562586985879	9.115898763255778	2.640128915838964	-4.816144352400572	7.474453828269469	0.07900326356884424	-0.3104728652821036	-1.06526579344321	-1.742518423567388	-0.09543124510378471	0.7047946173719671	-0.4531044185309063	-1.147603140152007	-0.4293798779956399	-0.1271547891014716
0.1631098871668135	77.44730364299986	141.1300778135045	44.6023477487699	-48.10820552942339	592.792444994354	-40.51525930625932	187.4792328803795	68.99010987667346	-25.16829317923334	-67.2880081032781	-27.19090029127638	9.086517563127927	-29.86641548625791	43.2832620811873	-53.05924685579015	-59.4125803089163	21.89310975071198	-0.1036071969047331	25.17427780369284	-21.84752607341632	-0.0668493037667932	-18.93997246715909	1.986664585389521	-0.4084716772547865	2.491780127763927	-21.09282541255201	-2.96506513222317	9.206769014725756	2.864294092593356	-4.730111410656195	7.37720095962349	0.08165170008978784	-0.3117808223211771	-0.9640284034856857	-1.82816091493664	-0.0770524901231812	0.6950184150173495	-0.4662667638203006	-1.142627628500337	-0.4391323065505364	-0.1423643653639372
0.1663286436775879	76.5932765345508	144.7498797024996	39.94099914074225	-57.73561890587779	641.8514663263836	-57.52187832255595	188.4133495387399	71.13573473302642	-27.1735630723561	-64.71821128004042	-28.59032491618768	9.159819010667418	-31.15845244359462	43.21813290849133	-55.26081649238818	-60.11662343023171	23.80783918460678	-0.1076443790286976	23.59431746737904	-21.80805938621866	-0.06669842764776157	-19.37092097101523	2.23450476228569	-0.3094162155939335	1.69260872570202	-21.20567976987991	-3.057692245187165	9.278649145447808	3.094205071901493	-4.599365506384995	7.252817318260595	0.08471530065764765	-0.3126414557901243	-0.8351255364963617	-1.899912252655344	-0.05314489514892281	0.6802438541186848	-0.4813730116156483	-1.135423636694762	-0.449307939502106	-0.1587187423907813
0.1699796094921079	73.77819871227555	146.0358685464832	33.73513232945849	-68.93078842976064	700.1017788773313	-75.45021694580439	188.2574836740369	72.81766286341619	-29.30530579457162	-61.56199641171826	-28.86693131010298	9.085561896714871	-32.66716470195843	42.48899443509061	-57.53859568749232	-60.60899099537055	25.85898004801572	-0.1113632583745875	21.93253128723497	-21.2392934593252	-0.0658184532269727	-19.76147334529161	2.531782358364768	-0.18136707662799	0.7757586982665127	-21.33488789589603	-3.159994916871993	9.313579274647674	3.306833839564952	-4.413526762248787	7.10123487593434	0.08806350097254889	-0.3126739188729071	-0.678812332609145	-1.94054900343433	-0.02335397727302188	0.659273841042191	-0.4976206844811552	-1.125706570826464	-0.459065047575917	-0.1750390514675215
0.17400520557877	68.39230107381347	143.9210842049002	25.97960180960906	-81.55005199956689	767.2746090842821	-92.92717655226409	186.6137101656419	73.63462988538402	-31.40864103078668	-57.87554544662196	-27.58924460444192	8.765347169603201	-34.36921501920818	40.9571682816403	-59.74531938410198	-60.77118913659396	27.90262423473232	-0.1142899363118744	20.26416877219145	-19.98001913608005	-0.0644785948801303	-20.06912251446864	2.872294955015052	-0.02442505672493445	-0.2289186893576581	-21.47329623216501	-3.267127471905181	9.297094785842605	3.478417552700508	-4.165179114692395	6.925574450661666	0.09150683018344885	-0.3114964052202756	-0.4990274803172933	-1.933157528342053	0.01221086581807224	0.6311748739108428	-0.5138537885120675	-1.113502677721046	-0.4677846333094585	-0.1900812891530606
0.1783419453248002	60.03641821314883	137.5937390237099	16.90586801190829	-95.213938782241	842.5741027157454	-108.3127905393245	183.2080716882221	73.18448253581141	-33.29036299900632	-53.77893038251248	-24.48618809315892	8.099111985846108	-36.21404837110305	38.61184405148033	-61.72918142146301	-60.45908285731772	29.75519474188674	-0.1159977488438041	18.65450892537303	-17.93189968179639	-0.06267909898327544	-20.25805523177587	3.242942640670297	0.1572225110067711	-1.276675933155993	-21.60827995417879	-3.372649129615611	9.215586819941167	3.587866177021571	-3.852507678709406	6.733176619799462	0.09479766664649969	-0.3087672697370243	-0.3029853759581385	-1.864226521662829	0.0527642925913052	0.5955387151769811	-0.5285087212953908	-1.099270866533031	-0.4746952790082921	-0.2026967870387033
0.1829214354539589	48.59089022545785	126.7195567131874	6.965290216446895	-109.6906362427618	924.5399582649891	-119.9121884201289	177.9158005055197	71.14255833323767	-34.73934124869749	-49.45034673622676	-19.52722776755477	7.011026790578814	-38.10912407636243	35.59778426096021	-63.35139203249954	-59.57591579840322	31.21366933132748	-0.1160742394320978	17.15131392994673	-15.09169645127908	-0.06046285239555213	-20.30497104364633	3.624029475955278	0.3549875420984336	-2.311302317781782	-21.72234482939781	-3.469149632108419	9.057201406261063	3.620480971206808	-3.480733116944469	6.535474425368104	0.09764104975764065	-0.3042475664831115	-0.1006049340834336	-1.726924396734838	0.09678676257231919	0.5526495127167041	-0.5397520390269979	-1.083927840693211	-0.4787147447070849	-0.2119958810206941
0.1876714545037473	34.30269578931176	111.5875837483101	-3.212341772749984	-124.8978922301637	1010.916782908062	-126.2468069472685	170.8196642985756	67.34533977483807	-35.54985667374946	-45.0925699501525	-12.9580676196171	5.476978834133183	-39.9343997140078	32.21167982770993	-64.50352080233239	-58.1236627207634	32.07756849130752	-0.1141314931083781	15.77871451968444	-11.56638412865405	-0.05791181976846871	-20.20081205084541	3.991085158147085	0.5568441345304613	-3.269464286951819	-21.79535833361953	-3.548992048284837	8.836719417475623	3.570757434703584	-3.062251677089543	6.347681751727112	0.09972767418928791	-0.2978624811966499	0.09059178593007337	-1.523389129030745	0.1421482423560252	0.5035428389936962	-0.5456583965313608	-1.068835444735288	-0.480662212363884	-0.2174664421882242
0.1925170917444269	17.84931814864154	93.14405945945774	-12.9070147415148	-140.9404486075323	1098.567317696092	-126.1757653305694	162.2395066823593	61.85382568700468	-35.56822986533841	-40.89997489287715	-5.263879059939292	3.542933189736362	-41.54361977448637	28.87440671180639	-65.11649127858934	-56.21946772425548	32.19494806402384	-0.1100360089994703	14.54119424436383	-7.562895623518387	-0.05536261295498417	-19.95218900930055	4.317158685772467	0.7487523914550054	-4.089550665251685	-21.80435666475462	-3.604972522907392	8.565718027929572	3.44340588334312	-2.615650015402588	6.186204426104014	0.1007765161933443	-0.2896985256492883	0.2556520601791885	-1.265086867208185	0.1863438180308281	0.4499548804993131	-0.5444318858569489	-1.055523913812231	-0.4802248578167498	-0.2190178959309136
0.1973819285398158	0.2843577328189326	72.84470565606151	-21.42053942518961	-157.8814669849597	1183.86187806054	-119.2740851984649	152.724721213605	54.97153526487979	-34.71811525540677	-37.02397810204967	2.912712825493396	1.326012235054635	-42.78643347467188	26.03774019361419	-65.16580776712152	-54.07819006213729	31.4862226361325	-0.1037833549197714	13.42898891493971	-3.356492331194015	-0.05264182810586198	-19.57798272894173	4.578577231251698	0.9178554990175565	-4.722255371269265	-21.72793194529818	-3.631536679521459	8.27507874666408	3.252715421871858	-2.162386145897924	6.065676469175118	0.1005939567162675	-0.2800058305217439	0.3782483615761805	-0.9712078737614469	0.2269809188402703	0.3940597335192157	-0.5347506979298517	-1.045387434684016	-0.4782782141810563	-0.2169542313085984
0.2021892435043931	-17.20710761357019	52.41459030261354	-28.22651027763256	-175.7856693971503	1263.105158178637	-105.8309571899738	142.8982437120382	47.191885644458	-33.02631345026029	-33.54957189571149	10.90040895739013	-1.006732713111242	-43.54095385216242	24.10594413747957	-64.66445247150136	-51.96299308823295	29.97116016367322	-0.09561273885311294	12.42609014111191	0.7597801942835275	-0.04980086576371087	-19.10374521681902	4.757673334272038	1.05456694343969	-5.138940536593464	-21.54738606841895	-3.625241623807772	7.998778458731445	3.019369246319176	-1.723030627660013	5.995803285027101	0.09910135096980588	-0.2691370430449693	0.4466609451079894	-0.6649420613614868	0.2621615879396642	0.3381160006717231	-0.5159608873159919	-1.039329146325839	-0.475770127245712	-0.2118686469371381
0.2068632224455918	-33.47426174126703	33.49258821855088	-33.02206548971189	-194.2253391744986	1333.259041379858	-86.92235511007789	133.3770307566346	39.09278057289905	-30.622774272443	-30.50088182845981	18.11471298258722	-3.272387583311684	-43.72948076533775	23.35081470679539	-63.65408555352603	-50.0202561695457	27.76514134401135	-0.08604334873184533	11.51773689541044	4.523798152223749	-0.04715113280943749	-18.55737715702578	4.846238547316164	1.154307609628955	-5.336751667834493	-21.2491658622973	-3.585113064151329	7.762126973796998	2.766331684416369	-1.314212265682255	5.978941506230842	0.09636211686796481	-0.2574801409732448	0.4568112134001432	-0.3692168449012406	0.2907915367332296	0.284161831482078	-0.4882229727586	-1.03750122831922	-0.4732322131283071	-0.204511660844311
0.2113301540101398	-47.57917621513283	17.34030802099635	-35.74937340937493	-212.1875681631901	1392.523915239264	-64.33271315622197	124.6954911698211	31.23449276731815	-27.7164301065043	-27.85717124767324	24.13781651596597	-5.308805335886097	-43.33575369539912	23.85324721724694	-62.19916310255837	-48.23382167602187	25.05582198393758	-0.07578055569524765	10.69338638620579	7.74183867672749	-0.0449421301371247	-17.9652905055908	4.847119687189657	1.217985509243929	-5.338636904428151	-20.82926941498079	-3.513003717238687	7.587979486492834	2.515103853869093	-0.9464342832463412	6.009724818973438	0.09257303049715436	-0.2454234584997261	0.4095998543662072	-0.1029959017344783	0.3126972818163	0.2337586366147813	-0.4525845098993211	-1.039292936951914	-0.4717780197141314	-0.1956792557353097
0.2155195921846577	-58.93622195137419	4.696968333568964	-36.58770267227199	-228.5973689768827	1440.309827006637	-40.04337796725854	117.2268205182575	24.07467505286679	-24.56220746786678	-25.57915617059385	28.76471613971026	-7.003796467597699	-42.40740610353613	25.51318517075158	-60.38182049627888	-46.52422759520255	22.07750778357834	-0.06555472737307177	9.94891443270334	10.31027119215449	-0.04331972410341642	-17.35161340391134	4.771562987720561	1.250372289787924	-5.187389221979956	-20.2944127170038	-3.413233488098539	7.480741237028951	2.282694356621836	-0.6242236159884991	6.076444325663132	0.08802030132550229	-0.233317624458161	0.3144611614452191	0.1212561494043645	0.3284270327429051	0.1879242015241894	-0.4108429607729004	-1.043498858777886	-0.4715312281322458	-0.186126628965607
0.2193654673351004	-67.35893015603099	-4.248525606042891	-35.90228066971326	-242.7137297292287	1476.9942808959	-16.00685029843802	111.1588781668918	17.92968823916863	-21.4140859166306	-23.62778617666634	31.98451625013858	-8.306047367443659	-41.05157448507358	28.06594852955659	-58.30579317402674	-44.86126746624421	19.07172733720026	-0.05594725363875755	9.28406086240458	12.21245785084314	-0.04231529649632093	-16.7383704869155	4.638576791029228	1.259029792075978	-4.93584111558159	-19.66629772254538	-3.29259506686791	7.43844934391448	2.080227021347877	-0.3474999282201289	6.164339068703875	0.0830539206367651	-0.2215033049597421	0.1847608201597292	0.2981358415784221	0.339049831173081	0.1472143747896912	-0.3654107031923332	-1.048714930382168	-0.4725920619682091	-0.1765108107767111
0.2228071283122631	-73.00990178485756	-9.763472988903125	-34.15575005723514	-254.4262574457292	1503.567190514369	6.288338081490052	106.5137192478461	12.96326526959368	-18.48299298987913	-21.9727377310989	33.94908566551678	-9.223192917715958	-39.41591524809985	31.15777292773787	-56.09540207037032	-43.35406743771076	16.25000241004345	-0.04729566422265194	8.701489590542508	13.50570107905647	-0.04186630833120974	-16.14751101205986	4.469982192791151	1.251828102028715	-4.637980749755801	-18.98028163358494	-3.15987884546914	7.459021293591645	1.913041361532274	-0.1135804661090015	6.258515217064563	0.0780230158351788	-0.2103189202535427	0.03454072690591881	0.4286096157804031	0.3457859543638073	0.1118500955123095	-0.3190685118399923	-1.053669728750934	-0.4753272470835363	-0.1673775911238446
0.2257902993364854	-76.32134909023647	-12.47036430451855	-31.83127191101785	-263.8706633182628	1521.486067762143	25.78704253694543	103.1681954801585	9.183158322737148	-15.92317792560688	-20.59769768375683	34.91335504525486	-9.806606607393965	-37.66937150675002	34.4064698319481	-53.89362797866695	-42.10934411545543	13.77250054928222	-0.03981656045932831	8.205060851520187	14.29578192675029	-0.04184346327719633	-15.60154551005461	4.288470846715281	1.236002348664966	-4.339501585909871	-18.28297412723229	-3.025124805822498	7.523939098455783	1.781661586798023	0.08050579767411369	6.346899515757229	0.07326050171631836	-0.2001148445079632	-0.1189957839190181	0.5182599841556025	0.3497966313807184	0.0819269943385528	-0.2746795304431141	-1.057523410167608	-0.4789453187413612	-0.1591525182961604
0.2282679370955254	-77.88232327202964	-13.19179027423545	-29.36608256552768	-271.180565398454	1532.624827759611	41.82376042993717	100.9127035184004	6.476692409376834	-13.82304015624109	-19.49364835378903	35.17971816185739	-10.13273844912489	-35.98570573340358	37.46108372355786	-51.8529506167548	-41.16124525597371	11.7331802001303	-0.03364209627455206	7.798372125538151	14.71198025757825	-0.04208864450793318	-15.12294925653805	4.114725501586284	1.217311161421931	-4.073728034419863	-17.62722234202089	-2.898853223114683	7.617204462562494	1.683442841328532	0.2370178302179286	6.421553530379896	0.069051764148884	-0.191251874753585	-0.2625900133539466	0.5752560259806003	0.3520346524386479	0.05750481063511093	-0.2349517909411804	-1.059968217208516	-0.4832523928732684	-0.1521551405993097
0.2302009768984097	-78.30484487680823	-12.78407284901643	-27.1180622362469	-276.4318571417588	1538.952281403395	54.08248236743158	99.51865425671755	4.66592613182157	-12.21951694622555	-18.65439901052788	35.04836676689308	-10.28467150270594	-34.52672714787463	40.03865016433178	-50.12231853999202	-40.48641047865905	10.17253913674502	-0.02887823581570838	7.48427104406746	14.88430753386323	-0.04244606422555561	-14.73294681924294	3.965857256994983	1.199877649929065	-3.861180427251424	-17.06573552035356	-2.791125328282234	7.71852929133531	1.614223317682332	0.3570895830841704	6.478608219491211	0.06562362686982198	-0.184078512852611	-0.3848754204929867	0.6084308772092586	0.3532006995811205	0.03865985069081017	-0.2022393590417893	-1.061155476728504	-0.4877230797997077	-0.1466167206357346
0.2315589714577417	-78.12647870543672	-12.00367142516493	-25.35435631596767	-279.6691881893469	1542.231175672674	62.48460235095448	98.78204326722299	3.562130654399828	-11.11606147146844	-18.07604210284541	34.77879944557152	-10.33724457811918	-33.42639443727381	41.93681871857424	-48.83204018983388	-40.02999784920016	9.095583627201588	-0.02561529068471619	7.265160617508491	14.9257138557604	-0.04278294812112955	-14.4499648402717	3.854817969894803	1.186389569823391	-3.711704063893833	-16.64467321797582	-2.710563296075394	7.808135480716831	1.569639811593466	0.4407671012046916	6.517235490214981	0.06314562353705711	-0.1788986647467157	-0.477093043021098	0.6257621191424234	0.353759268101901	0.02550266902094113	-0.1784002983421683	-1.061511218125021	-0.4917380872330122	-0.1426938979683721
0.2323208116596206	-77.84834413597115	-11.41558807060294	-24.28980310134559	-281.1073361542826	1543.85861768943	67.04937638731118	98.46690484308303	2.994648555494495	-10.50497255655206	-17.75573296556525	34.56388472461387	-10.34717478073417	-32.78205469425219	43.02925757641188	-48.08088651736598	-39.71016371030808	8.494648225441296	-0.02386990709938741	7.142785599728629	14.92032497759886	-0.04300234731591094	-14.28791242715256	3.79033950805592	1.17843824859698	-3.628465129456955	-16.39875148565062	-2.663592084325392	7.866211506432522	1.546119402185619	0.487559881472181	6.538159517698574	0.06173206959948849	-0.1759405382973251	-0.5321319300487491	0.6333224708557095	0.3539893564117726	0.01814447744267508	-0.164728320354359	-1.061511510554714	-0.494557925734344	-0.1404839477944565
0.2325	-77.08521432160863	-11.62827015614241	-23.67013492598892	-277.3364830168205	1546.58305204632	67.5290301334162	99.02333717550901	2.793358728577196	-10.32538372084302	-17.68083752778768	34.50671913432548	-10.34747306485701	-32.6276898256129	43.2888298991143	-47.90133988334607	-38.79201884272321	8.270606185175593	-0.02463142493361668	7.114059031764626	14.91608416631724	-0.04305708185385378	-14.24945028222387	3.774954752348666	1.1765315426538	-3.608991447307165	-16.33989251465843	-2.652358246469235	7.871795645530772	1.540744266036607	0.4985554576403592	6.542989988765754	0.06139725988930117	-0.1752392428118901	-0.5522570955539412	0.6348751494120342	0.3540353994121063	0.01641582168052233	-0.1614822224807332	-1.061489217767052	-0.4952289550518558	-0.1399633237196829
0.2329542507337262	-77.56619225079429	-10.78666833265486	-23.40538067703294	-282.6377123410755	1544.637215635458	70.89472134907288	98.20783212498904	2.569215187338355	-10.01183359983727	-17.49174066651489	34.35055281983036	-10.34476160334972	-32.23157831668213	43.95106895255584	-47.44126051003799	-39.56575459663642	8.015221176815846	-0.02234450024590415	7.041331738923134	14.90027865689879	-0.04320112790852685	-14.15135353462568	3.735589224300817	1.171639248520017	-3.559844199152925	-16.18894363461908	-2.623561948302782	7.906465309642524	1.527386964428453	0.526417657622593	6.555066798498452	0.06054462657353801	-0.1734519131938614	-0.57407004464946	0.6384269468056606	0.3541389593463292	0.01203667079319265	-0.1532021510152406	-1.061392950415553	-0.4957769046158872	-0.1386422296441233
0.234015784775164	-76.94951445730956	-9.559514188971223	-21.86842799981252	-284.9014214877787	1545.683858413439	77.14564362717701	97.83399728811011	1.911813789653637	-9.20340103694797	-17.05420764543354	33.92301813716401	-10.31911192221152	-31.2792448371536	45.52030639119753	-46.33847308255344	-39.24732003889729	7.224693472780369	-0.01985691966492643	6.871906681860208	14.83521892526574	-0.0435669650015604	-13.91878028030923	3.641624332089645	1.159902951618345	-3.446506081339425	-15.82646276030883	-2.554488025503918	7.974377778925742	1.497681875046981	0.5914999489114012	6.582253534068335	0.05853117939830901	-0.169221448987448	-0.6451690557586185	0.6445832176268336	0.3543116405844566	0.0018174372531643	-0.1335728780972412	-1.060934856821835	-0.4977398558750336	-0.1355486580010554
0.2356644464118399	-75.54997084842341	-7.181339642972004	-19.33396701999698	-288.0302881179754	1546.194161692984	86.50414258882749	97.47348993722993	1.069213138966566	-7.987422571576378	-16.38722129956208	33.08719796656417	-10.2262020857086	-29.72666302079878	48.00744920416149	-44.5484270390639	-38.78192738683087	6.033907909545114	-0.01604952123695513	6.610212799341929	14.65699206691911	-0.04421413367977874	-13.54826215761683	3.490548750233053	1.140949443396238	-3.276123643563307	-15.2364725069205	-2.442256237320039	8.101887535829851	1.455754059535038	0.6926955941484619	6.62113650600417	0.05534953682869187	-0.1625003635662639	-0.7618966460179059	0.6482335679085877	0.3544075728775033	-0.01402828539318481	-0.1023410565430693	-1.059521702724967	-0.502047362067878	-0.1307308973045408
0.2378741041940474	-73.01541680972474	-3.082329305475165	-15.75311848314533	-292.0052489087764	1544.616574406193	98.29607227657527	97.25208189272038	0.2781872290401779	-6.457882197076358	-15.51851727014034	31.64623807818688	-10.00267731572541	-27.50805062396822	51.40439417176497	-42.00078347393074	-38.2498817929685	4.536455521441264	-0.01090689288799548	6.262053057914232	14.27414176536774	-0.0452250042057163	-13.03378572369198	3.279306937800383	1.114501158912496	-3.062920805131137	-14.3945399744099	-2.282407917650966	8.303367574640749	1.407588442703504	0.8291495260499425	6.665490609589554	0.05099145019246556	-0.1532007196168563	-0.9254879155028699	0.6420222731347168	0.3542671339970235	-0.03526177916014528	-0.0591630544301058	-1.056130238685413	-0.5093244735467775	-0.1242616590171008
0.2406098871668135	-68.96038981098613	3.365372619246943	-11.10762459486491	-296.6926956163442	1539.219419811099	111.4724905551192	97.29892499756217	-0.1702708711807386	-4.752910960507702	-14.4857207827243	29.37251149336316	-9.575564800473547	-24.54961024458737	55.63872367938399	-38.6108243603012	-37.71441539055329	2.868492032591234	-0.004429844346836687	5.834576289577242	13.58061989071239	-0.04668639214933133	-12.36841257964569	3.006143544953233	1.080737617759947	-2.83223308091841	-13.27273756661626	-2.069711273887408	8.595515663472856	1.360555828588491	1.000658429507342	6.705244517140736	0.04546685106414289	-0.1412229809624037	-1.136220400785362	0.617248052315952	0.3537807311659409	-0.06164096651985206	-0.003858836381580383	-1.049237263986521	-0.5204623629915579	-0.1162599947217429
0.2438286436775879	-62.76250248844308	12.63671619572333	-5.322469097179328	-300.7249226298416	1528.837984917249	124.4744616373598	97.96233675267921	0.04706749532548393	-3.047995473557112	-13.33749920417583	26.04667715470114	-8.875772733761425	-20.78275644555852	60.52705041954729	-34.29305482099365	-37.0553832955402	1.191895355626673	0.003025848730342978	5.335754206848275	12.47342639624665	-0.04866509743404498	-11.54617758530735	2.672376017164375	1.040478010847809	-2.623461039174707	-11.84572589441005	-1.799065886393127	8.989599071054517	1.322477973392612	1.207976190624058	6.725828743527426	0.03881869835383239	-0.126486597419424	-1.392813291224638	0.5651931854150847	0.3529269652562173	-0.09294987962189714	0.06333600240067988	-1.036805408794412	-0.5359443107103296	-0.1069020604757995
0.2474796094921079	-53.72447952544777	24.78914093389727	1.697473817555152	-301.3916304687735	1513.950265549917	135.191318347608	99.75096286030305	1.188014156435985	-1.536929678509615	-12.13565546977492	21.50532624117604	-7.854563979914506	-16.15769339597655	65.73573339823758	-28.98159723109892	-35.80695186859015	-0.3306602231085325	0.01062030078997775	4.774045500161181	10.87362485881663	-0.05117953824405677	-10.56535286477969	2.283927910031552	0.9950578041310418	-2.490707272581243	-10.09890378241393	-1.466717353167237	9.481562832677909	1.300372804730373	1.452456139745743	6.708296882434871	0.03113687718479174	-0.108975290251585	-1.69148366246742	0.4787566036661345	0.3517538564707196	-0.1289736075219936	0.1414962836037813	-1.016380772768845	-0.5554859560157244	-0.09642829499109666
0.25150520557877	-41.92819272707516	39.67709961263913	9.692691367127267	-298.49115027411	1494.507045418509	141.5544069646121	102.5933666943796	3.442895730779822	-0.4452694472246108	-10.94797548663487	15.68907214686964	-6.500129720580331	-10.66631960675412	70.75777769421498	-22.65721482671933	-33.87174405956885	-1.480497400611162	0.01821062578446847	4.157284888109652	8.747793763171586	-0.05417528564947199	-9.431232781250413	1.85237319625509	0.946047654598542	-2.499329545323011	-8.039551729792603	-1.072072975381576	10.06550346537704	1.299144399885316	1.73559074216302	6.630981945286927	0.02255699025441044	-0.08882000885747132	-2.02139501469579	0.3541275116724906	0.3503272828343789	-0.1694746420565966	0.2287188492784901	-0.9853898204540595	-0.5791589905959674	-0.08514457791158153
0.2558419453248002	-27.34668133853002	56.56917458580534	18.47613773321758	-291.0961538565541	1471.505047225138	141.6566797684503	106.6635988207686	6.89793567989125	0.05712085467842343	-9.843937868618948	8.68651481533861	-4.84995011144696	-4.350218698242111	74.94071390132753	-15.37563841309218	-31.17581805063614	-2.094466187414584	0.02531706075499682	3.493694901111029	6.125741328949886	-0.05750929388371777	-8.161079846146389	1.394408657209091	0.8944696403115451	-2.717983094067467	-5.706131159391007	-0.6195475521637728	10.74080150345548	1.320429145905607	2.057129057660273	6.472301433799814	0.01325872802550176	-0.06637560856386182	-2.374185391772527	0.192183311606021	0.3485899031882606	-0.2140405209607661	0.3219434910876297	-0.9415766215704995	-0.6075057177151014	-0.0734194704194842
0.2604214354539589	-10.51063407871159	74.23457846486578	27.70838637370058	-279.3973076689259	1446.519236740736	134.1185931729828	111.8047744012559	11.43106146069447	-0.1302999008367642	-8.883225606781984	0.757519204706429	-2.993634268915355	2.690751772727234	77.56502670680429	-7.289545626588732	-27.69577991073631	-2.070449893745401	0.03160412617166872	2.793075158973034	3.10863549128695	-0.06094971610874941	-6.787088447301008	0.9299814515213309	0.8401444798076826	-3.206011673300412	-3.173745163915368	-0.1201502643039751	11.48148501467143	1.361985081153415	2.413070626164549	6.214713792166259	0.003456837582016981	-0.0422827938399295	-2.73454123101058	-0.0008420309535385959	0.3462345818167289	-0.261919959202823	0.4169628384575636	-0.8835363663659777	-0.639444957682638	-0.06167107776672198
0.2651714545037473	7.561675693299428	91.03090649292213	36.96965039384274	-264.4142524474703	1421.582129296979	118.3732913854948	117.5778443908874	16.68935823881337	-0.987000817434474	-8.093835580034392	-7.678080722086656	-1.062955035518739	10.28440545923085	77.95988343234018	1.344707918658472	-23.40601722092229	-1.419391666291109	0.03681454921199623	2.06708902190783	-0.1367876459680181	-0.06419781010377743	-5.354492545295264	0.4797834753624988	0.7817130155908683	-3.998687857975583	-0.5536912881546642	0.4075101647181705	12.25588212074163	1.4179319378537	2.794881276547056	5.849096694162158	-0.006618198566583244	-0.01749859080859473	-3.089254141921522	-0.2137474989298695	0.3426985396272125	-0.3119698069339167	0.5086572076403076	-0.8112289689369876	-0.6740711371113841	-0.05034101881820942
0.2700170917444269	25.47423703322734	105.1979522761824	45.78938527020433	-248.2246074588121	1398.558646373907	95.01419094815714	123.2809350296227	22.1219610024471	-2.364303726677829	-7.473268883949551	-16.08225147755503	0.7894376342714107	18.21097344281667	75.66685904323997	10.18206573434652	-18.32584087249359	-0.2684373502764724	0.04077364381616388	1.333968856458712	-3.397808859563166	-0.06693511869032888	-3.921433376335911	0.06187262932026064	0.7167677511289073	-5.096478679391714	2.015913686335686	0.9372608184457585	13.01315196309166	1.479792677939378	3.188324733786777	5.378177125711926	-0.01671963740754456	0.006748512805515805	-3.423220287460287	-0.4317487446372438	0.3372118201858624	-0.3625497146623897	0.5914512504960883	-0.7263609383977522	-0.7090215009253127	-0.03986266873206381
0.2748819285398158	41.62236285633416	115.1086718302315	53.69818159203176	-233.3066544345056	1378.582137597259	65.72437610660356	127.9876109278199	27.01941447354151	-3.979784560952591	-6.962670965855702	-23.88766830680152	2.421042553446976	26.21290755683811	70.51991065722626	18.84104541368233	-12.43730111657505	1.13233204627087	0.04329332961664861	0.6150446477606339	-6.450771651066969	-0.06887126649042757	-2.545836441867678	-0.311311435363336	0.6428588869479837	-6.460495733086952	4.396768065951706	1.43967625052824	13.69314914089675	1.538282686441195	3.57642884168096	4.814974499747157	-0.02662063279301885	0.02919560420669431	-3.72451532978139	-0.639067337769206	0.3290067697024116	-0.411830131586795	0.6602750855868599	-0.6318731803033518	-0.7412979594463002	-0.03061769447620315
0.2796892435043931	54.76509488825081	119.6179040646397	60.35983581668426	-221.8436724406884	1362.5536628281	33.25111554003658	131.0743945782511	30.69039168649367	-5.472505909214231	-6.50020010545227	-30.57389665763243	3.72209798507216	34.00927968507659	62.79349737103851	26.93281601708862	-5.832399400481176	2.457847613293045	0.04451610930864996	-0.0602140728375341	-9.092019387687296	-0.06982084010816481	-1.28656846016652	-0.633081472056422	0.5587513112880322	-8.013026751388971	6.452139416266731	1.881271532470916	14.26102294443896	1.584853098453334	3.939782565183497	4.188722491509298	-0.03607274066914207	0.04849197430411745	-3.992026192932226	-0.8209030422340128	0.3176156522403096	-0.4577590185208558	0.7108435399640727	-0.532780333344605	-0.7693135221115885	-0.0228775599419264
0.2843632224455918	63.63875613412974	118.0277707121818	65.42241200457109	-215.6333563163608	1349.702943275202	0.6197204384454267	131.5763102169588	32.37979919206757	-6.424354419961372	-5.945348884127903	-35.78282587343277	4.642519700104536	41.37660212186248	52.95779137329323	34.18467797859196	1.657103268005519	3.322937777051363	0.04491355828955157	-0.6705103338072484	-11.17983765924202	-0.0696839902569301	-0.1737076752084868	-0.9076802058567023	0.4636764535024562	-9.661669400878669	8.122332675240191	2.242928509334358	14.65730232562647	1.613595263706615	4.265146697788487	3.521999675358656	-0.04495809031362091	0.06407490491021184	-4.225087019603671	-0.9669963604987868	0.3028062554346511	-0.499050754589146	0.7417034287561048	-0.432356760845295	-0.78974109317373	-0.01680316348829545
0.2888301540101398	68.57929071258555	110.8471908007691	68.89494359400737	-215.1044584839447	1340.344545881271	-28.84907149256043	130.1328439871335	31.92109662938493	-6.616994737104452	-5.324570964479096	-39.33641300090709	5.179333219502531	48.05623679057381	42.02591169983891	40.32569374118652	9.269095685223828	3.517964058911516	0.04413849379655396	-1.182188964541625	-12.64200117733696	-0.06860535687207851	0.7466336293067715	-1.132079409339515	0.3623152596145307	-11.28754312424092	9.309286260685926	2.49305797199519	14.91048003733565	1.621864722330567	4.535701999603732	2.870370182782625	-0.05293215005333368	0.0747868395918635	-4.432092272823465	-1.070926445879461	0.2854066050190019	-0.5338246683475868	0.7514708849012582	-0.3386923627928055	-0.8033777178292785	-0.01234991934436384
0.2930195921846577	69.3083298241154	98.29990552134983	70.67149296610357	-219.2497477480902	1329.029853134376	-53.00037878361883	125.7946085125659	28.86829788083812	-5.734206464169109	-4.354332917170802	-41.28522657589739	5.392953019357033	54.0138519788492	30.37432350875395	45.42744754874344	17.24781955314818	2.72157472799722	0.04421999074314512	-1.608160348151327	-13.48839395343165	-0.06659604007250156	1.523507313999759	-1.333381485707934	0.252784318683499	-12.83177185923741	10.15791031865342	2.662116627837434	14.98220845616668	1.60966984458374	4.76062826096176	2.218377233845967	-0.06030606257357884	0.08229283018164177	-4.624114136125311	-1.133894985921123	0.2654242458693561	-0.5634137807427856	0.745556295279956	-0.2479193308631547	-0.8080654901624605	-0.009449358866629495
0.2968654673351004	66.81820820570158	83.20562613343118	70.77909686385772	-229.3755170911296	1320.764983199377	-70.61137558388941	120.2456425184942	24.11825949022879	-4.206493177996173	-3.451785887781123	-41.84459875120125	5.347221506386416	59.00368552350334	19.62542864632045	49.27259766520108	24.39164646359012	1.302237561520665	0.0437440103253921	-1.904869386683997	-13.80183295901484	-0.06428210818660798	2.078311263877542	-1.48576709649897	0.1496898393374742	-14.16394654651481	10.50447582502989	2.700153208826654	14.95717223173335	1.581864894954563	4.917599485262063	1.671194135808382	-0.06626763974346878	0.08447219333093303	-4.791235477812293	-1.158840840944017	0.2455251783604535	-0.5848865622232906	0.7225812187747354	-0.175561564153163	-0.8080031606002913	-0.007726943194242802
0.3003071283122631	62.20809424993649	66.18862995404356	69.64293441499602	-241.2235658885878	1308.058438509081	-81.70203793355158	113.2259016517349	17.80332242580909	-1.961099493324177	-2.28568652599968	-41.3780890276366	5.14755802093154	63.17300619966202	9.627218023186748	52.20486783273947	30.82663458690511	-0.8483640784073868	0.04316661428553417	-2.121915911318574	-13.70899574731235	-0.06183767364698688	2.516018586305678	-1.625195712684502	0.04904525825919259	-15.30503082355169	10.64056979894554	2.683266527294899	14.83434597638229	1.542953004949256	5.034619175606142	1.171019477528656	-0.07147640597918253	0.08474721181064809	-4.949931465123851	-1.156163021765578	0.2255823209749393	-0.6017142171871879	0.6926947273322028	-0.1107397073845464	-0.8026019339475285	-0.007009921066765977
0.3032902993364854	56.34555489949277	47.46724005860563	67.72306323611049	-249.9691783619581	1284.64663406411	-87.2224034055248	104.3269857370061	10.16293496766838	0.9798616514717295	-0.4861594707224226	-40.10003373452624	4.859483356447501	66.6775253442251	-0.1069035500290827	54.5602451094049	37.06265063078968	-3.734438773509297	0.04294159992742025	-2.305556910104859	-13.26986353782149	-0.05898377317814962	2.950339544903021	-1.790218644833517	-0.05598491375024595	-16.30469817857502	10.83178129634475	2.685589072571878	14.60668600780984	1.492207283967804	5.146165169782661	0.6491616786126363	-0.07679707646177175	0.08614167125905237	-5.111989217035048	-1.131167671389401	0.2050365269396549	-0.6181078719864516	0.6640010322561487	-0.04175094456696923	-0.7921615007429148	-0.007023066537880242
0.3057679370955254	49.80987381639167	33.13295021800434	64.9365493985007	-264.5152181933108	1273.301075081725	-89.04986817778607	97.15762905635074	3.698393144720867	3.214269950094529	0.4296650331958016	-38.64173127655558	4.551227624219723	69.14873946302188	-6.570413489820934	55.83983356166041	41.22289933310698	-5.997235276372935	0.0402612606723356	-2.360021073918857	-12.7701253208574	-0.05702767070672267	3.117181287129943	-1.87072226364985	-0.1277469898942606	-16.95692793631284	10.53419703417541	2.552890018436557	14.40728553116684	1.448940238887026	5.180079422162469	0.3641764140289223	-0.07966186294574651	0.08190691282293838	-5.211379046326435	-1.097871497286233	0.1899680730309126	-0.6245125502606436	0.6272838136316299	-0.008526802354571622	-0.7825603470077055	-0.00724961532413515
0.3077009768984096	44.33299978999527	24.23879501289879	62.06148125121314	-282.5464306390702	1274.729260097997	-88.76896458394012	93.08385622077661	-0.8743496143743226	4.543477413938717	0.3564859086685459	-37.50392719339948	4.298712851567615	70.72790158102515	-9.756068467080906	56.30457647964209	42.91031300064132	-7.425271756184565	0.03713012177515654	-2.322691439099555	-12.41076528791572	-0.05614935025434599	3.052176048861313	-1.866508708472135	-0.1632449440660411	-17.29441402535109	9.888243813098672	2.325856251493017	14.32597760262558	1.422961317968062	5.147276774776444	0.3046677637736045	-0.0801478275766084	0.0736860389544296	-5.265693342972679	-1.070972722483404	0.1811241821831491	-0.62208204027754	0.5890912082673903	-0.008049866297756114	-0.7786102634143088	-0.007542593382036198
0.3090589714577417	40.87397996268682	18.7023618557265	59.89591756331507	-296.667713353891	1278.261562302159	-87.66433437422839	91.11498158942523	-3.968887598989684	5.372512768085514	0.05620556176559077	-36.73658994678447	4.124516738988223	71.72873262067321	-11.36945619090771	56.47402131611219	43.23709641549625	-8.374074379337332	0.03467669471487103	-2.273987998118772	-12.18221935211071	-0.05576089787452891	2.945372425723329	-1.842277746834773	-0.1814191077778536	-17.47018317637838	9.310988768829278	2.127558846285231	14.31875442136628	1.408297474141502	5.105014826409707	0.3163922553618247	-0.07992551909146439	0.06643944411524161	-5.304499789906728	-1.052871935661833	0.175869749155435	-0.6179700605937212	0.5597101576809123	-0.01585054753826243	-0.7780415764453092	-0.007811593337636664
0.3098208116596206	37.93790282878657	15.78628357760624	58.39028696274089	-306.3847086727301	1281.051424434509	-87.06448418556688	89.24419903128859	-5.840302272665117	5.851685693076337	-0.1547195968247452	-36.31512212481631	4.028705516898579	72.26871868478761	-12.14891048359731	56.54178350608162	43.85415241122242	-8.918933296099919	0.03323596699481395	-2.242959654085015	-12.05992018642304	-0.05559028934862377	2.874431155979256	-1.824919075004416	-0.190354037481396	-17.5544557266563	8.965282851929684	2.008711713988756	14.28051377023642	1.400904563226148	5.077682880696816	0.333626427837725	-0.07969902940067677	0.06210864373595038	-5.319152519097798	-1.042976989388986	0.1730985419714148	-0.6152117777708599	0.54282954642813	-0.02178967409007224	-0.7763327321483473	-0.007980758911697382
0.31	37.15561938073964	15.11189511937348	58.01106257712211	-308.8106667078666	1281.703371948413	-86.92079787578915	88.72436570874014	-6.295507635397076	5.967725542080313	-0.2049507935961978	-36.21614691801501	4.006343620138633	72.39469192535719	-12.32700830156462	56.5569002170952	44.03886809212421	-9.050284884764897	0.03289829554302845	-2.23556584199607	-12.03130847852609	-0.05555211970429875	2.857432705186126	-1.820753010853463	-0.1924202403060037	-17.57337784476591	8.883297327987183	1.980424169607781	14.2679899764188	1.399200698417452	5.071133555922645	0.3381244110837117	-0.07964322466053078	0.06108099242610476	-5.321970264804501	-1.04065531896091	0.1724512618919078	-0.6145483023135817	0.5388504522616593	-0.02324597766319036	-0.7757798376330878	-0.008021872780405278
