DataType=double
version=3
OpenSimVersion=4.5
endheader
time	pelvis_tilt	pelvis_list	pelvis_rotation	pelvis_tx	pelvis_ty	pelvis_tz	hip_flexion_r	hip_adduction_r	hip_rotation_r	knee_angle_r	knee_adduction_r	knee_angle_r_beta	ankle_angle_r	subtalar_angle_r	mtp_angle_r	hip_flexion_l	hip_adduction_l	hip_rotation_l	knee_angle_l	knee_adduction_l	knee_angle_l_beta	ankle_angle_l	subtalar_angle_l	mtp_angle_l	lumbar_extension	lumbar_bending	lumbar_rotation	arm_flex_r	arm_add_r	arm_rot_r	elbow_flex_r	pro_sup_r	wrist_flex_r	wrist_dev_r	arm_flex_l	arm_add_l	arm_rot_l	elbow_flex_l	pro_sup_l	wrist_flex_l	wrist_dev_l
0	0.3109968118733503	0.1155362362514295	-1.064368436555254	1.587320662661474	0.7538467783802019	-0.2808857387466342	-2.351630382559336	-1.762901203952915	-3.028188489325113	1.123140790477912	-1.043275678911561e-13	0.928466843161765	-5.531470744282554	0.1044031436077589	0	-1.355747500770788	0.3375217120968665	-2.728139125007441	-11.16125389958641	-8.543998142249714e-14	-11.1612539092396	0.3946915912051636	3.948111598547527	0.004879595151293771	-0.3617713374823049	-0.6768124203969237	0.9878997120436077	0.6672709809265154	-0.5612488249632184	0.5247448797691293	0.905710956521656	-1.27435367270705e-12	0	0	-1.466827901173454	5.018124499545897	-0.3412792222699891	-0.2186754776046668	-1.27435367270705e-12	0	0
0.0004927087852480694	0.3324190175199965	0.1070811667835087	-1.070345231362603	1.589786031989281	0.750319318272623	-0.281309205564368	-2.348226023653998	-1.766926196370774	-3.005598668886687	1.212461880870784	-1.468557576721867e-14	1.014683804563435	-5.506154236199324	0.06815652749077707	0	-1.387646691493225	0.3308121804376588	-2.752021823059794	-11.16507869558117	-3.792697939046696e-14	-11.16507869747498	0.3946277981186336	3.98036757988529	0.004863172953618919	-0.3743607975132154	-0.6683584489559615	0.9921697049824306	0.6649350379570146	-0.5618564191729334	0.5268772132775421	0.8965073709593252	-3.631347035092592e-13	0	0	-1.45204839638398	5.022437508956644	-0.3282750091350275	-0.2209948505473349	-3.631347035092592e-13	0	0
0.001644115066457508	0.3824794134597044	0.0873215559687278	-1.084308214037288	1.595546984563986	0.7420735302485775	-0.2822985614698922	-2.342326123118146	-1.776328758646184	-2.952777680749797	1.419336226186719	4.042259620091367e-14	1.216154109385161	-5.445628698587264	-0.01653637451364088	0	-1.462173814233583	0.3151312999230336	-2.807832258276834	-11.17397385741185	1.834305537489387e-14	-11.1739738412898	0.3944878771333395	4.055737891331161	0.004824794615135668	-0.403777294313635	-0.6485995316202655	1.002145830907324	0.6594739066718319	-0.5632770751593514	0.5318592338592275	0.8749994719453351	6.03903064312299e-13	0	0	-1.41752544272638	5.032506085723083	-0.2978948419174661	-0.2264150466427801	6.03903064312299e-13	0	0
0.003432356695983019	0.4602127856001977	0.05661558336279088	-1.105925952706557	1.604488604537174	0.7292255786436079	-0.2838311568230642	-2.330723548971416	-1.790875571887059	-2.870227297862318	1.748881390330973	-4.238096049676775e-14	1.528905730931401	-5.349291583693107	-0.1478848807837469	0	-1.577627881181153	0.2907534191669577	-2.894498211450956	-11.1870778811054	-6.455134593760762e-16	-11.18707783882303	0.3944222863599033	4.172657602712675	0.00476516856575874	-0.4494032928340084	-0.6178636951667364	1.017600432722326	0.6509544537884061	-0.5654964368367474	0.5395803275814883	0.8415936130872474	-2.452030761108907e-13	0	0	-1.364158504832801	5.047970620527984	-0.250864901029395	-0.2348345733248532	-2.452030761108907e-13	0	0
0.005829089867451537	0.5642901063475309	0.01533943622690048	-1.134422727396177	1.616433041108709	0.711715726940485	-0.2858574976033169	-2.317559871564407	-1.809978544062123	-2.755988002677824	2.188489919661443	4.316334493069432e-14	1.947019798472424	-5.216174905536199	-0.3226120123675305	0	-1.730312537348566	0.2579126496262681	-3.010563273189912	-11.19966524413021	1.811999318398869e-14	-11.19966517966108	0.3953956697426708	4.328398124109073	0.004685102443690406	-0.5101298893968289	-0.5763309196677866	1.038038927925994	0.6392713431778169	-0.5685613660549153	0.5498131412301431	0.7968058915006143	1.195369538572726e-13	0	0	-1.294384480224467	5.067487179719397	-0.1889042770141674	-0.2461288963950932	1.195369538572726e-13	0	0
0.008796491359919972	0.6927061780445419	-0.03622691875689792	-1.167835401551539	1.631065378381071	0.688911573043129	-0.2882581435468644	-2.305785708184307	-1.832092428661627	-2.60058375418115	2.725498755014756	-1.461360007648437e-14	2.460444595685762	-5.039174764936913	-0.5337351178789939	0	-1.911320779675767	0.2166082007787964	-3.153869185266643	-11.19588830749126	-4.220227800114002e-16	-11.19588826130194	0.4007072365467328	4.517400471714125	0.004585465619545029	-0.5836393026871043	-0.5236028838935108	1.062268173486364	0.6237719351009514	-0.572698467940161	0.5620198924602029	0.7412912804379226	5.944547914562847e-13	0	0	-1.214804238830793	5.08693430143389	-0.116351239942215	-0.2601443634896407	5.944547914562847e-13	0	0
0.01228775618942049	0.8425230640746396	-0.09761674065708784	-1.203329078568517	1.647959471422579	0.6599628730297386	-0.2908714415535635	-2.301056250986037	-1.855058982308028	-2.391366765246363	3.340611820524309	5.158481416307492e-14	3.054412387035478	-4.807296846708377	-0.7707207716042719	0	-2.108258523539897	0.1668950777303973	-3.321116060123044	-11.1540298934624	8.037738927598791e-15	-11.15402990418724	0.4145504881328529	4.731338651922822	0.004468165316421441	-0.666526959351192	-0.4591974178339228	1.088605525877716	0.6034697040172808	-0.578089406440599	0.5752928702835656	0.6757718924111535	-5.093222207126927e-14	0	0	-1.134159311000372	5.100593021519914	-0.0388425534224834	-0.2765944093317508	-5.093222207126927e-14	0	0
0.01624782228925581	1.009667981018083	-0.1674837457901652	-1.238629503537265	1.666696289648206	0.6249303032376392	-0.2935905802101149	-2.306351718643937	-1.877414294257143	-2.126505584982232	4.016599840972575	-1.934798639525643e-14	3.710610553011994	-4.522470261526557	-1.022369667906537	0	-2.31200288009552	0.1096786574593522	-3.507282329838009	-11.06456037370424	3.355870262111351e-15	-11.06456035430115	0.4376097855594052	4.961057665905925	0.004337531176591411	-0.7553227377744167	-0.3840042547115849	1.115744555619227	0.5778989620537258	-0.5843279656680717	0.5884838764155679	0.6009500264363766	-6.770258569650962e-13	0	0	-1.056687883338725	5.10536803610866	0.04087584452098829	-0.2948871162312962	-6.770258569650962e-13	0	0
0.02061423583687663	1.189019654355836	-0.2440354599039965	-1.270992497438547	1.686783146427051	0.5839984561117152	-0.2962909042357686	-2.326520691461887	-1.897431121149279	-1.805676372824417	4.727982435882719	-4.302008410378954e-15	4.406311732504826	-4.18678282709974	-1.274943853039829	0	-2.512023127586753	0.04620335627738981	-3.705635512913428	-10.91761396004139	-2.488656947106111e-14	-10.91761396061296	0.4697942186803687	5.194819580619728	0.004194575813950828	-0.8457174814736728	-0.2993393802539926	1.142127473982723	0.5464891362755583	-0.5907106780331685	0.6000595788612405	0.5175051662156103	2.494442043391109e-13	0	0	-0.9865922144774525	5.097759641310064	0.1201247004211811	-0.3142864553434881	2.494442043391109e-13	0	0
0.0253181352773377	1.374584722250936	-0.3252076290068855	-1.296966441030663	1.707637288579966	0.5372162686657563	-0.298805133360279	-2.364256594501106	-1.912843964469596	-1.427266502316994	5.450717675848137	-1.458419507836843e-15	5.114943301049861	-3.804765228516087	-1.512343877478775	0	-2.695224130074049	-0.0221270453361463	-3.90776653429342	-10.69929568334268	1.355356726193014e-14	-10.69929569326028	0.511015451794432	5.418015799145706	0.004045008557249996	-0.9324573416405515	-0.2066388321384002	1.165777547454703	0.5083908714290888	-0.596333853489224	0.6081139493537604	0.4261007411724307	1.95264774075442e-13	0	0	-0.9293645728303219	5.072961408427613	0.1954038067189864	-0.3340275767622389	1.95264774075442e-13	0	0
0.03028533698130559	1.559733054621293	-0.4083118871553643	-1.313600849005999	1.72868997045548	0.48525292803776	-0.300993842855975	-2.423432515768176	-1.92185645623881	-0.9979489612956381	6.152943942154518	-1.925772454609073e-14	5.808777832587133	-3.387651520134977	-1.719623748394648	0	-2.851289360006158	-0.09327780084788215	-4.10362100639239	-10.40467772645342	-3.440010208309453e-15	-10.40467774661007	0.5582597760650441	5.615450192337125	0.003891623158432648	-1.010404794140582	-0.1083848893626311	1.184986568175883	0.4631416428366434	-0.5998069371343556	0.6106285059358725	0.327393238758695	-2.708110910801408e-13	0	0	-0.8871447529900509	5.027973806220415	0.2652235487729171	-0.3532965517180257	-2.708110910801408e-13	0	0
0.03543750502895751	1.737720246321646	-0.4904531241085517	-1.318144905897507	1.749369538929459	0.4289319803624048	-0.3027146499401922	-2.505001907106139	-1.922759338535617	-0.527147526111828	6.809095684662022	1.84352866312576e-15	6.460689232699987	-2.945434295568774	-1.883595690924283	0	-2.970861978484378	-0.1649834424611094	-4.282244282660665	-10.03141218116584	-3.992987301436275e-15	-10.03141228371566	0.607414668282505	5.771687775688137	0.003732956282106724	-1.074554668650499	-0.007445545421757194	1.198087426242817	0.4104122699229572	-0.5995599798291724	0.6056106364082791	0.2221281831559502	-9.841035994274033e-14	0	0	-0.8611951756789583	4.960198760140023	0.3284445961166082	-0.37140684828049	-9.841035994274033e-14	0	0
0.04069338655285454	1.902236072523617	-0.5686630863737914	-1.30856152163467	1.769149283507499	0.3693456346425855	-0.30384618325666	-2.611003573176351	-1.914294830416156	-0.02830696769262502	7.38860258190871	-1.203875168503171e-15	7.046924211260537	-2.4977414423755	-1.994973769488668	0	-3.047347662151112	-0.2347985234450638	-4.432719257629179	-9.582758313619921	-1.920694515325464e-15	-9.58275824565275	0.6531444759205642	5.872981073305013	0.003576740303840357	-1.12070290439338	0.09292026648853008	1.20372551218168	0.3502303071565386	-0.5939668186210434	0.591373056122805	0.1112398004538178	2.419481345826545e-14	0	0	-0.8510249744020899	4.868348615875661	0.3847401152427416	-0.3878579133450164	2.419481345826545e-14	0	0
0.04597009311582306	2.04797901746335	-0.6401710944281043	-1.283791078508568	1.787578097261947	0.3077809570678358	-0.3043009480864289	-2.739416045187398	-1.895815452533191	0.4824467548989188	7.869676110756293	7.565033843283464e-15	7.549430097821497	-2.071815820002021	-2.049574019589884	0	-3.077492619898374	-0.3003095253011255	-4.545416561739481	-9.067464477640858	6.291478933813789e-15	-9.067464445093341	0.6896784069117321	5.90898179804745	0.003424858926002199	-1.145926751285342	0.189347000656816	1.201000642581138	0.2830583040123979	-0.581594801632876	0.566790355991431	-0.004042430406679212	3.616914464191024e-13	0	0	-0.8546735401056865	4.752672371747991	0.4343745774040199	-0.4023785272291676	3.616914464191024e-13	0	0
0.05118440789980219	2.17114185553656	-0.7026900694781123	-1.24390186430388	1.804301105216791	0.2456116935674144	-0.3040367075714341	-2.886360605835024	-1.867373855614866	0.9883180886529608	8.241724994849282	-5.894126510313715e-15	7.957462439966639	-1.691972325653605	-2.048653591758556	0	-3.061485509041892	-0.3593850237331219	-4.613307795521099	-8.49876381155719	-1.848874014126718e-15	-8.498763863785868	0.7118520703967599	5.874211263582887	0.003276486697231648	-1.148925428924504	0.2787212021183521	1.189569909815682	0.2098238218269737	-0.5614779170972604	0.5315108574089729	-0.1221180386079924	-9.804465251576885e-14	0	0	-0.8692808290279332	4.614994476415589	0.4778688956803748	-0.4149241314690806	-9.804465251576885e-14	0	0
0.0562540980850057	2.269715598875091	-0.7546268660991591	-1.190193758872912	1.819076889732506	0.184247124286608	-0.3030676108336641	-3.045990393795056	-1.829810998936696	1.473227449016767	8.504282325756288	2.56986409671382e-17	8.268258231487328	-1.379679514263768	-1.998517039024442	0	-3.003026380537992	-0.4103719782251047	-4.633052030176368	-7.893857075121949	-7.251423762360316e-15	-7.893857050295421	0.7159084637649709	5.769134899717413	0.003132494443204097	-1.130229614758608	0.3584606501959541	1.169751402629713	0.1319541607681243	-0.5333272009658423	0.4860955995323151	-0.2409979381853659	-7.003825355552113e-14	0	0	-0.8913989821084302	4.458836193887779	0.515899197776495	-0.4256221302497898	-7.003825355552113e-14	0	0
0.06109921172279988	2.343575059684379	-0.7952395386937406	-1.125099610813625	1.831780034429233	0.125042374941943	-0.3014649727096069	-3.211645700185726	-1.784699605915557	1.923541448434089	8.665357648357451	-6.092072618621598e-15	8.48654755628344	-1.137206251700702	-1.909253953493963	0	-2.908745621769344	-0.4522720168895625	-4.605637584818556	-7.272323972919313	-3.078293170226376e-15	-7.272323955282162	0.7002563415705615	5.600393018462173	0.003003494035432646	-1.092141303478773	0.4267903419419406	1.142525325727064	0.05132668781251924	-0.497674518385246	0.4320395447818708	-0.3583538756851815	-2.686440592760145e-13	0	0	-0.9175819372407269	4.289195302894755	0.5490752811440659	-0.4347011869955678	-2.686440592760145e-13	0	0
0.0656433386566332	2.39433304770973	-0.8246713855321322	-1.051994968679532	1.842396048178678	0.06925233765439939	-0.2993530260600736	-3.374781831223728	-1.734239106410255	2.328940815868186	8.742519340751617	1.401026116439608e-14	8.623163253606817	-0.9568293971724529	-1.793138069586976	0	-2.787535670513928	-0.4848145667962727	-4.536401798321083	-6.654905466461464	1.282736530911511e-14	-6.654905424513884	0.6657433154775193	5.380267621644078	0.002883852954714832	-1.038488991367837	0.4828708637227059	1.109484947523755	-0.02980407021997125	-0.4558855500729752	0.371680211627709	-0.4716285205939907	2.940239284221805e-13	0	0	-0.9447261878729649	4.112288124174296	0.5778988389905934	-0.4424143945502418	2.940239284221805e-13	0	0
0.06981481562497333	2.425009785253108	-0.8438837822824125	-0.9748886667428707	1.851006464989	0.01798851890786462	-0.2968981940447699	-3.527716834161864	-1.681066831059334	2.682878214597137	8.75642012343005	-2.579115074211281e-14	8.693034959237893	-0.8246011163137448	-1.662939998828866	0	-2.649638199135067	-0.5084433580859616	-4.434435893448867	-6.062089108501903	-6.771797950611096e-15	-6.062089067535304	0.6155658938061157	5.125397045627015	0.002775271022017654	-0.9742040640370659	0.5268138316197881	1.072705502887836	-0.1089324391091571	-0.4100580087531468	0.3080004953377106	-0.5781826215956467	5.333973178696507e-14	0	0	-0.9703845336328647	3.935109394309235	0.6027234988241446	-0.4489827576683824	5.333973178696507e-14	0	0
0.07354785659418331	2.439580665616478	-0.8544884528954653	-0.898077663046444	1.857770236764371	-0.02780161148518392	-0.2942906186288918	-3.663725792071592	-1.628046245497887	2.982346817661448	8.729434772728496	7.602344258862013e-15	8.713023719241894	-0.7218428135121076	-1.530542677384022	0	-2.505768201174531	-0.5242059923269115	-4.311502611163379	-5.513045172199411	-2.694776919721899e-15	-5.51304515851101	0.5547753020464112	4.85504260204474	0.002683226221820508	-0.9048174086320202	0.5595568819132567	1.034569407458954	-0.1834477336004127	-0.3628161063583853	0.2443640723073352	-0.6754509496148957	-6.567523420314485e-13	0	0	-0.9928849613975609	3.76496240638722	0.62378834904453	-0.4545636106439728	-6.567523420314485e-13	0	0
0.07678359065557917	2.442481936653478	-0.8585178312585191	-0.8258017968700203	1.862899363644342	-0.06734367676628715	-0.2917256588718809	-3.778836980941274	-1.578047740163587	3.227259238462645	8.680339244084202	1.434600850512668e-14	8.699958489034849	-0.6380536404439416	-1.406010679548894	0	-2.366301533075926	-0.5335769607834187	-4.180697689123881	-5.024785277538387	1.948629960375367e-14	-5.024785229509067	0.489560940500146	4.58920341646863	0.002602275872261358	-0.8359451922507988	0.5826447703339104	0.9975642611085564	-0.2507926918623367	-0.3170485957221961	0.1842256144669971	-0.7610791801904836	7.490942164065874e-13	0	0	-1.01133499464033	3.608972254442491	0.6412518642578692	-0.4592453914826781	7.490942164065874e-13	0	0
0.07947099168744461	2.438142198831554	-0.8581677629012285	-0.7619505396848648	1.866632251857868	-0.1000299774269443	-0.2893887639760753	-3.871721573875794	-1.533754393961893	3.419550725402673	8.622826459527523	-4.806835393205941e-15	8.669133293766107	-0.5706004548267303	-1.297175232333393	0	-2.240633356660204	-0.5382421920929533	-4.055095824538195	-4.611665144626341	-2.39962713781572e-14	-4.611665050820283	0.4264495905577018	4.346889139368295	0.002533919071926573	-0.7728393829841069	0.5979533847781782	0.9640864474099655	-0.3086108541017684	-0.2756339704878633	0.1308586747402909	-0.8330255046737576	-1.22219420696002e-12	0	0	-1.02550001993312	3.47366187284212	0.6552293103371641	-0.4630606343602037	-1.22219420696002e-12	0	0
0.08156768768021185	2.430585781860119	-0.8555500342737788	-0.7098433007033117	1.869207491109446	-0.1254077391015455	-0.2874408442610154	-3.942619908261664	-1.497504003911761	3.562227026067082	8.567040647148852	-1.058217832400055e-14	8.633343597170651	-0.5178439889527557	-1.209645642579613	0	-2.136716471062811	-0.5398814763927368	-3.946572910757298	-4.285154246920712	3.485999711299337e-15	-4.285154145867875	0.3715730730908284	4.144743414677309	0.002481244252829882	-0.7200420484938154	0.6074074474542378	0.9362702671758196	-0.3548697258252982	-0.2411932774215346	0.08713216146485891	-0.8896217790607847	1.320496840521753e-12	0	0	-1.035610971943925	3.364617363799951	0.6658140955608098	-0.4660065622208752	1.320496840521753e-12	0	0
0.08304065359974588	2.423131614411028	-0.8524800088804564	-0.6720894566001945	1.87083784375378	-0.143160412718104	-0.2860095170278233	-3.991798167676549	-1.471173057559065	3.658487246090012	8.521299486810545	3.966752486499412e-14	8.602414519978939	-0.4799029897195766	-1.14710711704934	0	-2.060775636759193	-0.5399733779679128	-3.864906810539255	-4.053819247940477	8.012996037084432e-15	-4.053819174828329	0.3300867423297026	3.996093513973742	0.002445557481425742	-0.6811562358527337	0.6127276827832527	0.9158553909803138	-0.3879515165336263	-0.2158934979970501	0.05534962818550818	-0.9295996965118618	3.04416067940411e-12	0	0	-1.04213730341732	3.286257058712497	0.6730850288108665	-0.4680649191741495	3.04416067940411e-12	0	0
0.08386699317952337	2.418185996624199	-0.8503131697317858	-0.6505091165593924	1.871687322273503	-0.1530896717639109	-0.2851845024159263	-4.018008062677437	-1.456095164616134	3.711027291896587	8.495708740099467	4.535951861787646e-14	8.583069365276282	-0.4573982704824773	-1.111726451997048	0	-2.01714790428635	-0.5396398715101328	-3.817159237075126	-3.923395250251527	4.205881669787509e-14	-3.923395206830016	0.3057612816112582	3.910364229339184	0.002426206005565466	-0.6587125285333564	0.615231728040864	0.9040915359742698	-0.4067164289041568	-0.2013050135963285	0.03714404871761779	-0.9520995880135881	4.066389453637385e-13	0	0	-1.045569355165741	3.241680860170465	0.677104813577899	-0.4692165667732844	4.066389453637385e-13	0	0
0.08406135207201153	2.416943746217576	-0.8497571535216543	-0.6453924124712257	1.871880286746434	-0.1554217782266808	-0.2849881981082738	-4.023479149242631	-1.452517194024473	3.723230821526413	8.490920164758517	3.235204741489064e-14	8.578316980414819	-0.4518606152959164	-1.103378660012681	0	-2.006781702660919	-0.5395211259474496	-3.805728879502268	-3.892655372407046	4.534186553595086e-14	-3.892655337265338	0.2999307143367835	3.889960335283416	0.002421725491612379	-0.6533692670947643	0.6157703646723954	0.9012924430627188	-0.4111511941302806	-0.1978327428326085	0.0328233802053014	-0.9573987949639063	-4.273057807020967e-13	0	0	-1.046351438371898	3.231133166049606	0.6780441161422107	-0.4694871599155664	-4.273057807020967e-13	0	0
0.08455406085725958	2.413660534422974	-0.8482685800223673	-0.6323524642304429	1.872357757926376	-0.1613279733737447	-0.2844867534076145	-4.036672074211884	-1.443393389500934	3.753902911212295	8.476884243047568	-1.106780138433119e-14	8.56593038152829	-0.4383454094728059	-1.082177090681358	0	-1.980326477006753	-0.5391512422443383	-3.776413337482785	-3.814623763887848	3.112082707919353e-14	-3.814623751545731	0.2849645767017823	3.837830266504878	0.002410481540227995	-0.6397152812336938	0.6170498342650441	0.8941420208331927	-0.422429303381866	-0.1889607352173023	0.02180497822305105	-0.970844271719279	-2.128968946084078e-12	0	0	-1.048289889879305	3.204287681717727	0.6804147734963311	-0.4701726858653354	-2.128968946084078e-12	0	0
0.08570546713846902	2.405243970719122	-0.8443485423949701	-0.6015009534884038	1.873407861384543	-0.1750964956419619	-0.2832939919624892	-4.074855499628873	-1.421775793446576	3.824092553830035	8.432872743133645	-3.243215646726746e-14	8.5351302947888	-0.4115930998541311	-1.032444122850059	0	-1.917532994429932	-0.5379013527911326	-3.706024946721306	-3.631713754191745	-9.765616443644666e-15	-3.631713801587924	0.2489597547527779	3.713771491227318	0.002384761743968607	-0.607209472755713	0.6195582548438973	0.8771292510886897	-0.4489825739258477	-0.1678406533788638	-0.00430468570757035	-1.00232764048782	-1.414817383387676e-12	0	0	-1.05256446452354	3.140964976237106	0.6858959575588777	-0.4717724217279424	-1.414817383387676e-12	0	0
0.08749370876799453	2.390136247269614	-0.8370387973516145	-0.5525691536181134	1.874854987766169	-0.1963809319522404	-0.2813851900458751	-4.13111686950957	-1.387393940584187	3.928929987564444	8.359730371434619	2.519211222113202e-14	8.482368846932477	-0.377923826645103	-0.9548589607813867	0	-1.817398291968694	-0.5348880662380263	-3.591563731236988	-3.346222009532323	-5.182515994308564e-15	-3.346222137962468	0.1902146479751473	3.515046192083793	0.002345557256732	-0.5551137536525457	0.6221146624042535	0.8498777326937634	-0.4907574547357385	-0.133976890575099	-0.04583398860133285	-1.051383318319267	1.870588982690296e-12	0	0	-1.058451104125653	3.041031087246382	0.6942454310859343	-0.4742513489192232	1.870588982690296e-12	0	0
0.08989044193946306	2.366098797759818	-0.8249278116329929	-0.4851551450365069	1.876439651454023	-0.2247001060597421	-0.2787251506599019	-4.206213456169097	-1.339818055887581	4.061369878825801	8.248379452486011	-5.926407637154088e-15	8.402927362402362	-0.3437440525398761	-0.8507280384312853	0	-1.678466127126638	-0.5288030556319879	-3.428614166504013	-2.961289650090537	1.13890172501462e-14	-2.96128977373484	0.1062133233188317	3.23765977099973	0.002291632394794725	-0.4823709141395401	0.6229847398904641	0.811810867785102	-0.547725473838264	-0.0866067404200714	-0.1032867851561504	-1.117388797626258	-8.671504828619817e-13	0	0	-1.064780468700643	2.904200231804768	0.7051232293104425	-0.4775632628865453	-8.671504828619817e-13	0	0
0.0928578434319315	2.330547729684419	-0.8063108214878884	-0.3990239856028419	1.877829096520504	-0.2593926320085697	-0.2752834796084851	-4.292870785817859	-1.278645989936093	4.212362999517413	8.096830171669545	-1.415665215514121e-14	8.292182738152137	-0.3136097767594226	-0.7226420792548272	0	-1.49952110227572	-0.5180321033898486	-3.212375395741182	-2.481928325245854	-2.668137354048008e-14	-2.481928257274301	-0.005818659618359754	2.877863930649712	0.002221246120022135	-0.3880237725736601	0.620022503788993	0.7623255082510969	-0.6197095846801037	-0.02491873808665419	-0.1770884789546742	-1.199419075792113	-7.371641819263778e-14	0	0	-1.069882256005813	2.730510374558527	0.7180906010584042	-0.4816416379532065	-7.371641819263778e-14	0	0
0.09634910826143198	2.280949840066547	-0.7793943913524637	-0.2943624813903083	1.87863547822607	-0.2996139445807565	-0.2710491292744245	-4.386496728914104	-1.203655202125953	4.371441574094898	7.902600272922573	5.933301041533625e-15	8.146953567646568	-0.2923785219002579	-0.574950989430264	0	-1.280194617172186	-0.5008196793415242	-2.938736874062356	-1.915540208615629	-1.249915767436687e-14	-1.915540044230801	-0.1482929752916281	2.433580340988015	0.00214109796782776	-0.271617699559446	0.6108865618647484	0.7009509049506458	-0.7062604421864743	0.05173781192537787	-0.2673593933527195	-1.296190095479787	-5.554015794617674e-13	0	0	-1.071575344666068	2.520679279249769	0.7326293376915347	-0.4863856837729042	-5.554015794617674e-13	0	0
0.1003091743612673	2.21526245517717	-0.7425452151055106	-0.1720397185170545	1.878436921550627	-0.3443400227936376	-0.2660460964077823	-4.474309443566803	-1.114961717268306	4.527511841327161	7.679551441695153	1.287885986563126e-15	7.9667580219507	-0.2810197244026948	-0.4140334181946168	0	-1.021574686970241	-0.4754763758421702	-2.605485984691475	-1.27233546758969	1.441936205393298e-14	-1.272335439147766	-0.3225180895358598	1.905908958535357	0.002056809658200146	-0.1336291244318002	0.5933176403171015	0.627524620557538	-0.8065191262735961	0.1436101666219032	-0.3736659693732588	-1.406017364751917	3.574142624256945e-13	0	0	-1.067219588615588	2.276473303388515	0.7481689936663738	-0.4916338019429506	3.574142624256945e-13	0	0
0.1046755879088882	2.132364192150996	-0.6945620358171362	-0.03382987795736599	1.876800906535684	-0.3923784886114837	-0.2603472386086362	-4.547241134454993	-1.013165058635761	4.669793192803679	7.440798347759262	-1.523770367870264e-15	7.754708425934113	-0.2814359237420181	-0.2482232106621929	0	-0.7267304513047752	-0.4406142964670452	-2.213479610901148	-0.5655504431248095	-1.988340274753017e-17	-0.56555043839811	-0.527934414066106	1.300476654583137	0.00196385323887559	0.02414218741666434	0.5654572184973787	0.5423635890496481	-0.9190821993715331	0.2502951861849748	-0.4947838906667953	-1.526804397601904	1.502698516587788e-13	0	0	-1.053849223086477	2.001033740404723	0.7641273892256673	-0.4971257435263375	1.502698516587788e-13	0	0
0.1093794873493492	2.032412096760927	-0.6349361719196875	0.1174529147297607	1.873310844058782	-0.442388958187836	-0.2540830441803461	-4.5931901053674	-0.8994549751174424	4.788791240349219	7.188353252725062	-1.028454133739516e-15	7.517797605399271	-0.2973361350765167	-0.08732069352018967	0	-0.4010577392276518	-0.3953829976337649	-1.76755418080694	0.1886209349337353	-6.832679075197726e-15	0.188620844670089	-0.7614742279430907	0.6283310219337873	0.001866160424959794	0.1982929136307245	0.5261680032673408	0.446401355825204	-1.04189410568198	0.3705310245875009	-0.6285193976960826	-1.656074178941514	-2.892217887208058e-14	0	0	-1.028393248771861	1.699092754384645	0.7799683571857394	-0.5024610715904673	-2.892217887208058e-14	0	0
0.1143466890533171	1.917059239850547	-0.5640562458249864	0.277953258868404	1.867595488407277	-0.4929186571627298	-0.2474432684454444	-4.603372048560905	-0.7756576310762184	4.877156062643386	6.922902656917957	-6.982648586247633e-15	7.266427572852235	-0.3287503701418983	0.05828985341718183	0	-0.05236282763548726	-0.3396678123518921	-1.276938952534915	0.9714384976364434	4.369309914889137e-15	0.9714383774222862	-1.017222413353247	-0.09389985879614406	0.00176681893139165	0.3837246853948359	0.4753011052481522	0.3412608334104646	-1.172197388736594	0.5020767231288347	-0.7716376504171549	-1.791049100324303	-5.462883778558502e-13	0	0	-0.9879703007664853	1.37701275672455	0.795274507989749	-0.5070665303978072	-5.462883778558502e-13	0	0
0.119498857100969	1.789478445143681	-0.4833104208539546	0.4429368801502056	1.859359627928281	-0.5424550457612349	-0.240666512156149	-4.564836530916637	-0.6442076803055576	4.930281880941296	6.660005517625995	9.62594667975415e-15	7.013207500327089	-0.3703810217149983	0.1787884969457302	0	0.3093735817836986	-0.2742090992786232	-0.7549972594201084	1.76238486316005	-5.556293488852366e-15	1.76238504492314	-1.286534645771889	-0.8447603313599448	0.001666830028456405	0.5738043636983393	0.4138487812507954	0.2292375288969494	-1.306571839635647	0.6417247371696583	-0.9199403020159065	-1.928774628232692	1.449139807288249e-13	0	0	-0.9302280404419163	1.042599658739847	0.8098223662173232	-0.5101898966246887	1.449139807288249e-13	0	0
0.1247547386248661	1.654162668752225	-0.3950495286845483	0.6071163795670931	1.84841621360123	-0.5894967347815974	-0.2340221539802838	-4.469810778873609	-0.5080422466397904	4.946552858444155	6.418603422171644	-2.129258848604223e-15	6.771229211171518	-0.4127463265473792	0.2661281575491649	0	0.6725736966884928	-0.2006091301146622	-0.2182488056971475	2.54025930960626	7.836168467833126e-17	2.540259354315656	-1.558687229664191	-1.599627477242487	0.001569096213087692	0.7608039563658624	0.3439326687295072	0.1131823524435316	-1.44108512298415	0.7854700445725858	-1.068513306095635	-2.066270962630121	2.283408555151587e-13	0	0	-0.8536845123790975	0.7046782379870571	0.8236380901978466	-0.5109354768377126	2.283408555151587e-13	0	0
0.1300314451878346	1.5165107748772	-0.3023976628945474	0.7651059830925129	1.834719879562752	-0.6326439995801708	-0.2277821211510728	-4.312255479455378	-0.3704276670696012	4.927217874228948	6.217872839008225	-7.930980544122631e-15	6.552184432581933	-0.4475748892877855	0.3150688569488505	0	1.024950097206491	-0.1212120482605169	0.3152030054334877	3.284511112219033	8.875328550497422e-15	3.284510983344151	-1.822005818115067	-2.333054219596307	0.00147386006364061	0.9365968195012655	0.2686061430091262	-0.003706795873791042	-1.571558181389704	0.9288268168350406	-1.212131772224318	-2.20069011607552	1.712063290402584e-13	0	0	-0.7580229020013468	0.3724647432582028	0.8370085561534567	-0.5083487349603566	1.712063290402584e-13	0	0
0.1352457599718137	1.382250751427357	-0.208929611822523	0.911936726731572	1.818393513223838	-0.6707033139731894	-0.2221893478429471	-4.094272278335757	-0.2347415975950705	4.875958425621131	6.067361629080098	1.845365563189142e-14	6.364753483231132	-0.4698548008646166	0.323835177078676	0	1.354612843376591	-0.03886954858709295	0.8275599296536948	3.976673004579343	1.59091363414347e-14	3.976673039338033	-2.065286343750229	-3.021385925838054	0.001383896216225827	1.093529013170132	0.1914914055252463	-0.1181541658944724	-1.693921416285022	1.06725072662383	-1.345770943606767	-2.329454784318405	9.466511145271454e-14	0	0	-0.6442921728835889	0.05482309927846672	0.850428527771989	-0.5015478249932194	9.466511145271454e-14	0	0
0.1403154501570172	1.256789732548122	-0.1182680092440579	1.043542582554202	1.799746155251488	-0.7027912386834034	-0.2174310512700159	-3.820530317514927	-0.1042393155702734	4.798269134028628	5.97258798764878	2.613538542287679e-14	6.213612638462961	-0.47811424852781	0.2942766606275026	0	1.6512445890986	0.04336708166425883	1.303169852916924	4.601710181122262	1.098019879924532e-15	4.601710223158123	-2.279220010634895	-3.645150339874796	0.001299716595829284	1.225330686243302	0.1163149292813637	-0.2270901875174019	-1.804609622543939	1.196591533449602	-1.465140315366415	-2.450362060649661	-2.072303835070124e-13	0	0	-0.5149774773300553	-0.2404722576150798	0.8644842088590777	-0.489884111669443	-2.072303835070124e-13	0	0
0.1451605637948114	1.144603065852378	-0.03367622056172166	1.157130834940008	1.779276607717496	-0.7284197573609761	-0.2136169998536224	-3.503323795649457	0.01816245666511339	4.700784418417731	5.929411225601301	-2.144931693026907e-14	6.099251373867299	-0.4726411380902911	0.2315203887861034	0	1.907153539647895	0.1225695267389564	1.729973108460225	5.14908179169591	-1.4853230967794e-14	5.149081834501547	-2.457519946862428	-4.190772666304062	0.001222225203073799	1.327904320695448	0.04643346493809801	-0.3279004121321755	-1.900925223559176	1.313491626452941	-1.567143495612455	-2.561642896045302	8.231956668009914e-14	0	0	-0.373922247155927	-0.5073383414854546	0.879693036682842	-0.473104677141715	8.231956668009914e-14	0	0
0.1497046907286447	1.048771943994397	0.04227426131005584	1.251371889269747	1.757657172536725	-0.7475493876828393	-0.2107705481814518	-3.156764988983342	0.1300550055111433	4.590659949931749	5.93071481635031	-1.575526402932631e-14	6.018561760221593	-0.4546401427848497	0.1432112369449183	0	2.118013837366828	0.1962088547422154	2.100317863017145	5.613333443818506	-2.199799368177111e-15	5.613333441613145	-2.597521592503267	-4.651339007487203	0.001152715342444611	1.399838142108165	-0.01555383165311533	-0.4185980604760869	-1.981298719978708	1.415658179397195	-1.650176317576055	-2.661977890624096	1.808098491296216e-14	0	0	-0.2261063030391385	-0.7417448184210453	0.896337463238547	-0.4514822064160827	1.808098491296216e-14	0	0
0.1538761676969849	0.9707480240190342	0.107902374117457	1.326383145902743	1.735701058118309	-0.7605914257717068	-0.2088330318381977	-2.799697018017295	0.2296381308973534	4.475070806817687	5.964004991979175	2.483820248361626e-15	5.965967711074612	-0.427213787766195	0.03851123297918178	0	2.283150957775871	0.2623397452016066	2.411067898017401	5.994109462521563	3.654188378831264e-15	5.994109378617514	-2.700166289536878	-5.026361815672954	0.001091212259719888	1.442542505142577	-0.06803574842617027	-0.4978973512963574	-2.045394021761027	1.501964069579077	-1.714209258145806	-2.750476300647574	-2.876181063271122e-13	0	0	-0.07730920141826719	-0.9417838887531538	0.9143365030494183	-0.4258804339535008	-2.876181063271122e-13	0	0
0.1576092086661948	0.9103749054738547	0.1624570610719264	1.383524386945849	1.71431382259883	-0.7683538252075519	-0.2076790693629192	-2.449652118105679	0.3157403378422275	4.36084130653575	6.017599944965124	6.73467256470053e-15	5.934769667349561	-0.3948046477817289	-0.07294473834433554	0	2.405320256235015	0.3196711391619446	2.663082979644936	6.295575365069447	-5.134351585278608e-15	6.295575307350161	-2.769435059588907	-5.320715477938577	0.001037946777036337	1.459985191109143	-0.1104329612696979	-0.5651867930577376	-2.094039649285544	1.572375609761202	-1.760646615141078	-2.826626119810222	3.545372599922781e-13	0	0	0.06629574984220407	-1.107460539413306	0.9331883187365698	-0.3977356403287597	3.545372599922781e-13	0	0
0.1608449427275907	0.8661449022605345	0.2060095491099244	1.425055557763435	1.694434205575553	-0.7719400216393226	-0.2071377507683083	-2.125211983785849	0.3877619244759702	4.254189086764399	6.078730561944813	-3.02096390911541e-14	5.918369242516992	-0.3626226152544931	-0.1819625350659278	0	2.490024094586627	0.3675291465688429	2.86025522322117	6.525344587217562	-1.557593685513324e-14	6.525344632253422	-2.811410320027116	-5.543042746388701	0.0009935078000239557	1.458080343236634	-0.1430704664658134	-0.6204205669926741	-2.129002118576949	1.627738455210842	-1.791998269812926	-2.890225291959266	-3.911598230374116e-13	0	0	0.1985643348851709	-1.240267013415046	0.9520001328311873	-0.3689481045127287	-3.911598230374116e-13	0	0
0.1635323437594561	0.8356252145379974	0.2392389442605581	1.45372419373909	1.676971758099903	-0.7726127632475326	-0.2070186071621495	-1.84135850231627	0.4455589113144625	4.160552317894165	6.138008681806467	2.629618719356183e-14	5.911140781453865	-0.3350526099980167	-0.2804601701446965	0	2.544502152060711	0.4057394777820497	3.008323790452303	6.693087237556936	4.683897502451269e-14	6.693087349964344	-2.833187349920471	-5.703962676649981	0.0009578213977999444	1.443846424369218	-0.1669277740404246	-0.6639576896843125	-2.152647398928113	1.669475308311795	-1.811432337272856	-2.941301380580557	6.981043213537968e-13	0	0	0.313771797838457	-1.342637475843586	0.9695972594615132	-0.3416969135542757	6.981043213537968e-13	0	0
0.1656290397522234	0.8159696191483652	0.2631630148675425	1.472348579915648	1.662747042639774	-0.7716425769902262	-0.2071360422837378	-1.612286281637427	0.4892920681925966	4.084470065972918	6.18800472002842	-8.247200894268233e-15	5.908855567549961	-0.3149140532125503	-0.3618589067963771	0	2.576566036852018	0.434464291716874	3.113670966343664	6.809024387000417	2.899122797122989e-15	6.809024498238706	-2.841831809615027	-5.814357203298785	0.0009304817542090654	1.424470952244415	-0.1833284355636212	-0.6963807892081869	-2.167549116045039	1.699253790336172	-1.822284825221369	-2.980026009323231	-9.862369611191826e-13	0	0	0.4069366552003109	-1.417378594748069	0.9846878901281754	-0.3182034091268074	-9.862369611191826e-13	0	0
0.1671020056717574	0.8044297685969569	0.2788657518203903	1.483448352965634	1.652439224297462	-0.7701615922738008	-0.2073292162094576	-1.447344843728802	0.5192691627433105	4.029494489599726	6.22528672063194	4.266440762714087e-14	5.908705839380931	-0.3028768620662454	-0.4212283405325907	0	2.593454957007959	0.454029327742913	3.182249665600536	6.882503745407832	2.240620421211156e-13	6.882503822399221	-2.843513649715044	-5.883917367826018	0.0009114702707621889	1.406415058578275	-0.193628820515735	-0.7183227077608373	-2.176103196108975	1.718675149961996	-1.827596702863094	-3.006630865503907	1.526590399696676e-12	0	0	0.4740633331548561	-1.467154812138406	0.9960502456182705	-0.3004773417453361	1.526590399696676e-12	0	0
0.1679283452515349	0.798796948536995	0.287262938647137	1.488954120789694	1.646542900800879	-0.7690382051486954	-0.2074775724879156	-1.353478630097104	0.5358087261847905	3.998115799266872	6.246792203794529	1.850809724727621e-14	5.90906627536421	-0.2977823620901128	-0.4552715806709524	0	2.600854286499627	0.4647724813521034	3.218740317244299	6.920814448916444	-1.735942502189314e-14	6.920814498281533	-2.842871033300907	-5.920045286298262	0.0009008894237045998	1.394654509752923	-0.1989516260872725	-0.7303240524964802	-2.180197035367649	1.729020366705176	-1.829729201827655	-3.021336826094359	7.568222991547293e-13	0	0	0.5123157193575669	-1.494083868151371	1.002711273369132	-0.2900786219594534	7.568222991547293e-13	0	0
0.168122704144023	0.7975611047587863	0.2891942317643148	1.490173598946868	1.645144208193453	-0.7687432281323436	-0.20751663692343	-1.331150439148941	0.5396694527030547	3.990680116502126	6.252059996668644	-5.667713932812331e-16	5.909192438920151	-0.2969203137666456	-0.4633524176989413	0	2.602375774688812	0.4672743871739828	3.22711507394845	6.929519547514981	-1.180657850174702e-13	6.929519589890575	-2.842554493486216	-5.928240219734874	0.0008984115307745935	1.391716674255344	-0.200155182499942	-0.7331143102193466	-2.181085569923408	1.731395685953119	-1.830141637156023	-3.024772659054535	-6.498812839072176e-14	0	0	0.5213741471802499	-1.500313311200511	1.004308598448534	-0.2875845948363055	-6.498812839072176e-14	0	0
0.1686154129292711	0.7945812969927285	0.2940147334806177	1.493136022533158	1.641578250061575	-0.7679427683923891	-0.207622776022693	-1.274343400587323	0.5494058450335333	3.971736826364114	6.266450657560016	-3.56765704146405e-14	5.909577579836627	-0.2944283063776667	-0.4839601107365574	0	2.605857167390761	0.47357366600412	3.247989534470843	6.951063890952881	-2.6250983906196e-13	6.95106391530997	-2.841470164710111	-5.948498480982146	0.0008921512165871627	1.383974756953746	-0.2031228726770175	-0.7401319237194472	-2.183210421820299	1.73731792922051	-1.831034436485789	-3.033443105265552	-1.815035882112858e-12	0	0	0.5444414798904155	-1.515926687260489	1.008410845760204	-0.2811790829193917	-1.815035882112858e-12	0	0
0.1697668192104805	0.7884819458399596	0.3048531564971532	1.499336534491021	1.633132105821513	-0.7657762584916772	-0.2079105008451688	-1.141100733815621	0.5718719724763546	3.926951091302309	6.295910227884903	-3.167336178528402e-14	5.910806060756454	-0.2852974756738962	-0.5327792075994676	0	2.611877949276846	0.488048877770677	3.294774447340528	6.998472113197264	-8.326298769977137e-14	6.998472097131883	-2.837362976091605	-5.992953344877393	0.0008776580821725847	1.364227715909154	-0.209586512031202	-0.7562169838550726	-2.187457412382734	1.750599340402719	-1.832262595811082	-3.053482654514112	-1.520224281372699e-12	0	0	0.5989222583483576	-1.551412534286827	1.018298189310024	-0.2657404247982713	-1.520224281372699e-12	0	0
0.171555060840006	0.781447674997397	0.3204779113622416	1.506957473143661	1.619701673575308	-0.7615831848302137	-0.2084671592029377	-0.9308722331620727	0.6059523474228987	3.855985393319878	6.343889030877131	2.969645087497012e-15	5.913431339933609	-0.2664841087271119	-0.6103134818385261	0	2.615286504885759	0.5098279405516933	3.361865129423607	7.063887829053858	5.182363036114653e-14	7.063887768775579	-2.826636518781929	-6.05398920424279	0.0008555944679317156	1.328919920061459	-0.2182900224269079	-0.7803150270262403	-2.192034051071707	1.769662702177411	-1.831767635370564	-3.083982376392671	5.891383071072578e-13	0	0	0.6851031336043255	-1.603735721237187	1.03451355646679	-0.2404310691950986	5.891383071072578e-13	0	0
0.1739517940114746	0.7767788055116255	0.3390489748790981	1.513336561546774	1.601107179704222	-0.7543654345442731	-0.2094210726481059	-0.6432517026700035	0.6500381268409547	3.758259701956602	6.406402849758841	1.417071393324132e-14	5.917720621218242	-0.2346584451226987	-0.7171285784278186	0	2.608329380053815	0.5376206066068998	3.441096856123863	7.135752141708639	-4.575118854407123e-14	7.135752078856084	-2.804051738286751	-6.120570801517431	0.0008269389738391282	1.272634677955829	-0.2273383646287077	-0.8108985556323371	-2.194249915293645	1.792194435090669	-1.826472046293108	-3.123651646875241	1.052955025101434e-13	0	0	0.8035070597290263	-1.668521139591846	1.057955346794659	-0.2038883072231921	1.052955025101434e-13	0	0
0.176919195503943	0.7787460864717782	0.3581602187070523	1.515167948657611	1.57715037895454	-0.7428621809805263	-0.2109271310531748	-0.2792743669983271	0.7020139254448134	3.63326992171213	6.483900510113511	-1.11664382376954e-14	5.922924475441286	-0.1879278854496622	-0.8531600266671873	0	2.581085947339123	0.5697030670060587	3.522168031808263	7.199405814781345	3.437496905390822e-14	7.199405829993858	-2.763321596679059	-6.179045190272408	0.0007927282239177732	1.188532772985643	-0.2342630480492966	-0.8459920725007536	-2.190655924276795	1.815247811142139	-1.812488735118587	-3.170806106624338	1.083250025374904e-14	0	0	0.9544918134116414	-1.74024809711326	1.08983000736812	-0.1543169646595335	1.083250025374904e-14	0	0
0.1804104603334435	0.7923078107206034	0.3749781647254523	1.50881455095743	1.547657042261467	-0.7256523408968464	-0.2131475813122273	0.158244797080404	0.7593509268323742	3.48079096886678	6.568090145323982	2.864955160120024e-15	5.926453847252162	-0.1254829815433123	-1.017089163094842	0	2.52218783846264	0.6039846533109314	3.593451907528765	7.238169283848722	-6.138030685662085e-15	7.238169374252891	-2.697927193781673	-6.214421259064275	0.0007537949141298933	1.068940485949159	-0.2361806173815637	-0.8832850634960355	-2.177284627718405	1.83546205930988	-1.785446033084302	-3.223429678888887	-7.704969517007934e-14	0	0	1.137948278374538	-1.812684779848805	1.131596941944169	-0.08957846771483514	-7.704969517007934e-14	0	0
0.1843705264332789	0.8226868194892543	0.3864592872035569	1.490701013772846	1.512525656277639	-0.7012907273132052	-0.2162285576957527	0.6638255259492561	0.8192507907572076	3.301058621570813	6.650213450043816	2.588459580741973e-15	5.923141253269957	-0.04886299347504153	-1.205769784940051	0	2.419828513280616	0.6381281927548944	3.643032911349311	7.234749474741554	3.270116426616704e-15	7.234749417410025	-2.602114269774495	-6.211911473942395	0.0007110347247935891	0.9061507001324415	-0.2300395797719715	-0.9202878547642158	-2.149986401468856	1.849359765376119	-1.740925755109955	-3.279251063231428	3.338742369676552e-13	0	0	1.352980972584601	-1.879449919792183	1.184861321739399	-0.00733192736163759	3.338742369676552e-13	0	0
0.1887369399808997	0.874811011183167	0.389643184083488	1.457754817622252	1.471780473914963	-0.6684716127891316	-0.2202763559355504	1.227966632185699	0.8788395239697906	3.094913635770312	6.713347125018242	-6.027340736512114e-15	5.90481022484127	0.03828822301149826	-1.413840040429509	0	2.263039237427216	0.6697261665382617	3.659882124139178	7.172902407003368	-2.609429859551414e-14	7.172902330398951	-2.47195813888327	-6.158576284651054	0.0006667928300518308	0.6934098846071366	-0.212950776640447	-0.954520949348609	-2.104853401369812	1.853705168746135	-1.674994178727637	-3.335832522604158	-1.475773125474935e-13	0	0	1.597614388205395	-1.934658871988679	1.251203647259826	0.09476290521973518	-1.475773125474935e-13	0	0
0.1934408394213607	0.9526594310699998	0.3819972860081908	1.407839637254216	1.42562199768056	-0.6262110644289903	-0.2253344155823929	1.837757948526897	0.9353981599259935	2.863903809187454	6.741145526975485	1.79346115538051e-14	5.860382020148329	0.1306870449633761	-1.633652822120301	0	2.043130175227926	0.6965203007790798	3.635030657120075	7.039205540607406	1.752393755587482e-14	7.03920557308183	-2.306322968634215	-6.044849220139991	0.0006220873644055331	0.4260056336777306	-0.1825698627882032	-0.9837178303001837	-2.038699135592267	1.845884145714697	-1.58477417682429	-3.390669711771428	7.820190980103384e-14	0	0	1.868580829110335	-1.973577912835827	1.331948880546669	0.2187798575016084	7.820190980103384e-14	0	0
0.1984080411253286	1.058599918752075	0.3617650456037568	1.340108314478355	1.374464916452319	-0.5740232676212847	-0.2313659750061999	2.477767573591479	0.9865999759642498	2.610348570069188	6.712646741473707	-1.742978210366535e-14	5.776677904722889	0.2200613198110735	-1.855616287176076	0	1.755109029046212	0.7166379557564394	3.562568232631517	6.824715194919419	-3.905458105706424e-15	6.824715095334922	-2.107510393648087	-5.865706637112148	0.0005774361094429374	0.1023072334553548	-0.1374732563579862	-1.006012408169966	-1.949534201799332	1.824247009392656	-1.468975586748808	-3.441305298775061	-1.111385275766552e-13	0	0	2.161244682194015	-1.993180890057242	1.427897526822821	0.3662128891950306	-1.111385275766552e-13	0	0
0.2035602091729806	1.192837616404198	0.3282543541020861	1.255202602177049	1.318962696724855	-0.5120599887196633	-0.2382505359603111	3.130855327795961	1.030714399020747	2.337372441692312	6.610098434876758	1.829209030148872e-15	5.639935992837812	0.2984935049169501	-2.068961702860586	0	1.398830459024175	0.7288068254644606	3.440304058989417	6.52624717944793	-1.988400639576954e-14	6.526247230869258	-1.881415500472097	-5.621290297269994	0.0005352196033746091	-0.2754281343790709	-0.07745363476882711	-1.020081530714056	-1.83696017719924	1.788348655191858	-1.328282463397609	-3.485459575860364	-2.629138591040776e-13	0	0	2.469702224851319	-1.992497796979758	1.539059646056186	0.5376458027755147	-2.629138591040776e-13	0	0
0.2088160906968776	1.353102217156869	0.2820017534195167	1.155248309810967	1.260010727282897	-0.4411901048624682	-0.2457889087318953	3.778865610174288	1.066736926925572	2.048908936018463	6.415280290300533	7.642342651565319e-16	5.437874886877062	0.3604888808346223	-2.262856747073468	0	0.9796226394486652	0.7325064947851192	3.269982510852825	6.147041381374484	1.41355844989676e-14	6.14704145486782	-1.637090905485961	-5.316889781049045	0.0004954090376370374	-0.7006722392562437	-0.003663862542265493	-1.025221906405711	-1.702400213075348	1.739031247161865	-1.16550135449627	-3.521176716043202	-1.585074357890251e-14	0	0	2.787066886815464	-1.972670500111336	1.6644446114814	0.7324474134806797	-1.585074357890251e-14	0	0
0.2140927972598461	1.534673420268154	0.2247652566544436	1.043637555229888	1.198721248574497	-0.3629909743449106	-0.2537225288673642	4.404195542207225	1.094417030777921	1.749665595838191	6.117180277578763	-7.944274412718247e-16	5.16196113232768	0.4005799569635227	-2.427685395355637	0	0.5082065752203944	0.728023257701377	3.057031959324549	5.696663560412648	6.516156330372814e-15	5.696663494411258	-1.385746980555315	-4.962313864849164	0.0004589638733038532	-1.162801199553396	0.08143672588701908	-1.021357360934676	-1.549104691909395	1.678324558087206	-0.9854130954587457	-3.546980649790323	3.913799280862209e-13	0	0	3.105908939973756	-1.93668682498187	1.801957745155059	0.9485448644639477	3.913799280862209e-13	0	0
0.2193071120438252	1.730781340803439	0.1593321078890972	0.9246385369398304	1.136378862929587	-0.2796458692805129	-0.2617628461912844	4.989663313970992	1.114181932864496	1.445035736404944	5.710068577498065	1.299005739392459e-15	4.809428396978456	0.4180038600794038	-2.55625385165579	0	-0.0001428235902850399	0.7163900987242531	2.809913845699759	5.19014386192897	2.731227619541322e-15	5.190143876897123	-1.139352360942363	-4.570788637577397	0.0004269524989954194	-1.647861955024289	0.1743378222300844	-1.008989431578158	-1.381910672467414	1.609179968428331	-0.7943304927341942	-3.562021664774859	1.148306912944935e-13	0	0	3.418779898757573	-1.888840904211398	1.94843968400633	1.182322694196505	1.148306912944935e-13	0	0
0.2243768022290288	1.93333232105812	0.08916994190131916	0.8029127131903562	1.074374928509297	-0.1937640480750631	-0.2696192892258249	5.519968887140835	1.126977326338353	1.140947542856528	5.20216138207596	-4.630788128974684e-15	4.384606322878194	0.4132209021541722	-2.644681759878593	0	-0.5270762764333982	0.6992192639133921	2.539204458505339	4.646503284510105	9.188532761366215e-15	4.646503225832877	-0.9091020425557929	-4.15759008475032	0.0003991999775788918	-2.139833002995216	0.2708923917300188	-0.9891135721595048	-1.20678635103862	1.535092198645972	-0.5994336325036135	-3.566187509772472	-2.492348147623691e-14	0	0	3.718728931788328	-1.834032590078541	2.099857016080596	1.428679275345308	-2.492348147623691e-14	0	0
0.2292219158668229	2.133831229717857	0.01798707652171855	0.6830350926576687	1.014130513852706	-0.10814967194049	-0.2770310651130499	5.984431847274413	1.134064968714331	0.8436532743988776	4.611956791219997	4.010921678407552e-17	3.899259359393224	0.3906431236070973	-2.692805257878774	0	-1.053027809163845	0.6784567779821569	2.256569099629121	4.086933609717506	-1.934090300117643e-14	4.086933589473967	-0.7040551840486863	-3.738638459849393	0.0003758456101828683	-2.622165758668015	0.3668092396976621	-0.9631220311884563	-1.030241027639383	1.459685399089427	-0.4080084484998987	-3.560151465249943	1.195307574642032e-13	0	0	3.999721136921247	-1.777055366523784	2.251620054804349	1.681247979229895	1.195307574642032e-13	0	0
0.2337660428006562	2.324320728182941	-0.05071144478937702	0.5691012109226111	0.957018348018786	-0.02556115296333926	-0.2837876195459185	6.378437116113491	1.136821530763061	0.5594783252254046	3.968330847039462	-1.550081686600609e-15	3.371859702027551	0.356148097056483	-2.704034511627276	0	-1.559106189688953	0.6561089887098043	1.973781824295464	3.532940876886601	-1.262901227534995e-14	3.532940830898248	-0.5301976371038885	-3.329254031552281	0.0003565731681432288	-3.07932632048785	0.4581274001474092	-0.9327056361270736	-0.8587085031093639	1.386340865997761	-0.2267331600334652	-3.54533679839713	-4.194247268642139e-13	0	0	4.256896670251654	-1.722014796828496	2.398973385577876	1.932758695264187	-4.194247268642139e-13	0	0
0.2379375197689964	2.49815915887884	-0.1139876476640617	0.4644724315428485	0.904294206954986	0.05149486950650492	-0.2897409094779386	6.701770932510693	1.136573175497324	0.2945607107201713	3.304344375514481	7.705169615503576e-15	2.825952396588995	0.3141919403388442	-2.68473289669751	0	-2.028687887188278	0.6339948139439862	1.701908102032039	3.00473125187343	2.206536984970641e-14	3.004731200106017	-0.390071555059601	-2.943212407096476	0.0003416339546247879	-3.498063909772298	0.5415856457927472	-0.8997564842793438	-0.6980125644542587	1.317924472416674	-0.06113596498912859	-3.523796289153152	1.663803965549948e-13	0	0	4.486648812976221	-1.671970070278492	2.537387929093973	2.175490302708541	1.663803965549948e-13	0	0
0.2416705607382064	2.650502888404855	-0.1696935556766367	0.3716726253317594	0.8570464225469918	0.1209115110169897	-0.2948082424245669	6.95776260956128	1.134484386922803	0.05461303357695947	2.655968905822247	1.42700237048621e-14	2.287953714023224	0.2682314645435877	-2.643278194781839	0	-2.44846968475798	0.6135688751679376	1.450720330481832	2.520032304968893	-4.259887007300582e-15	2.520032383167665	-0.2829773435489854	-2.592161568701163	0.0003301926624366992	-3.868205199550465	0.6148308305765107	-0.8662682453071109	-0.5529958982536578	1.256641473869653	0.08470015047217545	-3.498022168815082	-3.951757683582247e-13	0	0	4.686543222384302	-1.62882656121655	2.662883077850133	2.40174931719	-3.951757683582247e-13	0	0
0.2449062947996022	2.778437609547937	-0.2165306421361336	0.2924167597622669	0.8161661133489411	0.1810527214385734	-0.2989641134873459	7.152696508458194	1.131502393448913	-0.1552679918792747	2.054530682445411	-3.647269171823484e-14	1.784794858791958	0.2235130819628841	-2.589001438859443	0	-2.808878913602149	0.5958392294887102	1.228365967635911	2.093429210145773	3.141278801710704e-14	2.093429246354317	-0.2056337963711695	-2.285392037754174	0.0003212223379152496	-4.18289316509698	0.6764507947204779	-0.8342320445916108	-0.4273478410024382	1.204015511124509	0.2081733559258443	-3.470716066310088	6.076835245736771e-13	0	0	4.855126678306714	-1.593443308843691	2.772230068653137	2.604311091377087	6.076835245736771e-13	0	0
0.2475936958314676	2.880780638343877	-0.2539597500571026	0.2277331481554241	0.7823417141679461	0.2307495241700249	-0.3022275223909234	7.295172315518233	1.128347224209621	-0.33073268084237	1.529327080895134	1.821996417465855e-14	1.341778878326852	0.1833876169409554	-2.531179662205055	0	-3.103878687395737	0.581379036678304	1.041266970543772	1.73619153903351	-1.76342761522119e-14	1.736191467734804	-0.1531164622763774	-2.029898759255607	0.0003149126408317131	-4.438306712066627	0.7258547387686427	-0.8055298714747932	-0.3236226737023666	1.160966355716585	0.3079787587851068	-3.444552545765238	-2.656741957526329e-13	0	0	4.991681498813152	-1.565881815122236	2.863018512900111	2.77677525857012	-2.656741957526329e-13	0	0
0.2496903918242349	2.957642084483802	-0.2820056603599839	0.1781352327364575	0.7560736408448171	0.2692420071200373	-0.3046446127999887	7.393694397445419	1.125531892584123	-0.4682519887324853	1.103764250334764	-1.908194559860433e-14	0.980891458819082	0.1507553471695431	-2.478199013814333	0	-3.330321453839104	0.5704103273394003	0.8941992966462924	1.456483259982989	-2.973219357934233e-14	1.456483141096019	-0.1198804899965868	-1.83064237106672	0.0003109218803339014	-4.632998695400685	0.7630518698182804	-0.7818322261043071	-0.2434023656703792	1.127948136522974	0.3837785698924943	-3.421964229997086	-7.724219385956393e-13	0	0	5.09597631799245	-1.545711869228531	2.933601870965375	2.913811915522235	-7.724219385956393e-13	0	0
0.2511633577437689	3.009863506425861	-0.3010111941749606	0.143803362195959	0.7377004718488983	0.2960873449308398	-0.3062710333044087	7.456004903920672	1.123397543090263	-0.5651454567430521	0.797192278687151	1.094458219679371e-13	0.7196475126160989	0.1281838442826326	-2.436937810409616	0	-3.487057453219544	0.5629274399421599	0.7904833564060926	1.259806926159211	4.55548534393345e-14	1.259806829504918	-0.1007110575429474	-1.690909564550187	0.0003085336749064283	-4.767036619975945	0.7883865790543592	-0.7645072248215674	-0.1875404067859421	1.105109680962289	0.4358117579622914	-3.404966583913286	2.791590313379175e-12	0	0	5.168048172414112	-1.532305786484934	2.982961189410881	3.011302689847035	2.791590313379175e-12	0	0
0.2519896973235464	3.038465989080393	-0.3113988357920288	0.1247414703885798	0.7274265010018588	0.3110643676431261	-0.3071566094268364	7.487903816943287	1.122150667821347	-0.6195946117990561	0.6230333321110244	-7.819738418478581e-15	0.5703794510080277	0.116534994685241	-2.412353964319037	0	-3.57404039760795	0.5588246759505384	0.7321983714901845	1.149493590806028	-1.007626945711506e-14	1.149493531422703	-0.09149448937707161	-1.612659875064289	0.0003073145414413112	-4.841159465683489	0.80228920721838	-0.7545449898984429	-0.1564114042461558	1.092440804420335	0.4645297398808774	-3.395026411141679	-2.156744120889246e-13	0	0	5.208044008633024	-1.525075340986511	3.010545454186286	3.066414902727452	-2.156744120889246e-13	0	0
0.2521840562160345	3.045117903887091	-0.3138120820334508	0.1202795153303326	0.7250137632475397	0.3145776059472408	-0.3073620419436193	7.494924436488779	1.121852636895803	-0.6324102080445679	0.582115308189747	-6.08358001808111e-14	0.534992962797928	0.1140443803778579	-2.406423325820866	0	-3.594394529622691	0.557870475554634	0.7184816235645017	1.123554854739046	-2.93791384245624e-14	1.123554806477782	-0.08948870373789894	-1.594272880905656	0.0003070391377547406	-4.858476558707276	0.8055254916576432	-0.7521765816300401	-0.1491134470098716	1.089476844880342	0.4712330714574106	-3.392646442060445	-1.351000499705572e-12	0	0	5.217405403258356	-1.523405807300258	3.017020824256569	3.079420050128193	-1.351000499705572e-12	0	0
0.2526767650012827	3.061848794526734	-0.31987728311901	0.1090057034974576	0.7189040207597602	0.3234669911738022	-0.3078778879440242	7.511947360680025	1.121089407324074	-0.6649128480258111	0.4802668351724098	-1.158410542433828e-13	0.4448175634378837	0.107237531851649	-2.39113731942365	0	-3.645808609821919	0.5554708168637332	0.6836983016143219	1.05781694625924	-4.866256606195521e-14	1.057816929547688	-0.08468177494240661	-1.54769424077185	0.0003063596011692298	-4.902171584533805	0.8136708439003428	-0.7461295969792748	-0.1306551553793242	1.081990902122705	0.4881368989901399	-3.386541706177223	-2.512556214863143e-12	0	0	5.241058607766802	-1.519227285287113	3.033413215814157	3.112459851412923	-2.512556214863143e-12	0	0
0.2538281712824921	3.100187580940613	-0.333748491588945	0.08287463835014044	0.704665255854605	0.3441412858477891	-0.3090553939822301	7.552692944016472	1.119265502004136	-0.7409444386614862	0.2298883080326446	2.228661627360424e-14	0.2315018386036632	0.08610224105768438	-2.354020680794932	0	-3.764885043903925	0.5499767748283051	0.602371501969063	0.9043306695358599	-7.974142517395622e-15	0.9043307392822715	-0.07501099737095807	-1.439051421352467	0.0003048729682392496	-5.003103865814152	0.832368195144797	-0.7317590464319577	-0.08776973314040004	1.064658290840746	0.5271262312902848	-3.371878149357609	-3.46949863517136e-13	0	0	5.295894186341766	-1.5097683034429	3.071581726906944	3.19005865331271	-3.46949863517136e-13	0	0
0.2556164129120176	3.15751360568746	-0.35440600758805	0.04291245189166527	0.6826687867888903	0.3759487187799982	-0.3108046243752439	7.608895105467981	1.116334935345135	-0.8592167748101348	-0.1641907121060044	3.362978456814078e-15	-0.1067776565326996	0.04433774846666383	-2.292566121454138	0	-3.946635678307725	0.5417897204599957	0.4760395456414332	0.6665121261995335	1.874452370723528e-14	0.6665123146308249	-0.06437147082847139	-1.270996403690881	0.0003028539669569152	-5.156414744950845	0.8604254685567585	-0.7087798123004642	-0.0219227324715587	1.038214928214299	0.5861896859678183	-3.348010761911163	5.014028679986921e-13	0	0	5.379834081742891	-1.495949218179301	3.130422611541352	3.311605364146705	5.014028679986921e-13	0	0
0.2580131460834861	3.229798959259969	-0.3802712036746776	-0.009388813287023229	0.653439491163763	0.4179271335432411	-0.3129919959590601	7.672314494149247	1.112260803534841	-1.018020568333028	-0.7096440697527187	2.453629691666297e-14	-0.5728527035354787	-0.02532270109181534	-2.203138674975704	0	-4.183546550332229	0.5315629412390352	0.3069470977047638	0.3493732198194175	2.317169248198026e-14	0.3493733847523733	-0.05856893910815223	-1.047351331484623	0.00030077896289167	-5.354809258349755	0.8960304426855537	-0.6767350550666962	0.06469432357380873	1.003760951517039	0.6623179777503141	-3.313968833124166	1.085997617857294e-12	0	0	5.489990022795297	-1.479146704813142	3.208291597892541	3.47632043585047	1.085997617857294e-12	0	0
0.2609805475759545	3.311432245485932	-0.4091395465205371	-0.07200363003115717	0.617709034956113	0.4687064172599445	-0.3154405028549029	7.728331253918451	1.107065805032007	-1.214934753669371	-1.405410651588375	5.072386784238336e-15	-1.168586626802436	-0.1281626955401385	-2.081691549189696	0	-4.465008708814251	0.5202603063915907	0.09852394275229444	-0.0396185419554701	2.485205162803736e-15	-0.03961868455122682	-0.06494960748377152	-0.773605038354747	0.0002993111223462546	-5.588154826314198	0.9366870642711504	-0.6351148231472543	0.1689478136540799	0.9628269371790242	0.7513806599537696	-3.268643594290512	-1.234935532319733e-12	0	0	5.622644952995552	-1.461155869661106	3.302792437057765	3.682786190280158	-1.234935532319733e-12	0	0
0.264471812405455	3.39526327906254	-0.4382060524408808	-0.1424218414823008	0.5764226829176529	0.5264886213187445	-0.3179370755413364	7.76201740193318	1.100873191223584	-1.446758593521716	-2.255617713034448	-1.049427471789216e-14	-1.893183385425081	-0.2677234110002304	-1.924536207245131	0	-4.777264949014887	0.5091726798094458	-0.1443959209575948	-0.490198032811034	6.312420311753516e-15	-0.4901981829907939	-0.09176830437464037	-0.4570243278412994	0.0002990913091242167	-5.843544349720132	0.9792639687427638	-0.5834545740187862	0.2867176881686733	0.9173540413319853	0.8482001567326158	-3.210976068985695	4.09911815234777e-13	0	0	5.773455692272742	-1.444045006012088	3.410701030080585	3.928662946672706	4.09911815234777e-13	0	0
0.2684318785052903	3.47284309983417	-0.4641806536169408	-0.2177554011648683	0.5307316889778511	0.5890663290819034	-0.3202443318171599	7.756297630366925	1.093931092106628	-1.709471100143795	-3.251280084253501	1.121860790816549e-14	-2.741404894266983	-0.4466061243190724	-1.729178701863757	0	-5.103695041251889	0.4998799741798022	-0.4154597638850267	-0.9891923445648816	-1.557965198936642e-14	-0.9891921787301122	-0.1473182180201159	-0.106609469066055	0.00030071882618477	-6.105668987117343	1.02013588775406	-0.5214467517639474	0.4129548773806951	0.8696160411132287	0.946760276427741	-3.140168133261843	3.70036824937504e-14	0	0	5.937710502555172	-1.429914509442793	3.527963168472303	4.210420896001777	3.70036824937504e-14	0	0
0.2727982920529112	3.534919084131414	-0.4835171914619962	-0.2949049020341789	0.4819682447024275	0.6538950559626573	-0.3221175213709544	7.699570464589693	1.086612764454187	-1.998229500369295	-4.380310940219108	-3.369843365779619e-14	-3.70197810502218	-0.6648912319278648	-1.495103230470597	0	-5.425555593514525	0.4941385442779975	-0.7068422654581757	-1.520752850816694	-1.62136593513471e-14	-1.520752879306559	-0.2388720756142105	0.2671506324935462	0.0003048952485552199	-6.357592484111026	1.055435909312322	-0.4490570338785799	0.5418770822264281	0.8220741373930635	1.040574423482677	-3.055891704169108	-2.098248080775526e-13	0	0	6.110613339974664	-1.420573369991669	3.649805903222941	4.523138359381205	-2.098248080775526e-13	0	0
0.2775021914933722	3.572195618569134	-0.4927532879759301	-0.3707734218328857	0.431599433622534	0.7182281682760859	-0.3233257043698367	7.582076642842605	1.079391641546436	-2.307419778639976	-5.618203425930719	1.525660444292336e-14	-4.756549783285263	-0.9163704560149282	-1.224362063468492	0	-5.723212638793639	0.4936915178743897	-1.009490364121594	-2.066993504701052	8.447677906277505e-15	-2.066993473722134	-0.3715615218294813	0.6527354739233429	0.0003122138126474667	-6.581947479511344	1.08140950540622	-0.3666318260780569	0.6673152910087238	0.7771724771995868	1.123203497674022	-2.958462820748302	1.816875119437541e-13	0	0	6.28755823749211	-1.417184979956404	3.770986711483537	4.860425436852053	1.816875119437541e-13	0	0
0.2824693931973402	3.576304298420965	-0.4889250980542812	-0.4425013760195843	0.3811532108407875	0.7793072558116982	-0.3236730373274626	7.400848851910198	1.072795998172309	-2.630770135802736	-6.938924807720563	-6.026285280123748e-16	-5.879560767450487	-1.193925364039554	-0.9218354929931583	0	-5.977796166291178	0.5000232929398498	-1.313578206344738	-2.609031261862882	-3.303414759888832e-15	-2.609031334096548	-0.5473889342390105	1.038235194625348	0.000322977369452876	-6.762476774771152	1.094829672810303	-0.2749799761741975	0.783190107283916	0.73710122561638	1.188871785359998	-2.84894605525095	2.38499483837618e-14	0	0	6.4643549250076	-1.419966923584989	3.886176129476758	5.214529317930973	2.38499483837618e-14	0	0
0.2876215612449921	3.540843878651613	-0.4699888962078043	-0.5076825860984716	0.3321337468183632	0.8345822324026249	-0.3230190619324692	7.157452334596156	1.067353657903245	-2.961503256927196	-8.307773886380421	-1.308025541754549e-14	-7.039156532647399	-1.487394793587509	-0.5951070213009872	0	-6.173044189519795	0.5141011584729218	-1.609112459582527	-3.128282338385253	-1.870714586341858e-14	-3.128282380174778	-0.7645604345707497	1.41207823838807	0.0003378353431946086	-6.885701101472525	1.093401371720297	-0.175412808129787	0.8840467129890168	0.7035684914564179	1.233084424327323	-2.729165059169495	-2.716313681311689e-13	0	0	6.637365386866718	-1.428024637118245	3.99041929197657	5.576622239556452	-2.716313681311689e-13	0	0
0.2928774427688891	3.462324031620709	-0.4351595479474228	-0.5645388392061967	0.2859174764236205	0.8819456731359672	-0.3212943981754294	6.860621114327202	1.063532226213008	-3.292584842778253	-9.692547172943641	2.202922431439424e-14	-8.199473443201894	-1.78446042831141	-0.2538753088126094	0	-6.297120310554388	0.5361727206327708	-1.886697593193803	-3.607971397183361	3.760493081536714e-15	-3.607971323222977	-1.017386834724922	1.763829921098761	0.00035667453018375	-6.942493392890099	1.076077556101324	-0.06972458787849341	0.9655941284838415	0.6776269286456106	1.253144598301124	-2.601607158778314	8.827935036209717e-14	0	0	6.803566982516925	-1.439426220271627	4.079627578841524	5.937329730653836	8.827935036209717e-14	0	0
0.2981541493318576	3.34077068807392	-0.3850918008782228	-0.6119980223608799	0.2436706446826761	0.9199046038794825	-0.3185089037766535	6.520686522775418	1.061690873186089	-3.616905079760282	-11.05641134895749	1.040367945637897e-15	-9.323274819783627	-2.073915242496604	0.09083247426359382	0	-6.343870620346655	0.5656557251568357	-2.138175612105519	-4.034318848461108	2.144994197869588e-15	-4.034318870642533	-1.296657683527584	2.084764031458636	0.0003793441115311282	-6.929112940386713	1.04320547666991	0.03987787304385919	1.025077969808808	0.6595897857425661	1.24844289495889	-2.469251658862152	8.066747974353718e-14	0	0	6.960490596440275	-1.451440164100704	4.150939093866967	6.287274063609551	8.066747974353718e-14	0	0
0.3033684641158367	3.179959059486231	-0.32183732838535	-0.6497382502425186	0.2062446331869457	0.9477492232486208	-0.3147534763654311	6.151106951954405	1.062025327920057	-3.927756220502711	-12.36596617626465	-1.409170775493072e-14	-10.3763340421706	-2.343330672639635	0.4279403158129241	0	-6.313739706581744	0.601204482615145	-2.357492501763965	-4.397965132728924	2.26132006204013e-14	-4.397965163166416	-1.590855299020354	2.368606192345407	0.0004048626435492847	-6.847822167644635	0.996491826584208	0.1509162679396564	1.061604151122044	0.6490566878532056	1.220513089877414	-2.335329539461924	-1.836927545189796e-13	0	0	7.106226679076108	-1.461122256349932	4.203044692698113	6.617956932927871	-1.836927545189796e-13	0	0
0.3084381543010403	2.986961666831666	-0.2486168683671559	-0.6780440633456515	0.1741909026897993	0.9654869162478301	-0.3101830244308147	5.766345287442071	1.064560051904175	-4.218761453258445	-13.58402967532882	-2.154759092501601e-15	-11.32876646713961	-2.581250458248046	0.7469231736672312	0	-6.213105046975899	0.6408380184771276	-2.54066512005558	-4.693748784061925	-1.16897373773166e-14	-4.693748827313553	-1.887085826717982	2.611313409415961	0.0004334171001867228	-6.706181715203281	0.9387410532416076	0.26076722111237	1.075946423453829	0.6450338759238068	1.172713526075984	-2.203121150179856	2.069911539358704e-13	0	0	7.239184186729394	-1.465624408794076	4.236049256707964	6.921950793009216	2.069911539358704e-13	0	0
0.3132832679388344	2.771609369377908	-0.1693765566169854	-0.6978331172634954	0.1476219921420607	0.9739875212701482	-0.3050193190114062	5.385355274420448	1.06908782611165	-4.484991301031684	-14.68088430813191	-1.574558218580889e-15	-12.16156047584942	-2.780485134660591	1.039641735271779	0	-6.054380701330291	0.6823253350115064	-2.68694578821382	-4.922389029313728	-6.838971732921785e-15	-4.922388938503202	-2.173444880749177	2.812140767467762	0.0004642066235459662	-6.516782649539488	0.8735393801266887	0.3668863612826246	1.070751841231151	0.6461372145942443	1.109866507295042	-2.075700603291799	6.780711659432791e-14	0	0	7.358384263400824	-1.463205435653857	4.251693494920524	7.194245368257506	6.780711659432791e-14	0	0
0.3178273948726678	2.545001239785081	-0.08837215397377134	-0.7102401446536668	0.1264561253347069	0.9745024464296198	-0.2995024845113273	5.027988811110932	1.07526285136194	-4.721915217613103	-15.63095338011329	-6.994755899918827e-15	-12.861218827253	-2.936205149829804	1.299338113606335	0	-5.852718099797775	0.7233164349569265	-2.797066546647009	-5.087247418475548	-1.352617703657024e-14	-5.08724749097143	-2.438796204988455	2.971709810278869	0.0004953732315102852	-6.294439032053903	0.8047415539599869	0.4668465461901272	1.049480291154787	0.6508050590607807	1.037429153226462	-1.955892772664266	-7.263459934048046e-13	0	0	7.46288567043845	-1.452742590776298	4.252432772774474	7.431006073479861	-7.263459934048046e-13	0	0
0.3219988718410079	2.318835262225968	-0.009639271044590369	-0.7167623768825513	0.1102125986010363	0.968888496666236	-0.2939054541558702	4.711467673485425	1.082544593597257	-4.927210971615875	-16.42433105438264	7.271459773698392e-15	-13.42785210856999	-3.04679656048675	1.522762189295403	0	-5.626293449192986	0.7618319267513486	-2.874848381136909	-5.196747130772427	3.175319346340674e-14	-5.196747149194183	-2.675469792938363	3.093682687121603	0.000526657091272027	-6.056022839750294	0.7361819294294879	0.5585706511939927	1.016768192141086	0.6575261642948605	0.961115361952824	-1.846075071479103	9.002135633626893e-13	0	0	7.552486950160281	-1.434873077002027	4.241808015712592	7.63133821048831	9.002135633626893e-13	0	0
0.3257319128102178	2.104307959917083	0.06334626057551322	-0.7190711172154776	0.09812270882113416	0.9593503599687049	-0.2885114034832518	4.444030507002387	1.090272135714623	-5.100628626393987	-17.06437141491684	-9.779839345252723e-15	-13.87293277611338	-3.117567235256652	1.709787148808368	0	-5.394250097499887	0.7964203612978248	-2.926378704364511	-5.262803406208376	-1.053575880516828e-14	-5.262803351793183	-2.879401566733343	3.183948687671242	0.000556486625533519	-5.818674260834102	0.6713536777812541	0.6403781436115248	0.9778449962198842	0.6650018092558445	0.8863271435632913	-1.748165087281738	-5.710409063130003e-13	0	0	7.627653152819897	-1.41176375705728	4.223958459733801	7.796812582380753	-5.710409063130003e-13	0	0
0.3289676468716137	1.910163246468626	0.1276892982271704	-0.7181466629903305	0.08984687745854548	0.9472598065723508	-0.2835185251399114	4.229188228361339	1.097967396935944	-5.240033390084595	-17.56301169930012	1.54845423184809e-14	-14.1977588578564	-3.154857928457387	1.858395805128879	0	-5.170125321603912	0.825714288154516	-2.954577500327557	-5.291635564949787	-1.658194252683508e-14	-5.291635536117234	-3.045647695743874	3.245007777703123	0.0005839327733878196	-5.594835105213837	0.6129601390443733	0.7107020902581306	0.9361180803268578	0.6722053323029029	0.8171710069277718	-1.663915987380948	2.354523726699963e-14	0	0	7.687850719755104	-1.3843954880283	4.201467807245923	7.926768946644337	2.354523726699963e-14	0	0
0.3316550479034791	1.74434359599717	0.1814264240536176	-0.715469809748837	0.08447731011304274	0.9346998746129691	-0.279165549025607	4.063658674058193	1.104998694864237	-5.347738156115676	-17.93750587361178	-2.339198204622108e-14	-14.42410710948921	-3.171712301901344	1.971937968547628	0	-4.96959667645388	0.8492844176023479	-2.966699995904831	-5.296315430704627	5.547954018782528e-14	-5.296315431699259	-3.175307769494197	3.283924190391401	0.0006079635172580784	-5.397866585111347	0.563295963130537	0.7685873138357847	0.8962702289065767	0.6784642288804497	0.757338558318883	-1.594466076835123	-2.559465128859479e-13	0	0	7.734283912299293	-1.35633722535758	4.178180872623946	8.025126432430804	-2.559465128859479e-13	0	0
0.3337517438962464	1.613487663743388	0.2234176744515953	-0.7127341531298103	0.08080350357523541	0.92404492783272	-0.2756995559359312	3.941869591302111	1.110700568467815	-5.428948456169396	-18.20935516789449	8.630746735158683e-14	-14.58566394498384	-3.184639388744933	2.057080032354587	0	-4.808322236006714	0.8673893319193872	-2.972280219545568	-5.293373187304717	-9.359567679271404e-15	-5.293373213220175	-3.273481889214558	3.310237438114478	0.0006271429378121567	-5.240507958733778	0.5241762356050652	0.8135602351253468	0.8634227980739967	0.683424072983395	0.709882572825198	-1.540468921703959	1.184464516970137e-12	0	0	7.769274449658462	-1.332593551479968	4.158448139301986	8.098550383110332	1.184464516970137e-12	0	0
0.3352247098157805	1.521304204306725	0.2529284720609875	-0.7107010771335174	0.07831119908316639	0.9164125702739851	-0.2732526346796101	3.859763275346411	1.114743360159721	-5.485515128014256	-18.3902271757572	-7.169903095117667e-16	-14.69657504716935	-3.198201346050045	2.116301878536254	0	-4.694195427162517	0.8800594009629878	-2.975533889267752	-5.290172909348724	-2.939193038739819e-14	-5.290172952537824	-3.341937398709871	3.328026930450741	0.0006406917919961458	-5.12932771145773	0.4966300740181206	0.8451220192652142	0.8400447265364972	0.6869215762258649	0.676410832731603	-1.502567182686406	-4.675768114522509e-13	0	0	7.793643323564384	-1.315594676424395	4.144316692176197	8.149562259620813	-4.675768114522509e-13	0	0
0.3360510493955579	1.469567494805512	0.2694850343751681	-0.7095511158590371	0.07692050305057012	0.912118357337024	-0.2718788886171965	3.814789710945175	1.117014518833941	-5.517208142922414	-18.48940642626116	-1.079538379882288e-13	-14.75857762770753	-3.211072807007771	2.149475393679091	0	-4.630099905015486	0.8871631790362511	-2.977302811304384	-5.288281678199441	-2.161605969861877e-14	-5.288281731134134	-3.380297592817018	3.337948011877898	0.0006482989693661206	-5.066901773136252	0.4811712124828502	0.8628255378490801	0.8269040071851499	0.6888847712875514	0.6576218712542086	-1.48130689969214	-1.278616965366057e-12	0	0	7.807296350717307	-1.30603124837407	4.136366173793224	8.178131869126927	-1.278616965366057e-12	0	0
0.3362454082880461	1.457398592042621	0.2733792274229479	-0.7092805610344105	0.07659346665113342	0.911108235074978	-0.2715557686955791	3.804133431948258	1.117548732092329	-5.524662155629187	-18.5127850835927	-1.278623394557643e-13	-14.77315914244165	-3.215116521492396	2.157277553583033	0	-4.615023749226373	0.8888339898627979	-2.977718406392065	-5.287836060816032	-2.028383724333643e-14	-5.287836116036326	-3.389319745107525	3.340281011881716	0.0006500882754776595	-5.052218447452733	0.4775351681908803	0.8669894661493748	0.8238130356280748	0.6893465355522173	0.6532025212973692	-1.476306403964451	-1.238343439383271e-12	0	0	7.810507459539297	-1.30378166803859	4.134495985626235	8.184851180987833	-1.238343439383271e-12	0	0
