DataType=double
version=3
OpenSimVersion=4.5
endheader
time	pelvis_tilt	pelvis_list	pelvis_rotation	pelvis_tx	pelvis_ty	pelvis_tz	hip_flexion_r	hip_adduction_r	hip_rotation_r	knee_angle_r	knee_adduction_r	knee_angle_r_beta	ankle_angle_r	subtalar_angle_r	mtp_angle_r	hip_flexion_l	hip_adduction_l	hip_rotation_l	knee_angle_l	knee_adduction_l	knee_angle_l_beta	ankle_angle_l	subtalar_angle_l	mtp_angle_l	lumbar_extension	lumbar_bending	lumbar_rotation	arm_flex_r	arm_add_r	arm_rot_r	elbow_flex_r	pro_sup_r	wrist_flex_r	wrist_dev_r	arm_flex_l	arm_add_l	arm_rot_l	elbow_flex_l	pro_sup_l	wrist_flex_l	wrist_dev_l
0	47.15944810534316	-18.6132021309927	-13.15755703688635	5.427337981250149	-7.765400654484267	-0.9322359094790804	5.883961268603669	-8.860792041760348	49.72927005304349	181.4780048275258	2.024754673173625e-10	189.8005544969108	50.37033530903723	-79.79450893909444	0	-70.2240841689531	-14.77051989726547	-52.57604077109542	-8.420812273135883	1.063545739714542e-10	-8.420795189122893	-0.1406064802251827	71.00935768578907	-0.03615224441093515	-27.71485122761696	18.61074991873238	9.400123825718588	-5.142366000885847	-1.337560195480876	4.694196427534922	-20.26102265886009	2.043131342159235e-09	0	0	32.53628845568314	9.494972058828827	28.62800310379797	-5.105929866308458	2.043131342159235e-09	0	0
0.0004927087852480694	47.15937539371406	-18.61327911863837	-13.15724768613313	5.427312159774021	-7.765587006205536	-0.9322180501536336	5.867643329811859	-8.860537834080462	49.73158621144766	181.5028631364275	1.819349394252775e-10	189.7998523279786	50.38706938258208	-79.79364495878754	0	-70.22275418489608	-14.77062696023153	-52.57597874072387	-8.417605595804961	9.93219713109191e-11	-8.417588521026278	-0.1399239472250658	71.00872814420489	-0.03615236879454291	-27.71457407366653	18.61096684900154	9.399945896436186	-5.142537188367056	-1.337617516377946	4.694120143235343	-20.2610328162557	1.894535504450187e-09	0	0	32.53516031884351	9.494191752462736	28.62731379238324	-5.105934749453976	1.894535504450187e-09	0	0
0.001644115066457508	47.15694210982646	-18.61601702272306	-13.14647177303952	5.426413186314623	-7.772129538122713	-0.9315918690697063	5.584373549654691	-8.851649238133257	49.81279110631409	181.8861542593539	-8.197414433043177e-11	189.7758287842634	50.71029698139151	-79.76384349874456	0	-70.17633328236765	-14.77440574433539	-52.57390374131153	-8.305316678465434	1.775674781090118e-12	-8.30529990147738	-0.1159812132982886	70.98692171110399	-0.03615597356096531	-27.70496646367864	18.61859538515466	9.393737058413581	-5.148514973873269	-1.33965132099512	4.691500312333266	-20.26136948372664	-1.864343948188097e-10	0	0	32.49562256429853	9.46687911247029	28.60312460400248	-5.106147209344209	-1.864343948188097e-10	0	0
0.003432356695983019	47.1373171285535	-18.63870367052685	-13.05797849020228	5.419032505304521	-7.826040876387291	-0.9264352809878733	5.031800464559764	-8.778536547643599	50.48155139980329	182.020671156032	5.278595954361726e-11	189.5800984390558	51.50929380699176	-79.5201480926919	0	-69.79478475698573	-14.80561593926009	-52.5571860272396	-7.381076504794742	2.103009765289494e-12	-7.381062095023628	0.08125178235319337	70.8082966827638	-0.03618318324570091	-27.62623556912861	18.68150258864287	9.342710991947895	-5.197657504312668	-1.356488807882771	4.67012077795367	-20.2640718531505	-2.299380488833789e-10	0	0	32.1700681462852	9.242116269931623	28.40384195154291	-5.108040951448334	-2.299380488833789e-10	0	0
0.005829089867451537	47.05050101678007	-18.73720695890062	-12.67131006397041	5.386776478858463	-8.061069707140486	-0.9039399881221444	4.0071207724088	-8.459383669478177	53.39776995248049	180.9058634163306	-3.20033615012078e-11	188.720439835067	53.24973500993551	-78.45261096432914	0	-68.12866057817951	-14.9414354331773	-52.48288891059433	-3.348880708399649	2.381039501667763e-12	-3.348876691125199	0.9410155834086589	70.02623852928895	-0.03630480285558793	-27.28171843443664	18.95555546788391	9.119853256475182	-5.412238071996187	-1.429607570251493	4.576293939690405	-20.27608134387652	3.302852589016487e-10	0	0	30.75018816226887	8.26132747361374	27.53497185959172	-5.115933585127349	3.302852589016487e-10	0	0
0.008796491359919972	46.79782736051034	-18.96727778818243	-11.6901793798458	5.304695653952729	-8.641612013865325	-0.8477070144209489	2.516255277498574	-7.657314839032345	60.60728758698463	179.0205069187994	2.616737230383357e-11	186.4132330700919	59.32681672542051	-75.67636804054439	0	-63.93445025517369	-15.26842335635424	-52.24475855092074	6.694378608618582	-9.429440217064272e-12	6.694362090722016	3.051915191457702	67.98575324907068	-0.03651229252146767	-26.39202246237989	19.624403252194	8.556779710727382	-5.952647561896708	-1.599464859469373	4.325455298322249	-20.3133124222908	-4.72731306418885e-11	0	0	27.2286799413544	5.808767599916744	25.38725466684188	-5.126848474174524	-4.72731306418885e-11	0	0
0.01228775618942049	46.24298626270545	-19.144110152375	-10.37306602143454	5.192962933527088	-9.315487847277627	-0.7779393453506116	0.4580466670825556	-6.632726285193778	69.02347877633105	175.6809934240524	-1.008520296192078e-11	182.4747979912999	65.91696704276963	-71.49517169893629	0	-58.52578815228534	-15.59021058422925	-51.59857062715772	18.92447427976043	1.225838550623374e-11	18.92446331251429	5.418033939536105	64.87583926387029	-0.03623800661038069	-25.094374187267	20.34617518216283	7.817092638053044	-6.650920852300598	-1.723758370630015	3.903839953656015	-20.40808282687524	-2.658546047756499e-10	0	0	23.04195095530309	2.757804569507766	22.88340547518053	-5.080013365105108	-2.658546047756499e-10	0	0
0.01624782228925581	45.25900129362367	-19.09718480208142	-8.949607469957966	5.069411211760467	-9.85718662981037	-0.7119802426548555	-2.009846126008289	-5.613074078058133	75.8365673880879	170.2739642658078	-1.174994632707769e-11	176.7457692048279	71.02339136546189	-66.21422589884371	0	-53.0815058375635	-15.72644406183911	-50.28190562423683	29.91493971119361	-1.636155734824488e-11	29.91495890605173	7.114529551378022	60.82725842487115	-0.0354261348041964	-23.5073614241076	20.80708454550861	7.044680408528952	-7.358272725692477	-1.66714921951712	3.29591838087151	-20.59226714624155	-2.507151572521768e-12	0	0	19.48618678228522	-0.1203004094906865	20.85208881106657	-4.927612000935008	-2.507151572521768e-12	0	0
0.02061423583687663	43.77827933028047	-18.91088195392012	-7.078476761724702	4.905441791111151	-10.48253605959904	-0.6275100696093636	-4.978822515610135	-4.299593731544789	83.57751234460787	162.8054390363756	1.226100263003076e-11	168.5814137577979	76.28623144993414	-59.05206535711575	0	-46.13877949190467	-15.79372976481882	-48.13779223485039	43.28970792539768	8.107958973119331e-12	43.28968164163079	8.841475198011565	55.08841452619804	-0.03546804288267478	-21.33002788230838	21.24085752399558	6.036319003133526	-8.268558310736729	-1.48098358944988	2.419642869630569	-20.8796510539373	3.276689412118099e-10	0	0	15.30062939681399	-3.732885383895575	18.50564905579695	-4.701553328141736	3.276689412118099e-10	0	0
0.0253181352773377	41.72130347214085	-18.4811397549549	-4.875654709082237	4.709252079136191	-11.07305491369636	-0.5314572189028046	-8.255970552460791	-2.799656054843829	90.6469036925383	152.8603468586495	-1.122704837336575e-11	157.9225060104513	80.11996778932425	-50.28212457515743	0	-38.32801634981615	-15.6830466784701	-44.91624759230724	57.22540776886415	2.63080249875806e-12	57.22543056348475	10.02838340776029	47.63520557858028	-0.03349651433940769	-18.61543893313245	21.46017694880038	4.858728807832867	-9.307204111362232	-1.073571658913842	1.258922861174013	-21.29138000128624	-3.219623929213709e-10	0	0	11.19195861097407	-7.696948068566369	16.28172717855593	-4.392282046227955	-3.219623929213709e-10	0	0
0.03028533698130559	39.05764363770528	-17.77108111064112	-2.353242567337408	4.481323342962645	-11.60937569633994	-0.4228344968430304	-11.794665623027	-1.115698286809978	96.62577823080825	140.3078255125956	6.67687664632133e-12	144.7933345612238	82.8149562293119	-40.10362067047883	0	-29.7645684158716	-15.35643908957623	-40.43107642584801	71.3935297504716	-5.970460790502503e-12	71.39349699408206	10.47356403327641	38.34422092026932	-0.03371744030691745	-15.3599759788315	21.4039916155118	3.510030981456443	-10.46732041144073	-0.4029002575767683	-0.1999436488162249	-21.83482258450197	1.734618693404143e-10	0	0	7.307889076100659	-11.97861315855885	14.25241112383896	-4.017437899694519	1.734618693404143e-10	0	0
0.03543750502895751	35.80480351482933	-16.7689853773463	0.4702181588437042	4.222333411413311	-12.09044624190945	-0.3000879126669783	-15.31259885620761	0.7534782852424884	101.3235260792876	125.8045826428138	-1.151357766062037e-12	129.4295929028588	84.20743102105524	-28.85554811758746	0	-20.54398008733598	-14.79628037437997	-34.57200087454007	85.66155734002851	4.749475874541337e-12	85.66157193411354	10.06587680653372	27.1942665103374	-0.03284529226482762	-11.58961851355051	21.04219423407148	1.986711859609002	-11.74502212214595	0.5516153749327194	-1.951181195652131	-22.50369467289285	-1.43554012605936e-10	0	0	3.701676410958186	-16.57704028875528	12.41713819552956	-3.606000312783453	-1.43554012605936e-10	0	0
0.04069338655285454	32.02554690183129	-15.46544686056348	3.509367009834333	3.938449193902485	-12.48867792642801	-0.1653110474213608	-19.1160390938089	2.755453446002042	104.2603220246826	108.3904910911711	1.957812481210909e-12	112.3277513650441	83.1251035565964	-17.10015028625822	0	-11.01096236732901	-13.9781977682511	-27.32419585673615	99.37416789597997	-3.587358698900352e-12	99.37420211874225	8.639662894596533	14.38364677599568	-0.0316767583453608	-7.405885203004814	20.32470709916584	0.3219988025037104	-13.1034376011919	1.802818587462547	-3.96055866402615	-23.27827957920034	2.162179413427548e-10	0	0	0.5897209490864095	-21.34644739537681	10.86863100467058	-3.186152144235236	2.162179413427548e-10	0	0
0.04597009311582306	27.8303689989274	-13.8889171292149	6.691845715640237	3.635034597040463	-12.80809641994429	-0.02012062646740595	-22.47305102142684	4.854347213896618	105.4157643129243	90.20675675907101	-1.949952498784783e-13	94.12457473373212	80.18370298095505	-5.397613519209623	0	-1.385458895132719	-12.91386938811708	-18.80660032898852	112.3194348205195	5.878173986955992e-12	112.3193938017437	6.215101881247811	0.2165863323395822	-0.0308829646384297	-2.923424510192927	19.26002351438044	-1.459361278342932	-14.51939021323732	3.327053466120422	-6.175965830920881	-24.12509423757874	-1.276778175346374e-10	0	0	-1.997704315258652	-26.21982493948322	9.579261498935347	-2.78920823515942	-1.276778175346374e-10	0	0
0.05118440789980219	23.36237874225386	-12.08143625844366	9.911842529989825	3.319922663776448	-13.04354329413066	0.1312166646239994	-25.47101800022088	6.985716238106977	104.7497357162709	71.56762505261801	-3.251686091422958e-12	75.57497740250685	74.42016412088981	5.668009507793464	0	8.016894769644338	-11.625017612794	-9.262339012314504	124.10514714142	-8.266743855114138e-12	124.1051620235499	2.855506617825943	-14.8358747085124	-0.03093625733923272	1.701665999805694	17.86708581751978	-3.309856699159623	-15.95326296824907	5.081261907480036	-8.524795446852975	-25.00247075656194	-1.911391306445939e-12	0	0	-3.98544709621473	-31.05935323771754	8.553678004712387	-2.438218627627244	-1.911391306445939e-12	0	0
0.0562540980850057	18.7854336390487	-10.10900169151766	13.07035298710078	3.000688237860063	-13.20338657144452	0.2842396419174691	-27.89182946453069	9.090574367677494	102.4856465334638	53.45135094126341	3.831669330914885e-12	57.43252199546744	66.33140225463083	15.62978070770179	0	16.95496624622145	-10.15839241043636	0.9540379431703383	134.5637680945311	5.906625758561122e-12	134.5637743610024	-1.250272707048771	-30.22784054833494	-0.03023856495256757	6.309957950297564	16.204246330417	-5.180684537416446	-17.36974232898546	6.996377149474001	-10.92418220987711	-25.86563836851824	-2.828137964736354e-11	0	0	-5.39283648378365	-35.75541162296724	7.748180319137057	-2.148639817789369	-2.828137964736354e-11	0	0
0.06109921172279988	14.26608028363196	-8.048185848516216	16.06726684927113	2.685375566330098	-13.29502873244425	0.4336505145561101	-29.67670273017866	11.10596323831249	98.91704314418834	36.60774539961495	-3.701700727194026e-12	40.38012017170922	58.28366987844291	24.15631955898611	0	25.20232223796088	-8.573237952386881	11.41968013846931	143.5494316790252	-3.223623551295483e-12	143.5494288806432	-5.860344600755858	-45.371768365763	-0.02790603186377488	10.74198219430559	14.34771262214507	-7.015362079432956	-18.72987226579672	8.990459316370927	-13.28671242326281	-26.67383007439164	7.360044274092494e-13	0	0	-6.25193621042389	-40.18550482789316	7.127439118696397	-1.925306512937105	7.360044274092494e-13	0	0
0.0656433386566332	9.959172853352523	-5.982978349297634	18.8195256525966	2.3813001603231	-13.33069086560807	0.5744272657906314	-30.4945114063867	12.97893856294346	94.44585719110589	22.12097377724375	7.068778993571208e-12	24.95450987211085	50.08549452782204	31.09327325668663	0	32.60227110443132	-6.940128057484761	21.69198163608848	151.0476043176572	7.42702201680616e-12	151.0476150308044	-10.68778329528321	-59.71641363867973	-0.02914999383801109	14.85960867806074	12.39211733414456	-8.760135892972839	-19.99907723579301	10.97493400841097	-15.52981731514036	-27.39479654650598	1.802979401662952e-10	0	0	-6.640025356570871	-44.25037153114395	6.646883761261356	-1.76470708355341	1.802979401662952e-10	0	0
0.06981481562497333	5.996206387898847	-3.995326591392125	21.2627577528045	2.095396812513589	-13.32199803822982	0.7017496170884665	-30.51375662552983	14.66621736660483	89.48797656105415	10.16362279807202	-1.788622960661267e-11	11.51365301550587	43.47649021317986	36.4454346905348	0	39.05029972399667	-5.331693560554901	31.35938368602019	157.1057484281707	-1.343451578307976e-11	157.1057369979216	-15.45075326252144	-72.79462250385325	-0.02706812258655869	18.55300374713246	10.43623098703229	-10.36585540079028	-21.14692120127882	12.86575180913268	-17.58261131517979	-28.00841430753584	-3.058947366804193e-10	0	0	-6.648761640239612	-47.86818325479983	6.27179319392683	-1.657183203430211	-3.058947366804193e-10	0	0
0.07354785659418331	2.478405320718274	-2.159665720801618	23.35679357340602	1.834291527217693	-13.28237730868527	0.8129944269033549	-29.58141237813035	16.13788822961341	84.45030763781686	1.06276458444056	2.857225370464875e-11	0.2309060615973646	38.65450753662694	40.3497102181252	0	44.50157639538101	-3.817588654605282	40.08004363386437	161.8430492004271	1.541967494085283e-11	161.8430504728471	-19.89777855557082	-84.2626240972826	-0.0267995675649467	21.74823607750948	8.575534986181598	-11.7929937685985	-22.15049579831688	14.5904680232203	-19.39111190919383	-28.50685147839781	1.325420108338954e-10	0	0	-6.384510480833713	-50.98560442146897	5.974221485770659	-1.590206983502891	1.325420108338954e-10	0	0
0.07678359065557917	-0.5243108454078161	-0.538019510273649	25.08407820343909	1.603731722217312	-13.22398503749267	0.9059732149653715	-28.43054249077451	17.37611039674574	79.68971485220847	-6.192761389613248	-2.123035329938465e-11	-8.879770622325037	35.25763057342648	43.02945142220116	0	48.95717760946744	-2.458573648365101	47.60281054917731	165.4167943623105	-8.439848210762473e-12	165.4168137140096	-23.83107450374347	-93.90940932475186	-0.02747180898955205	24.40628832500643	6.893769727329843	-13.0128913963784	-22.9948895939137	16.0932241973974	-20.92012683275276	-28.89309963636949	2.205541077717403e-10	0	0	-5.954297763326561	-53.57560212072386	5.73625643517775	-1.551263310730544	2.205541077717403e-10	0	0
0.07947099168744461	-2.970575695021049	0.821960524412635	26.44628715169759	1.409042187036857	-13.15850653151601	0.9798712429927815	-27.28384385664014	18.37334670435606	75.499115324299	-12.10363236801703	3.974864607542913e-12	-15.91982481916812	32.55598404096975	44.74769850564088	0	52.45272878821532	-1.303903926938573	53.76919100930836	168.0044009556348	-1.085028363512815e-11	168.0044144772194	-27.11300137586032	-101.6448976540843	-0.0275590171851401	26.51836015723577	5.458645206030043	-14.00789184313311	-23.67327109286728	17.33588254408591	-22.15228783083655	-29.17773980726194	-8.127858296954529e-10	0	0	-5.459564481282225	-55.63491093772257	5.547687861363726	-1.529941649613109	-8.127858296954529e-10	0	0
0.08156768768021185	-4.841599222303666	1.886661332751611	27.45813533735811	1.255102334418179	-13.0967884299007	1.035160975690818	-26.54759832436412	19.1293762183467	72.10238297281686	-17.00442830134942	5.50454389178669e-12	-21.05590684495287	30.77570922712029	45.76688394898643	0	55.04337617249705	-0.3906232306485999	58.4990661268931	169.7813065835493	2.201647168870755e-11	169.781297772327	-29.661104016827	-107.4700023429349	-0.02678654280794078	28.09718828902496	4.320627466261147	-14.76946234666417	-24.18528657828034	18.29606261198023	-23.08423037657264	-29.37533174371718	2.832751903920031e-09	0	0	-4.989529617475663	-57.17698971176553	5.40412978261469	-1.518715351297796	2.832751903920031e-09	0	0
0.08304065359974588	-6.133284684948151	2.634624331960498	28.1401123343627	1.145860543359773	-13.04787019327905	1.072643493801441	-25.29816377642877	19.64801298408558	69.65843198169674	-19.41709045742965	4.749881466270636e-11	-24.46768719462416	29.57609764518975	46.31421481648186	0	56.78881044993688	0.2558375935579585	61.76722879618922	170.9020163064636	1.315052666349381e-11	170.9019836498906	-31.43558221648408	-111.4375961889389	-0.02572551918758422	29.16658942595824	3.513974365750403	-15.29541942642097	-24.53476555125237	18.96327811767368	-23.7212308209112	-29.50065514808547	-1.506179984666768e-09	0	0	-4.616347169265559	-58.22372184872641	5.304311582721314	-1.513002970798057	-1.506179984666768e-09	0	0
0.08386699317952337	-6.848947802049581	3.053722805201382	28.51174019515757	1.084158193035183	-13.01839938076569	1.093136833899838	-23.03487401917141	19.93423082732599	68.26876215529605	-20.45915431405872	-5.370166534543786e-11	-26.30882244247886	29.41923448734421	46.56066197688286	0	57.74034115123926	0.6198269283259505	63.57788677435728	171.4844338467623	3.900754000674228e-11	171.4843889158332	-32.42308600050807	-113.6148457441925	-0.02507874461735126	29.75125957221645	3.059503841811082	-15.58686584170371	-24.72680517519474	19.33431411579399	-24.07159653200828	-29.56595956298594	-4.720237025246671e-09	0	0	-4.391739823752231	-58.79701021094893	5.248537128684396	-1.510388580926202	-4.720237025246671e-09	0	0
0.08406135207201153	-7.016292771916515	3.152213024035611	28.59797263484854	1.069600386454902	-13.01125460201979	1.09789821042679	-21.50586206678059	20.00104247895517	67.94009610412535	-20.35122737763588	-8.937280824684631e-11	-26.73414545856506	29.17130108144112	46.61232170252553	0	57.96121447042501	0.7055511257797034	64.00120237109407	171.6165759844705	-3.029405695148028e-12	171.6165285376305	-32.6543786561315	-114.1216634353631	-0.024930933893423	29.88712922977376	2.952447452619935	-15.65501740375234	-24.77153472680602	19.42120448026262	-24.15323856150665	-29.58078970744246	-4.518078880951949e-09	0	0	-4.337335737231482	-58.93035419987086	5.235433239885055	-1.509823576396765	-4.518078880951949e-09	0	0
0.08455406085725958	-7.438796914673737	3.401715953953443	28.81453562766298	1.032616955520221	-12.99277734110392	1.109865090481801	-23.77969998087004	20.16953213351841	67.10396371285013	-22.42689510513371	-8.272892189778748e-11	-27.79906841580393	28.01352826402241	46.73254568842331	0	58.5160921395666	0.9230304773793601	65.06976952887354	171.9432819600668	-4.423539503964048e-11	171.9432292878942	-33.23890994529491	-115.3972368622806	-0.02458017829488429	30.22869819521571	2.680817651130829	-15.82708417651132	-24.88415667275182	19.64078983788992	-24.3588612431404	-29.6174732556918	-2.708383232593199e-09	0	0	-4.196747354172103	-59.26579026843239	5.202230321194119	-1.508464063421147	-2.708383232593199e-09	0	0
0.08570546713846902	-8.416198004562695	3.98358627956295	29.30899714044552	0.9457403440720338	-12.94754432745025	1.137233687092432	-24.94207450577696	20.55825757154697	65.13443522613892	-27.09555607159718	3.542200914947018e-11	-30.21270467123908	25.78608997738474	46.95369463136069	0	59.78426386442831	1.431990577136162	67.54017955728818	172.660377126237	-2.346911797872312e-11	172.6603193428602	-34.59382592538185	-118.3250741489951	-0.02393213016406819	31.01050381552843	2.04500537199449	-16.22512660498516	-25.14289686332629	20.14984293001353	-24.83161834047705	-29.6980576403886	3.507113005838202e-09	0	0	-3.853389038689735	-60.03485679652772	5.124681666016403	-1.505607426048442	3.507113005838202e-09	0	0
0.08749370876799453	-9.90493351133571	4.882872968232292	30.04351122739492	0.8095049305421838	-12.87154150188464	1.177974582495392	-24.75693108628198	21.14756736174262	62.03718660645252	-32.44655061414917	4.571854637140538e-12	-33.74904393272813	23.06713428110628	47.13191844231609	0	61.67310479978217	2.223548129098738	71.29616200342521	173.6448956864244	2.037979504210381e-11	173.6448618924943	-36.66229064629511	-122.7173159813312	-0.0238274845875368	32.17721863296921	1.056066784427491	-16.83130659545962	-25.53169193068994	20.92771957865373	-25.54300693072611	-29.8086641745661	-1.06469059377552e-09	0	0	-3.279578392114084	-61.18663279093767	5.004039893090757	-1.501630321777922	-1.06469059377552e-09	0	0
0.08989044193946306	-11.83974055904774	6.076379129878222	30.9609637649392	0.6242926693444015	-12.75847308165012	1.228959637479728	-23.80274016909238	21.90855248600095	57.82660012099284	-38.41343029861767	-1.392445008236177e-11	-38.07506872359752	20.04686270238434	47.06005706030044	0	64.04608388851501	3.283626538914454	76.15737705842861	174.7167232366301	-1.262135241108329e-11	174.7167637478836	-39.35127496214356	-128.287298289489	-0.02511241029542578	33.64460450609835	-0.2677531093270216	-17.61865845680888	-26.02563185378007	21.94200876749075	-26.44907665748115	-29.92859964752713	1.694977180337926e-10	0	0	-2.435035777122864	-62.64452355835898	4.841428485236548	-1.495791750732882	1.694977180337926e-10	0	0
0.0928578434319315	-14.1294840774514	7.528092847247069	31.98393742490402	0.3906442073081519	-12.60012472609156	1.285898016185393	-21.86508700424054	22.80220100722752	52.54799537999513	-43.88388478760096	5.57932726748831e-12	-42.76004907102917	16.47822739380332	46.49009937903439	0	66.72297201458498	4.588450587017809	81.86289372731349	175.6482119396761	-4.744011790477214e-12	175.6482901563593	-42.51658839241359	-134.6372966001443	-0.02592058062045599	35.29647277671852	-1.894579032069809	-18.54908070364647	-26.58914702552704	23.14446392070023	-27.48766791072281	-30.031294001207	-3.442769027448991e-10	0	0	-1.273717270536727	-64.30407833070356	4.637960839784147	-1.484684328620921	-3.442769027448991e-10	0	0
0.09634910826143198	-16.657002366109	9.186462902637885	33.01649124250306	0.1091620623477288	-12.38672516100096	1.343349191575481	-18.53533421136584	23.78029519039731	46.29323326745956	-47.43905468293039	3.358223246633543e-12	-47.30378786639861	12.51099932619509	45.1635356555072	0	69.48610864042075	6.101574872807348	88.06693850264709	176.179346775593	9.144782887569694e-12	176.17932240564	-45.95425777177992	-141.263099335225	-0.02367924457309958	36.98555847039759	-3.774272716312159	-19.57304321302441	-27.17516719966318	24.46908241689167	-28.57780675138208	-30.08622185884258	3.74726803364074e-10	0	0	0.2492087305591761	-66.03466201793282	4.395248723638397	-1.460500861250188	3.74726803364074e-10	0	0
0.1003091743612673	-19.28136669011775	10.98263383715359	33.94814939322858	-0.2197241248765692	-12.10742340141869	1.394783564655525	-13.80781011192676	24.78730330385186	39.2102979654217	-48.58956340659996	-3.921430808182446e-12	-51.18161767468634	8.551012710565448	42.84858354467631	0	72.08962181632754	7.771700377351745	94.34553693594145	176.0354542341052	3.035370895623331e-12	176.0354271732791	-49.39854356555551	-147.5735177981001	-0.02293017022227872	38.53725106145072	-5.834834503991323	-20.6304241339955	-27.72482662511454	25.83192095616486	-29.62075910834901	-30.06186731095563	-9.107002307841798e-11	0	0	2.170056948864589	-67.6837370061415	4.117155449688976	-1.409347174418645	-9.107002307841798e-11	0	0
0.1046755879088882	-21.84339007223091	12.83077715921695	34.66078484807441	-0.5954797276010655	-11.75010829145821	1.433216660471004	-8.090411304370795	25.76321140013258	31.50344264899726	-48.51380331159966	2.601339648059602e-12	-53.89991242937563	4.314978450837083	39.37642892311328	0	74.27160746653671	9.532170002441202	100.218380525118	174.9464190479314	-7.446620980467153e-12	174.946422224989	-52.5314943176874	-152.9282406660038	-0.02311181329399395	39.75730782808458	-7.981556883117026	-21.65301509083902	-28.16859803462509	27.13383803893132	-30.50407584583488	-29.92938925874526	9.423356739657336e-11	0	0	4.509882042872594	-69.08486242856884	3.812267623047279	-1.310529524956526	9.423356739657336e-11	0	0
0.1093794873493492	-24.17464045718566	14.63122859746855	35.03808978475014	-1.017064753033567	-11.30216547910283	1.451558420708305	-1.451089066081837	26.64753665834681	23.42173866921503	-49.58834208337584	-3.117428163910686e-12	-55.05958333992304	-0.2053815644517124	34.67242850813194	0	75.76945873919621	11.30303855600443	105.1874324759164	172.6666364743293	4.7930131768454e-12	172.6665947383184	-55.00611105490191	-156.6943363969683	-0.02189259564683202	40.44388285125328	-10.10000958658286	-22.56892467878793	-28.42934202066456	28.26655506000964	-31.10867356984528	-29.666363983739	-2.197413188207419e-10	0	0	7.269033073678828	-70.06949485423024	3.49660191597158	-1.136781204705164	-2.197413188207419e-10	0	0
0.1143466890533171	-26.10962669102965	16.27697012975108	34.97725664947198	-1.482620329807252	-10.75183482613384	1.443472953539176	6.238960008052826	27.38392940827133	15.23724398458922	-49.72881717034827	2.135175754624755e-12	-54.4146810018586	-4.269149042859768	28.77507759672045	0	76.33802603560152	12.9962277959841	108.7892233692119	168.9952015834611	-1.976835445709232e-12	168.9952444783742	-56.48320094627722	-158.3165451936464	-0.02155676195234969	40.4040296757455	-12.06370879574671	-23.30877032834331	-28.42785019505562	29.1222271229378	-31.31906771189594	-29.25988451477135	7.648152646666559e-11	0	0	10.42367838806359	-70.4824932974208	3.195336080319349	-0.8560336574686587	7.648152646666559e-11	0	0
0.119498857100969	-27.50031838636705	17.66320031669901	34.40153894373873	-1.98923284503737	-10.08924760299673	1.404632399483822	15.3342298084426	27.92473336767224	7.217321797722105	-47.54545559341005	2.386144688756971e-12	-51.91292636681158	-6.764166156177222	21.83896147337446	0	75.77024683544022	14.52336924333893	110.6523595254366	163.7959710083014	-3.130112040618716e-13	163.796019507072	-56.6770051554538	-157.3903477645067	-0.02048256123740181	39.47379889167206	-13.74607307774776	-23.81293101529365	-28.09086069403299	29.60558361520908	-31.0361128566368	-28.70851248827151	1.244688512475554e-10	0	0	13.92468536303285	-70.19976206146131	2.942560367695417	-0.4349526754952379	1.244688512475554e-10	0	0
0.1247547386248661	-28.23156365258694	18.69895933930634	33.27106699305224	-2.531957764920703	-9.308516100345246	1.33234443482031	25.34971981753613	28.23548978882872	-0.4029483759817026	-42.63816464633511	-5.675924338936512e-12	-47.71014513460631	-7.580422452209069	14.1204539357871	0	73.91939517744746	15.80533411178115	110.5490850248655	157.0165172105585	1.918667620117309e-12	157.0164309847349	-55.40059547644705	-153.7223441886829	-0.01992979764838436	37.53918914353055	-15.03523125722363	-24.0386859147162	-27.36083151442632	29.64620536478628	-30.19040447711048	-28.02236332401914	-6.140721076371884e-11	0	0	17.6988828009199	-69.14485693521779	2.778332645454597	0.1566281707541241	-6.140721076371884e-11	0	0
0.1300314451878346	-28.23483320379544	19.31888004932787	31.59074060387432	-3.103186756742708	-8.410206053313992	1.227766835361032	36.08291487144578	28.29772927118492	-7.441906332556309	-36.03742788319261	4.427833282572932e-12	-42.14864088845532	-7.185688928767582	5.948627502325039	0	70.71994939560641	16.78194174095487	108.4281137878522	148.7040853411	1.669043767974106e-12	148.7041160531919	-52.6011407433346	-147.3644384756551	-0.01915725167690429	34.55526390253344	-15.84908612977171	-23.96585925525242	-26.20584494131277	29.20906134214551	-28.75384790141989	-27.2216410094714	4.115493578205336e-11	0	0	21.65280583574167	-67.30234513321624	2.743001170332933	0.9405777387828449	4.115493578205336e-11	0	0
0.1352457599718137	-27.49815344109578	19.49268508776479	29.41200940720787	-3.693229563039191	-7.403583563373077	1.094170529637284	46.89288840194449	28.11088078998915	-13.78190186355589	-28.48725622503585	4.556736135328998e-12	-35.70443169815435	-6.032983130880405	-2.313624738792857	0	66.20443090489319	17.41968276705506	104.421749382832	139.0152081291323	2.912163606611648e-13	139.0152227865109	-48.37576570725798	-138.6123558738777	-0.0183063320735304	30.55947763091133	-16.14740428603767	-23.5996641546326	-24.62759079354444	28.30120100407458	-26.74714788753899	-26.33374175052787	-8.593743856182935e-11	0	0	25.67881877827049	-64.72344840740723	2.869684429856552	1.92545826143562	-8.593743856182935e-11	0	0
0.1403154501570172	-26.06994021817093	19.23012643212201	26.82889267606765	-4.289538664470549	-6.307312095825313	0.9377838003907029	57.67359631555165	27.69236802274459	-19.368261487211	-20.7577990819459	-3.443831894778891e-12	-28.91479061527899	-4.542172622116678	-10.31150199071394	0	60.51050469837439	17.71569593342779	98.82467357497737	128.2154269134394	-5.808426339743838e-12	128.2154240152383	-42.96181292882842	-127.9669287397013	-0.01771569720066812	25.67551659974797	-15.93801659472335	-22.97013186047477	-22.6653090071114	26.97164982666164	-24.24102023599572	-25.39031895520681	-1.356856861143999e-12	0	0	29.66276653379352	-61.52329794480471	3.177385334120912	3.103060582654828	-1.356856861143999e-12	0	0
0.1451605637948114	-24.05529571469277	18.57996737471536	23.96806620068837	-4.878252563605226	-5.149591627773503	0.7666381788308299	67.65443564085979	27.07623878028052	-24.19887197427896	-13.59688288172202	-1.226138992160261e-11	-22.2965256995047	-2.774528616279808	-17.73639587453256	0	53.87655727242696	17.69705285685223	92.0512200667096	116.6666354582859	1.685183973994499e-13	116.6666357380437	-36.7047591974596	-116.0678653367529	-0.01695151709218763	20.10593757446051	-15.27559332306975	-22.12817735066771	-20.39452131346193	25.30620136574179	-21.35062668213913	-24.4241155865405	8.365623987556913e-11	0	0	33.49272241163847	-57.86909832009528	3.665434054459606	4.446204332551264	8.365623987556913e-11	0	0
0.1497046907286447	-21.60504867263605	17.62320388201878	20.97524339060015	-5.444759572483809	-3.967379252878931	0.5898448650960305	76.87758729234115	26.31038132478049	-28.30848721169234	-7.298892417604441	1.233270360302418e-11	-16.27847922644907	-0.8420433870562429	-24.35418455105278	0	46.62313761361573	17.41581461774597	84.58036566505876	104.801810991036	4.117861131030279e-12	104.8017888353702	-30.00966959974544	-103.6138041550252	-0.0162557230913349	14.11425817313382	-14.25322486922184	-21.1392409006278	-17.92049667463635	23.41659272495628	-18.22382975029636	-23.46714863032365	-1.14446075612847e-10	0	0	37.06740718232328	-53.9614417734882	4.311993446215919	5.909743509474293	-1.14446075612847e-10	0	0
0.1538761676969849	-18.89975172830063	16.46212639623519	18.00020999870176	-5.97459569436034	-2.802579231692095	0.4161218170445471	84.64684970276826	25.45241132877799	-31.7522962549724	-2.276832931322193	-2.860061349809518e-12	-11.15455076595116	0.9407566523632205	-30.01991593944389	0	39.12427976840469	16.94106433821685	76.90125510903756	93.09112966061835	-1.314722164181192e-12	93.09111756921581	-23.28880925965106	-91.28629491958206	-0.01573407982655091	7.999412334794433	-12.98909586834314	-20.07579504860908	-15.36781383817615	21.42731301878804	-15.02596475188774	-22.5493069607986	4.703272728444666e-11	0	0	40.30282306012084	-50.0129756864763	5.075878146775218	7.433228640002167	4.703272728444666e-11	0	0
0.1576092086661948	-16.13126701201736	15.20781557851569	15.18360702017733	-6.454596102032724	-1.698962218891979	0.2535382868163243	91.43346887038398	24.56443584675364	-34.59199084718466	1.549056800031889	4.903429135104314e-13	-7.065985518342023	2.442575001045515	-34.67813442869335	0	31.77302532418597	16.34968199695833	69.46844566938482	82.00464106962302	-4.505212711160437e-12	82.00466816782848	-16.9168300640561	-79.69086824932926	-0.01519074690786473	2.067951642122519	-11.61136777446989	-19.01017071136138	-12.86822666257326	19.46271974113191	-11.92380162962155	-21.69782459247955	1.165350980217471e-10	0	0	43.13655368778035	-46.22801670871517	5.901745851238941	8.945780977612745	1.165350980217471e-10	0	0
0.1608449427275907	-13.48525521875755	13.96848030020506	12.64707794729213	-6.87357227322217	-0.6988843271549723	0.1089153229059536	96.51579569386411	23.70779405184798	-36.88601710777444	3.973080288838094	-9.494744403198932e-12	-4.013213880518024	3.362287413533178	-38.35029821610458	0	24.94771205151114	15.71788377017213	62.67215927627461	71.97835738403997	8.51903571123524e-12	71.97839305808988	-11.20089167356225	-69.32274000380818	-0.01460382251950709	-3.39151601312003	-10.24425979311522	-18.00877799401193	-10.54896361844079	17.63633292354267	-9.071619966506816	-20.93735069002428	-2.302776327289025e-10	0	0	45.52876565097544	-42.78676383635811	6.727105802550217	10.37203352159543	-2.302776327289025e-10	0	0
0.1635323437594561	-11.12775448497865	12.84077513776883	10.48799072681359	-7.22254682010448	0.1598970598623014	-0.01294004894232699	100.9163732979524	22.93869675988901	-38.6840677229264	5.540070680039721	2.845181320314602e-11	-1.888242418936843	3.878276236114572	-41.11373999763433	0	18.98581583342777	15.11489144447971	56.82444676095194	63.38993346840577	9.073609443208187e-12	63.38994782267714	-6.36891041504783	-60.5566049923128	-0.01423373626794015	-8.127053779051874	-8.997927371307501	-17.1283643728191	-8.523684273647875	16.04396481102831	-6.601751712969593	-20.28990573893719	3.455518996795815e-10	0	0	47.45987715903597	-39.83636276871461	7.489137097445812	11.63798092345041	3.455518996795815e-10	0	0
0.1656290397522234	-9.195781963540014	11.90410218000375	8.778444799310014	-7.494883502030043	0.8461467077482301	-0.1086099049534202	103.4094611874578	22.30456108384	-40.02499446858502	6.346645053279412	-2.457216013269505e-11	-0.5204803930263256	3.740866852802323	-43.07537979240358	0	14.16523813047002	14.59847887221789	52.15844068109857	56.54330758387523	4.700137413066823e-11	56.54329159933938	-2.57309365184496	-53.65526326791577	-0.01406111436325166	-11.93516104084397	-7.962049232775708	-16.41410168022522	-6.88623512256259	14.76049660497654	-4.61912203129722	-19.77463312644404	-5.538851097564039e-10	0	0	48.92588368170103	-37.4877649927302	8.131060558719778	12.67676955008063	-5.538851097564039e-10	0	0
0.1671020056717574	-7.79371808857954	11.2186332274072	7.567730261443426	-7.686019246192446	1.336008351893063	-0.1758813838759178	105.7263595819442	21.84225685079058	-40.93681867074369	7.473407182906804	4.744022698122176e-11	0.2767387519839825	3.328948799995468	-44.34652184502136	0	10.69735753446625	14.21311180602306	48.83601857859075	51.66530255481759	3.826776352714206e-11	51.66526936362223	0.09574030534709836	-48.78849926754518	-0.01393276581597432	-14.66379489541532	-7.203948716699048	-15.8993865107596	-5.708211588743715	13.84010309459063	-3.200703533310103	-19.40717030013121	2.178332271794911e-09	0	0	49.93221771143246	-35.81827097607957	8.606256111273732	13.43311487676084	2.178332271794911e-09	0	0
0.1679283452515349	-6.991911453430096	10.82476530533726	6.885861889282578	-7.793123931137915	1.613435714671927	-0.2135783326099734	106.3676452914793	21.57709477057832	-41.43801395465555	9.524423966759043	-1.027782589048174e-10	0.6619002549017788	2.379185493843631	-45.0197083975845	0	8.724327273301235	13.9891449643798	46.95856303310375	48.90623349299311	-5.7710637508108e-10	48.90619482941854	1.59087042012266	-46.05513603982398	-0.01384083262499823	-16.21230550546623	-6.768411930452673	-15.60631483036047	-5.037932186304523	13.31770396261049	-2.396629536718919	-19.19900344235865	-4.205886812961479e-09	0	0	50.48768699591164	-34.87585908545726	8.881445534920941	13.86697893881183	-4.205886812961479e-09	0	0
0.168122704144023	-6.801789380036328	10.73118932362001	6.725257892517816	-7.81829928372125	1.678948999727518	-0.2224364169797452	107.7808642476017	21.51413750425509	-41.55485118707277	11.01273096023846	-1.061169177511079e-10	0.7458407135385683	2.288018851456576	-45.17380232028164	0	8.257500009443904	13.935678508458	46.5157085704645	48.25506875270406	-5.272290184325964e-10	48.25502944873799	1.942141122351019	-45.41212362667763	-0.01381577863424185	-16.57827996273513	-6.664947385568068	-15.53695399337423	-4.879334262309616	13.19424409837298	-2.206692382543736	-19.14982810339765	-4.800800348886737e-09	0	0	50.6173530282402	-34.65366680137332	8.94705943124313	13.97001938655209	-4.800800348886737e-09	0	0
0.1686154129292711	-6.317264811062567	10.49240928024191	6.317787312167296	-7.882088600619358	1.845461724709651	-0.2448741066020877	107.5951520425222	21.35354851342246	-41.84928743764762	8.57811995598099	-4.007262844727461e-11	0.9471134782772229	3.295950701506279	-45.5571235026394	0	7.069476989324146	13.79881709345559	45.39103834164267	46.6006826200405	-8.080695178077452e-11	46.60064286001085	2.831787380584176	-43.78207784122531	-0.01374604645894628	-17.50894379935425	-6.400957976824916	-15.36041072496984	-4.475706391337578	12.88030618547416	-1.723858622041157	-19.02479917599226	-2.32805029970178e-09	0	0	50.94435069560016	-34.08956674041671	9.114898430602667	14.23292315121348	-2.32805029970178e-09	0	0
0.1697668192104805	-5.171149380879841	9.925960086249129	5.36408874393878	-8.030950423063942	2.236917467503301	-0.297187453161916	108.7226504149575	20.97287414409689	-42.5277783170684	7.254845486433852	1.996875897124289e-11	1.352022993554043	5.054538232425328	-46.41156434637088	0	4.26841485968278	13.47177575889371	42.75255650535289	42.71512892130555	2.271140516154558e-10	42.71509373769652	4.904889548239295	-39.97434216611377	-0.01355392022619387	-19.69929513806752	-5.774869672731508	-14.94403043585325	-3.523955882903838	12.14160870601417	-0.5884893311591526	-18.73054132255584	1.745579725249155e-09	0	0	51.69870138679865	-32.76721982988713	9.515432794249026	14.85671593905764	1.745579725249155e-09	0	0
0.171555060840006	-3.35515761629859	9.02422968797069	3.880695464560519	-8.261406731991261	2.850880999859501	-0.3779961518303146	110.7958500004318	20.36740323863311	-43.55604599981112	6.938215249737844	1.876234820942939e-11	1.794242276321776	6.816797244238613	-47.62169326538132	0	-0.1458811306268762	12.94475914377664	38.63139023303984	36.63175552522537	-6.073323426560343e-11	36.63173872033687	8.10212640158344	-34.07169210422174	-0.01320555584287393	-23.14024964732186	-4.778817783225632	-14.28753640700784	-2.02368680760554	10.98193740604608	1.192178719677109	-18.2676132747746	2.180415901420064e-10	0	0	52.84185727427979	-30.70491249210938	10.16001409124369	15.85141754015873	2.180415901420064e-10	0	0
0.1739517940114746	-0.8597679345426921	7.778055334647444	1.894015837455587	-8.568380886493138	3.683790277855176	-0.485156114844876	113.3104570316607	19.53086316051786	-44.88888096239777	6.685900768622158	-8.698277741210612e-12	2.015662208772523	8.713813141183607	-49.01405198988948	0	-6.170196548163069	12.20473917727728	33.07866223602654	28.40073775781207	3.205342973103527e-11	28.40075216076255	12.32616219002837	-26.20271263560462	-0.01274066847750623	-27.81534907089958	-3.403953954915876	-13.39127233764285	0.02477253709327998	9.408861823211765	3.605315187078679	-17.63545721784188	-1.235212381642446e-10	0	0	54.31620496589429	-27.93287803830004	11.06526721014571	17.23329082580756	-1.235212381642446e-10	0	0
0.176919195503943	2.311318554386216	6.184987951331755	-0.5513204655555815	-8.944482655062593	4.72765899620966	-0.6152996895954833	115.8265119032905	18.46022367404911	-46.47374656214233	5.508567063472327	-3.119256470799383e-12	1.672221776225519	10.51132385387193	-50.36155670781291	0	-13.76863775632146	11.24107844976076	26.18891244970693	18.12037706695748	-1.252761824066335e-11	18.12041359485529	17.42111064966618	-16.5692767296549	-0.01229419117791688	-33.67876745394737	-1.649997390027927	-12.26051678831213	2.610756598289957	7.441836827717001	6.620881008491224	-16.83317578603344	-6.483974879263467e-11	0	0	56.04253745909381	-24.50602815226958	12.24769032965953	19.01964625612456	-6.483974879263467e-11	0	0
0.1804104603334435	6.127832192229238	4.257002012179631	-3.386962207634664	-9.380050738251169	5.967232832097826	-0.7633509370032925	118.1356361690178	17.16021114366035	-48.25644741204619	2.842545373233141	7.441080775770372e-12	0.3523897595929472	12.21453453963178	-51.39652827032268	0	-22.84734224648322	10.05096687369278	18.11447702603944	5.959844303864376	7.128320851727038e-12	5.959842267964478	23.16023271126586	-5.458380000849587	-0.01191698065136155	-40.63700547957946	0.4658814918517887	-10.90870992779499	5.705100663910088	5.118611945568206	10.18218076481729	-15.85927568037301	6.047680643273527e-11	0	0	57.92094018258539	-20.51309233387783	13.71791881559916	21.22424686721721	6.047680643273527e-11	0	0
0.1843705264332789	10.52038303217028	2.027392586318807	-6.517553691265594	-9.862657574527285	7.377933349443808	-0.9227552136027378	119.7965128255079	15.64765331208084	-50.18575878406146	-1.444006617170593	-7.25314475300708e-12	-2.391293115384487	13.50959850387897	-51.83026104534804	0	-33.23115139307735	8.644469434600369	9.073636992184888	-7.822010291105412	-1.111478453757995e-11	-7.822068969883853	29.24190915846535	6.756192905647833	-0.01145061597323454	-48.53263722541348	2.901376260230579	-9.359771812292108	9.252667401727782	2.500141635606753	14.19792275758301	-14.71176053884034	7.890156088923196e-11	0	0	59.83389226112961	-16.08275631788644	15.47464841041923	23.85223732377461	7.890156088923196e-11	0	0
0.1887369399808997	15.37052173671927	-0.4442729533035766	-9.82120689011035	-10.3769401651241	8.924207003423261	-1.085833446568183	120.4423576319083	13.95493978546483	-52.21564651632506	-7.779738412054403	5.66757931720526e-12	-6.993651660870309	14.47267503505529	-51.38048638507105	0	-44.64590337871454	7.048376324211931	-0.6518290316306075	-22.86566622211041	4.124605126743011e-12	-22.86561671899842	35.29857105297849	19.62802953631927	-0.01054589377849079	-57.1328018227275	5.583981405771413	-7.648753080950338	13.16666687979569	-0.3273541268422804	18.53742286603109	-13.3884318224862	-2.30502417584819e-10	0	0	61.65240879957469	-11.3845990789142	17.49856624463239	26.89465727105188	-2.30502417584819e-10	0	0
0.1934408394213607	20.50725791962482	-3.071018041893346	-13.15535157241417	-10.90548757552528	10.55790040595536	-1.243444323101113	119.826481153899	12.13104171921396	-54.30482503832237	-16.16878162634178	2.838765962935693e-13	-13.81677694361699	14.88384061284766	-49.80398198297524	0	-56.71433924596809	5.307609525740481	-10.7311632783542	-38.71457029058629	8.367900905019706e-12	-38.71459038744896	40.92098618395611	32.66714468830733	-0.01011338135469237	-66.12775472499723	8.410780978886544	-5.820129439271785	17.32704813879924	-3.254872375446928	23.03183420920579	-11.88754226859021	2.816238237831955e-10	0	0	63.245678010178	-6.622376183406087	19.74801260398684	30.32322590869267	2.816238237831955e-10	0	0
0.1984080411253286	25.71187838994393	-5.742003614876126	-16.36779283079743	-11.43010486248309	12.22120639226363	-1.38653908782016	117.7632696644416	10.23908316722637	-56.41461155359424	-26.94932791340818	-9.933958692092028e-12	-23.08656604032936	14.32304818349805	-46.9304375628586	0	-68.9689996261941	3.484313059452622	-20.80946994019828	-54.83663713153568	-1.407600337735205e-11	-54.83664730631831	45.69633858885426	45.37978259103909	-0.009321412114522068	-75.14235904275169	11.25393039971391	-3.923846278058849	21.58423268654511	-6.157964260922459	27.48237335233361	-10.21006537067779	-3.502014511624134e-10	0	0	64.49339208389992	-2.018778953263435	22.15743161815722	34.08718909458558	-3.502014511624134e-10	0	0
0.2035602091729806	30.7330914421454	-8.331034942100603	-19.31211537572514	-11.93135991115996	13.84942983818914	-1.507271656048711	114.0895712474226	8.350964890690415	-58.50598725542127	-39.63643645192411	1.429897396238593e-11	-34.83885852697402	13.5547623937319	-42.69174896354198	0	-80.88515339290645	1.653412521477031	-30.53886796030961	-70.66257009204509	9.376978240213067e-12	-70.66251639487996	49.2550242145205	57.31175882288372	-0.008504190075384454	-83.76194720159972	13.97180436472632	-2.009947708867743	25.76883206590973	-8.908394893157276	31.67659506861688	-8.362360922049657	3.074205773572827e-10	0	0	65.29929818864912	2.20633549331922	24.63983415343349	38.11196931942342	3.074205773572827e-10	0	0
0.2088160906968776	35.31091914054813	-10.70918823574079	-21.86429090352977	-12.39149215266702	15.376370246231	-1.598682683423202	108.7038870748017	6.539058415230662	-60.53753131976709	-54.31449378273872	-1.363666431880501e-11	-48.88758516422931	12.23929016225812	-37.14009355492045	0	-91.92993869523363	-0.1038743637706954	-39.60957210270909	-85.63657443817206	3.555752526324335e-13	-85.63662020158429	51.31783093817169	68.08712571537012	-0.007916147198240223	-91.57068929966869	16.42434589654855	-0.1232605582022409	29.70678280943265	-11.38825472768364	35.41024709426188	-6.359618405899557	-2.167714250325809e-10	0	0	65.60369924047993	5.861527793969357	27.09320147281535	42.30093722816833	-2.167714250325809e-10	0	0
0.2140927972598461	39.20678606512757	-12.75975441449604	-23.93689112929981	-12.79515033445193	16.7419005221795	-1.657357897361349	101.7158625394214	4.867499807460411	-62.46585223770153	-70.41858479045541	1.305280611980992e-11	-64.8247311121854	10.51694755995542	-30.44943077754788	0	-101.6210423321675	-1.708831232479129	-47.77536796654778	-99.27012130151095	-1.208040377377719e-12	-99.27011503682496	51.73421269142019	77.43598523174769	-0.007043496780984563	-98.19724340067906	18.490001766193	1.700237827573175	33.23760757341222	-13.50361337240337	38.51132512014249	-4.228969209708638	3.44803828671912e-10	0	0	65.39162133736218	8.807455183031934	29.41034894100623	46.54088582977714	3.44803828671912e-10	0	0
0.2193071120438252	42.23399655937121	-14.39280250390058	-25.48780179167025	-13.13027026107218	17.89821512120099	-1.682130677126763	93.28911721335886	3.384942761141309	-64.24837301230214	-87.93330986979285	-1.254125201290484e-11	-82.05618175749291	8.551961168510502	-22.89843274142691	0	-109.5834781058885	-3.094293156571857	-54.86928339049569	-111.1884259289343	-4.18432908749612e-14	-111.1884174953399	50.50347657530815	85.20820754119983	-0.006296321982545563	-103.3596848513447	20.08099492927732	3.434395267177071	36.23283094079114	-15.19479875182497	40.86155354805306	-2.010671162979759	-4.162019971784222e-10	0	0	64.69478334433346	10.97325775265456	31.4908273682959	50.71016662809232	-4.162019971784222e-10	0	0
0.2243768022290288	44.28272729389513	-15.55648795437312	-26.52158997229536	-13.38996373897458	18.81489539017698	-1.674562025499902	83.91860894893301	2.12008407798477	-65.84783486159483	-105.8051769676397	1.055858015654832e-11	-99.86790757211175	6.03265267416127	-14.83721659045894	0	-115.5934422789333	-4.212778840655867	-60.80871901810767	-121.161437329951	3.112146473390132e-13	-121.1614623845311	47.77405186761502	91.37265275439898	-0.005572669877261988	-106.90094102738	21.15394034044385	5.06139325235095	38.61061778630285	-16.44126371275438	42.41051962884136	0.2427598569159407	3.533684370596777e-10	0	0	63.58620694225839	12.36236015987567	33.25310043785597	54.68906874320876	3.533684370596777e-10	0	0
0.2292219158668229	45.33431178445117	-16.24292778529717	-27.08387880229957	-13.57252599189496	19.48249749631048	-1.63944656427971	74.16708681268965	1.081244742127787	-67.23706199150742	-123.4353926142486	-8.869614981597396e-12	-117.5089512967003	3.592023791156802	-6.644524927664178	0	-119.6009887679123	-5.042247163172098	-65.59096129711332	-129.1144955698076	-9.435865450296245e-12	-129.1144643394373	43.8209788618904	96.00392713628418	-0.004897280357082102	-108.8075622852648	21.71383858761757	6.568764652425534	40.34383115733061	-17.26043809774965	43.17954438401409	2.470351204548273	-3.309132997945191e-10	0	0	62.16915183599843	13.04586235885145	34.64476063395783	58.37062362126403	-3.309132997945191e-10	0	0
0.2337660428006562	45.46178080186478	-16.4875429892941	-27.25074076474144	-13.68209120394343	19.91201634708189	-1.582295611107661	64.69883956399389	0.259119572589705	-68.40218604716873	-139.3942104539218	8.439181713040499e-12	-134.2756187481262	0.9762005367536724	1.315543911631716	0	-121.7274454840785	-5.587579214813765	-69.2812575768898	-135.1190326028247	1.254403700424193e-11	-135.1190701353658	39.0069927168684	99.2602098637982	-0.004270145350914462	-109.208339686068	21.81097745350554	7.946372659713569	41.46025529143752	-17.70141596894583	43.255155069244	4.60835189034796	1.717707779647859e-10	0	0	60.56286536347916	13.14614299321707	35.64874914643047	61.66981608244609	1.717707779647859e-10	0	0
0.2379375197689964	44.81777123386293	-16.36228518394864	-27.11593999861776	-13.72744406324474	20.13184383652681	-1.510669295947896	55.86143552515215	-0.3683029780181611	-69.34376497107314	-153.5146689146145	-2.982565725580013e-12	-149.5810858204682	-1.792698096884737	8.728773190247306	0	-122.2406636944444	-5.878513316801806	-71.99671047820054	-139.3671440368925	-3.595381752071918e-13	-139.3671025562136	33.73604252249129	101.3564918710587	-0.003520629167690663	-108.3538747772396	21.53181439695089	9.184463143873172	42.03501649279153	-17.83535950455999	42.77438373641451	6.596124623653688	-1.787798381934909e-11	0	0	58.88787784803802	12.81499808258585	36.28430051929209	64.5299226004495	-1.787798381934909e-11	0	0
0.2416705607382064	43.61197464966642	-15.96439021849608	-26.77872750324835	-13.72152444516003	20.18436187777164	-1.431779229825129	47.91025902856557	-0.8302187890477815	-70.07540958619646	-164.9002366983625	-2.360498927731495e-13	-162.9975839590213	-4.493070859961637	15.35220659152827	0	-121.513416241654	-5.963495194681691	-73.88807735788708	-142.1360350474043	-4.815989143404185e-12	-142.1360200247152	28.40865994580122	102.5373757750224	-0.003165983873604575	-106.58169312222	20.98595584546304	10.2731120304527	42.17758936075298	-17.74486990180555	41.90493512966948	8.381490976652556	-7.824861605293963e-11	0	0	57.25483299934809	12.21100435506116	36.60202859342942	66.92441062287693	-7.824861605293963e-11	0	0
0.2449062947996022	42.08453514221269	-15.4033410897065	-26.33401406540054	-13.68009834350583	20.11872551925821	-1.352865580969382	41.00913729899982	-1.158063004587945	-70.62053834477781	-174.7262440594729	-1.497696746185063e-11	-174.267617877216	-7.184158483097816	21.02042431349025	0	-119.9745728280086	-5.902064204242169	-75.12222081734814	-143.7490512823348	1.37964212226346e-11	-143.7490898761073	23.38696293875721	103.0524278950371	-0.002802722015226908	-104.2748356282931	20.29217890618586	11.20267869698255	42.01634372268292	-17.51416386606182	40.82535811019559	9.923641811359145	4.256264731775447e-10	0	0	55.75689431292972	11.48131130403744	36.67525946944386	68.85469838720978	4.256264731775447e-10	0	0
0.2475936958314676	40.478178221845	-14.78794094686427	-25.86556814997388	-13.61967884775502	19.98573671748215	-1.280418701981337	35.47131904068271	-1.38169593189035	-71.0081687340812	-181.8334770031946	2.701901424510968e-11	-183.2860222404487	-9.94869093071617	25.63825768387945	0	-118.0596300564262	-5.756291922375414	-75.86570695694179	-144.5376958437851	-4.12435230295542e-11	-144.5377354798541	18.97233983615568	103.136050256183	-0.002270964265117454	-101.8192143438278	19.56540435456333	11.96476605508689	41.68274998956527	-17.22114685865661	39.70674377426619	11.19402322540927	-1.0077190564357e-09	0	0	54.46688318385259	10.74935330556772	36.58844742131552	70.34386063875658	-1.0077190564357e-09	0	0
0.2496903918242349	39.01537359149785	-14.21629884917853	-25.4422848522111	-13.55586081846202	19.8330013062975	-1.219823243108505	31.05100847285531	-1.526999315401922	-71.2685850576262	-187.8391110141624	3.234850350334842e-12	-190.0612907427672	-11.79232525635708	29.16526278596649	0	-116.169632387873	-5.583876813835609	-76.27102386941385	-144.8097904684845	4.485474241293431e-11	-144.8097944900103	15.39741910081835	102.9926282535893	-0.001872273556395812	-99.56829581988606	18.90716479824838	12.55278060479767	41.29837491665185	-16.93226576823925	38.69948776069695	12.17502193861659	1.577992940265223e-09	0	0	53.43781966143219	10.11008158618223	36.42595591666448	71.42797201978561	1.577992940265223e-09	0	0
0.2511633577437689	37.87950283746172	-13.7679567809848	-25.1165357212981	-13.50218984980965	19.70025597182536	-1.175233287626013	28.07180366768515	-1.614407923958834	-71.42913296269288	-190.7279228245397	4.860178028982644e-11	-194.6658765395309	-13.13580743422758	31.5956089778436	0	-114.6369048739641	-5.432510155820408	-76.46529071085901	-144.8228960159665	6.267788098401127e-12	-144.822858418343	12.82707037395008	102.7858938498187	-0.001653322743417874	-97.81378090616448	18.39854733649661	12.96227747904021	40.96411945117719	-16.69926683544072	37.923700215361	12.85740582173298	4.846719382829334e-10	0	0	52.70559616060449	9.629886396401179	36.26154302833463	72.14646401517165	4.846719382829334e-10	0	0
0.2519896973235464	37.20380273690546	-13.49996257998743	-24.92402645277348	-13.46888689067483	19.61667301400921	-1.149518844682872	26.63932638375241	-1.658310642748967	-71.51102815246009	-189.2217574873274	-3.051677949146546e-10	-197.1885059845867	-13.15200000649206	32.94009450485434	0	-113.7039755350514	-5.336887943525702	-76.54189804748401	-144.7665522913778	-1.183355039087965e-10	-144.7664925724903	11.36635858865882	102.6325130756088	-0.001548717349995963	-96.7678440219113	18.09703360268984	13.19063729364396	40.75371227115744	-16.5581256213168	37.46456345308337	13.23740142743594	-6.778962471383119e-09	0	0	52.29207345569716	9.350510038876823	36.15110695706848	72.5333908441312	-6.778962471383119e-09	0	0
0.2521840562160345	37.04089691068086	-13.43523476765123	-24.87775731514737	-13.46072088489223	19.59606729082579	-1.143399492045335	26.3924927888085	-1.66811064627147	-71.52943228974979	-185.009748072911	-2.728817657603655e-10	-197.775252206708	-13.62027909790807	33.25423932194165	0	-113.4769788936614	-5.313293211252473	-76.55655489563006	-144.746688233703	-9.31508666516462e-11	-144.7466238771213	11.02098748677178	102.5925850047461	-0.001525235736680628	-96.51545573997701	18.02445806151963	13.24420123764558	40.70185317519423	-16.52386556425797	37.35411831568673	13.32646122072024	-5.636530398357297e-09	0	0	52.19456068946691	9.283831175313605	36.12322999331968	72.62267813032187	-5.636530398357297e-09	0	0
0.2526767650012827	36.62117541673891	-13.26828233268536	-24.75880423071931	-13.43945219695962	19.54222026339522	-1.127767082355716	25.30570246463726	-1.692066932680545	-71.57461917248217	-192.969965702928	4.696237103285028e-11	-199.2511620434374	-14.81808270327676	34.04694313716157	0	-112.8886830702403	-5.251610033415802	-76.58799436284498	-144.6850907650731	6.911177757587891e-12	-144.685016657809	10.14253473006037	102.4848477404079	-0.001466944566900778	-95.86481434095838	17.83767889454243	13.37973216249715	40.56636376742443	-16.43522796580592	37.06999249322592	13.55166781557623	5.952429992535211e-10	0	0	51.946972394824	9.113223645220941	36.04931332079776	72.8460557755034	5.952429992535211e-10	0	0
0.2538281712824921	35.60292164301904	-12.86231829689283	-24.4717530868542	-13.38657826925865	19.40742317939333	-1.090580505342455	23.03907892205656	-1.743158426202225	-71.67197302843569	-198.1980040812425	6.355776768237904e-11	-202.6339872635353	-17.48108477193678	35.87818948869908	0	-111.4425535952396	-5.09712510646628	-76.62963667541555	-144.4785882167812	3.103895822110099e-11	-144.4785029834173	8.074429219120043	102.1970042855312	-0.001333884430694463	-94.28427537093168	17.38579414255591	13.69498424155842	40.22739511422046	-16.21828818920622	36.38318410916612	14.0746450741635	9.035995989110148e-10	0	0	51.36645078401324	8.706260865307602	35.85843439742689	73.35123197511487	9.035995989110148e-10	0	0
0.2556164129120176	33.91900550744596	-12.18883648023347	-24.00182192780893	-13.29567198040876	19.17335608535379	-1.031072819461021	19.81101179616196	-1.809290943299975	-71.80011953118682	-203.2762801913618	-1.895263556567878e-11	-207.6942484876463	-20.88276288989607	38.65948214744818	0	-109.0006888063606	-4.828987878566483	-76.60662198886398	-143.9855834861433	1.146717692578295e-11	-143.9855361890996	4.82564807139094	101.6517290154691	-0.001110086667866989	-91.66485849539383	16.64233884737534	14.18036076426406	39.63960855592195	-15.85508327627832	35.254668077168	14.876885660634	1.163881461821504e-09	0	0	50.4608028881102	8.053973309348439	35.51153073529087	74.08784566286795	1.163881461821504e-09	0	0
0.2580131460834861	31.47210624342506	-11.20759222422256	-23.32912501449002	-13.15707460699292	18.81329633241642	-0.9481789652160545	15.26033733536944	-1.873784153119544	-71.92746010367765	-209.5908149934649	2.377427123915937e-11	-214.0799118415906	-24.84837137288384	42.25692643925399	0	-105.3627888410271	-4.417788929477412	-76.41062466977401	-143.0012047526982	-8.470791772901071e-12	-143.0012764660839	0.417935787783445	100.7393050998754	-0.0007612818975707152	-87.84798779262391	15.57036606719867	14.82216916283194	38.73749928453081	-15.32114287251838	33.62946388211677	15.93073559877546	-1.160052541039689e-09	0	0	49.24285620617844	7.149375808487117	34.95086587975641	74.98017328438172	-1.160052541039689e-09	0	0
0.2609805475759545	28.15433852364887	-9.875986286739538	-22.43492376862935	-12.95883751793961	18.29605340627254	-0.8410179071918095	9.387700209038918	-1.917615975187158	-72.01385490003305	-217.3978924443248	-3.625501935652975e-11	-221.3008478661121	-28.95433087779457	46.48325500541422	0	-100.2998644924516	-3.831266101201641	-75.91059053705339	-141.2807952028015	-1.78551909824884e-12	-141.2809066078846	-5.087874459077861	99.33391246980209	-0.000314710526940444	-82.65582530499144	14.13220906407178	15.60138546456036	37.44566328791609	-14.59184279928007	31.45047589798598	17.19676058580827	1.846065020466419e-10	0	0	47.73564846863513	5.999046467609338	34.10677296649069	75.92730726956896	1.846065020466419e-10	0	0
0.264471812405455	23.86863459107028	-8.159268580745259	-21.30750739658446	-12.68807781230162	17.59025631793417	-0.7092978882966344	2.505325866874893	-1.922101605033927	-72.0131806802586	-226.1260649499979	3.235940498433472e-11	-228.7331315424131	-33.27077134452858	51.09925349385474	0	-93.59195977089833	-3.041097341046355	-74.96634832593614	-138.5687827123063	6.822282827259873e-14	-138.568677525094	-11.57101223715926	97.31171360424193	0.0001728562604613663	-75.9243215757495	12.29966322351989	16.49333699166866	35.69050844617495	-13.64898278532813	28.67277170067387	18.62333434169124	2.968508890243037e-10	0	0	45.9751519633506	4.633751674665111	32.90637870131671	76.80685717907699	2.968508890243037e-10	0	0
0.2684318785052903	18.55398580322879	-6.042146366149316	-19.94739777425814	-12.33304703626345	16.66917480361326	-0.5536301796566131	-4.411745592964564	-1.871424899370242	-71.87647869489052	-233.2759800435205	-3.048291725206877e-11	-235.6418672257805	-38.22910530674712	55.82307207938012	0	-85.07237069363271	-2.03102856756295	-73.4438552664061	-134.6317475853804	-9.307127616820048e-12	-134.6317318154894	-18.8341866075083	94.56920640158262	0.0007222671880803559	-67.5421748723017	10.06504690141365	17.467378497124	33.41378818430627	-12.48735280649503	25.27899659521232	20.14766765803621	-3.123144562226175e-10	0	0	44.01071390061353	3.116902682529374	31.28514387884424	77.48165454776367	-3.123144562226175e-10	0	0
0.2727982920529112	12.20915422409888	-3.539046942315233	-18.37063034882609	-11.8836643891521	15.51617348002311	-0.3761598806909575	-11.20055190929991	-1.754443218596351	-71.55435345114869	-238.4288741916867	1.986733583233639e-11	-241.221248822198	-43.21323828888806	60.3464543289786	0	-74.669325587998	-0.8043430437516563	-71.22932126974678	-129.2892401459791	9.30833820871259e-12	-129.2893052461936	-26.59670976071071	91.03801476359151	0.001354331134989729	-57.48709979454755	7.450247459386423	18.48713127572365	30.5850697714422	-11.11972920130059	21.29217845684442	21.69883794505418	2.097665760563387e-10	0	0	41.90246146449975	1.547638477710513	29.1989180902247	77.80838883905849	2.097665760563387e-10	0	0
0.2775021914933722	4.912349599225796	-0.7012840877538851	-16.60976819294109	-11.33431533656621	14.12926637775037	-0.1804186377128234	-17.35586465313725	-1.565655109507318	-71.00051031032424	-240.4763843371301	-7.399013224155508e-12	-244.6655346060118	-46.87599149284381	64.36052170767832	0	-62.44245683834904	0.6106955556774102	-68.24389132218924	-122.443569235847	-1.220449644689221e-12	-122.4435000499231	-34.50342671097942	86.69680288145287	0.002013036874646379	-45.85708229598362	4.512335266701772	19.51168633575906	27.21233609198919	-9.579321382088727	16.78439798136642	23.20311104414986	-9.863041286202366e-11	0	0	39.71610586976545	0.05580367292078024	26.63569433048115	77.65092599345328	-9.863041286202366e-11	0	0
0.2824693931973402	-3.169338687505467	2.381300405783564	-14.71189838205395	-10.68559360218219	12.52352160024318	0.02896395987522354	-22.44647131008825	-1.305095955195007	-70.17319459270486	-240.0142582695497	4.986499542516722e-12	-245.2508765563601	-49.81737604579043	67.58447781963825	0	-48.60240985023112	2.159164205193825	-64.45420542266554	-114.0986778860227	-2.084004343814945e-12	-114.0987794540151	-42.14877032818308	81.5756503664938	0.002705510074573027	-32.88608901209717	1.343326693547419	20.49797518038395	23.347106581802	-7.918764357142028	11.87809162870159	24.59093733568439	5.884847348959026e-11	0	0	37.51507437343411	-1.210845795660092	23.62310937693628	76.89413705656958	5.884847348959026e-11	0	0
0.2876215612449921	-11.78462199598495	5.585506515934445	-12.73394429012161	-9.943094129270314	10.73129410510899	0.2461671654161237	-26.34488214142339	-0.9774338703305474	-69.0341108072368	-236.1337196107757	-8.689094018556915e-12	-242.4124068792927	-51.31258561460715	69.79166799168291	0	-33.50728577861476	3.762710345201702	-59.8768305098056	-104.3640114624723	-2.6460759417334e-12	-104.3638972678087	-49.11299601800401	75.75207638150644	0.003540973103568209	-18.9378267835207	-1.936707807049375	21.40410676869978	19.08253155900764	-6.205629281512149	6.738697159574074	25.80438538494569	-1.521790467838805e-10	0	0	35.35161224492934	-2.105113533577987	20.22923136477426	75.45538215185708	-1.521790467838805e-10	0	0
0.2928774427688891	-20.61404644080194	8.767372333655764	-10.73871547634948	-9.121788096073839	8.802783763245491	0.464983405838463	-29.04775706456498	-0.5916317373850174	-67.55944612574385	-229.5849239795411	1.853518617131288e-11	-235.8710999013531	-51.62856702374961	70.84405035734439	0	-17.65058209521731	5.32954917976433	-54.59253815715282	-93.46980085972203	8.927983760108932e-12	-93.46988182779452	-55.01998269182756	69.35675909071678	0.004238848927455747	-4.488400219833094	-5.191581511603795	22.19419350262566	14.55075928362611	-4.515014966329077	1.561461886827236	26.80416232103052	2.559150152696242e-10	0	0	33.26450922630754	-2.508400040134988	16.56135540892307	73.30664971989485	2.559150152696242e-10	0	0
0.2981541493318576	-29.309965321804	11.77809589903409	-8.783811417121502	-8.238541446075496	6.795275420091884	0.6789143827533279	-30.75805546034107	-0.1588099461450379	-65.71577889337399	-219.2965699568484	-2.412118218447115e-11	-225.5516262775513	-50.9321072593557	70.67509147419847	0	-1.581013573406876	6.763599231585749	-48.71127299888079	-81.69604467591043	-6.907919213460537e-12	-81.69598907820873	-59.55467985349367	62.53026680280556	0.005052148626862759	9.944436401474908	-8.287019464724652	22.84011460228388	9.897181435670033	-2.921062325701591	-3.45304490713012	27.57071155277725	-2.534460061930226e-10	0	0	31.26555088305879	-2.335189587454543	12.7427062319607	70.4526298728903	-2.534460061930226e-10	0	0
0.3033684641158367	-37.51590665207938	14.48605899939934	-6.929051299991035	-7.323422933649992	4.783573178828691	0.8822148124272676	-31.30193346149499	0.3038993607613607	-63.53025874369716	-206.3131747981308	1.825716970535619e-11	-211.929031173448	-48.9762598899628	69.37099508432415	0	14.06989874573611	7.987202008475499	-42.44528237987875	-69.48212318154251	1.115515247075038e-11	-69.48218722755945	-62.57491896161796	55.49679860371028	0.005602324423113086	23.79582376742265	-11.10269894404201	23.32926849155974	5.298456416439644	-1.487769562081184	-8.110780643080179	28.10918145609319	1.835770277803895e-10	0	0	29.36949703475175	-1.587369925292752	8.927625225888969	67.00493906665896	1.835770277803895e-10	0	0
0.3084381543010403	-44.95521853795577	16.78613899881852	-5.202350748430499	-6.390849449936229	2.814072074225709	1.071357913103436	-30.69590134008327	0.7829531161922612	-60.93903411919531	-189.1371857748749	-1.424206285646357e-11	-195.2068333653028	-46.33743087155373	66.9752312974891	0	28.85917849622949	8.931971032585178	-35.90199255809301	-57.06827026517686	-2.050553523911794e-11	-57.06820354632069	-63.95428093478336	48.34882952138452	0.006616127140374422	36.66436029775448	-13.55620530735757	23.65321484425544	0.8657767509172654	-0.2636476310322742	-12.26995811260383	28.43374849549114	-6.389643483941031e-11	0	0	27.53310454168123	-0.2591201623178852	5.212832077486945	63.00194574626815	-6.389643483941031e-11	0	0
0.3132832679388344	-51.35122200170218	18.62814007908241	-3.668551523029522	-5.497685281559809	0.9917951855851006	1.239437688764786	-28.7071481795071	1.247227667861031	-58.1609139630659	-169.9830845012636	1.381081451263786e-11	-177.0989121658612	-43.42655093154423	63.90694097883526	0	42.10397943298163	9.595476902693305	-29.519738201096	-45.21889296389382	1.849409523811041e-11	-45.21892250229719	-63.9960673345044	41.51037006162382	0.007127285994844617	48.00815755629589	-15.58586507516352	23.83558659338434	-3.179830662105474	0.7259862208810254	-15.79754808650456	28.58958050897157	-3.198998806290204e-11	0	0	25.82033325070423	1.439671167112528	1.795496045802656	58.8039233876539	-3.198998806290204e-11	0	0
0.3178273948726678	-56.69879924483809	19.98214350776315	-2.27180589076034	-4.607452240739224	-0.733340074333688	1.392325486321618	-25.59375363333374	1.699182736473364	-54.88547466962135	-148.197762436308	-1.352561884899214e-11	-156.6333639050757	-39.99329687872668	59.9655790679162	0	53.99731278704061	9.932970675038067	-23.04192572667313	-33.50480977940194	-1.549260157332074e-11	-33.50483067800711	-62.49182040650989	34.66901049010624	0.007796509433835954	57.96204004198869	-17.2067909113623	23.8660668101537	-6.938191735013044	1.472314909611919	-18.70638637245817	28.58655223755099	-1.285533047516687e-10	0	0	24.06278456070669	3.612598348102829	-1.415863119666448	54.17291685359998	-1.285533047516687e-10	0	0
0.3219988718410079	-60.77465942553148	20.91041057720136	-1.146407231416588	-3.850976562501407	-2.157918488001656	1.515421325171556	-21.83219113194973	2.081030115732858	-51.87936263471244	-128.0397767747867	1.561365831468277e-11	-138.1292856205982	-36.40115192958613	56.21325594190496	0	63.50808841998277	10.06892743366731	-17.4809957072516	-23.59375467864513	2.758918023326111e-11	-23.59371723404187	-60.49890112021637	28.84470535051763	0.008444032325753036	65.80104676552313	-18.39820628874263	23.82324411658789	-10.00651247221642	1.996512918837623	-20.89983869322428	28.51275595037029	5.683964955678832e-10	0	0	22.54948551855258	5.685883647398606	-4.055109700347991	50.0346059854529	5.683964955678832e-10	0	0
0.3257319128102178	-63.83895037172779	21.44923645525951	-0.1729010672646975	-3.147370661311381	-3.418543529162841	1.621434318937863	-18.16765409022668	2.416464326468237	-48.669101837371	-108.6512999360899	-1.672440871107204e-11	-119.4758473100434	-32.88822962169148	52.19920323768662	0	71.42427229285877	9.978109912070266	-12.25024122926322	-14.4599895928315	-4.149819976414423e-11	-14.45999082408261	-57.68829089811565	23.38784783048082	0.008909058847208719	72.15432082224376	-19.25012788858736	23.69035361898947	-12.67196961382147	2.32363395072457	-22.52953001312452	28.36066843725259	-9.641040638937798e-10	0	0	21.04432105403518	7.885003188203927	-6.376796243505598	45.90026111421523	-9.641040638937798e-10	0	0
0.3289676468716137	-66.22852658298817	21.65383996512398	0.7797439466365848	-2.405978974063508	-4.672019102696414	1.724457867820575	-14.50466799475431	2.737398702770451	-44.77058729469232	-91.78625215324429	1.756111921143911e-11	-98.30329402533054	-28.17409518996259	47.41457997668215	0	78.68803889711344	9.641867044420966	-6.688192406047344	-4.944118135129267	4.036891183505505e-11	-4.944129118413871	-53.70245860338319	17.58179805297689	0.009500662125999291	77.77843910981831	-19.8692088509287	23.44927245956408	-15.26590255765792	2.488394127133185	-23.78425285709554	28.11641217844874	9.412171762772259e-10	0	0	19.31170460414173	10.4697411266387	-8.672381255830517	41.2291485524408	9.412171762772259e-10	0	0
0.3316550479034791	-67.47598535399693	21.71345929856919	1.31976184814212	-1.976597930284298	-5.385801899144898	1.782730209820882	-12.14747999211735	2.91783777330118	-42.4282718886415	-78.23706452570379	-1.226339975275121e-11	-85.7966663775274	-26.03053412811016	44.55409146144328	0	82.71961952420088	9.408165555396071	-3.45895708725489	0.5492750807229654	-3.626698397578117e-12	0.5492620563646933	-51.22873729815696	14.20988135699771	0.009857636595361314	80.86182551535883	-20.18272082157536	23.29332160556665	-16.73333591916841	2.554641371166436	-24.43590462784531	27.9614970134725	-5.596752977892583e-10	0	0	18.28386456498839	12.00951977447088	-9.977413633439987	38.47289973556853	-5.596752977892583e-10	0	0
0.3337517438962464	-67.84000840525275	21.72938782597659	1.478701883619562	-1.849967355299637	-5.595959813419253	1.799877318076539	-10.93300933365804	2.970884185933666	-41.73504827438634	-72.12360057618166	6.182222401075402e-11	-82.10153318421108	-25.6869400287121	43.70801197117515	0	83.90361335478732	9.33815377983313	-2.506409217232168	2.16883393107529	-4.263639223050779e-11	2.168821289679877	-50.49461366851719	13.21518254673581	0.009964875906896254	81.76624563244816	-20.27392409288253	23.24687305302122	-17.16511702070131	2.573357709165354	-24.62597275193746	27.9154406360657	9.296959821164031e-10	0	0	17.98001036004437	12.46477778010695	-10.36159494971126	37.65861479706048	9.296959821164031e-10	0	0
0.3352247098157805	-67.90716982103687	21.73217915604038	1.508151199149328	-1.82647618262226	-5.634913694419321	1.80305411416553	-10.96488538015968	2.980714200158006	-41.60623456881979	-66.41875151938331	-1.629908069586221e-10	-81.41533716825933	-25.68968988664164	43.55079804203395	0	84.12278429750346	9.325056275285664	-2.329673709640446	2.469234494463934	1.048574732200285e-11	2.469221675060453	-50.35795079655396	13.03063396088966	0.009984352590454142	81.93355022891828	-20.29071529241736	23.23821036035297	-17.24512164548298	2.576749107980974	-24.66102539521281	27.90685688038707	-2.375260764191871e-09	0	0	17.92358813344857	12.54936556544741	-10.43279740805097	37.50741467427926	-2.375260764191871e-09	0	0
0.3360510493955579	-67.91123860322392	21.73240048482069	1.509890442959525	-1.825098673942315	-5.637209433635101	1.803241849848475	-10.95552451491299	2.98129463686031	-41.59875773674344	-66.19761122185962	-1.126168548046707e-10	-81.37534849177079	-26.49271335319637	43.54166951240713	0	84.1358033727242	9.324326809801967	-2.319319790850448	2.486865334241588	7.616966485304056e-12	2.486852577051351	-50.35010370604234	13.01982028394053	0.009985613734461222	81.94352846899349	-20.29174482135803	23.23771857133526	-17.24984662503663	2.576976431367193	-24.66315385536435	27.90636741585333	1.667767045625218e-10	0	0	17.92029954556721	12.55427968810398	-10.43699630505177	37.49859856399049	1.667767045625218e-10	0	0
0.3362454082880461	-67.91124324988944	21.7324025120702	1.509890904283151	-1.825098651800548	-5.63720987459987	1.80324190372428	-10.95477532629807	2.981294787365916	-41.59876031192865	-66.20656168651706	-1.105994181560891e-10	-81.37535660303442	-26.51376265239125	43.54167253838987	0	84.13580944653189	9.324328151731358	-2.319319966076966	2.486866163310115	7.374025619281291e-12	2.486853408641001	-50.35010943179346	13.01982039631015	0.009985617892403183	81.94353451349926	-20.29174641393737	23.23771913159303	-17.24984787910505	2.576977433905844	-24.66315645207373	27.906367895235	2.44081474551369e-10	0	0	17.92030019528697	12.55427815162532	-10.43699720199631	37.49860018366211	2.44081474551369e-10	0	0
