DataType=double
version=3
OpenSimVersion=4.5
endheader
time	bflh_r	bfsh_r	gasmed_r	glmax2_r	iliacus_r	recfem_r	soleus_r	tibant_r	vasmed_r
0	-0.067656918	0	-1.12E-05	-0.058496564	0.037446501	0.047915574	0	0	0
0.005	-0.067397282	0	-1.10E-05	-0.058860867	0.037241561	0.047665948	0	0	0
0.01	-0.06710832	0	-1.07E-05	-0.059207878	0.037033944	0.0474035	0	0	0
0.015	-0.06678757	0	-1.02E-05	-0.059534148	0.036823864	0.047126184	0	0	0
0.02	-0.066432667	0	-9.58E-06	-0.059836258	0.036611561	0.046831842	0	0	0
0.025	-0.066041431	0	-8.86E-06	-0.060110859	0.036397316	0.046518271	0	0	0
0.03	-0.065611962	0	-8.07E-06	-0.060354718	0.036181462	0.046183286	0	0	0
0.035	-0.065142746	0	-7.21E-06	-0.06056476	0.035964396	0.045824805	0	0	0
0.04	-0.064632754	0	-6.31E-06	-0.060738119	0.035746591	0.045440934	0	0	0
0.045	-0.064081547	0	-5.39E-06	-0.060872192	0.035528607	0.045030052	0	0	0
0.05	-0.063489376	0	-4.47E-06	-0.06096469	0.035311096	0.04459091	0	0	0
0.055	-0.062857274	0	-3.57E-06	-0.061013696	0.035094809	0.044122713	0	0	0
0.06	-0.062187132	0	-2.70E-06	-0.061017711	0.034880594	0.043625215	0	0	0
0.065	-0.061481768	0	-1.89E-06	-0.060975704	0.034669399	0.043098792	0	0	0
0.07	-0.060744965	0	-1.14E-06	-0.060887152	0.034462266	0.042544515	0	0	0
0.075	-0.059981501	0	-4.73E-07	-0.060752071	0.03426032	0.041964206	0	0	0
0.08	-0.05919714	0	1.136948318071016e-07	-0.060571038	0.034064763	0.041360476	0	0	0
0.085	-0.058398603	0	6.122406200095608e-07	-0.060345204	0.033876855	0.040736754	0	0	0
0.09	-0.057593509	0	1.019562485400725e-06	-0.060076282	0.033697901	0.040097282	0	0	0
0.095	-0.056790286	0	1.335152215025013e-06	-0.059766536	0.033529229	0.039447099	0	0	0
0.1	-0.055998051	0	1.560501170917312e-06	-0.059418745	0.033372172	0.038791999	0	0	0
0.105	-0.055226466	0	1.698853609200871e-06	-0.059036154	0.033228043	0.038138464	0	0	0
0.11	-0.054485566	0	1.754952624691406e-06	-0.058622416	0.033098114	0.037493577	0	0	0
0.115	-0.053785564	0	1.734791287438101e-06	-0.058181519	0.032983594	0.036864912	0	0	0
0.12	-0.053136642	0	1.64537913196942e-06	-0.057717702	0.032885603	0.036260407	0	0	0
0.125	-0.052548732	0	1.494531520969655e-06	-0.057235368	0.032805152	0.035688216	0	0	0
0.13	-0.05203128	0	1.290686664878571e-06	-0.056738993	0.032743123	0.035156554	0	0	0
0.135	-0.051593028	0	1.042752360265077e-06	-0.056233031	0.03270025	0.034673523	0	0	0
0.14	-0.051241788	0	7.599819244612268e-07	-0.055721827	0.032677103	0.034246946	0	0	0
0.145	-0.050984241	0	4.518764510829157e-07	-0.055209538	0.032674075	0.033884187	0	0	0
0.15	-0.050825753	0	1.281084764151824e-07	-0.054700057	0.032691368	0.033591984	0	0	0
0.155	-0.05077022	0	-2.02E-07	-0.054196963	0.032728993	0.033376291	0	0	0
0.16	-0.050819951	0	-5.27E-07	-0.05370347	0.032786761	0.033242129	0	0	0
0.165	-0.050975582	0	-8.39E-07	-0.053222408	0.032864286	0.033193461	0	0	0
0.17	-0.05123604	0	-1.13E-06	-0.052756211	0.032960988	0.033233088	0	0	0
0.175	-0.051598542	0	-1.38E-06	-0.052306929	0.033076101	0.033362569	0	0	0
0.18	-0.05205865	0	-1.60E-06	-0.051876247	0.033208687	0.033582171	0	0	0
0.185	-0.052610358	0	-1.76E-06	-0.051465523	0.033357653	0.033890849	0	0	0
0.19	-0.053246225	0	-1.86E-06	-0.051075839	0.033521767	0.034286259	0	0	0
0.195	-0.053957548	0	-1.89E-06	-0.050708052	0.033699685	0.034764794	0	0	0
0.2	-0.054734555	0	-1.85E-06	-0.05036285	0.033889976	0.035321662	0	0	0
0.205	-0.055566634	0	-1.73E-06	-0.050040809	0.034091152	0.035950977	0	0	0
0.21	-0.056442569	0	-1.53E-06	-0.049742445	0.0343017	0.036645885	0	0	0
0.215	-0.057350791	0	-1.24E-06	-0.049468255	0.034520113	0.037398706	0	0	0
0.22	-0.058279622	0	-8.73E-07	-0.049218745	0.034744929	0.038201093	0	0	0
0.225	-0.059217517	0	-4.23E-07	-0.048994449	0.03497476	0.039044198	0	0	0
0.23	-0.060153285	0	9.953513704371473e-08	-0.048795924	0.035208329	0.039918853	0	0	0
0.235	-0.061076294	0	6.85930082834072e-07	-0.048623737	0.035444501	0.040815743	0	0	0
0.24	-0.061976635	0	1.322444158791167e-06	-0.048478426	0.035682311	0.041725577	0	0	0
0.245	-0.062845269	0	1.992091890645548e-06	-0.048360455	0.035920988	0.042639255	0	0	0
0.25	-0.063674127	0	2.674218407888076e-06	-0.048270151	0.03615998	0.043548011	0	0	0
0.255	-0.064456182	0	3.344592244268767e-06	-0.048207628	0.036398961	0.044443552	0	0	0
0.26	-0.065185474	0	3.975637490964612e-06	-0.048172719	0.036637847	0.045318167	0	0	0
0.265	-0.065857115	0	4.536819043221427e-06	-0.048164889	0.036876789	0.046164818	0	0	0
0.27	-0.066467253	0	4.995190338190181e-06	-0.048183166	0.037116172	0.046977211	0	0	0
0.275	-0.067013011	0	5.316107589313565e-06	-0.048226076	0.037356597	0.047749834	0	0	0
0.28	-0.067492407	0	5.464108149894629e-06	-0.048291587	0.037598859	0.048477986	0	0	0
0.285	-0.067904261	0	5.403943403242168e-06	-0.048377081	0.037843915	0.049157771	0	0	0
0.29	-0.068248084	0	5.101748649495845e-06	-0.048479338	0.038092848	0.049786084	0	0	0
0.295	-0.068523968	0	4.526324065452624e-06	-0.048594548	0.038346824	0.050360567	0	0	0
0.3	-0.068732481	0	3.650492235210947e-06	-0.048718348	0.038607041	0.050879565	0	0	0
0.305	-0.068874561	0	2.452489323619603e-06	-0.048845884	0.038874677	0.051342058	0	0	0
0.31	-0.068951426	0	9.173390819575954e-07	-0.04897189	0.039150835	0.051747596	0	0	0
