DataType=double
version=3
OpenSimVersion=4.5
endheader
time	bflh_r	bfsh_r	gasmed_r	glmax2_r	iliacus_r	recfem_r	soleus_r	tibant_r	vasmed_r
0	0	0	-0.042811157	0	0	0	-0.041172372	0.049040962	0
0.005	0	0	-0.043057198	0	0	0	-0.041597202	0.048645835	0
0.01	0	0	-0.043284541	0	0	0	-0.041996131	0.048268558	0
0.015	0	0	-0.043492558	0	0	0	-0.042367355	0.04791211	0
0.02	0	0	-0.043680947	0	0	0	-0.042709575	0.047578974	0
0.025	0	0	-0.04384971	0	0	0	-0.043021992	0.047271092	0
0.03	0	0	-0.04399912	0	0	0	-0.043304288	0.046989839	0
0.035	0	0	-0.044129696	0	0	0	-0.043556599	0.046736011	0
0.04	0	0	-0.044242163	0	0	0	-0.043779484	0.046509831	0
0.045	0	0	-0.044337422	0	0	0	-0.043973881	0.046310978	0
0.05	0	0	-0.044416515	0	0	0	-0.04414106	0.046138617	0
0.055	0	0	-0.044480595	0	0	0	-0.044282583	0.045991465	0
0.06	0	0	-0.044530895	0	0	0	-0.044400244	0.045867849	0
0.065	0	0	-0.044568706	0	0	0	-0.044496025	0.045765782	0
0.07	0	0	-0.044595351	0	0	0	-0.044572044	0.045683047	0
0.075	0	0	-0.044612169	0	0	0	-0.044630504	0.045617281	0
0.08	0	0	-0.044620499	0	0	0	-0.044673652	0.04556606	0
0.085	0	0	-0.044621668	0	0	0	-0.044703736	0.045526983	0
0.09	0	0	-0.044616982	0	0	0	-0.04472296	0.045497749	0
0.095	0	0	-0.044607717	0	0	0	-0.04473346	0.045476225	0
0.1	0	0	-0.044595117	0	0	0	-0.044737267	0.045460509	0
0.105	0	0	-0.044580388	0	0	0	-0.044736284	0.045448973	0
0.11	0	0	-0.044564691	0	0	0	-0.044732269	0.045440303	0
0.115	0	0	-0.044549144	0	0	0	-0.044726817	0.045433515	0
0.12	0	0	-0.044534812	0	0	0	-0.044721351	0.045427961	0
0.125	0	0	-0.044522706	0	0	0	-0.044717119	0.045423323	0
0.13	0	0	-0.044513773	0	0	0	-0.044715184	0.045419591	0
0.135	0	0	-0.044508891	0	0	0	-0.044716437	0.045417027	0
0.14	0	0	-0.044508863	0	0	0	-0.044721595	0.045416124	0
0.145	0	0	-0.044514399	0	0	0	-0.044731209	0.045417547	0
0.15	0	0	-0.044526117	0	0	0	-0.044745679	0.045422077	0
0.155	0	0	-0.044544521	0	0	0	-0.044765264	0.045430548	0
0.16	0	0	-0.044569999	0	0	0	-0.044790092	0.045443775	0
0.165	0	0	-0.044602806	0	0	0	-0.04482018	0.045462491	0
0.17	0	0	-0.044643058	0	0	0	-0.044855444	0.045487286	0
0.175	0	0	-0.044690718	0	0	0	-0.044895714	0.045518545	0
0.18	0	0	-0.044745593	0	0	0	-0.04494075	0.045556402	0
0.185	0	0	-0.044807326	0	0	0	-0.044990246	0.045600694	0
0.19	0	0	-0.044875389	0	0	0	-0.045043848	0.045650934	0
0.195	0	0	-0.044949087	0	0	0	-0.04510116	0.045706287	0
0.2	0	0	-0.045027558	0	0	0	-0.045161745	0.045765566	0
0.205	0	0	-0.045109771	0	0	0	-0.045225137	0.045827236	0
0.21	0	0	-0.045194543	0	0	0	-0.045290836	0.04588943	0
0.215	0	0	-0.045280542	0	0	0	-0.045358311	0.045949978	0
0.22	0	0	-0.045366304	0	0	0	-0.045427001	0.046006449	0
0.225	0	0	-0.045450246	0	0	0	-0.045496304	0.0460562	0
0.23	0	0	-0.045530692	0	0	0	-0.045565585	0.046096434	0
0.235	0	0	-0.045605892	0	0	0	-0.045634161	0.046124268	0
0.24	0	0	-0.045674047	0	0	0	-0.04570131	0.046136801	0
0.245	0	0	-0.045733343	0	0	0	-0.045766261	0.046131188	0
0.25	0	0	-0.045781976	0	0	0	-0.045828201	0.046104719	0
0.255	0	0	-0.045818192	0	0	0	-0.04588628	0.046054889	0
0.26	0	0	-0.04584032	0	0	0	-0.045939613	0.04597947	0
0.265	0	0	-0.045846807	0	0	0	-0.045987298	0.045876578	0
0.27	0	0	-0.045836261	0	0	0	-0.046028429	0.045744734	0
0.275	0	0	-0.04580748	0	0	0	-0.046062113	0.045582916	0
0.28	0	0	-0.045759498	0	0	0	-0.046087497	0.045390597	0
0.285	0	0	-0.045691612	0	0	0	-0.04610379	0.04516778	0
0.29	0	0	-0.045603414	0	0	0	-0.046110295	0.044915014	0
0.295	0	0	-0.045494824	0	0	0	-0.04610643	0.044633404	0
0.3	0	0	-0.0453661	0	0	0	-0.046091765	0.044324602	0
0.305	0	0	-0.045217865	0	0	0	-0.046066042	0.043990786	0
0.31	0	0	-0.045051104	0	0	0	-0.046029202	0.043634632	0
