DataType=double
version=3
OpenSimVersion=4.5
endheader
time	bflh_r	bfsh_r	gasmed_r	glmax2_r	iliacus_r	recfem_r	soleus_r	tibant_r	vasmed_r
0	0.0664919365059093	0.04604841847080272	0.02224422664879865	0.0001692608574188036	0.13808551390554	0.00622251518702033	0.0002162844887491386	0.07986950912064437	0.0003005794700768068
0.0004542507337261803	0.06184999099538906	0.04621268948399584	0.02126150801916934	0.0001666349619585582	0.1349686872497126	0.001037398441922809	0.0002125169328741389	0.07792659881124007	0.0002869551789992892
0.001515784775164009	0.06331917526826362	0.04535272733597826	0.02178127422761796	0.0001701698346730996	0.1353630115777777	0.0006790975408052134	0.0002177910501951195	0.07756292251396325	0.0002922639664502639
0.003164446411839883	0.06612559883299253	0.04400060975312724	0.02254573040413011	0.0001737654977365899	0.1349903717546529	0.0004434179972921675	0.0002233782183522484	0.07708512066774731	0.0002977973938705108
0.005374104194047435	0.07102353238982644	0.04205397344067526	0.02364167399519043	0.0001767826888470194	0.1331544901125859	0.0002001128223898096	0.0002284518930190682	0.07656700330636436	0.0003021693477690186
0.008109887166813518	0.07844940013173664	0.03966934718564851	0.02509417351043603	0.0001785637327103883	0.1296631668819258	6.901177944034372e-05	0.0002320457649867929	0.07629613544887479	0.0003044454453345401
0.01132864367758793	0.0875925922890774	0.03706018493280556	0.02676355061411549	0.0001791678362446747	0.1249729288360432	5.30555447013106e-05	0.0002341376982595545	0.07626154339314375	0.0003047911071775272
0.01497960949210789	0.09758364399803811	0.03445473069556975	0.02847036710588675	0.0001782362105966934	0.1192944722153458	6.772596529482771e-05	0.0002341206135814945	0.07642065945865449	0.000302498118189687
0.01900520557876997	0.108966379918356	0.03188322341120524	0.0302109134478324	0.0001743980249441098	0.1118115535420978	0.0001222641030913156	0.0002300967585964767	0.07690862354063775	0.0002951923930108787
0.02334194532480019	0.1208026272985698	0.0295011013434618	0.03178012561097586	0.0001670746215183691	0.1026448488888196	0.0003237184246416898	0.0002211829827251118	0.0775922950589487	0.000282135268962724
0.02792143545395889	0.1320802032276475	0.02743863982637643	0.03296834123044821	0.0001557938389373614	0.09187071641717243	0.0006194771744304498	0.0002066530540378239	0.07827566559990692	0.0002624855432463766
0.0326714545037473	0.1418356424347358	0.02581965525688149	0.03359447481867956	0.0001403672695529002	0.07940436240607895	0.0004088923861864603	0.000186179052675767	0.07872376487752861	0.0002348944776603437
0.03751709174442691	0.1486816338124813	0.02462703676882988	0.03336180734922822	0.0001199535102280241	0.0652954187882677	0.0001491115068326549	0.0001585756952162501	0.07850189806296384	0.0001988249310682336
0.04238192853981579	0.1527585724130845	0.02399710158918686	0.03250624818954478	9.761358889249864e-05	0.05146287216645701	4.613612406817088e-05	0.0001280215729573294	0.07797320233281033	0.0001599158395018632
0.04718924350439309	0.1537830820109705	0.02380348090292732	0.03109070576365452	7.489409953819686e-05	0.03861656940187831	2.98706469725724e-05	9.670256890580622e-05	0.07697855260032452	0.0001207136686283765
0.0518632224455918	0.15167206054132	0.02395785687469245	0.02924359642098593	5.379765241949377e-05	0.02771813472672758	2.540295376118624e-05	6.742335288322448e-05	0.07548355876985278	8.453058374630907e-05
0.05633015401013977	0.146670737060295	0.02443579898164547	0.02711048908974329	3.579030605410092e-05	0.01948443772836716	2.576197077416748e-05	4.222623681929229e-05	0.07360648690855892	5.386133170235168e-05
0.06051959218465776	0.1392083331499313	0.0251075636528286	0.02483266320960088	2.179387035790944e-05	0.01417554636784541	3.310722588832186e-05	2.244797757033913e-05	0.07138109534098577	3.026480825304414e-05
0.06436546733510043	0.1299211726973171	0.02593877592041751	0.02253775997977011	1.206112544305297e-05	0.01176850736201917	6.488775271370281e-05	8.464617781349283e-06	0.06897900452198673	1.416779645827119e-05
0.06780712831226307	0.1197268881150498	0.02692362963295768	0.02042866662423727	7.238609557913064e-06	0.01242969757673781	0.0001326367582301575	1.190386069653144e-06	0.06670789748405566	6.648334243844281e-06
0.07079029933648544	0.1094308890043193	0.02809433311389926	0.01865397154654581	7.485707461643582e-06	0.01608997565349863	0.0001771600216371151	8.482177701432603e-07	0.0648515287056354	7.826333479222338e-06
0.07326793709552543	0.0994590581825098	0.02906164883692369	0.01695456325469027	7.94753597826104e-06	0.0195325399026432	0.0001797240937180592	8.935949750522826e-07	0.06287678674457041	9.269492147442845e-06
0.07520097689840965	0.09071712653887402	0.02978881153870869	0.01546441244086238	8.308494963013601e-06	0.02237408856668716	0.0001709069713323501	9.226927586288026e-07	0.06100942159510494	1.043378014767999e-05
0.0765589714577417	0.08430716272374843	0.03030055462950651	0.01438173303930921	8.708240335911685e-06	0.02452214640488661	0.0001953100457863778	1.139566696839043e-06	0.05962652859527671	1.157494259503068e-05
0.07732081165962061	0.0826722461035177	0.03082911836294289	0.01427151607108179	1.130303786790287e-05	0.02716851343040498	0.0006720168085112363	4.475623579632866e-06	0.05988338326417671	1.702596375553495e-05
0.0775	0.08623235566268131	0.03131253411592139	0.01516506951151119	1.549489284455435e-05	0.03005689742772709	0.002023626241033818	1.013589298960191e-05	0.06185860008436608	2.649507598261465e-05
0.07795425073372618	0.07759427916629269	0.0308686428902962	0.01330442729068438	9.942379095860493e-06	0.02726849192762584	0.0002445133293870953	2.481052383701679e-06	0.05825553292310358	1.421782656352422e-05
0.07901578477516402	0.07093680993040721	0.03107988733061102	0.01212010773565406	9.401513481714593e-06	0.02848187575023901	7.157699266258041e-05	1.517490550484852e-06	0.05639924611257586	1.338450251236931e-05
0.08066444641183987	0.06143016256561588	0.03156800345217382	0.01054949185486208	1.040667793825382e-05	0.03152674332189152	3.857502045064288e-05	2.521649287829257e-06	0.054062749567291	1.564944789714666e-05
0.08287410419404742	0.04860239816021333	0.03239062611057016	0.008609443131570031	1.436841066695131e-05	0.03727397950543641	2.792846494521828e-05	7.411685243610477e-06	0.05121952248487064	2.32583403215841e-05
0.08560988716681352	0.03301744506530881	0.03357162751614524	0.00649315704194772	2.266832432745666e-05	0.04638381361494184	2.414923315155814e-05	1.80993544619767e-05	0.04813373970934797	3.852803732890999e-05
0.08882864367758794	0.01600310372678478	0.03515156938375143	0.004486864226607547	3.615319610298222e-05	0.05911118478470415	4.996161916441029e-05	3.576451256143177e-05	0.04530082951559705	6.287875421623048e-05
0.09247960949210787	0.001753829084674573	0.03709021204172592	0.003323850553811416	5.502536073828679e-05	0.07684811689430202	0.004108481594629381	6.076811311311508e-05	0.04441550147919614	0.0001036549777082462
0.09650520557876997	1.612463863681444e-05	0.0396434174883773	0.004776612687615156	8.082446280957214e-05	0.1010404893628266	0.01636531900359039	9.53048352471307e-05	0.04928440410292358	0.0001704751354358225
0.1008419453248002	1.764429854906633e-05	0.04254687607924142	0.00682765052711128	0.0001110253055405485	0.130045316431546	0.0329182240398588	0.0001357995974475377	0.0557583311382467	0.0002525631195281262
0.1054214354539589	2.883323545981097e-05	0.04575877653086204	0.009142875286582424	0.0001450732822543428	0.1628710460992634	0.05195170148246034	0.0001814768198747483	0.06303338769357746	0.0003457784210281976
0.1101714545037473	0.001086201470684484	0.04931991870329687	0.01190058977016195	0.000182984996576517	0.1987139100002852	0.07226671533964445	0.0002323676700007398	0.07134102818056766	0.0004479169961942263
0.1150170917444269	0.001813206926359004	0.05307699004493461	0.01478749604495271	0.0002236044473821163	0.2361116583017255	0.09216524422753973	0.0002869173656795174	0.07984712872961719	0.0005539899129805579
0.1198819285398158	0.000868931143893566	0.05682593319107732	0.01747792029567184	0.0002655013390809687	0.2741278394691384	0.1113164847318457	0.0003432077678097531	0.08781039438368057	0.0006610082985850685
0.1246892435043931	6.672378442029894e-05	0.06046319893699201	0.02022424442992243	0.000307810909608719	0.312153347077437	0.1303726213555996	0.0004001182161262066	0.09570388233905855	0.0007685512465261377
0.1293632224455918	3.487929388255862e-05	0.06383942154183132	0.02305359105692198	0.0003493378516393872	0.3493303438056484	0.14952179105281	0.000456068879983508	0.1035194194514961	0.0008748578918170157
0.1338301540101398	4.750990041719388e-05	0.06676875835512826	0.02573544831867359	0.000388510282657535	0.3844312476240313	0.1682282397968238	0.0005089510502533876	0.1106950645568821	0.0009762881316281006
0.1380195921846578	0.0001157759430824587	0.06918133333335465	0.02817662903457596	0.0004239498837128263	0.416382353966157	0.1860606240630175	0.0005568895617775042	0.1170434264810975	0.001069684715461495
0.1418654673351004	0.0002305529122013611	0.07106986219698494	0.0303060438216541	0.0004546627903725135	0.4444126714070399	0.2026114976380877	0.0005985145292003042	0.1224608524400895	0.00115259931196058
0.1453071283122631	0.0003135280015067908	0.0724604351160044	0.03207449437122611	0.0004801466001294122	0.468082974722753	0.2174903001246059	0.000633120497725323	0.1268846807860592	0.001223465656951707
0.1482902993364854	0.0003710690614863176	0.07339512413164849	0.03348119674914214	0.0005003870348265098	0.4872742675135657	0.230401410547919	0.0006606716761920227	0.1303298017314112	0.001281725151940957
0.1507679370955254	0.0004212162321794741	0.07393344980035763	0.03454749243075454	0.0005156622599256989	0.5020849352890747	0.2411209429501535	0.0006815294046152695	0.1328558738794681	0.001327452515172346
0.1527009768984096	0.0004916622930615977	0.0741574577039107	0.0353178205032186	0.000526563241186756	0.512840650841516	0.2494824867491819	0.0006964782260384395	0.1345716917961285	0.001361365331181339
0.1540589714577417	0.0006502946850191271	0.07416077981386483	0.03584225912162958	0.0005336672125116339	0.5199187062263037	0.2554173777264981	0.0007062792702511834	0.1356212499798642	0.001384332682868064
0.1548208116596206	0.001496218996913909	0.07399694875117768	0.0362672891411512	0.0005376156409967359	0.52379249734638	0.2592558292640912	0.0007118077045909828	0.1363146239437765	0.001398022918890065
0.155	0.006697183434933748	0.07349648485491328	0.03716878669583903	0.0005376075809170768	0.524369407074272	0.26337093910377	0.0007120871143012077	0.1378145628113289	0.001405127400539349
0.1554542507337262	0.0008256716821572878	0.07410171164825895	0.0363573764812413	0.0005405779677920152	0.5268851904808779	0.2614860906973756	0.0007158386891147625	0.1366128237186131	0.00140720616225884
0.156515784775164	0.0005022909157637475	0.07421525019084659	0.0366235073110339	0.0005452098980941196	0.5319275574663778	0.2657343185213712	0.0007221732430641063	0.1373303664440548	0.001422897632934133
0.1581644464118399	0.0003666706129561302	0.07422781838411223	0.03705856348869783	0.0005517660725570222	0.5392669253017111	0.2725684960326375	0.0007312034511396901	0.1383726345473529	0.001446569244986887
0.1603741041940474	0.0002808738199938894	0.07405728867843922	0.0375479704095189	0.0005589243314016744	0.5479610023864516	0.2817142961941844	0.0007411333358912737	0.1395130410177697	0.0014754532754508
0.1631098871668135	0.0002184546366689387	0.07358834030268459	0.03797410108787024	0.0005650361298235128	0.5568267352775921	0.2928975499961163	0.0007497314488308936	0.1405070240775328	0.001506212376051169
0.1663286436775879	0.000170519102226368	0.07268018066181733	0.03818512027869445	0.000567914461699611	0.5643094080830992	0.305764230265466	0.0007540329089907323	0.1410526554788649	0.001534435635029516
0.1699796094921079	0.0001254789433790647	0.07113850634175115	0.0379893591110706	0.0005647942240965303	0.5684415792937701	0.319899639563572	0.0007502957177324182	0.1407538115635009	0.001554605117075572
0.17400520557877	8.022582690318885e-05	0.06876268768945214	0.03718289825514699	0.000552712767685527	0.5670863816963736	0.334793055347862	0.0007345078702016473	0.1391899029236733	0.001560688168401059
0.1783419453248002	5.023267754761785e-05	0.06544606175489624	0.03564247440411917	0.0005298402753670972	0.5587574179985448	0.3497909900189705	0.0007041860502758415	0.1360881557523288	0.001548346224143054
0.1829214354539589	4.252953697598846e-05	0.06110766538058887	0.0333353350772849	0.0004956647069758782	0.5427361247363145	0.3642693777455794	0.0006586583906558353	0.131268184518296	0.001515563664379871
0.1876714545037473	4.636373939317601e-05	0.05582406669243221	0.03027927569545758	0.0004504877184994785	0.518903510125028	0.3775327449660777	0.000598313077839808	0.1247486359765267	0.001461603907499881
0.1925170917444269	4.364479128695153e-05	0.04965775327197417	0.02656162357652015	0.0003956161237423389	0.4879187967356855	0.3893364629508658	0.0005249321395982138	0.1166286043736675	0.001388276813104008
0.1973819285398158	3.721574781143448e-05	0.04272245927464502	0.0223508957628947	0.0003334800504305074	0.4513740067754407	0.399917387235148	0.0004418282385738038	0.1071771958473306	0.001300198677664057
0.2021892435043931	3.046382057742463e-05	0.03510508084770013	0.01784293230473196	0.000266889713776757	0.4111811098882928	0.4097791595298901	0.0003528496622171367	0.09668193419340136	0.0012031220064643
0.2068632224455918	2.409204915641055e-05	0.02712901922806207	0.01335773458703385	0.0002005046236510672	0.3703435871722482	0.4190495369237237	0.0002643057858922727	0.08573710932610565	0.001105311724407986
0.2113301540101398	1.868718714184476e-05	0.01962115593427323	0.009297507705818409	0.0001403153213004663	0.3328993955925615	0.4273016765171743	0.0001841407134512197	0.07549335974859658	0.001016340947196133
0.2155195921846577	1.459913930582253e-05	0.01335895183962428	0.006022186106306257	9.169469847360242e-05	0.3024323894793204	0.4340034985746187	0.0001194652750787007	0.06700555520563904	0.0009445269972496336
0.2193654673351004	1.197558934237227e-05	0.008745518193382665	0.003694480315400516	5.708885500630854e-05	0.2807142771796435	0.4390607138893011	7.349584129852114e-05	0.06082430795565007	0.0008939266043050325
0.2228071283122631	1.072136245338575e-05	0.005651378853146599	0.002173510953687183	3.445335549144725e-05	0.2669022043883193	0.4432623525689504	4.345540468643581e-05	0.05679585114573044	0.0008624446693948527
0.2257902993364854	1.062558029021832e-05	0.003687931592525356	0.001218696643867259	2.024082471323891e-05	0.259018558630788	0.4473960046372097	2.459572852268021e-05	0.05440896700992741	0.0008453855029777363
0.2282679370955254	1.138352162630343e-05	0.00247499356577536	0.0006236974687315817	1.13924194827199e-05	0.2550846001683064	0.4517386982936061	1.284282122470342e-05	0.05312885049146064	0.0008379697950914582
0.2302009768984097	1.195180966803229e-05	0.001780737189262062	0.0002697917557016001	6.144332129516341e-06	0.2536979964828623	0.4559977568011543	5.854602984316819e-06	0.05258306619748779	0.0008366216899499234
0.2315589714577417	8.714219363433314e-06	0.001541738094158566	0.0001163354166650448	3.903697511608768e-06	0.2541039708568392	0.459520595260818	2.840090259895894e-06	0.05260020019886713	0.0008391362078255216
0.2323208116596206	0.0001135935787327935	0.001744932792781434	0.0001489395893751694	4.186581277537185e-06	0.2557782307572388	0.461899716467492	3.139320327708784e-06	0.05313195860317938	0.0008439350110647743
0.2325	0.0009664827568446775	0.004537649533202825	0.001412159167783921	2.099483288723432e-05	0.2686077520853201	0.462721736444324	2.52413863838124e-05	0.05736417219546656	0.0008744227672274228
0.2329542507337262	2.302749148824693e-05	0.001441197166916029	5.11478294247934e-05	2.923861855520822e-06	0.255666132570576	0.463602104722128	1.509875259438249e-06	0.05289732072435006	0.000844837600846447
0.234015784775164	1.550063127967711e-05	0.001206963603469869	7.871938797146248e-06	2.262899802303756e-06	0.2567757905405077	0.4668221262363126	6.791188939915678e-07	0.05296105389773291	0.000849522850408471
0.2356644464118399	2.170489388254466e-05	0.001141474603268618	5.299387856287552e-06	2.212274716433332e-06	0.2598134168115644	0.4726019877658996	6.121620332277818e-07	0.05352641788049323	0.0008599018253195128
0.2378741041940474	2.579603189624823e-05	0.001086028621635519	6.439885530093545e-06	2.235082820172724e-06	0.2646215287904762	0.4815379916978547	6.29368765348063e-07	0.05445403631213794	0.0008761246177803214
0.2406098871668135	2.659771806227882e-05	0.001007456493799397	6.284621329936671e-06	2.254156411542921e-06	0.2713974826574094	0.494143503286251	6.355762218755784e-07	0.05576002527593405	0.0008989869237160448
0.2438286436775879	1.16918000491611e-05	0.001670022139994719	0.000288645518720612	6.586797814108415e-06	0.2833308443864487	0.5102447936666477	6.285543623226708e-06	0.05846952682543735	0.0009356385855468976
0.2474796094921079	0.0001363145881636476	0.005058577833497404	0.001625040022809675	2.64761151184795e-05	0.3084276726260477	0.5289197066574131	3.231322825489768e-05	0.06525196172751897	0.001003836805782873
0.25150520557877	0.0004349751004967761	0.01137868678522556	0.004030490432101149	6.211545772526665e-05	0.3466683187252537	0.5494934854216187	7.890446445462782e-05	0.07627874132716159	0.001102699007493199
0.2558419453248002	0.0008275648026371901	0.02103024398753284	0.007604422917792438	0.0001152437803864222	0.399313741360713	0.5716196312734115	0.0001482985351883533	0.09201040935555853	0.001234612716855418
0.2604214354539589	0.001426131270140183	0.03357080260874359	0.01223705385516983	0.000183884705433498	0.465164292737025	0.5961018915683887	0.000237944133439173	0.1119884746951232	0.00139760623588644
0.2651714545037473	0.00241170441503041	0.04829917411855061	0.01773684432526155	0.0002646456246834101	0.5418850057143536	0.6236794472856932	0.0003434400770305087	0.1354158361464007	0.001587138016093393
0.2700170917444269	0.003594109268899733	0.06470098438375783	0.02382951947617785	0.0003539077445006432	0.6252396519994462	0.6512711654880076	0.0004600038864261204	0.1611543011118771	0.001791387836166017
0.2748819285398158	0.004300916682112218	0.08295676253186716	0.03022061426683733	0.0004491407079519267	0.7088952645009409	0.6691261785060054	0.000584089358000027	0.1879978952134594	0.001988386928155394
0.2796892435043931	0.003919635313367331	0.103414753731804	0.03657787862296799	0.000547184293732833	0.7864214366951268	0.6675948508476656	0.0007112105976857881	0.2149242400730282	0.002155269518433485
0.2843632224455918	0.002917332669331602	0.1255925266120425	0.04271081755315258	0.0006440119499569605	0.8523814491462847	0.6419722754808735	0.0008360275337437371	0.2408331344406111	0.002276534119154617
0.2888301540101398	0.001344657932773681	0.1476803247842483	0.04822226741459537	0.0007332811155951019	0.9039338954322522	0.5974438865733475	0.0009504969567994752	0.2640174176823654	0.002350575327702638
0.2930195921846577	0.0006988802723924497	0.1683312069915061	0.05301021506773358	0.000809476277685126	0.9399810880603571	0.541076995022943	0.001047548077990575	0.2839702407820796	0.002380552786382613
0.2968654673351004	0.0001441762851566377	0.1863211168046615	0.05672249390116568	0.0008692545671351113	0.9610052178332096	0.4795230776798883	0.001123020399623341	0.2996625181243463	0.002372758344855364
0.3003071283122631	0.0003274647422768959	0.2010056000869044	0.05943132964694457	0.0009118772103632802	0.9685470006514649	0.4180286613336531	0.001176149465897813	0.3111278030654299	0.002335356694965812
0.3032902993364854	0.00207155792697676	0.2123543978926883	0.06139093818214985	0.0009389627139206556	0.9657621938636677	0.3611425312104924	0.001209182964618812	0.3191653676583055	0.002279321918005646
0.3057679370955254	0.00282550130395099	0.2202111953863527	0.06235331475499933	0.0009531715784597922	0.9563761051125679	0.3124422422476964	0.001225800439846999	0.3233434135676971	0.002215860268092376
0.3077009768984096	0.001861574608019945	0.2251019050928383	0.06245470799800792	0.000958397977510472	0.9443880569328698	0.2739308092241615	0.001231147154149851	0.3244253695515059	0.002155368951042234
0.3090589714577417	0.0003214721479194816	0.2278758159291593	0.0621708623511999	0.0009589069164203721	0.933574278843738	0.2468044047110876	0.001230786995043147	0.3240327437699148	0.002107323247460163
0.3098208116596206	0.0001307965151890689	0.2293395807523278	0.06208837863890932	0.0009586140722272116	0.9273045278163332	0.232248814812184	0.00122983362282318	0.3239628040513562	0.002080529250826343
0.31	0.0001472633878893954	0.2296736992486184	0.06207654147878005	0.0009585001541788269	0.9258161662149726	0.2288906934176681	0.00122955221877023	0.3239590483677728	0.002074264019185019
