DataType=double
version=3
OpenSimVersion=4.5
endheader
time	bflh_r	bfsh_r	gasmed_r	glmax2_r	iliacus_r	recfem_r	soleus_r	tibant_r	vasmed_r
1	9.322517649999257e-07	6.287659859731233e-06	4.147461139862715e-07	1.688961021739384e-06	0.2386270066116332	0.4367206153612631	5.076579425390708e-07	0.04828690732338949	0.0007939593866000414
2	1.71534040005611e-05	0.2448806169578422	3.481811092406964e-06	7.899935478161711e-05	0.3398521076720903	2.230772209235633e-05	7.944878867148833e-06	0.273009156861192	0.0001466666616287976
3	6.921982391568954e-05	7.738261411599303e-06	0.0635972361413724	0.0009053777977939576	0.4940090384363469	8.430289105194255e-05	0.001252053880653952	0.04365356346549668	0.001558393088831707
4	0.4423164760416244	0.06704157263273518	0.07538830168293835	1.510023861455195e-05	1.388289837800211e-05	6.931248617076869e-06	1.713675586146679e-06	0.210186027256029	2.237839107867721e-06
