DataType=double
version=3
OpenSimVersion=4.5
endheader
time	hip_flexion_r	knee_angle_r	ankle_angle_r	hip_flexion_r_u	knee_angle_r_u	ankle_angle_r_u
0	0.4153737953444702	0.3788448224925253	0.04101095679015349	-2.351630382559336	1.123140790477912	-5.531470744282554
0.0004927087852480694	0.4142160594046142	0.3794203678993017	0.03829176624083092	-2.348226023653998	1.212461880870784	-5.506154236199324
0.001644115066457508	0.4115155573068214	0.380934981992478	0.03198666528689759	-2.342326123118146	1.419336226186719	-5.445628698587264
0.003432356695983019	0.4073372385954425	0.3837672571856964	0.02233431936153668	-2.330723548971416	1.748881390330973	-5.349291583693107
0.005829089867451537	0.4017675581138153	0.3884866136316115	0.009671967695660005	-2.317559871564407	2.188489919661443	-5.216174905536199
0.008796491359919972	0.3949094165132259	0.3957802063672403	-0.005548405357384961	-2.305785708184307	2.725498755014756	-5.039174764936913
0.01228775618942049	0.3868703761142972	0.4063746434254388	-0.02274337344163818	-2.301056250986037	3.340611820524309	-4.807296846708377
0.01624782228925581	0.3777513466569625	0.4209506314034456	-0.04122291397191626	-2.306351718643937	4.016599840972575	-4.522470261526557
0.02061423583687663	0.3676422961385598	0.4400554861105666	-0.06024499910165289	-2.326520691461887	4.727982435882719	-4.18678282709974
0.0253181352773377	0.356616410252768	0.4640147682880514	-0.07904705681102889	-2.364256594501106	5.450717675848137	-3.804765228516087
0.03028533698130559	0.3447339811960056	0.4928613141491119	-0.09691486764533545	-2.423432515768176	6.152943942154518	-3.387651520134977
0.03543750502895751	0.3320467784503645	0.5262860096968335	-0.1132318990334207	-2.505001907106139	6.809095684662022	-2.945434295568774
0.04069338655285454	0.3186125933246781	0.5636400067845493	-0.1275301258296619	-2.611003573176351	7.38860258190871	-2.4977414423755
0.04597009311582306	0.30450531702502	0.6039416393163594	-0.1395720435641761	-2.739416045187398	7.869676110756293	-2.071815820002021
0.05118440789980219	0.2898465166926215	0.645992285695582	-0.1493625611717252	-2.886360605835024	8.241724994849282	-1.691972325653605
0.0562540980850057	0.2748151625198432	0.6884814991445278	-0.1571228026651783	-3.045990393795056	8.504282325756288	-1.379679514263768
0.06109921172279988	0.2596603975226167	0.7301109872614103	-0.1631987420535042	-3.211645700185726	8.665357648357451	-1.137206251700702
0.0656433386566332	0.2446974200372988	0.7696880302219057	-0.1679398877120106	-3.374781831223728	8.742519340751617	-0.9568293971724529
0.06981481562497333	0.230301271374995	0.806204491823038	-0.1716467317207938	-3.527716834161864	8.75642012343005	-0.8246011163137448
0.07354785659418331	0.2168772774464119	0.8388521932179082	-0.1745302482878545	-3.663725792071592	8.729434772728496	-0.7218428135121076
0.07678359065557917	0.2048355566880973	0.8670254783802442	-0.1767295244812569	-3.778836980941274	8.680339244084202	-0.6380536404439416
0.07947099168744461	0.1945547079357145	0.890278675725968	-0.178353257760311	-3.871721573875794	8.622826459527523	-0.5706004548267303
0.08156768768021185	0.1863625664177935	0.9083018706878583	-0.179494569081423	-3.942619908261664	8.567040647148852	-0.5178439889527557
0.08304065359974588	0.1805187330712965	0.9208874157452438	-0.1802294788892949	-3.991798167676549	8.521299486810545	-0.4799029897195766
0.08386699317952337	0.1772092724940645	0.9279183448494582	-0.180616918393189	-4.018008062677437	8.495708740099467	-0.4573982704824773
0.08406135207201153	0.1764277362983842	0.9295689548262014	-0.1807052518699034	-4.023479149242631	8.490920164758517	-0.4518606152959164
0.08455406085725958	0.1744423278385996	0.9337493447897152	-0.1809244815138189	-4.036672074211884	8.476884243047568	-0.4383454094728059
0.08570546713846902	0.1697724915904287	0.9434847924987581	-0.1814133139291116	-4.074855499628873	8.432872743133645	-0.4115930998541311
0.08749370876799453	0.1624351587812005	0.9585005188182737	-0.1821179933618866	-4.13111686950957	8.359730371434619	-0.377923826645103
0.08989044193946306	0.1524435024128277	0.9784057352746971	-0.1829807568420729	-4.206213456169097	8.248379452486011	-0.3437440525398761
0.0928578434319315	0.1398317246222222	1.002660602010744	-0.1839530461288551	-4.292870785817859	8.096830171669545	-0.3136097767594226
0.09634910826143198	0.1246773850699343	1.030593147910343	-0.1850070204650444	-4.386496728914104	7.902600272922573	-0.2923785219002579
0.1003091743612673	0.1071257147607192	1.061444542431415	-0.1861387099035537	-4.474309443566803	7.679551441695153	-0.2810197244026948
0.1046755879088882	0.08742023006253241	1.09445289922314	-0.1873615551677116	-4.547241134454993	7.440798347759262	-0.2814359237420181
0.1093794873493492	0.06590862174359269	1.128859437568071	-0.188716819393297	-4.5931901053674	7.188353252725062	-0.2973361350765167
0.1143466890533171	0.04305079965903563	1.163904514445393	-0.1902665463409749	-4.603372048560905	6.922902656917957	-0.3287503701418983
0.119498857100969	0.01940978662102244	1.198886694788738	-0.1920656378073534	-4.564836530916637	6.660005517625995	-0.3703810217149983
0.1247547386248661	-0.0043581933222967	1.233241570173847	-0.1941255965425004	-4.469810778873609	6.418603422171644	-0.4127463265473792
0.1300314451878346	-0.02755671461455578	1.266560432388175	-0.1964000952512003	-4.312255479455378	6.217872839008225	-0.4475748892877855
0.1352457599718137	-0.04950079249198808	1.298568239838695	-0.198797806015868	-4.094272278335757	6.067361629080098	-0.4698548008646166
0.1403154501570172	-0.06958980500072254	1.329065357801831	-0.2012065598945233	-3.820530317514927	5.97258798764878	-0.47811424852781
0.1451605637948114	-0.08735352479931741	1.357880484805729	-0.2035153609685322	-3.503323795649457	5.929411225601301	-0.4726411380902911
0.1497046907286447	-0.1025037592652246	1.384812156646139	-0.2056270184804884	-3.156764988983342	5.93071481635031	-0.4546401427848497
0.1538761676969849	-0.11493942815954	1.409611824107043	-0.207469839824056	-2.799697018017295	5.964004991979175	-0.427213787766195
0.1576092086661948	-0.1247466231279866	1.431968779775771	-0.2090061977945313	-2.449652118105679	6.017599944965124	-0.3948046477817289
0.1608449427275907	-0.1321526852687371	1.45153628594587	-0.210232292104382	-2.125211983785849	6.078730561944813	-0.3626226152544931
0.1635323437594561	-0.1374858656326359	1.467949981697631	-0.2111696737960437	-1.84135850231627	6.138008681806467	-0.3350526099980167
0.1656290397522234	-0.1411070847207026	1.480871837697524	-0.2118506507273972	-1.612286281637427	6.18800472002842	-0.3149140532125503
0.1671020056717574	-0.1433612819189522	1.490013418522841	-0.2123053384834069	-1.447344843728802	6.22528672063194	-0.3028768620662454
0.1679283452515349	-0.1445182490808289	1.495166764101292	-0.2125533819193623	-1.353478630097104	6.246792203794529	-0.2977823620901128
0.168122704144023	-0.14477927384168	1.496381269601526	-0.212611174418498	-1.331150439148941	6.252059996668644	-0.2969203137666456
0.1686154129292711	-0.1454211434273885	1.499465419233107	-0.2127569138485552	-1.274343400587323	6.266450657560016	-0.2944283063776667
0.1697668192104805	-0.1468118540628417	1.506697516029915	-0.2130909681030617	-1.141100733815621	6.295910227884903	-0.2852974756738962
0.171555060840006	-0.1486650574215814	1.517999060836261	-0.2135850531217266	-0.9308722331620727	6.343889030877131	-0.2664841087271119
0.1739517940114746	-0.1505526712932222	1.533278675437962	-0.2141868998803573	-0.6432517026700035	6.406402849758841	-0.2346584451226987
0.176919195503943	-0.1519234034019717	1.552404569138495	-0.2148156021803721	-0.2792743669983271	6.483900510113511	-0.1879278854496622
0.1804104603334435	-0.1521373146991334	1.575191297454893	-0.2153646335549581	0.158244797080404	6.568090145323982	-0.1254829815433123
0.1843705264332789	-0.1505122353178321	1.601370005133739	-0.2157112087625062	0.6638255259492561	6.650213450043816	-0.04886299347504153
0.1887369399808997	-0.1463836683625233	1.630557421967652	-0.2157346193443528	1.227966632185699	6.713347125018242	0.03828822301149826
0.1934408394213607	-0.1391729342142839	1.662219984375256	-0.2153355588600595	1.837757948526897	6.741145526975485	0.1306870449633761
0.1984080411253286	-0.1284519669139736	1.695660755717678	-0.2144595731526572	2.477767573591479	6.712646741473707	0.2200613198110735
0.2035602091729806	-0.113997518345869	1.730015572740336	-0.2131169819826745	3.130855327795961	6.610098434876758	0.2984935049169501
0.2088160906968776	-0.09582964901547392	1.764288271652856	-0.2113762740310886	3.778865610174288	6.415280290300533	0.3604888808346223
0.2140927972598461	-0.07422712788001001	1.797400830483888	-0.2093582716162971	4.404195542207225	6.117180277578763	0.4005799569635227
0.2193071120438252	-0.04971998994393556	1.82828708834046	-0.2072144624325911	4.989663313970992	5.710068577498065	0.4180038600794038
0.2243768022290288	-0.02306184106630849	1.855994718906725	-0.2050984919983108	5.519968887140835	5.20216138207596	0.4132209021541722
0.2292219158668229	0.004825989997032321	1.879811433796972	-0.2031447593511602	5.984431847274413	4.611956791219997	0.3906431236070973
0.2337660428006562	0.03293111033422164	1.899338258683798	-0.2014434441481291	6.378437116113491	3.968330847039462	0.356148097056483
0.2379375197689964	0.0602262857269068	1.914530921033387	-0.2000419010858746	6.701770932510693	3.304344375514481	0.3141919403388442
0.2416705607382064	0.08573222365386252	1.925670862144486	-0.1989524608489672	6.95776260956128	2.655968905822247	0.2682314645435877
0.2449062947996022	0.1085679612221718	1.933301837291098	-0.1981559606707339	7.152696508458194	2.054530682445411	0.2235130819628841
0.2475936958314676	0.1279855533247563	1.938122075979515	-0.1976085339968613	7.295172315518233	1.529327080895134	0.1833876169409554
0.2496903918242349	0.14338660138754	1.940885252077921	-0.1972582513977644	7.393694397445419	1.103764250334764	0.1507553471695431
0.2511633577437689	0.1543238788479011	1.942285628150713	-0.1970528950955981	7.456004903920672	0.797192278687151	0.1281838442826326
0.2519896973235464	0.160498458971006	1.94287274440308	-0.1969519332509027	7.487903816943287	0.6230333321110244	0.116534994685241
0.2521840562160345	0.1619544830222711	1.942989745753233	-0.1969295089946761	7.494924436488779	0.582115308189747	0.1140443803778579
0.2526767650012827	0.1656514136413253	1.943251808125806	-0.1968749176702748	7.511947360680025	0.4802668351724098	0.107237531851649
0.2538281712824921	0.1743244641904459	1.943661056028501	-0.1967630864339863	7.552692944016472	0.2298883080326446	0.08610224105768438
0.2556164129120176	0.1878819139462907	1.943721215875844	-0.1966450187251409	7.608895105467981	-0.1641907121060044	0.04433774846666383
0.2580131460834861	0.2061974180731972	1.942677450476309	-0.1966194688528643	7.672314494149247	-0.7096440697527187	-0.02532270109181534
0.2609805475759545	0.2290535954691593	1.939545162880551	-0.1968432221347396	7.728331253918451	-1.405410651588375	-0.1281626955401385
0.264471812405455	0.2561045042783563	1.933163484742821	-0.197529015564123	7.76201740193318	-2.255617713034448	-0.2677234110002304
0.2684318785052903	0.2868463626485473	1.922269338554787	-0.1989366459738322	7.756297630366925	-3.251280084253501	-0.4466061243190724
0.2727982920529112	0.3206084381407427	1.905617842920327	-0.2013565738799538	7.699570464589693	-4.380310940219108	-0.6648912319278648
0.2775021914933722	0.3565721720662067	1.882108201212183	-0.2050704266021341	7.582076642842605	-5.618203425930719	-0.9163704560149282
0.2824693931973402	0.3938067344848318	1.850924413735542	-0.2103076527875205	7.400848851910198	-6.938924807720563	-1.193925364039554
0.2876215612449921	0.4313326061673617	1.811644267504269	-0.2172145171485466	7.157452334596156	-8.307773886380421	-1.487394793587509
0.2928774427688891	0.4681907613497307	1.764332880502573	-0.2258151703026771	6.860621114327202	-9.692547172943641	-1.78446042831141
0.2981541493318576	0.503512378862504	1.709574904739485	-0.2360004853899443	6.520686522775418	-11.05641134895749	-2.073915242496604
0.3033684641158367	0.5365626137186545	1.648489451810456	-0.2475260812924496	6.151106951954405	-12.36596617626465	-2.343330672639635
0.3084381543010403	0.5667804311965483	1.582682718124552	-0.2600207156986498	5.766345287442071	-13.58402967532882	-2.581250458248046
0.3132832679388344	0.5937985989962143	1.514179622405241	-0.2730220829039295	5.385355274420448	-14.68088430813191	-2.780485134660591
0.3178273948726678	0.6174560301369028	1.445276354196411	-0.2860237241352027	5.027988811110932	-15.63095338011329	-2.936205149829804
0.3219988718410079	0.6377643029197456	1.37839055168864	-0.2985140183778004	4.711467673485425	-16.42433105438264	-3.04679656048675
0.3257319128102178	0.6548479001140269	1.315861319956805	-0.3100286124088049	4.444030507002387	-17.06437141491684	-3.117567235256652
0.3289676468716137	0.6688750300147975	1.259825084704103	-0.3201828205677051	4.229188228361339	-17.56301169930012	-3.154857928457387
0.3316550479034791	0.6800158956039912	1.212114958918614	-0.3286854742681496	4.063658674058193	-17.93750587361178	-3.171712301901344
0.3337517438962464	0.688407182801869	1.174218220860575	-0.3353483979109514	3.941869591302111	-18.20935516789449	-3.184639388744933
0.3352247098157805	0.6941528082091517	1.147261747544151	-0.34004847608087	3.859763275346411	-18.3902271757572	-3.198201346050045
0.3360510493955579	0.697323517104357	1.132024579791976	-0.3426961028261877	3.814789710945175	-18.48940642626116	-3.211072807007771
0.3362454082880461	0.6980639891767901	1.128428568431048	-0.3433206184066078	3.804133431948258	-18.5127850835927	-3.215116521492396
