DataType=double
version=3
OpenSimVersion=4.5
endheader
time	bflh_r	bfsh_r	gasmed_r	glmax2_r	iliacus_r	recfem_r	soleus_r	tibant_r	vasmed_r
0	0.07303415562006416	0.0442854186273545	0.02550219119855241	0.0001991906064582989	0.1626238667131671	0.02766107846089445	0.0002584410581836188	0.08374729435393485	0.0003904527607581532
0.0004927087852480694	0.06060820766158653	0.04537232201041772	0.02108494710489622	0.0001668928991541914	0.1359072745582691	0.003912801078701027	0.0002131852205500991	0.07695141659691943	0.0002926457865278679
0.001644115066457508	0.06387596139781429	0.04473435925286959	0.02207766024719398	0.0001728350294303724	0.1365129623061499	0.001703917956166082	0.0002217390858032049	0.0772955407588648	0.000298646822997065
0.003432356695983019	0.0681641809071476	0.04348502826290781	0.02326482465338613	0.0001788619734428376	0.1369028625940893	0.0007539385180252359	0.0002306776570011232	0.07742382492365919	0.0003069859658605553
0.005829089867451537	0.0735047327424055	0.04159571253545156	0.02446785405383921	0.0001823410863854381	0.1352088285350277	0.0003450851525738448	0.0002363756787435529	0.07710855323807422	0.0003118288623935915
0.008796491359919972	0.08010245126687868	0.03937760262631982	0.02576587521790438	0.0001839984179809777	0.1320393605233355	0.0002508380070150352	0.0002397133900682477	0.07676466119407137	0.0003140160017400318
0.01228775618942049	0.08905399255693705	0.03688792435693898	0.02738737217349195	0.000184427212590674	0.1274323695041954	0.0002263203413021982	0.0002415097820038106	0.0767932041208302	0.000314061195334957
0.01624782228925581	0.09939857461633921	0.03441263321467791	0.02916588192741507	0.0001836950760310667	0.1219292384202073	0.0002047330764982855	0.0002417217237107636	0.07720952455121258	0.0003120302119267245
0.02061423583687663	0.1111363137743118	0.03205010967200823	0.03100315704757304	0.0001804345053466514	0.1148981366892207	0.0001770317407851696	0.0002384174227103262	0.07805493274495602	0.0003055573380549609
0.0253181352773377	0.123207849518361	0.02999894347498579	0.03265023179810568	0.0001737511720479894	0.1063110208415222	0.0001523465543679205	0.0002302573953109318	0.07918051494924928	0.0002931924361651509
0.03028533698130559	0.1347791814495028	0.0284013436680146	0.03390831444504078	0.000162896715483534	0.09610268033599036	0.0001344778842513847	0.0002161317288211618	0.08045099127399141	0.0002737108900261214
0.03543750502895751	0.1455216619649625	0.0272807531037522	0.03468311207921577	0.0001473384625988851	0.08407043416633055	0.0001106709463958764	0.0001952877750676141	0.08176419308342654	0.0002461936597936697
0.04069338655285454	0.152670317726621	0.02663352061535222	0.03449039443389195	0.0001269314057848692	0.07069564708536807	9.126518319979309e-05	0.0001674729230817057	0.08226161383897171	0.0002105765384195874
0.04597009311582306	0.156478418797498	0.026389974844652	0.03359779224126532	0.0001048454187360776	0.05757344495501086	7.868756807527303e-05	0.0001371045400598304	0.08209736924974874	0.0001723012745738696
0.05118440789980219	0.1573738746102721	0.02635226591245813	0.03215289241362619	8.207334252931258e-05	0.04491843384150074	7.15123279942665e-05	0.0001056457769589609	0.08123297211681602	0.000133039635341769
0.0562540980850057	0.1552853163642642	0.02639758984033466	0.03027702306197449	6.047736785930362e-05	0.03361102195200159	6.750856674977668e-05	7.572130592941016e-05	0.07960098021979069	9.59915517597326e-05
0.06109921172279988	0.1503020131199225	0.02662241778014299	0.0281268876233555	4.210190787823642e-05	0.02486480833361989	6.545666730970144e-05	5.012019137604448e-05	0.07743319325760137	6.467226580998151e-05
0.0656433386566332	0.1428525716117443	0.02701363208710752	0.02591577186227041	2.893316308413573e-05	0.01966067870375556	6.50250568287049e-05	3.160289830095615e-05	0.07494238668930109	4.24731966268811e-05
0.06981481562497333	0.1335147835662105	0.02767522679680611	0.02377195775631893	2.142052859022896e-05	0.01825471886600695	6.943262550765912e-05	2.075905447602608e-05	0.07244222500191337	3.014330055436373e-05
0.07354785659418331	0.1232584236770195	0.02871166696653683	0.02180934896060409	1.885175505501278e-05	0.02019019769348568	8.131869414347275e-05	1.657923643343707e-05	0.07031117760219512	2.640755407602309e-05
0.07678359065557917	0.1130076369829495	0.02987112194057669	0.02006668749812236	1.944084795531484e-05	0.02399959983980214	9.885204573988032e-05	1.671565823312902e-05	0.06846981648220865	2.812205509377653e-05
0.07947099168744461	0.1033729280923565	0.03086398082360543	0.01843285660599715	2.002165197512866e-05	0.02748585892136181	0.0001308499362127646	1.692140652382009e-05	0.06663560603726955	2.980407249154551e-05
0.08156768768021185	0.09482514991073418	0.031665956239215	0.01696996902910935	2.032119311721e-05	0.030387731035047	0.0002000216053227059	1.683805371075027e-05	0.06491572176268562	3.09954640271501e-05
0.08304065359974588	0.08782914495979192	0.03236970716394686	0.01579419919508318	2.088878021664305e-05	0.03305170147779166	0.0003587820322067096	1.719569546994173e-05	0.06358694288144592	3.271257865352712e-05
0.08386699317952337	0.08763761725042303	0.03444415773705173	0.01697396504388524	3.882553487298508e-05	0.04561523238266937	0.0007718797257255646	4.113700179377555e-05	0.06671824228281679	6.443363176729527e-05
0.08406135207201153	0.09666127304782626	0.04039740108681534	0.02299852482399401	0.000104583448000933	0.09925387729112027	0.02350429479273097	0.0001296912243243709	0.08170880617216943	0.0002185005886365245
0.08455406085725958	0.0812662976464846	0.03333825865081973	0.01493598257047491	2.500593564105912e-05	0.03791284997290029	0.0005676886802909253	2.236070487166586e-05	0.06285873272261464	4.061508044928486e-05
0.08570546713846902	0.07485094035184417	0.03306726127996288	0.01355362176996259	2.089797263468004e-05	0.03646996651797316	0.0002537595389527156	1.666894409064099e-05	0.06035923400391164	3.33514429980371e-05
0.08749370876799453	0.06571547490285097	0.03342933517267643	0.01203294665014889	2.166704295134143e-05	0.03912257894741401	0.0001552978139512247	1.740620993650825e-05	0.05797950849665095	3.506359782130402e-05
0.08989044193946306	0.05274615002576071	0.03406295103217484	0.009964362053253049	2.408311801322359e-05	0.04380698781469793	0.0001095112195821151	2.023433575909083e-05	0.0548067217113077	3.994892120667789e-05
0.0928578434319315	0.03705201902563999	0.03504477669807238	0.007690743137570692	3.034505756938224e-05	0.05157514358555577	8.644042563027303e-05	2.818403311814193e-05	0.05136817258751009	5.167403504967946e-05
0.09634910826143198	0.01977883263024605	0.03647830948426859	0.005584209665064021	4.298725397863884e-05	0.06369738589834474	7.493320178081437e-05	4.473955801379617e-05	0.04825015617330752	7.451606638168585e-05
0.1003091743612673	0.006129615145419134	0.03850716512506606	0.004579125756592046	6.265681760053693e-05	0.07969371159293327	0.0001582799509785672	7.08368058648878e-05	0.04724786907587565	0.0001094320058364702
0.1046755879088882	0.004512353718355801	0.04095467884310598	0.00603826708511364	8.820716316870993e-05	0.101985109707449	0.009451902926570024	0.0001050879619532635	0.05169853653238685	0.0001704447541599513
0.1093794873493492	0.004847800450594876	0.04379624005488835	0.008093982034889733	0.0001176384453281836	0.1303040385373688	0.02577793713524705	0.0001445515123571304	0.05814480155462808	0.0002507744682634775
0.1143466890533171	0.00515914033129676	0.04694728139287765	0.01039991856611738	0.0001508034380349519	0.1627604136961169	0.04526496001461219	0.0001890367408971202	0.06545260032903537	0.0003432708391543002
0.119498857100969	0.005588048347440203	0.05045640308964992	0.01301695217328836	0.0001882315304446962	0.1986616385710932	0.06605425086150381	0.0002392661526782645	0.07353920864438541	0.0004454717801038103
0.1247547386248661	0.005942170376898434	0.05419618860157847	0.01582520055392744	0.0002286375016825648	0.2362308576350143	0.08638172568246655	0.0002935187621616374	0.0819489149218405	0.0005519759886773083
0.1300314451878346	0.005529556411876967	0.05799862316841757	0.01860784470912808	0.0002705685104340202	0.2744873504037842	0.1060187789561515	0.0003498424816839897	0.09018942530681703	0.000659903324897915
0.1352457599718137	0.005406635136510166	0.06169502527973552	0.02146404598188634	0.0003128047337840555	0.3126344451758609	0.1254926146533711	0.0004066384423315924	0.09839897934917352	0.0007680382298432766
0.1403154501570172	0.005653653094714945	0.0651089873071142	0.02432414258592195	0.0003541019251382869	0.3498314756281053	0.1449285087097215	0.0004622599711834966	0.1063621703669586	0.0008744536295841403
0.1451605637948114	0.005828905129021355	0.06811514846699597	0.02701088079794917	0.0003929720474357232	0.3848936762819909	0.1637562806895042	0.0005146949364669632	0.11367100785609	0.000975576859468861
0.1497046907286447	0.00586672881285676	0.0706472983817779	0.02942309968382588	0.0004281118459322912	0.4167867497841317	0.1815050331713352	0.000562169141229244	0.1201178019177341	0.001068313009973164
0.1538761676969849	0.005842636713815415	0.07266968653814178	0.031510365716545	0.0004586060459410871	0.4447745638211364	0.19784741790615	0.0006034344630874909	0.1256062103521295	0.001150487750513932
0.1576092086661948	0.005956993687633527	0.07416358493283294	0.0332801142523584	0.0004840648926869872	0.4685285587251721	0.2126866285129202	0.0006379639386443775	0.130147683707011	0.001221242022592823
0.1608449427275907	0.006355225977629438	0.07512435877943806	0.03475143830540903	0.000504404047089456	0.4880196786039006	0.2261181874720959	0.0006656452689053719	0.1337882418418871	0.001280594720084118
0.1635323437594561	0.007034560229909146	0.07555348741450213	0.03590523982628196	0.0005193574789186522	0.5029149469263204	0.2377926678837487	0.0006861113528507392	0.136477280122199	0.001327455277362988
0.1656290397522234	0.007761837732547161	0.07558040378665107	0.03673759389477073	0.000529473142747696	0.5127019006832728	0.2458444306031775	0.0007000697002926669	0.1381060169975066	0.001359407159916698
0.1671020056717574	0.007907573366763412	0.07555777301937036	0.03730885992239565	0.0005372641998841222	0.5197314252917336	0.2510544010594062	0.000710834439149122	0.139076180429684	0.001382243619753543
0.1679283452515349	0.009530674079120106	0.07552302289762537	0.03801814214235036	0.0005434048033608147	0.5248991948911823	0.2550742414691656	0.0007193553474708644	0.1402756116016102	0.001399994099658263
0.168122704144023	0.03345978164195514	0.07479874811340213	0.04252256020914531	0.0005489175090705014	0.5270484066281724	0.2640023200954869	0.0007277046343827672	0.1480748433647115	0.001424178803309388
0.1686154129292711	0.008174469715571942	0.07537482324242248	0.03788691421596561	0.0005448126822619413	0.5275831552668528	0.2584201233265139	0.0007213233766791253	0.1401335262389983	0.001408553108836623
0.1697668192104805	0.007779343414687548	0.07531887960470719	0.038072497589895	0.0005484137741671455	0.5312440831826327	0.2615142428619303	0.0007263059213145066	0.1404657068784351	0.001420376864492587
0.171555060840006	0.007219816122304821	0.07530630671640094	0.03844351548956684	0.0005550901514608594	0.5394281170546189	0.2696782613158559	0.0007354989918385719	0.1415027859013377	0.001446688637434337
0.1739517940114746	0.006340609385282433	0.07524289445332254	0.03883320063366566	0.0005627975804148696	0.5483364920940356	0.2781339509362328	0.0007461315358136067	0.1424677174666085	0.001475320340278464
0.176919195503943	0.00596787550660257	0.07487327730716399	0.03922944258665216	0.0005692713323263951	0.5572758003456785	0.2887530833722751	0.000755185454162586	0.1434308278488572	0.001505703623547609
0.1804104603334435	0.006006690573800575	0.07404352803965084	0.0394697575236546	0.0005723827206518607	0.56530755613259	0.3022526368876538	0.0007597758075995125	0.1441703550734737	0.001535472528890708
0.1843705264332789	0.005888876474171862	0.07255787527081652	0.03925530663253823	0.0005691954570142705	0.5699568665929794	0.3172535980126764	0.000755917722650388	0.1440030560981649	0.001557101295829909
0.1887369399808997	0.005394894902553958	0.07025529506965961	0.03836275874106826	0.0005570076620262364	0.5687503034282746	0.3321968737629049	0.0007399436221420298	0.1423823107399591	0.001563121899709103
0.1934408394213607	0.005047232454437794	0.06702620444474079	0.03678271051652345	0.0005343726739245031	0.560417323685943	0.3466364078409678	0.000709910218970437	0.139229102679518	0.001550200241075682
0.1984080411253286	0.005504238627132442	0.06269270616703972	0.0345723205467136	0.00050044128811791	0.5443914992898861	0.3610234947404107	0.0006647275966824673	0.1345588349171394	0.001517644745973859
0.2035602091729806	0.006633031908541263	0.05727323971658	0.03170747249078926	0.0004551998307444415	0.5206186932021406	0.3751819391172632	0.0006043673804790803	0.1283308883938822	0.001465121548391755
0.2088160906968776	0.007285273516298957	0.05100612286767578	0.02812707973338498	0.0004006551249209754	0.4901446827796791	0.3880641225084041	0.0005314883774192804	0.120435841261664	0.001394266637362913
0.2140927972598461	0.006724324754652109	0.04405469171454798	0.02385698974179123	0.0003390233792244838	0.45408917565276	0.3988683072781468	0.0004490769200259667	0.1108454302777038	0.001307493650024376
0.2193071120438252	0.005686901898807602	0.03630097949452386	0.01913024708170209	0.0002717879326390579	0.4132375393437939	0.4080869522849646	0.0003592453429019927	0.09978190066422192	0.001208197994032468
0.2243768022290288	0.005437585571022162	0.02814048744435099	0.0145241086376804	0.0002042136771331906	0.371463353329887	0.4171487706630996	0.0002691294215270741	0.08847946317002051	0.001107969894588628
0.2292219158668229	0.005371911463035645	0.02058863175385419	0.01043268405110454	0.0001437151866703429	0.3341009553759365	0.4259366697179222	0.0001885515623179812	0.07821308893939873	0.001019439140559856
0.2337660428006562	0.004869935066381977	0.01442058617568705	0.007079585713385783	9.523585375263016e-05	0.3043093153753601	0.4333430393863573	0.0001240199759706656	0.06976053947437584	0.000949178678603999
0.2379375197689964	0.004415688661855058	0.01002255261370563	0.004721379068077856	6.136985891521855e-05	0.2836265929867996	0.4389135296657454	7.897368629609056e-05	0.06376975216599121	0.0009008179787342532
0.2416705607382064	0.003904926295694464	0.007075318477162423	0.003128309048163538	3.899918412397939e-05	0.2702464088944775	0.4431267907754289	4.922878985705319e-05	0.05976044494645327	0.0008698500173168859
0.2449062947996022	0.003329080457191315	0.005415965424124418	0.002091958668689282	2.512944260850474e-05	0.2630229805357145	0.4472388361902807	3.0706300557071e-05	0.05754526428737194	0.0008533896593770188
0.2475936958314676	0.00294913503353187	0.004772015750658509	0.001550029178577411	1.815097033773114e-05	0.2610485166921863	0.4518989711084628	2.129525885664622e-05	0.05689889859415058	0.000849815024526059
0.2496903918242349	0.002738823635713287	0.00454962164517009	0.001221983855182627	1.393882875482794e-05	0.2609310395980283	0.4563224167292531	1.553968539053888e-05	0.05687515155171981	0.0008505809111439619
0.2511633577437689	0.003097038610167885	0.0048397088743934	0.001211008636708546	1.301382378835837e-05	0.2624439230714704	0.4595165366087979	1.41340669048584e-05	0.05761194571256644	0.0008547655647361928
0.2519896973235464	0.006342946911490617	0.005835855512582369	0.00203762679811229	1.719074166634769e-05	0.2667984612371458	0.4623185616519204	1.954942133336832e-05	0.06021372179882578	0.0008668774511850819
0.2521840562160345	0.02698966188856786	0.01835533350205366	0.0110073245115342	9.85337772568411e-05	0.3219582720361702	0.4619235345121457	0.0001272618482873326	0.0841882889323335	0.001005460852612687
0.2526767650012827	0.00388224870699075	0.005463227760346081	0.001473658740435585	1.505575653008765e-05	0.2667200366284337	0.4642297515383412	1.66954390146586e-05	0.05915691545347108	0.0008667969758548468
0.2538281712824921	0.002059693301690587	0.004652113800220486	0.0008697056323897542	1.065622225377899e-05	0.2653555633241016	0.4672615082802963	1.089885992433322e-05	0.05782852893319283	0.0008647911368952431
0.2556164129120176	0.001268239285927125	0.004533932569675946	0.0007244305360116924	1.050702625898779e-05	0.2688277703743787	0.4737595080081578	1.069893758102058e-05	0.0581656531323234	0.0008763470829093209
0.2580131460834861	0.0006396234458631975	0.004405743192807932	0.000574888831063661	9.906377894831294e-06	0.2734365874961521	0.4828811313412275	9.871024502561151e-06	0.05880956166738989	0.0008918680672051423
0.2609805475759545	0.0002230061520314132	0.004268072631985222	0.000458654303728763	9.274496756007229e-06	0.2801188194469756	0.4959434241351769	8.991475540143024e-06	0.05994152044306393	0.0009144600126213766
0.264471812405455	5.189782145337162e-05	0.004670742446292784	0.0005902254880778921	1.175871230164861e-05	0.2909128393332592	0.5123248795183695	1.218855613123759e-05	0.06225925360987051	0.0009484359351232751
0.2684318785052903	3.726570809269662e-05	0.007638515243623446	0.001741021233082937	2.920783502737533e-05	0.3139458626120565	0.530539142978244	3.501497290688501e-05	0.06836799304589751	0.001011590025083671
0.2727982920529112	3.149895916581638e-05	0.01378263366194007	0.004103953844241752	6.492830988261333e-05	0.3520808056717147	0.551116076057334	8.178530438276886e-05	0.07911212643804308	0.001110608279098077
0.2775021914933722	2.43516511896197e-05	0.02311245094540962	0.007652825170234523	0.0001185729511939426	0.4048322986736005	0.5734873047663885	0.0001520177319709777	0.09441933793742163	0.001243864659621708
0.2824693931973402	2.761827909272574e-05	0.03533852091176012	0.01227160393118733	0.0001883677522087659	0.4709211370860356	0.5977296508536162	0.0002433786117726648	0.1138980807810731	0.001408431763941987
0.2876215612449921	3.853256486672693e-05	0.04977621676499593	0.01768893976737649	0.0002702387864895625	0.5478386011516172	0.6248408459086476	0.0003505130682603234	0.1367087615328446	0.001599075561059205
0.2928774427688891	4.676331454282249e-05	0.06597111434988097	0.02361678928789935	0.0003599520195427514	0.6311300892849191	0.6518886306113864	0.0004677658590033662	0.1618210818970483	0.001803178362428653
0.2981541493318576	5.373049077570892e-05	0.08398303961183615	0.02981885772543997	0.0004541260905888349	0.7144118925651345	0.6704011247301713	0.0005904715556820801	0.1882033618882426	0.001999577523170426
0.3033684641158367	6.114847749599555e-05	0.1042250479473646	0.03609019323844249	0.0005499331584631941	0.7911848720180529	0.6703531946163551	0.0007145905688918505	0.2150675558172166	0.002165264941327809
0.3084381543010403	6.844700978305687e-05	0.1264918987015318	0.04211468294759837	0.0006427821685451362	0.8551377283814129	0.6452080144877474	0.0008338861007320131	0.2412452733064878	0.002280489603379117
0.3132832679388344	7.510941488572434e-05	0.1495171148707305	0.04754227399980183	0.0007273009173811491	0.9045405439376476	0.5999918774446661	0.0009414317848504802	0.265640054567834	0.002345054667827211
0.3178273948726678	8.129281049949404e-05	0.1718857621217968	0.05211132096069578	0.0007993374503826382	0.9396985613096314	0.5425778405278791	0.001032038278411606	0.2873654120486437	0.002366013432807472
0.3219988718410079	8.647412965948859e-05	0.1918779427384812	0.05553475220838321	0.0008542835169609473	0.9606449758796067	0.4814752445581923	0.001100008709405119	0.3052476469524993	0.002350773159994313
0.3257319128102178	9.079648692549805e-05	0.2083586072561149	0.05773066332102526	0.0008906283371665865	0.9682752896827349	0.4223709367559278	0.001143699594653299	0.3185938963394274	0.002306985072085454
0.3289676468716137	9.487115440011724e-05	0.2212002233243346	0.05885180266320354	0.000910511901920144	0.964686712974265	0.3672571127049539	0.001166114792597665	0.3275871086311465	0.002241935270754303
0.3316550479034791	9.905872873195721e-05	0.2304639593955279	0.05921244612633517	0.0009184377021274753	0.953787161705508	0.3186633420889601	0.001173446355241856	0.332790756096046	0.002167959274994607
0.3337517438962464	0.0001052782553202889	0.2367299666640455	0.05919518870923875	0.0009200469108666433	0.9409175065980051	0.2794566399524177	0.001173243569105799	0.3354313511462051	0.002099984398625785
0.3352247098157805	0.0001193634804877685	0.2406917055777919	0.05910706746635632	0.0009199257063340947	0.9301128176581344	0.2509116094497058	0.001171556614776241	0.3366346005918985	0.002048242493145008
0.3360510493955579	0.0001591008497612177	0.2409875564540863	0.05858090690769722	0.000912375179404654	0.9182837825467265	0.2361030613258607	0.001161055192207204	0.3349739603994971	0.002008434367528625
0.3362454082880461	0.0001707976137739465	0.2409663107856849	0.05842491856198694	0.0009101057276195061	0.9151869047309296	0.2327397715263982	0.001157939818192224	0.3344736825851328	0.001998434704460201
