DataType=double
version=3
OpenSimVersion=4.5
endheader
time	hip_flexion_r	knee_angle_r	ankle_angle_r
0	10.11414753596718	186.9622690419197	50.57300946592132
0.0004927087852480694	5.027568356255742	178.218271883848	51.95108896992909
0.001644115066457508	6.038476573192952	182.5060689625329	53.08173497178777
0.003432356695983019	6.211745426894339	184.3743551979152	54.59069125490941
0.005829089867451537	4.920439623260599	182.6315291382155	56.8110747854485
0.008796491359919972	2.768465721900178	178.7890214755627	62.90115556925196
0.01228775618942049	0.09850724787183651	173.8103277718135	69.39713583473771
0.01624782228925581	-2.8992238215288	167.1400792003939	74.3272218487004
0.02061423583687663	-6.24113040436324	158.7516297954849	79.27586693644608
0.0253181352773377	-9.910865451383501	147.9741378485461	82.78991945806965
0.03028533698130559	-13.82931759550693	134.7429063160959	85.05932004278098
0.03543750502895751	-17.94326750508274	119.3901189530105	86.17180522333241
0.04069338655285454	-22.31726231315966	100.8827992594931	83.49687060229213
0.04597009311582306	-26.32689952638785	81.29084195810535	77.42294644917216
0.05118440789980219	-29.93432044435184	61.42485797428012	67.55939558219191
0.0562540980850057	-32.98338468394699	42.1625610489789	55.59218661370886
0.06109921172279988	-35.2238406718172	24.60279432247658	44.58904490238233
0.0656433386566332	-36.45283063887788	9.572586029761901	35.0598598902233
0.06981481562497333	-36.68717174587346	-2.543204261563023	28.94402402032885
0.07354785659418331	-36.0728675447688	-11.68313167147099	26.48992069581143
0.07678359065557917	-35.01300517772299	-18.5498780714448	25.35150959559765
0.07947099168744461	-34.14331382014157	-24.30595597750365	25.0186585242915
0.08156768768021185	-33.52122762598209	-29.05793276177861	25.36785069135816
0.08304065359974588	-33.03515290599319	-32.59492612003147	26.43734865429274
0.08386699317952337	-29.25612948542586	-26.79224396528556	28.21500615910653
0.08406135207201153	-18.80299694855688	-19.28194792379103	29.52933330303113
0.08455406085725958	-31.80966888543438	-34.68219606694555	25.70794578003167
0.08570546713846902	-32.26605142793015	-39.23176415166062	21.25918320724786
0.08749370876799453	-31.57993404920227	-43.45141459035599	16.58862866276449
0.08989044193946306	-30.40964550382168	-48.7059926356609	12.25511069080225
0.0928578434319315	-28.30563180896726	-53.5903368039581	8.122473136892959
0.09634910826143198	-24.80106092552074	-56.70562943018077	4.332448211388281
0.1003091743612673	-19.67662518453524	-55.61938109740326	1.488756297131154
0.1046755879088882	-13.43863476733531	-53.87035984023841	-1.713474030486314
0.1093794873493492	-6.173963981557186	-53.72486756339906	-4.954355842254774
0.1143466890533171	2.432330879020896	-52.67575155316954	-7.477101605466341
0.119498857100969	12.5653321275644	-49.00778556370224	-8.358938628281813
0.1247547386248661	23.85998856359288	-42.30337528810445	-7.523806437210244
0.1300314451878346	35.80567856909335	-33.64785684554278	-5.528488109310295
0.1352457599718137	47.96878145433904	-23.79681275628063	-2.964046422775489
0.1403154501570172	59.8949170986324	-13.67887003711743	-0.2624786397222572
0.1451605637948114	71.10794809279805	-4.081202774672391	2.567932331564364
0.1497046907286447	81.22285336575666	4.43115801957147	5.348975286709608
0.1538761676969849	89.99701522340962	11.49455238410118	7.759277399142398
0.1576092086661948	97.33339121741358	16.95171292781686	9.491525629142277
0.1608449427275907	103.2595150366079	20.77490623528279	10.26271545006979
0.1635323437594561	107.7624385073754	23.10758459006431	10.08018750798148
0.1656290397522234	110.836133899534	24.71513952579719	8.944091675710876
0.1671020056717574	112.9948900799724	25.72933439981504	7.162043607182456
0.1679283452515349	114.4813728438229	26.70337547643694	4.864339369604798
0.168122704144023	115.5088000590909	34.57202478753342	3.419298377684118
0.1686154129292711	115.2353062716524	25.96975322322923	6.339572038022393
0.1697668192104805	116.3973530495979	26.52210139023419	9.106464051573679
0.171555060840006	118.6727826403548	26.35428542708372	11.85237487057727
0.1739517940114746	121.268253021551	26.28600645332923	14.5152611468611
0.176919195503943	123.9650012573319	25.38896374038705	16.87240795598669
0.1804104603334435	126.5665993607551	22.8531378320586	18.73153439522726
0.1843705264332789	128.5892742845058	18.07076498025555	19.80188771975571
0.1887369399808997	129.6131188752722	10.697482167476	19.969036604616
0.1934408394213607	129.4512576166761	0.6033485468009232	19.091805883163
0.1984080411253286	128.0398664504855	-12.30856238921851	16.71048295090476
0.2035602091729806	125.2547799952183	-28.01533751799008	13.67156774682255
0.2088160906968776	121.12603541183	-46.38750265436563	9.756262002955818
0.2140927972598461	115.6400352154192	-67.06018149391872	5.466467701776137
0.2193071120438252	108.6498593981627	-89.18994797730436	1.164179269575774
0.2243768022290288	100.3194730953122	-111.2846793476248	-2.959294111214742
0.2292219158668229	91.26332563960283	-132.1709528667579	-6.258009722178965
0.2337660428006562	82.02577759707631	-151.0101316227946	-8.868852976568473
0.2379375197689964	72.89302580434411	-167.010462799456	-11.28500818486572
0.2416705607382064	64.16539488829588	-180.3276318449391	-13.21423079575177
0.2449062947996022	56.3102089650121	-191.2008256928836	-14.41703778096211
0.2475936958314676	49.67824689891938	-199.6979901064646	-15.39640252605387
0.2496903918242349	44.27723913331362	-206.0922164889309	-15.59196506161139
0.2511633577437689	40.18346539715415	-210.1064426779812	-14.80419101626892
0.2519896973235464	36.70241954218974	-210.8204610240291	-13.13421781060702
0.2521840562160345	31.70550424382262	-195.8501474578909	-11.52356569001446
0.2526767650012827	36.1255933071448	-213.8573030313922	-15.68010378133742
0.2538281712824921	33.72865885341888	-218.2568817033894	-20.53015038461331
0.2556164129120176	29.46414295354911	-223.6780927019068	-26.03559528068812
0.2580131460834861	23.11090890087719	-230.6326178789308	-31.79893294075706
0.2609805475759545	14.74268334447256	-238.8091296016196	-37.30332574581432
0.264471812405455	4.380346029979663	-247.5528949356594	-42.49525034882044
0.2684318785052903	-7.04026627660533	-255.2417715753984	-47.72423557094889
0.2727982920529112	-18.9196782201445	-261.2007565855911	-51.92272326772155
0.2775021914933722	-30.77026745466991	-264.9309302720271	-54.82452570636309
0.2824693931973402	-42.04044530450365	-266.1962150554774	-56.68496827837505
0.2876215612449921	-52.08248766168109	-264.9765713953198	-56.96690439468881
0.2928774427688891	-60.6805468913374	-261.3878888468236	-55.89003371279239
0.2981541493318576	-67.88115167015491	-255.283502709374	-53.55761239797214
0.3033684641158367	-73.70156667106627	-246.2619182242188	-49.49196009217006
0.3084381543010403	-77.69546612363658	-233.7914445468022	-44.17050801990727
0.3132832679388344	-79.15139929159562	-218.1462096693513	-37.84127078992186
0.3178273948726678	-77.59086388809561	-199.5712996932324	-30.41774014306716
0.3219988718410079	-73.91674087405795	-180.4904159567157	-22.55776963030258
0.3257319128102178	-69.03702285200694	-162.3233107298452	-15.17982014344508
0.3289676468716137	-63.72730840356611	-145.7605405496982	-7.985367826984202
0.3316550479034791	-59.52852235812794	-133.5681958589488	-5.523199083129239
0.3337517438962464	-56.72867882022582	-125.6375945168467	-7.268741198505843
0.3352247098157805	-54.71685835230915	-120.4060767771623	-12.2714908940801
0.3360510493955579	-54.56675169389564	-120.1321158435818	-19.63359073160413
0.3362454082880461	-54.57867579829625	-120.1529382963789	-21.73951142536971
