DataType=double
version=3
OpenSimVersion=4.5
endheader
time	RightLeg_1	RightLeg_2	RightLeg_3	RightLeg_4
0	0.06328897676280798	0.1356424874299715	0.205301366402828	0.1650798984867883
0.0004927087852480694	0.008917133688043588	0.1477731373979507	0.1691396008681403	0.1369923120773715
0.001644115066457508	0.003858043835301306	0.143145511932093	0.1759927729120045	0.1443792479789696
0.003432356695983019	0.001681644248705538	0.1353895685637201	0.1831687289153479	0.1540733428023811
0.005829089867451537	0.0007449369367420466	0.1243687316849122	0.1877734556483899	0.166147102891065
0.008796491359919972	0.0005290382133305016	0.1112270364932471	0.1905023064919422	0.1810634707347902
0.01228775618942049	0.0004730881086918437	0.09551941134893815	0.1920090577360263	0.2013017095734442
0.01624782228925581	0.0004240832030957264	0.07900829011126298	0.1922511129649982	0.2246895984094601
0.02061423583687663	0.0003615913253796066	0.06209533689120228	0.1896830322042977	0.2512276265609223
0.0253181352773377	0.0003066895679038062	0.04624721303979973	0.1832289490328189	0.2785208770928496
0.03028533698130559	0.0002682258461841336	0.03256085387230145	0.1719980062757285	0.3046839181852614
0.03543750502895751	0.0002171070580516687	0.0213354052353647	0.1553882035328076	0.3289738179003716
0.04069338655285454	0.000177060321674638	0.01426735684035996	0.1331955647824894	0.3451394223893063
0.04597009311582306	0.0001529749246904633	0.01091547014244032	0.1089502016577559	0.3537527955185611
0.05118440789980219	0.0001413989470149257	0.01020694760544627	0.08382619968641336	0.355781223363169
0.0562540980850057	0.0001368447576661769	0.01168449685703288	0.05992297738986774	0.3510630427776311
0.06109921172279988	0.0001360696480459112	0.0156868451364891	0.03946570231845437	0.3397997141014708
0.0656433386566332	0.0001378895657617729	0.02189515956685506	0.02465982165383385	0.322959909240919
0.06981481562497333	0.0001495604699519593	0.03037649323913971	0.01597404760467036	0.3018498380177796
0.07354785659418331	0.0001772559267372298	0.04095718736350928	0.01260026450978646	0.2786621241685352
0.07678359065557917	0.0002171919742393058	0.05203682168868373	0.01267062151137188	0.2554864519743147
0.07947099168744461	0.0002902693323121319	0.06205480671872809	0.01280116554315636	0.2337036553583638
0.08156768768021185	0.0004485455939495786	0.07062051817233383	0.01270662541812917	0.2143783098665319
0.08304065359974588	0.0008119067601144447	0.07782462981233707	0.01296805730943973	0.198561248237711
0.08386699317952337	0.001753702604977647	0.08641473119559606	0.03203539058879734	0.1981249186304161
0.08406135207201153	0.05379133689931348	0.10514000990802	0.1025947301912411	0.2185139442859843
0.08455406085725958	0.001289295423904324	0.08584203226095077	0.01706252803706043	0.1837228484535209
0.08570546713846902	0.0005714235713141225	0.08870617407281234	0.01251855626486087	0.1692194519721855
0.08749370876799453	0.0003458195989123336	0.09583924563709023	0.01309049916644955	0.1485654006768884
0.08989044193946306	0.0002404701360712025	0.1064542179938581	0.01532210700416359	0.1192432704018489
0.0928578434319315	0.0001862867240560728	0.1201777483544439	0.02163293746595185	0.08376007219522119
0.09634910826143198	0.0001571697320568166	0.1367233453564463	0.0348041065760496	0.0447057235031767
0.1003091743612673	0.0003436404321432995	0.153457037070404	0.05558363895744467	0.01384333470822074
0.1046755879088882	0.0216183472730711	0.1644526551911931	0.08286622751119621	0.01018224936228518
0.1093794873493492	0.05899493201695405	0.1758484294950624	0.1142967818497516	0.01093519620495087
0.1143466890533171	0.1036086913443586	0.188522801680683	0.1497271164537444	0.01163295090325844
0.119498857100969	0.1512034165312786	0.2025866612973035	0.1897348710422004	0.01259573003573444
0.1247547386248661	0.197740011424846	0.2176388268826592	0.2329502939493	0.01338889308707203
0.1300314451878346	0.2426953547908588	0.2334214660274854	0.2778182657990151	0.01244831687897063
0.1352457599718137	0.2872769110886753	0.2485918100634059	0.3230665513052042	0.01216265006608719
0.1403154501570172	0.33177182579049	0.2623797779841806	0.3673844945766973	0.01271355038322897
0.1451605637948114	0.3748748410674758	0.2745468499686228	0.4091684399628357	0.0131026628778419
0.1497046907286447	0.4155079863133375	0.2848632983984603	0.4470034558995359	0.01318176892534528
0.1538761676969849	0.4529219009676346	0.293136398619392	0.479893975301712	0.01312175405486427
0.1576092086661948	0.4868950025665584	0.2991656551037047	0.5074198609779467	0.01337568206610951
0.1608449427275907	0.5176460354900276	0.3028421216785384	0.5294915737017656	0.01427235397364468
0.1635323437594561	0.5443749405598965	0.3041735728377817	0.5458161979904692	0.01580554693480529
0.1656290397522234	0.5628096547632948	0.3038329985384318	0.556956996542203	0.01744802473992624
0.1671020056717574	0.574737756201431	0.3036501750215628	0.5655505354042478	0.01777614457014431
0.1679283452515349	0.5839410473183756	0.3025034812459073	0.5723546035380724	0.02144465097622961
0.168122704144023	0.6043832590970246	0.2847342314243972	0.5790534969293556	0.0755437653175981
0.1686154129292711	0.591602159010608	0.3027375424757659	0.5739260496720935	0.01837823955076656
0.1697668192104805	0.5986862991468491	0.3027535209058607	0.5779037964646093	0.01748429021918807
0.171555060840006	0.6173788042334099	0.3030481146944841	0.5852384731883736	0.01621809846021671
0.1739517940114746	0.6367389659324338	0.3033329618346112	0.5937236202063965	0.01422898645624726
0.176919195503943	0.6610532686732229	0.3020537465959445	0.6009542868592743	0.01338516731650286
0.1804104603334435	0.6919639212520929	0.2986405684075839	0.6046295513550337	0.01347241343832062
0.1843705264332789	0.7263139241583687	0.2926456843540268	0.6015726229935177	0.01320669489484616
0.1887369399808997	0.7605338754207018	0.2835474682409844	0.5888596889839435	0.01209215938124886
0.1934408394213607	0.7936027177761421	0.2705750306354819	0.5649423583876982	0.01131033184269081
0.1984080411253286	0.8265540238182263	0.2525943722403621	0.5289548676424978	0.01234980234843874
0.2035602091729806	0.8589843437809385	0.2297630516908407	0.480874129131305	0.01491014745120167
0.2088160906968776	0.8884943942343343	0.203765136809468	0.4228175397996141	0.01639478289247132
0.2140927972598461	0.9132478710459254	0.1757236590062987	0.3571661449965378	0.01513788543681027
0.2193071120438252	0.9343720984570661	0.1447008756158046	0.2856102543107977	0.012804810879679
0.2243768022290288	0.9551373484200872	0.1115291409531267	0.2138386041927329	0.01225362486178794
0.2292219158668229	0.9752737844162448	0.08072930823639335	0.149669524353111	0.01211634128967942
0.2337660428006562	0.9922440495169212	0.05585076967091207	0.09828146828607998	0.01099043162912428
0.2379375197689964	1.005007165006148	0.03817110597910256	0.06241196000740601	0.009969732243147789
0.2416705607382064	1.014659851602757	0.02645121846814469	0.03872710721265493	0.008819128783507324
0.2449062947996022	1.024078783030962	0.02003099719682222	0.02397212211253019	0.007519780501611617
0.2475936958314676	1.034751113965795	0.01763613995629898	0.01646768241431018	0.006662035295270208
0.2496903918242349	1.044880825103247	0.01685782476734543	0.01187225820988602	0.006187286088707111
0.2511633577437689	1.052194856496267	0.01782052769386699	0.01073942507488979	0.006997271870878397
0.2519896973235464	1.058609863487057	0.0198792636926759	0.01503889421096649	0.01433493522707874
0.2521840562160345	1.057686086161532	0.05822616342724096	0.1007606587886112	0.06099863764592062
0.2526767650012827	1.062986620664935	0.01988051021637305	0.01276528504509655	0.008772074559270537
0.2538281712824921	1.069929784800086	0.01769605118215867	0.008152313619628204	0.00465238832373549
0.2556164129120176	1.084808921518016	0.01770294013006657	0.00798901055918888	0.002863043490127559
0.2580131460834861	1.105695712969757	0.01756801268597608	0.007322099088228118	0.001441918870312531
0.2609805475759545	1.135605833171295	0.01726292204668001	0.006610711844926787	0.0005000803345212024
0.264471812405455	1.173115411094056	0.01901228685927903	0.009138401724218426	0.0001126919326885911
0.2684318785052903	1.214818192004003	0.03113989320646815	0.02727576508003171	7.621468945950838e-05
0.2727982920529112	1.261926660496057	0.05623322485229609	0.0644523497914784	5.62867440625503e-05
0.2775021914933722	1.313139429859949	0.09433684745909909	0.1202836097829307	2.980505363647801e-05
0.2824693931973402	1.36863282470828	0.1442614339344106	0.1929131308380583	2.377117220397906e-05
0.2876215612449921	1.430692409449637	0.2032128041435104	0.2780808510900357	3.270124730136992e-05
0.2928774427688891	1.492604879849349	0.2693417541299996	0.371284485068365	3.402870393154345e-05
0.2981541493318576	1.534972085690736	0.3428921592295682	0.4688041251241017	3.157739846515462e-05
0.3033684641158367	1.534839078586628	0.4255502784044114	0.5674120022235631	2.971136513840733e-05
0.3084381543010403	1.477238879894669	0.5164786501539358	0.6621382459848157	2.798311200624681e-05
0.3132832679388344	1.373681989207407	0.6105053745710526	0.7474790042867678	2.626216219381305e-05
0.3178273948726678	1.242197170448177	0.7018517365770611	0.8193189701123311	2.573385660142868e-05
0.3219988718410079	1.102270286419696	0.7834940324923311	0.8731447903575115	2.615326028587717e-05
0.3257319128102178	0.9669235280811456	0.8507966696371809	0.907667969407179	2.819789771013603e-05
0.3289676468716137	0.840718175018013	0.9032383826585041	0.9252891088373512	3.288466994577632e-05
0.3316550479034791	0.7294454526486565	0.9410686500870931	0.930949793053154	4.023361413940663e-05
0.3337517438962464	0.6396689517094676	0.9666553305961243	0.9306618531628582	5.353687931086704e-05
0.3352247098157805	0.5743061763851496	0.9828266549910216	0.929238347551565	8.511449858095155e-05
0.3360510493955579	0.540399215983278	0.9840109721660741	0.9208570988715777	0.000176290872893059
0.3362454082880461	0.5326984610360386	0.9839171374990745	0.9183725690714399	0.0002031438887712955
