DataType=double
version=3
OpenSimVersion=4.5
endheader
time	RightLeg_1	RightLeg_2	RightLeg_3	RightLeg_4
0	0.01164637431318982	0.08820543482961485	0.2238451490268962	0.2631947042779632
0.0004542507337261803	9.561574303162956e-05	0.1036104011911245	0.1902995893879746	0.245162017389428
0.001515784775164009	4.800441783725518e-05	0.1064394643696893	0.1928464476062768	0.2538349027763216
0.003164446411839883	3.255304127791625e-05	0.1069262061796459	0.1992152311367514	0.2638995190865026
0.005374104194047435	2.504491457000491e-05	0.1052446554496429	0.2036324606165731	0.2741168588490088
0.008109887166813518	2.052391995177594e-05	0.1006433272811769	0.2062515186518554	0.2887260986002791
0.01132864367758793	1.776362738348247e-05	0.09523914645310705	0.2073986286837279	0.3066658402465472
0.01497960949210789	1.609508828592787e-05	0.08925905630835063	0.205833593536044	0.3263155880673403
0.01900520557876997	1.42679453229988e-05	0.07896254860324858	0.1979900401463122	0.3516840108856512
0.02334194532480019	1.37143849290311e-05	0.06981774679990704	0.1898832749374639	0.3731670918523236
0.02792143545395889	1.323227565896978e-05	0.0598837562554515	0.1745816701593756	0.3930964426927988
0.0326714545037473	1.317185549210009e-05	0.04908206042112528	0.1553667072546774	0.408411516985862
0.03751709174442691	1.3306825032533e-05	0.03824443783267784	0.131943046429926	0.4141544578604612
0.04238192853981579	1.440143680531136e-05	0.02664465947363404	0.1070242572664193	0.4151062720683856
0.04718924350439309	1.564271957121832e-05	0.01618444199959357	0.08258578936701322	0.4079395112273145
0.0518632224455918	1.750666142497082e-05	0.008515476250224641	0.0591487348402413	0.3942930392498867
0.05633015401013977	2.017717772684335e-05	0.00273521606184568	0.03956893287236851	0.3730861010217408
0.06051959218465776	2.358946410785379e-05	0.0003286460825024928	0.02720931706481955	0.3442550138057969
0.06436546733510043	2.885190340395916e-05	0.0003383597014898765	0.01870985840470651	0.3146128372464561
0.06780712831226307	3.762045049593432e-05	0.003810330898121883	0.01374963837372767	0.2872994589050637
0.07079029933648544	5.177613068152453e-05	0.01287340898686473	0.01352227435965836	0.2582582860514546
0.07326793709552543	7.387124050661775e-05	0.023284360776894	0.01323741848502857	0.2330889170428279
0.07520097689840965	0.0001140461326429865	0.03359730379079151	0.01321585357543342	0.2132568896799103
0.0765589714577417	0.0002172328644172161	0.04377225696546749	0.01560789098714288	0.1983743170639944
0.07732081165962061	0.0001660763462303372	0.05322288073435955	0.03105184939938255	0.1929602664504291
0.0775	0.05162103179637301	0.06456021486688579	0.09348944191005559	0.1983540820424277
0.07795425073372618	0.0003642063141777729	0.05332146089230538	0.0204619808623081	0.1816670543439343
0.07901578477516402	0.0001917780110798351	0.053583603983268	0.01398532290035748	0.1653600759246634
0.08066444641183987	0.0001446733122945076	0.05863509154204016	0.01341633851511093	0.1400889265658154
0.08287410419404742	0.0001358953366175086	0.06794576805122454	0.01563922948880525	0.106984670671352
0.08560988716681352	0.0001533204482035977	0.08181679922830787	0.0223751682507467	0.06785494898014344
0.08882864367758794	0.0002165489649750274	0.09982032907779703	0.03612123927877819	0.02637645496109409
0.09247960949210787	0.003859953685544149	0.1146121775213058	0.05758770103697186	0.0002265233185265725
0.09650520557876997	0.03700546107688041	0.1196490261697072	0.08706738232000144	7.922230850310186e-05
0.1008419453248002	0.08251661004231403	0.1269163709154313	0.1208375778278734	5.527753477529984e-05
0.1054214354539589	0.1363935643813412	0.1371711118292627	0.1599011347522334	4.044120034896181e-05
0.1101714545037473	0.1920537371557378	0.1508827666112316	0.2033847821704142	3.432647668200062e-05
0.1150170917444269	0.246037293413778	0.1686183588965484	0.2503368555090573	3.178774114953598e-05
0.1198819285398158	0.297966837196125	0.1904540274201965	0.2988117031331294	2.930823856539533e-05
0.1246892435043931	0.3491902809508922	0.215247624152902	0.3470701253142043	2.861013332466911e-05
0.1293632224455918	0.3999423798671027	0.2407150130491325	0.3934190531616779	2.929446783173084e-05
0.1338301540101398	0.4486937559532227	0.2641544044240622	0.4366641327606118	3.043321714546465e-05
0.1380195921846578	0.4946762155266404	0.283630590558281	0.4758797017706811	3.157254321140002e-05
0.1418654673351004	0.5375431726081845	0.2985575682274586	0.5102420682825496	3.289893641444941e-05
0.1453071283122631	0.5757492222804571	0.3093852182091954	0.5391289470580438	3.547104094980824e-05
0.1482902993364854	0.6084884595962707	0.3167377312746982	0.5626011730156579	3.970392184693416e-05
0.1507679370955254	0.6366891268945032	0.321159472005409	0.5808348148790333	4.698122034474395e-05
0.1527009768984096	0.6580922220448731	0.3228478448815231	0.5938484445447416	6.14124930935489e-05
0.1540589714577417	0.6724569223276966	0.322485097877957	0.602121238527408	9.484587045527348e-05
0.1548208116596206	0.6797297315763109	0.3204342597769283	0.6056796141869093	0.000169766068989885
0.155	0.7023997858130693	0.3184274062500931	0.6320005284656305	0.0300403900674977
0.1554542507337262	0.686593356071821	0.3219913448849527	0.6111737677539796	0.0001332727420784163
0.156515784775164	0.6994042050171178	0.3235971025681159	0.6168293342940294	6.808426388871247e-05
0.1581644464118399	0.7173134674538018	0.3255677828490433	0.6266042018278259	4.490808586488093e-05
0.1603741041940474	0.7397668051566988	0.3264830142317598	0.6366167592931241	3.271803722482147e-05
0.1631098871668135	0.7681022526861094	0.3259265663117659	0.6459196161973999	2.518603805667929e-05
0.1663286436775879	0.8013374503970312	0.3230640896619987	0.6519297646340013	1.994291847795537e-05
0.1699796094921079	0.838226357795034	0.3169996286765868	0.6515863272115847	1.614262522320331e-05
0.17400520557877	0.8793805375414574	0.3071811757925809	0.6414809809375626	1.265671403838375e-05
0.1783419453248002	0.9184586761260924	0.2943335335305584	0.6208722164307876	1.016379194740402e-05
0.1829214354539589	0.9570034308870241	0.2778315948839563	0.5868067181940754	8.445962660363904e-06
0.1876714545037473	0.9935155450437753	0.2583951646850662	0.5401450192838109	6.884282225838589e-06
0.1925170917444269	1.02794830054463	0.2356595464719047	0.4818376811948588	5.736697476610431e-06
0.1973819285398158	1.058305298216022	0.2097078433555337	0.4155879160638911	4.802779542734115e-06
0.2021892435043931	1.085054314127122	0.1805104024700526	0.3448668441554599	4.078905366577956e-06
0.2068632224455918	1.109219601121022	0.1490302459514672	0.2742535632175436	3.588089513062442e-06
0.2113301540101398	1.130480468802112	0.1185618959066732	0.2099527321496775	3.306196057817345e-06
0.2155195921846577	1.148624319098426	0.09298096202256723	0.1577439866016181	3.11724571755434e-06
0.2193654673351004	1.162954907332738	0.07422093051065293	0.1194809792098344	3.101659669546564e-06
0.2228071283122631	1.173035487953024	0.06259626771862603	0.09411247063143313	3.226841476244857e-06
0.2257902993364854	1.180600672745295	0.05660113885186902	0.07889881793818421	3.541818047292367e-06
0.2282679370955254	1.190772750147717	0.05328002293976852	0.06954923517523359	4.146065528676246e-06
0.2302009768984097	1.200904425137148	0.05129826464592635	0.06345556499755833	5.346485416168889e-06
0.2315589714577417	1.206589984049226	0.05014306955442072	0.05921485687904315	8.133098167384389e-06
0.2323208116596206	1.216850757690043	0.05734719571038438	0.06906456130865779	1.882281766318883e-05
0.2325	1.227621148602657	0.1018367201818196	0.1341773657838852	7.676677917389796e-05
0.2329542507337262	1.215469683025485	0.05088775082934283	0.05796293053994095	1.110964022865701e-05
0.234015784775164	1.224079003195457	0.05073216975559847	0.05659733842290526	6.034904110441275e-06
0.2356644464118399	1.237853290598516	0.05170340200421686	0.05613068661027265	4.080738203349199e-06
0.2378741041940474	1.256533422784356	0.05138339770024514	0.05310366949083845	3.059035767805085e-06
0.2406098871668135	1.287193397945208	0.04995893270413632	0.04882371141897135	2.4120353629975e-06
0.2438286436775879	1.32489518629676	0.05038645825751087	0.04694074233600776	1.970517952143425e-06
0.2474796094921079	1.363807960129853	0.06255516216446777	0.06042682619705797	1.665732146438614e-06
0.25150520557877	1.406536227980397	0.0870957819282161	0.09037384387139991	1.444809620387844e-06
0.2558419453248002	1.453599625975656	0.1252129786289293	0.1376638878245016	1.263010405150311e-06
0.2604214354539589	1.50735793335853	0.1727063466406811	0.1988228747505283	1.134768615074222e-06
0.2651714545037473	1.565523687346619	0.2275086122444241	0.2724084045912403	1.036356957806461e-06
0.2700170917444269	1.631809052682584	0.283164812098182	0.3514486942663981	9.692782387826782e-07
0.2748819285398158	1.664461245650386	0.3471519656496573	0.4384849681143064	9.185002303180312e-07
0.2796892435043931	1.651550391014957	0.4169939755597878	0.5259602171277553	8.881972872742949e-07
0.2843632224455918	1.586251935727589	0.4930240965794972	0.610340114171255	8.813441541022371e-07
0.2888301540101398	1.477271842343619	0.5712870173197395	0.685281431001951	8.977510330687721e-07
0.2930195921846577	1.340220074314671	0.646018503929483	0.7440167400060627	9.397586915316225e-07
0.2968654673351004	1.193829662566436	0.7122706864866475	0.7826816145523473	1.018558934307023e-06
0.3003071283122631	1.045889072752931	0.7684009979059302	0.8024461128841135	1.147224994779705e-06
0.3032902993364854	0.9099346939616837	0.8129421020202208	0.8069773633536144	1.349369613379281e-06
0.3057679370955254	0.7933107564390112	0.845418502608078	0.8020856815314493	1.678207992128478e-06
0.3077009768984096	0.7030191237349011	0.8659893947177751	0.7930220549022251	2.261738598186014e-06
0.3090589714577417	0.6357230268710026	0.8756759409064596	0.7826211199930274	3.538281120318842e-06
0.3098208116596206	0.6019992255605635	0.8839882824224581	0.7843382318549645	8.262345272846972e-06
0.31	0.5944698039637402	0.8862046413906738	0.7855987533355206	9.658848763027805e-06
