DataType=double
version=3
OpenSimVersion=4.5
endheader
time	hip_flexion_r	knee_angle_r	ankle_angle_r
0	15.39665229460834	235.5546912032506	59.00872875113676
0.0004542507337261803	10.54067358703644	224.194482634603	104.1498786975083
0.001515784775164009	11.83149157694452	229.9092583154521	139.4335927166652
0.003164446411839883	13.12141935176235	234.6660244190408	164.2772894709116
0.005374104194047435	13.14560429799805	235.2450001129682	176.6038129987388
0.008109887166813518	12.16768565895341	233.2528521853102	179.6989227055788
0.01132864367758793	10.54413379746687	228.8157044576313	173.3124709124993
0.01497960949210789	7.918477285298998	220.2970107977367	155.4693220499498
0.01900520557876997	3.568048161481457	207.3564978666625	133.1257399127303
0.02334194532480019	-1.018716485230541	190.3796398796725	98.61387671289479
0.02792143545395889	-6.926704809318238	169.0000417518343	72.32688083510703
0.0326714545037473	-13.3714570184983	144.4682487655462	49.90121020211642
0.03751709174442691	-20.28902169804206	116.6062890778413	31.37891687489322
0.04238192853981579	-26.84311475864831	88.77963671879063	16.26284098700462
0.04718924350439309	-32.67681372125746	61.62839192374526	2.939258463642842
0.0518632224455918	-37.54957760346036	36.36395066204	-10.20604704000885
0.05633015401013977	-41.33534603530714	13.3791996821616	-23.06677130144548
0.06051959218465776	-43.54795184534603	-6.205999090080159	-35.78665946915442
0.06436546733510043	-44.74065173982169	-22.13149146572491	-45.17451657325584
0.06780712831226307	-44.96763436075311	-33.74437457629274	-46.17341592261347
0.07079029933648544	-44.13461530588008	-41.75841551089599	-40.43730598179471
0.07326793709552543	-43.22155945700862	-47.38617287820726	-29.97015470683883
0.07520097689840965	-42.3288750905629	-50.87192057571171	-16.54494880598975
0.0765589714577417	-41.21805319742639	-52.06556048025553	-0.8259776440517541
0.07732081165962061	-38.34226783228465	-47.50815323359075	17.13233345111896
0.0775	-30.64653520024116	-47.13417511167344	27.9875361270084
0.07795425073372618	-39.71654058380349	-53.36486133930327	5.011980713390571
0.07901578477516402	-40.31277717635658	-59.61121836564663	-16.42643770904138
0.08066444641183987	-39.64432875853785	-65.56065890924235	-35.61514718298901
0.08287410419404742	-38.15228814018644	-71.59753257449371	-50.73921317959511
0.08560988716681352	-35.50577257170852	-76.58487421937787	-60.187094939133
0.08882864367758794	-31.35378063069507	-79.0914470432517	-62.32193350545478
0.09247960949210787	-26.02609934889178	-77.380532910022	-52.50101346455126
0.09650520557876997	-20.14941401955679	-77.8860533621	-32.3559260079677
0.1008419453248002	-12.95038070068551	-78.43586956852234	-6.863196769185553
0.1054214354539589	-3.908911857698669	-76.95044948651892	21.11181424205456
0.1101714545037473	7.044660633313732	-71.70643934274014	47.32084305652185
0.1150170917444269	19.70004065720308	-62.54464972282184	67.58767423617101
0.1198819285398158	33.60473852784828	-50.6072160375909	78.52538469750087
0.1246892435043931	48.1993142369319	-37.6405124101053	77.8561508647592
0.1293632224455918	62.7524738270001	-25.01641181677485	67.83789271130448
0.1338301540101398	76.44538940884898	-13.50635135505476	53.90535936273084
0.1380195921846578	88.6705494688365	-3.677902718554293	40.85291002522375
0.1418654673351004	99.09595563300945	4.141151332506404	31.30594233187754
0.1453071283122631	107.6116562772725	10.09841541322979	25.4648709731354
0.1482902993364854	114.3182364794558	14.37918268981633	21.94971937808347
0.1507679370955254	119.4526812099905	17.02195922064038	19.20638054715076
0.1527009768984096	123.0609105139754	18.49720695380448	16.0674335507629
0.1540589714577417	125.3296794216497	19.14968447229573	12.3318325918657
0.1548208116596206	126.3468875543215	19.15297489759384	7.807136376929149
0.155	130.4540080869871	26.4095507076805	5.352998836821907
0.1554542507337262	127.5705650018761	19.85822993724435	9.898776536024329
0.156515784775164	129.2110102447749	20.21274813461748	13.41472628040022
0.1581644464118399	131.7337736733439	20.91160898379902	15.9914742291981
0.1603741041940474	134.5295205072317	21.09526114737637	17.49093164941221
0.1631098871668135	137.4452958799317	20.16273931219443	17.96262081715927
0.1663286436775879	140.052517871155	17.59930862590303	17.89961747643781
0.1699796094921079	141.8944955755007	12.88261979853405	17.81441120686754
0.17400520557877	142.7008697434912	5.44164286483965	18.17535594704016
0.1783419453248002	142.1306368319652	-4.190991167132761	19.13000012832002
0.1829214354539589	140.029639013765	-16.56683008453092	20.06574548066372
0.1876714545037473	136.3605459713454	-31.38601468448767	21.12074050934093
0.1925170917444269	131.0825920911638	-48.53503978188822	20.99290860643219
0.1973819285398158	124.1718554197968	-67.43958280444502	19.15981738407643
0.2021892435043931	115.7447551829129	-87.60560043359314	15.46615417535626
0.2068632224455918	106.1198856836598	-108.2865454296869	10.47297156521616
0.2113301540101398	95.79532359959218	-128.3255148503098	5.768420293395906
0.2155195921846577	85.39889497098125	-146.6639057849314	2.041240911686689
0.2193654673351004	75.36469605800096	-162.6989841811245	-0.9818081701337853
0.2228071283122631	66.01007615248199	-176.1667557283271	-3.178586995727191
0.2257902993364854	57.70364749372855	-187.1637722801647	-5.514278441665446
0.2282679370955254	50.80769167281197	-196.0618288724677	-7.760532898871844
0.2302009768984097	45.33494652074533	-202.8837857137613	-9.284646639841458
0.2315589714577417	41.26147300847436	-207.574687215949	-9.904259375453044
0.2323208116596206	40.23159384218175	-209.0150415696638	-9.865045571890676
0.2325	45.32461791279283	-202.7284861447116	-10.04500735004522
0.2329542507337262	37.37770549518415	-212.17044303239	-11.41267492016934
0.234015784775164	34.45909762918623	-215.8042403426873	-14.65784651993344
0.2356644464118399	29.88839547799551	-221.1741728435963	-18.35783641010594
0.2378741041940474	23.2894708478028	-228.4366532692414	-22.10718292075225
0.2406098871668135	15.01387202197183	-237.3927263226442	-25.74441200164921
0.2438286436775879	5.069564527337405	-247.2471378889284	-29.67571416904409
0.2474796094921079	-5.667929959469227	-256.1281859889609	-35.05070630780961
0.25150520557877	-16.72477415304246	-263.4992920421307	-42.27666606284394
0.2558419453248002	-27.63755428994449	-268.6205731322289	-48.47911340902247
0.2604214354539589	-38.01183906128944	-271.5318217116134	-54.72251260429323
0.2651714545037473	-47.41997510270579	-271.9448460575087	-60.3756373163135
0.2700170917444269	-55.65834269947003	-270.5332261480931	-65.47066287735153
0.2748819285398158	-63.10128598238187	-266.0451789187048	-69.59320572231468
0.2796892435043931	-69.62425857574055	-258.7215823224725	-71.40605784460175
0.2843632224455918	-74.57498814345163	-248.0903269154709	-70.19334739339213
0.2888301540101398	-77.52217569647144	-234.7041598936242	-64.64494512488358
0.2930195921846577	-78.45408123124665	-219.5842468274597	-53.79876802959646
0.2968654673351004	-78.07640546786024	-204.9799511387638	-38.36312269665913
0.3003071283122631	-76.88853186116513	-191.5991772771155	-20.85373358770025
0.3032902993364854	-75.0219145436572	-179.6734336337061	-3.388245091567377
0.3057679370955254	-73.780329104016	-171.7337931819017	7.022915627951113
0.3077009768984096	-73.42752734135986	-167.8477905477947	8.774042567649186
0.3090589714577417	-73.67056026592692	-166.9513617658549	1.920988847997096
0.3098208116596206	-72.53369287273277	-164.7681662106582	-11.86059470808233
0.31	-72.17977730677863	-164.1278052799404	-15.87565726185631
