DataType=double
version=3
OpenSimVersion=4.5
endheader
time	hip_flexion_r	knee_angle_r	ankle_angle_r	hip_flexion_r_u	knee_angle_r_u	ankle_angle_r_u
0	0.4153593362303238	0.3789398543903719	0.02911393294685369	-2.351931008042687	1.123428766988317	-5.67096238547978
0.0004542507337261803	0.4142923222380711	0.379473899675544	0.02654584669738524	-2.346325186968912	1.227101209473295	-5.632549183725907
0.001515784775164009	0.4118075195612009	0.3809032555671549	0.02063432454725428	-2.33492323339326	1.467031118984087	-5.499249903528122
0.003164446411839883	0.4079751587138567	0.3836379128670773	0.01176985490817076	-2.313792030362451	1.851687644236856	-5.247407773612992
0.005374104194047435	0.4028944358521369	0.388302828201295	0.000590709256874461	-2.284862469263124	2.370747474326007	-4.866697425673625
0.008109887166813518	0.3966921200108811	0.3956679252819786	-0.01205835922748852	-2.249792601910757	3.012677266470006	-4.378966248505357
0.01132864367758793	0.3895104947396527	0.406565815452959	-0.0252255629785262	-2.213456693278935	3.756352299845515	-3.806073927556686
0.01497960949210789	0.3814949524964865	0.4217892682719748	-0.03800634471431753	-2.179021510937506	4.577974341241714	-3.206198954665842
0.01900520557876997	0.3727754776195508	0.44196937662877	-0.04970616586332485	-2.155975821926156	5.439103692183593	-2.621352561533272
0.02334194532480019	0.3634452320531446	0.4674576560552763	-0.05992991506761434	-2.15016109548042	6.303353358821392	-2.118907115285352
0.02792143545395889	0.3535679687767675	0.4982468978447734	-0.06870218463209693	-2.168103820701045	7.126727842055498	-1.732112313002685
0.0326714545037473	0.3431672694944317	0.5339165848192513	-0.07619881802175323	-2.216173409128886	7.872795553194202	-1.442097286402023
0.03751709174442691	0.3322446077876648	0.5736535369305024	-0.08267971645308697	-2.297718058155592	8.505587857375057	-1.247835882211088
0.04238192853981579	0.3207999445656919	0.6163013689400054	-0.08843961655439622	-2.412606012421521	9.005151682259719	-1.132301561552105
0.04718924350439309	0.3088685245207263	0.6605127378403624	-0.0937481073175758	-2.555981314799865	9.366244707050248	-1.08692905721264
0.0518632224455918	0.296546437349713	0.7048702661238417	-0.09884278771269635	-2.720394665462523	9.594924042485527	-1.103244740850137
0.05633015401013977	0.2840065654576903	0.7480154852021814	-0.1039159010835864	-2.897025939422345	9.705324182448285	-1.17782558184031
0.06051959218465776	0.2714993342392047	0.7887335609800579	-0.1090890625240601	-3.075292413901744	9.719689086196992	-1.300598750376226
0.06436546733510043	0.2593469155745458	0.8260280263991464	-0.114382546607066	-3.245252089325098	9.664349111766851	-1.45844049798858
0.06780712831226307	0.2479117054793304	0.8591336286985169	-0.1196755053222796	-3.399988039548842	9.567430694606848	-1.617816573397287
0.07079029933648544	0.2375699487036431	0.8875127052914387	-0.1247010132340091	-3.533061431954306	9.454391806340618	-1.748727262443263
0.07326793709552543	0.2286816502044805	0.9108026834384595	-0.1291487604389902	-3.641297366066021	9.343778436266676	-1.83711769921523
0.07520097689840965	0.221562742725824	0.9287741149608869	-0.132748420473502	-3.724015340665586	9.248656076316346	-1.883115394309141
0.0765589714577417	0.2164666835552912	0.941285918109806	-0.135316940627003	-3.780907223498351	9.178403473515003	-1.895979148809055
0.07732081165962061	0.2135745222181865	0.9482637583562916	-0.1367600795839948	-3.811460332730806	9.139880473294282	-1.890629113521832
0.0775	0.2128909210653447	0.9499006711965349	-0.1370985929125509	-3.8182056838416	9.131621873400658	-1.886961617704361
0.07795425073372618	0.2111529111137086	0.9540436088373961	-0.1379538028663262	-3.834641441769065	9.108647592380914	-1.880094717203705
0.07901578477516402	0.2070593351416309	0.9636811963781755	-0.1399518139812638	-3.877968431128399	9.048156365437309	-1.887984450166785
0.08066444641183987	0.2006117496905718	0.9785147896124267	-0.1430961673061882	-3.943432210919621	8.944893349822548	-1.931667433777402
0.08287410419404742	0.1918019694166266	0.998114315295898	-0.1474660960835668	-4.029943160397373	8.792795193556888	-2.029209611671813
0.08560988716681352	0.1806376462460512	1.021894995746558	-0.1532211338768937	-4.130496241846259	8.589814293116371	-2.182245362974411
0.08882864367758794	0.1671649249627666	1.049139959125449	-0.1605655265349633	-4.238722992757608	8.337736686590386	-2.382487906532113
0.09247960949210787	0.151492760439564	1.079056978057568	-0.1696636329814752	-4.343160026948738	8.051923327984285	-2.595336032033681
0.09650520557876997	0.1338133692720365	1.110844345289684	-0.1804867945272844	-4.43649162676611	7.740344127822819	-2.768334728029841
0.1008419453248002	0.1144059208178221	1.143676564362417	-0.192718107371952	-4.508456061808931	7.400631088524968	-2.853900460893652
0.1054214354539589	0.09365366397074776	1.176748355565983	-0.205761681373943	-4.547882761027007	7.043967180583532	-2.821323148553332
0.1101714545037473	0.0720470258404422	1.209354747186826	-0.2188214941916294	-4.540820212903955	6.689084935591977	-2.656610193698871
0.1150170917444269	0.05017453339652406	1.240958597571013	-0.2310522607222216	-4.476787470633642	6.362639216732157	-2.375271191097444
0.1198819285398158	0.02868278676813618	1.271216507164365	-0.2417537065749527	-4.347344656497855	6.086431581584566	-2.015191978013794
0.1246892435043931	0.008227490221600242	1.299940791192439	-0.2505256167061548	-4.15117304826407	5.874283905531247	-1.634917691860964
0.1293632224455918	-0.01059555070772372	1.327032029932827	-0.2573464821449144	-3.891722464489343	5.727847615141394	-1.291447452603316
0.1338301540101398	-0.02730763499783456	1.352407365324278	-0.2624831155323269	-3.580824359565635	5.642226807762178	-1.01899830917709
0.1380195921846578	-0.04160213907200322	1.375956157334532	-0.2663184426486472	-3.234522784005514	5.606533819135118	-0.8209157813439234
0.1418654673351004	-0.05335963621966761	1.397511046105335	-0.2691988173317039	-2.873329422202953	5.607928709698406	-0.6833144812394742
0.1453071283122631	-0.06264466985263284	1.416848415397578	-0.2713779931454549	-2.517242487672125	5.632614850783108	-0.5861639605890248
0.1482902993364854	-0.06966487044124892	1.433703069525562	-0.2730187468032008	-2.186194072776756	5.669457369107283	-0.5158187743530012
0.1507679370955254	-0.07472540868971167	1.447797075432854	-0.2742322409006684	-1.896392198717243	5.708475060899101	-0.4645927812104915
0.1527009768984096	-0.07816552378067532	1.458864495263511	-0.2750959747441769	-1.662026375819175	5.74294232868813	-0.4303719779856077
0.1540589714577417	-0.08030854983007241	1.466680760714453	-0.2756667608321434	-1.493259176340042	5.768511549527229	-0.4107196408160512
0.1548208116596206	-0.08140953473389118	1.471080935493674	-0.2759762778628012	-1.397424675106905	5.783165655927663	-0.4028883234178897
0.155	-0.08165797918593776	1.472117553453669	-0.2760484267065283	-1.374746288329287	5.786576905521564	-0.4016148734740068
0.1554542507337262	-0.08226914612543423	1.474748522280571	-0.2762301161976335	-1.316331156136644	5.796733594851634	-0.3980098431689285
0.156515784775164	-0.08359447491771294	1.480912858251329	-0.2766461649117018	-1.180361034354629	5.817395771440529	-0.3852448752355189
0.1581644464118399	-0.08536351569428635	1.490531965905463	-0.2772617668524631	-0.9649714279971917	5.851789703252949	-0.3608586182617657
0.1603741041940474	-0.08717198297296991	1.503513404260296	-0.2780184825084026	-0.6708953399122448	5.89798101289386	-0.3234921238219126
0.1631098871668135	-0.08849995811171163	1.519727589385423	-0.2788372176134352	-0.2985667641294296	5.955045254506242	-0.2748653127097453
0.1663286436775879	-0.08874425080756448	1.538995639246116	-0.2796288370729173	0.1481400380814719	6.015886146726251	-0.2170223942633771
0.1699796094921079	-0.08726508724825704	1.561067851385964	-0.2803022004846948	0.6633025967452064	6.072467326430235	-0.1519364066026463
0.17400520557877	-0.08344230215584342	1.585598288883574	-0.2807689743596873	1.23643635863218	6.109691457704061	-0.07968864155418887
0.1783419453248002	-0.07673876564336291	1.612117093981269	-0.2809407951375896	1.854705737144399	6.113263977958097	0.001111260668295699
0.1829214354539589	-0.06676100578151645	1.640027210693149	-0.2807318586862725	2.501224039604305	6.066382554174403	0.09088594566408315
0.1876714545037473	-0.05331270289454276	1.668601993868624	-0.2800695727751163	3.158345930068858	5.953412485687783	0.1887823593732754
0.1925170917444269	-0.03642683559652193	1.697016288443577	-0.2789055968558869	3.8068475957207	5.760424042357958	0.2915904056619141
0.1973819285398158	-0.01638157145808355	1.72439248657478	-0.2772442261140686	4.428490452033671	5.47906818053902	0.3898845934099437
0.2021892435043931	0.006311399822925112	1.749876488014069	-0.2751608396626486	5.005706198292962	5.10684317286832	0.4739677289509965
0.2068632224455918	0.03093844673711499	1.772714216036105	-0.2727940663119408	5.524802043814903	4.649431812410025	0.5348014077902876
0.2113301540101398	0.05664256085831354	1.792335868240818	-0.2703168883500669	5.97605216698837	4.120814239823574	0.5708727243956946
0.2155195921846577	0.08248950753602141	1.808419377735449	-0.2678858835571519	6.355869210936023	3.544625631851398	0.5869984014126368
0.2193654673351004	0.1075405560471113	1.820926950081534	-0.265621081570133	6.665098928658487	2.949364711773673	0.5889175434183009
0.2228071283122631	0.1309075267267303	1.830086904185053	-0.2636044499317218	6.908522922813447	2.366043478324451	0.5816447944564356
0.2257902993364854	0.1517983719750479	1.836344989768713	-0.2618866704286498	7.093036495494777	1.823921127679587	0.5689353536679511
0.2282679370955254	0.1695422784448687	1.840280234515218	-0.2604962364846019	7.227480242191631	1.349198044881261	0.5524118516255521
0.2302009768984097	0.1836049646771543	1.842517883768215	-0.2594439743471355	7.320440046088669	0.9635557530710108	0.5359302484783592
0.2315589714577417	0.1935865196946352	1.843637689847897	-0.2587249146469501	7.379226934343762	0.6848337375760472	0.5227807138592269
0.2323208116596206	0.1992202058980798	1.84409911317041	-0.2583295809631662	7.410092298678415	0.5259746268269185	0.5152614193550629
0.2325	0.2005486219459501	1.844189955610361	-0.2582373812366455	7.417329660720109	0.4885411479703721	0.5134854983232167
0.2329542507337262	0.2039222637086561	1.844390533289735	-0.2580052086099653	7.435760056589293	0.3938929434029945	0.5086246969598744
0.234015784775164	0.2118357466671732	1.844688025067645	-0.2574723639398533	7.473293120144517	0.1660256014052468	0.494724396792515
0.2356644464118399	0.2242018488058158	1.844666474840303	-0.2566784532833404	7.526842291070023	-0.1936495823649316	0.4673479360347912
0.2378741041940474	0.2409008515151553	1.843692221773171	-0.255693879378203	7.58525171783789	-0.690857619554341	0.4224454614852835
0.2406098871668135	0.2617297312418402	1.840936660094695	-0.2546255934594907	7.638021755966331	-1.327654331520017	0.3568574277674661
0.2438286436775879	0.2863748715139846	1.835415314408294	-0.2536171785332924	7.670030200508625	-2.10842433709751	0.2676502784914603
0.2474796094921079	0.3143877434381084	1.826049169932493	-0.2528486221438881	7.668963568567279	-3.027691987671708	0.1500812541237031
0.25150520557877	0.3451832546992498	1.811763430164244	-0.2525481927736595	7.623391723370136	-4.074774205134513	-0.005697546230348571
0.2558419453248002	0.3780518609064273	1.7915967281162	-0.2529911131275452	7.527014860801989	-5.229241530587251	-0.2030366994692749
0.2604214354539589	0.4121944236444265	1.764819863162759	-0.2544509191848021	7.376050385708796	-6.46731991886495	-0.4392621269859514
0.2651714545037473	0.4467654156700303	1.731033556701876	-0.257177353355966	7.172748003376467	-7.758656060701058	-0.7132009888798605
0.2700170917444269	0.4809317340407544	1.690248365086202	-0.2613621259616467	6.922391880670401	-9.074102415286548	-1.018119069971618
0.2748819285398158	0.5139195240723615	1.642917641550663	-0.2671080467947779	6.633411102999592	-10.38044787575226	-1.347505927851211
0.2796892435043931	0.5450530443946893	1.589966674639338	-0.2743993394195194	6.313792967309122	-11.64313715246166	-1.687331002843776
0.2843632224455918	0.5737835518803929	1.532756117709951	-0.2830649008966024	5.976284341171351	-12.82891815649679	-2.019793129950568
0.2888301540101398	0.5997238080857763	1.473017205555177	-0.2927731825838254	5.635729628011751	-13.90841409587678	-2.322789682443464
0.2930195921846577	0.6226499630150308	1.41273166981024	-0.3030446569075424	5.308513652677437	-14.86064971657592	-2.573208210871964
0.2968654673351004	0.6424861376052582	1.353991791794054	-0.3133035507698306	5.007129532651361	-15.67706943745137	-2.751837597615104
0.3003071283122631	0.6592582568620751	1.298848424125649	-0.3229689329146278	4.740246169909245	-16.35974445518021	-2.854883811007386
0.3032902993364854	0.6730598549275078	1.249210101533899	-0.3315524989963884	4.513474062446912	-16.9133523174787	-2.890954457309721
0.3057679370955254	0.6840136295952072	1.206762113024098	-0.3387130525799289	4.329368671572307	-17.3480696683407	-2.884923229790565
0.3077009768984096	0.6922451340458933	1.172909746743835	-0.3442745136583362	4.187143755403066	-17.67588001819446	-2.868516202968632
0.3090589714577417	0.6978633113141288	1.148751434712186	-0.3481629495807254	4.087315912098985	-17.90308084254686	-2.859789500212155
0.3098208116596206	0.7009559968088073	1.135063932056488	-0.3503421906814009	4.031405954204693	-18.0297305162437	-2.862811091317613
0.31	0.7016771579789427	1.131830526238013	-0.3508553720706146	4.018498005818014	-18.05912474609945	-2.865401168801524
