DataType=double
version=3
OpenSimVersion=4.5
endheader
time	bflh_r	bfsh_r	gasmed_r	glmax2_r	iliacus_r	recfem_r	soleus_r	tibant_r	vasmed_r
0	0.1164323725116578	0.03924659358423233	0.03407804651417295	0.0002136265736215464	0.1433411231099638	0.005108874480252051	0.0002814239117133792	0.08973474649702212	0.0003716112654840262
0.0004542507337261803	0.1084541494552241	0.04180969935170183	0.03058523684356563	0.0001841803444570105	0.1292481504478577	6.181076261604089e-05	0.0002395086881708496	0.08812809093172447	0.0003123823047294184
0.001515784775164009	0.1122905343334231	0.04308394537277315	0.03140105391761921	0.0001868405897328797	0.1314565435680621	4.135584676990389e-05	0.000242734806792493	0.09083225084235258	0.0003167478472905421
0.003164446411839883	0.1167427291334023	0.04387793589903293	0.03256484696678966	0.000192797149240334	0.134764653036276	3.52254374137424e-05	0.0002507299736748291	0.09335785152844873	0.0003267545595515699
0.005374104194047435	0.1212623037602023	0.04415117737909317	0.03361603258756547	0.0001968178409039092	0.1363736759688944	3.235217626897183e-05	0.0002562647286640662	0.09523878009845808	0.0003334086156276021
0.008109887166813518	0.1277243135627117	0.0440038479447968	0.0348839471907999	0.000199046171314178	0.1361028672215473	3.05971740042457e-05	0.0002595324066482479	0.09716734635060875	0.0003368443797694454
0.01132864367758793	0.1356593435688703	0.04388318616133962	0.03630932805623829	0.0001999287021876369	0.1348325180759699	2.949219187271199e-05	0.0002609564561491324	0.09951258068042744	0.0003378773696496004
0.01497960949210789	0.144350539868155	0.04373611587182848	0.03769113644085288	0.0001983360439118973	0.1320269049647408	2.863436456209827e-05	0.0002589831091733675	0.101941663813351	0.0003346039980557551
0.01900520557876997	0.1555706917006399	0.04291537896648867	0.03910475458513326	0.0001908043135036736	0.1246527450330945	2.712132254926984e-05	0.0002491242255264447	0.1041202236533217	0.0003209258240211536
0.02334194532480019	0.1650722943544792	0.04211619105618231	0.04020872787209602	0.0001830665935434147	0.1175402157333031	2.614105244721361e-05	0.0002389382790949127	0.1057851365456694	0.0003069986957694239
0.02792143545395889	0.1738861450114444	0.04101952593384852	0.04073799342471043	0.0001687290186021576	0.1066051586790794	2.455706645471248e-05	0.0002197350732979676	0.1065939443869417	0.0002817400113109345
0.0326714545037473	0.1806587393608101	0.03940099796855603	0.04067051472302526	0.0001507101519755277	0.09344201243494721	2.277599415665093e-05	0.0001956173312997981	0.1060251926171808	0.0002502455219511791
0.03751709174442691	0.1831971294469077	0.03713190879294868	0.03961374745896113	0.0001287334443354017	0.07818743533145613	2.065829888900724e-05	0.000166213383872461	0.1032509885919813	0.000212165691819725
0.04238192853981579	0.183616208704341	0.03435496621194318	0.03810069660904265	0.0001052705253432928	0.06193539355181462	1.878344507694517e-05	0.0001349231900216054	0.09919645984063631	0.0001716341213220563
0.04718924350439309	0.1804443612508615	0.0313128016824705	0.03600615124674823	8.220991096143023e-05	0.04630783927688874	1.698228712790426e-05	0.0001042295254172237	0.09376760542624467	0.0001320001641395742
0.0518632224455918	0.1744065479994873	0.02851975832574635	0.03348680830809185	6.017861696618129e-05	0.03212366366703119	1.555483326022953e-05	7.480075666234568e-05	0.08778258887877462	9.432218002333079e-05
0.05633015401013977	0.1650249153556882	0.02568238665826436	0.03064281183715838	4.16746368367839e-05	0.02048697375973749	1.479453387162926e-05	5.020352570242771e-05	0.08089252364499575	6.291604305648887e-05
0.06051959218465776	0.1522715536497673	0.02316008726881939	0.02768323935333955	2.985904708650189e-05	0.01356374796409825	1.498927780717599e-05	3.466009546221316e-05	0.07363623981630874	4.324012949885088e-05
0.06436546733510043	0.1391597424123317	0.02117514207508996	0.02490802396086756	2.171699824095469e-05	0.009369083998884144	1.636572399087723e-05	2.396759803411612e-05	0.06703774284188588	2.993390026931788e-05
0.06780712831226307	0.1270783013743174	0.02019419035751562	0.02253347056224765	1.708798491649757e-05	0.008100360423188773	1.966510433655422e-05	1.773791786780281e-05	0.06202862441250222	2.265898900268738e-05
0.07079029933648544	0.1142330518753329	0.02046659494182294	0.02032967770083743	1.715960717614413e-05	0.0110711214876171	2.582889929248033e-05	1.747549096657603e-05	0.05838963725572061	2.358016746467666e-05
0.07326793709552543	0.1031003841574327	0.02132863909340901	0.01841412192865208	1.734413730572926e-05	0.01447350708573839	3.551206454312046e-05	1.715842889775143e-05	0.05593030467609349	2.462440720331817e-05
0.07520097689840965	0.09432852714831774	0.02252450872412902	0.01691768352256603	1.783992826780436e-05	0.01797704073329149	5.314804772923891e-05	1.717939828600355e-05	0.05457841604537434	2.609088186695645e-05
0.0765589714577417	0.08774606028209921	0.02401842562108282	0.01594787408657174	2.05848844482604e-05	0.0226411246445144	9.853730161297041e-05	2.022974526266853e-05	0.05433756614432411	3.135956412318958e-05
0.07732081165962061	0.08535256758435464	0.02596985292053154	0.01652194395976002	3.523225482728038e-05	0.03347011160655168	7.767146161190256e-05	3.96321934900629e-05	0.05645142881010781	5.676068164352608e-05
0.0775	0.08774290545143083	0.02910856286701105	0.02089949368703036	9.282586023217592e-05	0.08044648042154773	0.02255466523471952	0.000117932862005014	0.06589055358616389	0.0001965910186026373
0.07795425073372618	0.08035666264907611	0.02523679788933746	0.01499708193385888	2.548201517738868e-05	0.02831924588649207	0.0001632300696398504	2.635463838039304e-05	0.05365194829341383	4.040399688249495e-05
0.07901578477516402	0.07314337344255346	0.02420769497082472	0.0133558298206554	1.939237149988331e-05	0.02516743575845542	8.727389410827795e-05	1.821956393516949e-05	0.05000496151828024	3.017587206408686e-05
0.08066444641183987	0.06196557493392076	0.02375048406638957	0.01141451252339562	1.889460998463722e-05	0.02659151973307561	6.659186060127174e-05	1.75039678195788e-05	0.04604530865346843	2.993610356288043e-05
0.08287410419404742	0.04732333069443571	0.02381114404437073	0.009060241029581301	2.114280656712023e-05	0.03085134675595813	6.292397995373309e-05	2.030438487516713e-05	0.04172576981622297	3.468475597995819e-05
0.08560988716681352	0.03001631429963212	0.02458462487201465	0.00653875315756928	2.774633977850303e-05	0.03889667543609586	7.113995779920309e-05	2.878130000160904e-05	0.03758305672775697	4.714268303887889e-05
0.08882864367758794	0.01167095337499455	0.02621266366775232	0.004286034773406743	4.098776616952311e-05	0.05182040852179003	0.0001000261080665261	4.606410885574417e-05	0.0343831034516173	7.11623614264521e-05
0.09247960949210787	0.0001061507939504597	0.02808195712057168	0.003679896488814167	6.120285388665183e-05	0.068321127248979	0.001693134465197251	7.301583215201413e-05	0.03403807957545487	0.0001096192141400008
0.09650520557876997	4.31550076845312e-05	0.02930594496290957	0.005543649252087426	8.834476778933549e-05	0.09250555104865633	0.01617105741160231	0.0001099825728091987	0.03826961194550824	0.0001826147405698376
0.1008419453248002	3.506849428567401e-05	0.03108451901382605	0.007689579373610076	0.0001195701735600721	0.1225183442009763	0.03604972327063706	0.0001523454783816353	0.0439204127554146	0.0002724418073820695
0.1054214354539589	3.143624225625727e-05	0.03359535268833417	0.01017285319212305	0.0001558383406615521	0.1581576858415821	0.05958242175122729	0.0002013639547344271	0.05102374749835824	0.0003775982935514391
0.1101714545037473	3.202862049771755e-05	0.0369533476902298	0.01293790283286484	0.0001963845970103301	0.1975809557994175	0.08389433828696848	0.0002559450075157988	0.05935174334672195	0.0004915658547476492
0.1150170917444269	3.451026223763535e-05	0.04129698302800543	0.01592381767880147	0.0002403861999055634	0.239685117221873	0.1074744240139597	0.0003148998411070716	0.06884951312757841	0.0006101976069892475
0.1198819285398158	3.719192526181552e-05	0.04664465040436148	0.01900659464982716	0.0002860869239546814	0.2834448196082467	0.1301576999866531	0.0003757928021265943	0.07943394632912411	0.0007301729822946926
0.1246892435043931	4.069662902488716e-05	0.05271677037867448	0.02207575186346289	0.0003318242099569388	0.3279343694946044	0.1525326552724924	0.0004364379318071085	0.09078275231350688	0.0008496843003829885
0.1293632224455918	4.469175222113605e-05	0.05895396393480525	0.02502357688536733	0.0003758851361228254	0.3715971260195125	0.1747016186148474	0.0004946973879813736	0.1022096842812562	0.0009659444729806728
0.1338301540101398	4.863637050592368e-05	0.06469453407316042	0.02777403210392664	0.0004169723242199778	0.4125599077300439	0.1959965181514418	0.0005490535318123281	0.1128509471128602	0.001075481698638782
0.1380195921846578	5.223175809634788e-05	0.0694645435142946	0.03026820668198282	0.00045409351565376	0.4495244328760329	0.2160817466552556	0.0005983316184263238	0.1221006138331942	0.001175959685507144
0.1418654673351004	5.549301189791038e-05	0.07312049537654515	0.03245372796576575	0.0004864560816264541	0.4818019310063351	0.2348058603734759	0.0006414955098196389	0.1297460467416429	0.001265733675896215
0.1453071283122631	5.885158948606862e-05	0.07577261318307371	0.03429110106887317	0.0005135295650477939	0.5088691051845312	0.2514939067023026	0.0006777688628703196	0.1358085021300429	0.001342672900932136
0.1482902993364854	6.250524763448898e-05	0.07757377238514541	0.03578422805409826	0.0005354170002960383	0.5307758302799956	0.2657939493929881	0.000707232396881452	0.1404222180389107	0.0014063238584394
0.1507679370955254	6.708838416727037e-05	0.07865737727773631	0.03694441299635825	0.0005523223891936	0.5480155929938838	0.278111398007198	0.0007301113578931005	0.1437886097846988	0.001457777762650318
0.1527009768984096	7.44212894435596e-05	0.07907202984276471	0.03777314657985427	0.0005642743878386045	0.5601255974803955	0.2874597057422868	0.0007464294275171951	0.1458541648724493	0.001495298961787094
0.1540589714577417	8.978923361442857e-05	0.0789855958963204	0.03830179859254473	0.0005717605013278459	0.5675169580407565	0.2937337560494071	0.0007567918789941938	0.1468169227360615	0.001519543087306744
0.1548208116596206	0.0001231455831859452	0.07848848142938342	0.03853374543190954	0.0005748335755636404	0.5703133358683369	0.2969101965309867	0.0007612346838755028	0.1467792895779868	0.001530562128593398
0.155	0.01333722336625073	0.07999996172767439	0.04245958086103935	0.000598994749223381	0.5880441738941279	0.3068130577690963	0.0007942366397245413	0.1547534564884692	0.001589352068996496
0.1554542507337262	0.0001074173957058792	0.07886742049259832	0.03888041551191065	0.0005799419102761068	0.5751945217060506	0.2999081804993816	0.0007681294528583975	0.1477679802644313	0.00154480190944408
0.156515784775164	7.901442222134552e-05	0.07925639340115373	0.03923519036820616	0.0005852098411392683	0.5815911564583119	0.3055034544836402	0.0007752296762597604	0.1490581470170264	0.001564022164261404
0.1581644464118399	6.949033125575074e-05	0.07973760928458233	0.03985511200363639	0.0005942453697317841	0.591363402580682	0.3133256664459962	0.0007874930459673171	0.1508827801659434	0.00159376345852239
0.1603741041940474	6.482817086056269e-05	0.07996113312894709	0.04049097649716896	0.0006034205583882567	0.6019787123760758	0.3231323663242959	0.0008000479565249181	0.1526513705856999	0.00162732820375971
0.1631098871668135	6.215745644278286e-05	0.07982461501351941	0.04108205447444423	0.0006118469431902192	0.6131469006920265	0.3355078121983173	0.0008117055855093553	0.1542722060703434	0.001664241276991015
0.1663286436775879	6.023624203705605e-05	0.07912355393823324	0.04146389185149706	0.0006171183181188819	0.6230739652905796	0.3500227509754981	0.0008192247362795498	0.155356811011137	0.001699575006338092
0.1699796094921079	5.846190063848592e-05	0.07763845950026631	0.04144175786721294	0.0006163905355381433	0.6296459737487811	0.3661327330509398	0.0008187652731484901	0.155466617847623	0.001727438627370862
0.17400520557877	5.609048056545347e-05	0.07523405756516446	0.04079880585954753	0.0006065351831072163	0.6311375181202282	0.3841045407930999	0.0008060557149844185	0.1543314313027277	0.001742925225376908
0.1783419453248002	5.33773348663394e-05	0.07208783810620557	0.03948792893390835	0.0005869274736428065	0.6259154030813069	0.4011687455256133	0.0007801701925020997	0.151810699790593	0.001739950797761187
0.1829214354539589	5.001237187536899e-05	0.06804669677202511	0.03732128642369634	0.0005548467600115221	0.6126763398491424	0.4179987945912019	0.000737406811941889	0.1476792849820795	0.001715046042492199
0.1876714545037473	4.579233785002742e-05	0.06328685555128111	0.0343535610761861	0.0005111264723217367	0.5917323035545692	0.4339400202444517	0.0006788479636483829	0.1420987409553637	0.001668467229330619
0.1925170917444269	4.089082528495648e-05	0.05771903170446811	0.03064522413222675	0.0004565983420512412	0.5634177891211195	0.4489720917503916	0.0006056808810860607	0.1350087959799796	0.001601605126269529
0.1973819285398158	3.547508123531238e-05	0.05136357823937212	0.02643177399991423	0.0003946183654743417	0.5291140648214324	0.4622234544773761	0.0005225418317943111	0.1264973543030228	0.001518657921653285
0.2021892435043931	2.9783700933991e-05	0.04421326330265411	0.02193396415201483	0.0003283276652556016	0.4906374418538219	0.4738986878421452	0.0004337768472461835	0.1167304338875243	0.001425402031418656
0.2068632224455918	2.416130241133458e-05	0.03650395576646479	0.01744301806221618	0.0002619498632280077	0.4508217353866091	0.4844455116907883	0.0003451273756506757	0.1062203053684798	0.001329927948301466
0.2113301540101398	1.908290865131343e-05	0.02904246461569211	0.01335354440606086	0.0002013622429248059	0.4137752278888913	0.4937244704801927	0.0002643879959977616	0.09612176869915985	0.001242133551204592
0.2155195921846577	1.496356717180265e-05	0.02277788715370468	0.0100331166992629	0.0001521033679861028	0.3836195140879887	0.5016432919447602	0.000198825806655133	0.08773491242352821	0.001171425412620779
0.2193654673351004	1.199967588841624e-05	0.0181837120347162	0.007599634632352826	0.0001160030638012249	0.3617612717224931	0.5078981110811168	0.0001507766885970822	0.08163491192620345	0.001120423040158855
0.2228071283122631	1.010903726905251e-05	0.01533693290577409	0.005986240744983404	9.213366610909022e-05	0.3476838318223291	0.5122981104953126	0.000118926710148676	0.0778406331129486	0.001087187553118031
0.2257902993364854	9.099486024841011e-06	0.01386879300675271	0.005018700491351593	7.789873348342572e-05	0.3399359501089159	0.5156005663627241	9.98346077484472e-05	0.0759051434629972	0.001068605866550119
0.2282679370955254	8.67209266306632e-06	0.01305554821195771	0.004424131077075687	6.918865218352621e-05	0.3366158158658095	0.5200420599862126	8.81072054753438e-05	0.07508161096667267	0.00106162466209225
0.2302009768984097	8.756706752018944e-06	0.01257035104645075	0.00403667829539988	6.353215100180205e-05	0.3353496742790841	0.5244662134080312	8.046700273478155e-05	0.07476404195066172	0.001059881811874814
0.2315589714577417	9.681215259214519e-06	0.0122876559117899	0.003767189393675178	5.961109312340475e-05	0.334218858595336	0.5269488309403757	7.515112088769369e-05	0.07453866485506218	0.001057617802145869
0.2323208116596206	1.522439003347287e-05	0.01405266416095266	0.004394438591028713	6.911540961094448e-05	0.3439815369153641	0.5314309134591727	8.754594473368659e-05	0.07743313981579178	0.001082170780057041
0.2325	4.613424326020262e-05	0.02495174259643987	0.008539960661015408	0.0001316008066007841	0.3938378164529557	0.5361410472654444	0.0001694297151115829	0.09295384120237696	0.001198718637209048
0.2329542507337262	1.093218266760191e-05	0.01247025961868411	0.003687801010766746	5.855149856369599e-05	0.3359724131968294	0.5308266896332744	7.359407100959188e-05	0.07511671744523789	0.001062826155721262
0.234015784775164	8.598374533980835e-06	0.01243186417623664	0.003600573579667565	5.731729515211186e-05	0.3372993400230401	0.5345864386065501	7.188740192059474e-05	0.07542928023186318	0.001067510647051964
0.2356644464118399	7.731214242936859e-06	0.01266965211509235	0.003570757587374217	5.699476040879246e-05	0.3406858020805997	0.5406019361897143	7.131783430783759e-05	0.07633877151556447	0.001077862087888114
0.2378741041940474	7.081694253179564e-06	0.0125913147976361	0.00337817727373184	5.426042076896566e-05	0.3435392581393612	0.5487596726810008	6.753478474781733e-05	0.07702105839048119	0.001087929135371913
0.2406098871668135	6.503405762422038e-06	0.01224260721469022	0.003105942749685957	5.032468367272023e-05	0.3482571108229363	0.5621491233063159	6.2180293104215e-05	0.07792567037028005	0.001105393130390639
0.2438286436775879	6.220257626052601e-06	0.01234749282105852	0.002986174960255474	4.871732969789918e-05	0.3564688674293609	0.5786141223097497	5.984524985116018e-05	0.07978060041004366	0.001132455115896218
0.2474796094921079	7.26396138906604e-06	0.01532770113718009	0.003843888150954741	6.195436791797305e-05	0.3765523131547621	0.5956095412133623	7.684698621912232e-05	0.08557039706356168	0.001186151640320432
0.25150520557877	9.699959674433829e-06	0.02133770883312693	0.005748522217930832	9.107858900068575e-05	0.4098827105621976	0.6142729287063354	0.0001145589291295981	0.09564067448572307	0.00127034466530901
0.2558419453248002	1.359067001182591e-05	0.03067252115115643	0.008756176841057747	0.0001369846642975178	0.4574292271224278	0.6348313218338113	0.0001740953404841677	0.1103839048795559	0.001386998091163605
0.2604214354539589	1.863215006683371e-05	0.04230352909192873	0.01264589736581326	0.0001961993923745303	0.5166112246342384	0.6583148982622176	0.0002510743070695656	0.1286156324060301	0.001531955439912244
0.2651714545037473	2.467646891657143e-05	0.05572447025653116	0.01732594119975002	0.0002672496791597286	0.5854677267044354	0.6837245081227816	0.0003436722807668235	0.1495980470170974	0.001700849532537107
0.2700170917444269	3.113444175757056e-05	0.06935461873144001	0.02235290138592451	0.0003433197588263227	0.6592466993412578	0.7126805985492538	0.0004431108141258971	0.1714437907088009	0.001884816170590216
0.2748819285398158	3.826465491807575e-05	0.08502470778158631	0.02788840035217841	0.0004272305601302494	0.7317812693588593	0.726949249171846	0.0005526098647969351	0.1942889757969707	0.002055762195417214
0.2796892435043931	4.549226480596511e-05	0.1021282559536793	0.0334518199576827	0.0005119243757752572	0.7956499086881151	0.7213197452229463	0.0006626819217441388	0.2165516587599932	0.002192075819063929
0.2843632224455918	5.257329594949488e-05	0.1207468008161453	0.03881838531913491	0.0005942161049938631	0.8475913624433613	0.6928113731757373	0.0007689010000971837	0.2378389992871845	0.002282879629964819
0.2888301540101398	5.900885635072708e-05	0.139911768917623	0.04358467447688416	0.0006680649667494986	0.8852052754119466	0.6452255833682295	0.0008632980314995755	0.2572146406015997	0.002324620453437977
0.2930195921846577	6.424721740582145e-05	0.1582116570553278	0.04732028431957198	0.0007269148762325939	0.9069144490141229	0.5853788695441603	0.0009373619603316673	0.273563229099288	0.002318300233137279
0.2968654673351004	6.795842559292375e-05	0.174434916423413	0.04977943937981479	0.0007669078283666819	0.9135984846388919	0.5214518963390119	0.0009862245159972447	0.2862698174719152	0.002272044251512622
0.3003071283122631	7.020833983816849e-05	0.1881793730825243	0.05103655062470785	0.0007889865607797734	0.9071357099933085	0.456846109263379	0.001011341578362762	0.2953131307432549	0.002193618734855478
0.3032902993364854	7.124869193705083e-05	0.1990858199192188	0.05132483956733198	0.0007963781542433115	0.8920691903480513	0.3974734049060952	0.001017299803800306	0.3011062912521848	0.002099270644578296
0.3057679370955254	7.15038991637154e-05	0.2070379118328221	0.05101383162129312	0.0007943179805005814	0.8728602073984013	0.3465416392392186	0.001011373971156001	0.3041277665060714	0.002003816017527315
0.3077009768984096	7.14033080147932e-05	0.2120747258450406	0.05043748818549502	0.000787584571150161	0.8538277329365701	0.3071091166465671	0.001000143419243578	0.304988367766055	0.001921020500490013
0.3090589714577417	7.135141325679269e-05	0.2144463552132142	0.04977611952428582	0.0007788193852976201	0.8359229040879693	0.2777188630775002	0.0009871636855537027	0.303929593620674	0.001852802083872397
0.3098208116596206	7.367094872498073e-05	0.2164820044843749	0.04988569418721144	0.0007809738030188127	0.8315487299589829	0.2629913140365266	0.0009893625306103306	0.3046464718849486	0.001829921844480698
0.31	7.440689708668238e-05	0.2170248038715046	0.04996596974364294	0.0007822774462973467	0.8311279499124475	0.259703216120652	0.0009909545601477145	0.3049433054752901	0.001826233246587844
