DataType=double
version=3
OpenSimVersion=4.5
endheader
time	bflh_r	bfsh_r	gasmed_r	glmax2_r	iliacus_r	recfem_r	soleus_r	tibant_r	vasmed_r
0	0.116432241212323	0.03924661621737319	0.03407799622592987	0.0002136261826689815	0.1433405694167378	0.005108149895100444	0.0002814233621840282	0.08973463227646993	0.0003716092890475174
0.0004542507337261803	0.1084541611751444	0.04180969751890322	0.03058524047581295	0.0001841803669678266	0.1292481579645626	6.181044389379449e-05	0.0002395087202877895	0.08812809356334642	0.0003123823421086341
0.001515784775164009	0.1122905347806402	0.04308395735533554	0.03140106446821741	0.0001868407427331425	0.1314566414474038	4.135579840577149e-05	0.0002427350134299116	0.09083227151707673	0.0003167481110261558
0.003164446411839883	0.1167426500841136	0.04387796239453214	0.03256484364204396	0.0001927973034534358	0.1347647852598727	3.522541863460341e-05	0.0002507301744460247	0.0933578638191233	0.0003267548308556493
0.005374104194047435	0.1212622042469628	0.04415120668304187	0.03361602057067625	0.0001968179222225964	0.1363737759648628	3.235215848121085e-05	0.0002562648270707129	0.09523878568406674	0.0003334087628317757
0.008109887166813518	0.1277242870210588	0.04400386993712554	0.03488394318681758	0.0001990461862005911	0.1361029073443119	3.059714148113645e-05	0.0002595324176229767	0.09716736309379143	0.0003368444078901344
0.01132864367758793	0.1356592099283923	0.04388321803168631	0.03630930418744458	0.0001999286989030488	0.1348325819182899	2.949216012998257e-05	0.0002609564358345254	0.09951257453553781	0.0003378773733883886
0.01497960949210789	0.1443503253275507	0.04373615068723039	0.03769109419025744	0.0001983359773694116	0.1320269542287198	2.863433672702527e-05	0.0002589829985937333	0.1019416330285326	0.00033460389793705
0.01900520557876997	0.1555707159850283	0.04291540236064299	0.03910477043713875	0.0001908044874696395	0.1246528633770098	2.712130920989836e-05	0.0002491244568981759	0.1041202652028839	0.0003209261229631168
0.02334194532480019	0.165072262819685	0.04211618124632423	0.04020870179587489	0.0001830662960818879	0.1175400479121982	2.614101684383249e-05	0.0002389378711800482	0.1057851017493711	0.0003069981852196156
0.02792143545395889	0.1738860517747705	0.04101951126243149	0.04073796041751859	0.0001687287715354226	0.1066050249424405	2.455703086361586e-05	0.0002197347358908402	0.1065938877359635	0.0002817395910060206
0.0326714545037473	0.1806586471105314	0.03940097324383565	0.04067048533729777	0.0001507099508225943	0.09344189137156304	2.277596764088745e-05	0.0001956170615653333	0.1060251274302122	0.0002502451801876659
0.03751709174442691	0.1831969535262346	0.03713189133850965	0.03961371289255822	0.0001287333760509494	0.07818741249712029	2.065827744397349e-05	0.0001662132932551668	0.1032509121175747	0.0002121655841090377
0.04238192853981579	0.1836162026079395	0.03435493930689438	0.03810068970665843	0.0001052704332681424	0.06193531193088909	1.878341670044692e-05	0.000134923073702325	0.09919642395427516	0.0001716339619966371
0.04718924350439309	0.180444398681679	0.03131278207167724	0.0360061539848239	8.220985223112736e-05	0.04630777588385527	1.698225961074829e-05	0.0001042294530362503	0.09376759252455698	0.0001320000598972883
0.0518632224455918	0.1744066181464187	0.02851974726727553	0.03348681777708411	6.017857695472678e-05	0.03212361423489372	1.555480946765354e-05	7.480070726341239e-05	0.08778259632225406	9.432210640353484e-05
0.05633015401013977	0.1650249113539025	0.02568238506203325	0.03064280446301943	4.16745410941504e-05	0.02048692038389371	1.479450723217552e-05	5.020339388193037e-05	0.08089251604688438	6.291587839765727e-05
0.06051959218465776	0.1522715587535	0.02316008685801614	0.02768323389989495	2.985895684246509e-05	0.0135636971802526	1.498924623227996e-05	3.465997093173807e-05	0.07363623658041001	4.323997379702947e-05
0.06436546733510043	0.1391597430578217	0.02117514042763045	0.02490802133952939	2.171695880883851e-05	0.009369060339181357	1.636568928404939e-05	2.396754419722568e-05	0.06703773932557999	2.99338322292359e-05
0.06780712831226307	0.1270782952220103	0.02019418152580823	0.02253346681324875	1.70879437079228e-05	0.008100328455514009	1.966505491293406e-05	1.773786441468988e-05	0.06202861082495779	2.265891797577444e-05
0.07079029933648544	0.1142329948198328	0.02046658850396547	0.02032966745094782	1.715959846041034e-05	0.01107112043422002	2.582883020081618e-05	1.747548047213696e-05	0.05838961223918922	2.358015550045209e-05
0.07326793709552543	0.1031002763300094	0.0213286347294996	0.01841410155766589	1.734410911194432e-05	0.01447350817005667	3.551196217930089e-05	1.715838962585378e-05	0.05593026541411895	2.462436480827724e-05
0.07520097689840965	0.09432844392559046	0.02252449839508294	0.01691766278640363	1.783983287428514e-05	0.01797699279174628	5.314765714538171e-05	1.717926902831782e-05	0.05457837450883456	2.609072154851857e-05
0.0765589714577417	0.08774600381271049	0.02401840622255447	0.01594784711159353	2.058463196929487e-05	0.0226409737284527	9.853531605750859e-05	2.022940304664144e-05	0.05433751510585193	3.135912854745186e-05
0.07732081165962061	0.08535262940404353	0.02596981394647641	0.01652192517257785	3.523182387169157e-05	0.03346982534125079	7.768725037713649e-05	3.963161477154732e-05	0.05645138592258454	5.675996309939518e-05
0.0775	0.08774287571057716	0.02910852673760749	0.02089944097190752	9.282516848970765e-05	0.08044576773562444	0.0225541186206242	0.0001179319220425313	0.06589041109124141	0.0001965888381594666
0.07795425073372618	0.08035661829203303	0.02523677124317472	0.01499704833985897	2.548163653564957e-05	0.02831901420816967	0.0001632268049733894	2.635412493076908e-05	0.05365188678650988	4.040334080508319e-05
0.07901578477516402	0.07314331630563671	0.024207676780534	0.01335580898519587	1.939220846078005e-05	0.02516733542627016	8.727225207440071e-05	1.821934489223319e-05	0.05000491594960688	3.017559113825704e-05
0.08066444641183987	0.0619654312060817	0.02375047797774606	0.0114144856168168	1.889457582843289e-05	0.02659152246411989	6.659125873721744e-05	1.750392032254467e-05	0.0460452561342979	2.993605209174872e-05
0.08287410419404742	0.04732322562686699	0.02381113392146064	0.009060225766881725	2.114284251140279e-05	0.03085137511211654	6.292353852767831e-05	2.030443673774815e-05	0.04172572812277495	3.468482294145672e-05
0.08560988716681352	0.03001624059590331	0.02458461659706724	0.006538753026258705	2.774651519073255e-05	0.03889677549319397	7.113898889630371e-05	2.878154458092827e-05	0.03758303335254821	4.714298727143139e-05
0.08882864367758794	0.01167091136937119	0.02621266365753602	0.004286056708398473	4.098818104256821e-05	0.05182064180517833	0.0001000232554537311	4.606468179054583e-05	0.03438311021840738	7.116307283022037e-05
0.09247960949210787	0.0001061479919097859	0.02808194673045458	0.003679913163092221	6.120309448484251e-05	0.06832120239683985	0.001693053446089477	7.301616946034178e-05	0.03403806994228934	0.0001096194811961472
0.09650520557876997	4.315450724976491e-05	0.02930593798105072	0.0055436637211884	8.834497209352015e-05	0.09250555712115741	0.01617087912975073	0.0001099828589673399	0.03826959428273732	0.0001826147689934582
0.1008419453248002	3.50682402312585e-05	0.03108450848408479	0.007689580718260192	0.0001195701892108437	0.1225182384961143	0.0360495367204467	0.0001523455051561188	0.04392038126762224	0.0002724414959684577
0.1054214354539589	3.143610026551022e-05	0.03359534173453611	0.01017284712051099	0.0001558382507449602	0.1581575843059479	0.05958234966900727	0.0002013638352178735	0.05102372312650445	0.0003775980077619326
0.1101714545037473	3.202850443442691e-05	0.03695334095811702	0.01293789390950933	0.0001963844678449263	0.197580846137255	0.08389428122796679	0.00025594483191291	0.05935172339100424	0.0004915655288015696
0.1150170917444269	3.451017025697353e-05	0.04129698670161854	0.01592381221827482	0.0002403861233210265	0.2396850455735463	0.1074743609313668	0.0003148997339397065	0.06884950648637937	0.0006101973610807932
0.1198819285398158	3.719185906479875e-05	0.04664466760943551	0.01900659380333628	0.0002860869173723351	0.2834448028635796	0.1301576374901355	0.0003757927861662009	0.07943395800777127	0.0007301728585160562
0.1246892435043931	4.069657734499203e-05	0.05271680130936472	0.02207575492572959	0.0003318242634357174	0.3279344040297537	0.1525325962325965	0.0004364379932135504	0.09078278235989366	0.000849684286833305
0.1293632224455918	4.469170582922703e-05	0.0589540041447686	0.02502358253503898	0.0003758852294623469	0.3715971990610535	0.1747015697080953	0.000494697500630655	0.1022097275684533	0.0009659445467935634
0.1338301540101398	4.863632084766339e-05	0.06469457739420796	0.02777404021774004	0.0004169724536701283	0.4125600060588291	0.1959964725792291	0.0005490536930983407	0.1128509959266123	0.00107548184077727
0.1380195921846578	5.223169711915744e-05	0.06946458407318876	0.03026821730208307	0.000454093679951363	0.4495245503269016	0.2160817074297747	0.0005983318290191544	0.1221006619862021	0.001175959898998078
0.1418654673351004	5.549294785819792e-05	0.07312052909139784	0.0324537393102976	0.0004864562542346251	0.4818020723469857	0.2348058719462708	0.0006414957345241511	0.1297460933767531	0.001265733995405935
0.1453071283122631	5.885154109933726e-05	0.07577263624417573	0.03429111035532727	0.0005135297049354192	0.5088692240472906	0.2514939335014633	0.0006777690466692547	0.1358085371625613	0.001342673191242013
0.1482902993364854	6.250519069077487e-05	0.07757378395368643	0.03578423258361787	0.0005354170685039074	0.5307758592884307	0.2657939085401403	0.0007072324865906841	0.1404222295157259	0.0014063239023403
0.1507679370955254	6.708832859835769e-05	0.0786573834358939	0.03694441518577481	0.0005523224220570408	0.5480155572258144	0.2781112856169388	0.0007301114012614255	0.1437886057165228	0.00145777761590531
0.1527009768984096	7.44212104031399e-05	0.07907204700600756	0.03777315599742376	0.0005642745269868612	0.5601255988469301	0.2874595305273994	0.0007464296135773293	0.1458541710813293	0.0014952988846521
0.1540589714577417	8.978903332006207e-05	0.07898561127311954	0.03830180680983954	0.0005717606234165249	0.567516991877583	0.2937336615249183	0.0007567920418618732	0.146816935027428	0.001519543126898336
0.1548208116596206	0.0001231497988704748	0.07848848815818678	0.03853374981446842	0.0005748336302608476	0.5703134319829841	0.2969103048780823	0.0007612347563619541	0.1467793128613934	0.001530562419025439
0.155	0.01333665792534553	0.07999998848789967	0.04245948151464325	0.0005989947232626623	0.5880442209747756	0.3068129005781667	0.000794236582459663	0.1547532937571602	0.001589351774863422
0.1554542507337262	0.0001074171510597933	0.07886743456997342	0.03888042271442026	0.0005799420180488095	0.5751946088840756	0.2999082012052831	0.0007681295959834173	0.1477680031414131	0.001544802133064719
0.156515784775164	7.90143316093269e-05	0.07925641676244746	0.03923520398018645	0.0005852100420671121	0.5815912031292205	0.3055032867737877	0.0007752299451598508	0.1490581638402134	0.001564022207319922
0.1581644464118399	6.949027629725009e-05	0.07973761250093542	0.03985511372404034	0.0005942453948761363	0.5913633462552873	0.3133255305735102	0.0007874930799759928	0.1508827699005984	0.001593763255829509
0.1603741041940474	6.48281207646528e-05	0.07996112741752365	0.04049097343885476	0.0006034205128070372	0.6019786361614948	0.3231322846844082	0.0008000478961932164	0.1526513530858931	0.001627327977186193
0.1631098871668135	6.215741047984323e-05	0.0798246098249881	0.04108205292549284	0.0006118469194328641	0.6131468615696717	0.3355077756684916	0.0008117055549533066	0.1542721951764707	0.001664241169710977
0.1663286436775879	6.023620352441928e-05	0.07912355183449725	0.04146389241626783	0.000617118325300426	0.6230739277638354	0.3500226794985038	0.0008192247473792911	0.1553568011441407	0.001699574889139372
0.1699796094921079	5.846188521507375e-05	0.07763846388091392	0.04144176096666911	0.0006163905808627013	0.6296459672867334	0.3661326659855501	0.0008187653342960806	0.1554666174402941	0.001727438584091889
0.17400520557877	5.609047109369253e-05	0.07523405929383972	0.04079880309976688	0.0006065351447930605	0.6311375559198797	0.384104644796447	0.0008060556608493471	0.1543314428326985	0.001742925347896398
0.1783419453248002	5.337733712758572e-05	0.07208786333418878	0.0394879366857073	0.0005869275922183599	0.6259155078707203	0.401168763025927	0.0007801703459717899	0.1518107351677757	0.001739951034638747
0.1829214354539589	5.001237213331445e-05	0.06804672153759261	0.03732129026871447	0.00055484682281654	0.6126764138397635	0.4179988124390622	0.0007374068884757474	0.147679317202055	0.001715046183992697
0.1876714545037473	4.579233594771163e-05	0.06328688264622757	0.03435356522432909	0.000511126539984093	0.5917323525960932	0.4339399821975708	0.0006788480461694572	0.1420987698005582	0.001668467278047886
0.1925170917444269	4.089081335352246e-05	0.05771904081977584	0.03064521941908241	0.0004565982780937706	0.5634177910105757	0.4489721390349619	0.0006056807886698538	0.135008808134243	0.00160160510223875
0.1973819285398158	3.547506512908645e-05	0.05136357752539725	0.0264317645177309	0.0003946182306276134	0.5291140410143449	0.4622235474925702	0.0005225416452196687	0.1264973572828309	0.001518657858021425
0.2021892435043931	2.97836901898291e-05	0.04421326784675267	0.02193395840615197	0.0003283275850850133	0.4906374249700545	0.4738987270648461	0.000433776734333471	0.1167304393462767	0.001425401964681575
0.2068632224455918	2.416128966767389e-05	0.03650395596573011	0.01744300980807834	0.0002619497459530578	0.4508216939731507	0.4844455527117837	0.0003451272132158204	0.1062203044614186	0.00132992782077242
0.2113301540101398	1.908288758770033e-05	0.02904244804242877	0.0133535287938	0.0002013620156431844	0.4137751278372257	0.4937245513770737	0.0002643876882053394	0.09612174845315571	0.001242133305842544
0.2155195921846577	1.496355417196798e-05	0.02277788386300978	0.01003310718387606	0.0001521032314206696	0.3836194287243537	0.5016432793234576	0.0001988256192112446	0.08773490083042822	0.001171425154574201
0.2193654673351004	1.199965131622729e-05	0.0181836850667042	0.007599615137641674	0.0001160027776318398	0.3617610899343356	0.5078981239756596	0.0001507763039525421	0.08163486991042539	0.001120422569817031
0.2228071283122631	1.010901020385648e-05	0.01533689931559543	0.005986219722663015	9.213335608891485e-05	0.3476836332991612	0.5122981312937576	0.0001189262952270678	0.07784058354004761	0.00108718705575519
0.2257902993364854	9.09947099277595e-06	0.01386878595885504	0.005018689196956637	7.789857018501347e-05	0.3399358180498724	0.5156005031101167	9.983438510115835e-05	0.07590512086331594	0.001068605470619166
0.2282679370955254	8.672089404965808e-06	0.0130555642384974	0.004424129581573856	6.918863597310773e-05	0.3366158131644693	0.5200420355899578	8.810717652970306e-05	0.07508162511017863	0.001061624590700419
0.2302009768984097	8.75672329348138e-06	0.01257040258654567	0.004036693158634967	6.353237960981019e-05	0.3353499164448089	0.5244663144347615	8.046729713558449e-05	0.07476412077586972	0.001059882390569038
0.2315589714577417	9.681234026694925e-06	0.01228771581252272	0.003767206059225712	5.961134980651499e-05	0.3342190868043408	0.5269488595684255	7.515145095779751e-05	0.07453874623398045	0.001057618298384889
0.2323208116596206	1.522436281204245e-05	0.01405262003578368	0.004394413723494662	6.911504094570069e-05	0.3439812235626216	0.5314308055238475	8.754545360751757e-05	0.07743306162909072	0.001082169948120159
0.2325	4.613447006040399e-05	0.02495167318488387	0.008539926813511733	0.0001316003016426158	0.3938374470954439	0.536141029446804	0.0001694290455934901	0.09295373867652723	0.001198717732814926
0.2329542507337262	1.09321863995851e-05	0.01247028803533851	0.003687804457374361	5.855155659980912e-05	0.3359724515464134	0.5308266386511075	7.359413972583885e-05	0.07511674585379181	0.001062826164497738
0.234015784775164	8.59839452042855e-06	0.01243192331388386	0.003600590674334794	5.731755791617736e-05	0.3372996016914159	0.5345865243129632	7.188774047723572e-05	0.07542936736464752	0.001067511257112295
0.2356644464118399	7.731226762969631e-06	0.01266969580551733	0.003570768353108164	5.699492799492381e-05	0.3406859793576397	0.5406019966411527	7.131804773771372e-05	0.07633883429279079	0.001077862487720262
0.2378741041940474	7.081685965348587e-06	0.01259131841419808	0.003378170767598469	5.426032892576956e-05	0.3435391572094766	0.5487595712532617	6.753465666459879e-05	0.07702104674526913	0.001087928793737932
0.2406098871668135	6.503388240056853e-06	0.01224257859112347	0.003105928887703616	5.032447747400233e-05	0.3482570157044985	0.5621492189632625	6.218001939100161e-05	0.07792563952313984	0.001105392947525072
0.2438286436775879	6.220238419393802e-06	0.01234745498836718	0.002986159963824701	4.871710464715315e-05	0.3564687886496442	0.5786142873857444	5.984495358680242e-05	0.07978056619207866	0.001132455025925552
0.2474796094921079	7.263949941932309e-06	0.01532768723328089	0.003843879194846352	6.195423600306272e-05	0.3765522336241203	0.5956095582769998	7.684680947300305e-05	0.08557037730409017	0.001186151443585399
0.25150520557877	9.699949975272999e-06	0.02133769507406269	0.00574851476484022	9.107847861505378e-05	0.4098826550629924	0.6142729680196773	0.0001145587820036513	0.09564065837870021	0.001270344545936102
0.2558419453248002	1.359067798641511e-05	0.03067255519655266	0.008756183058680185	0.0001369847634050505	0.4574292679225087	0.6348312216531523	0.000174095463875674	0.1103839360258214	0.001386998081757332
0.2604214354539589	1.86321524996799e-05	0.04230355072505262	0.01264589928913104	0.000196199426249138	0.5166112010846202	0.6583147728753481	0.000251074345489871	0.128615643981545	0.001531955272036442
0.2651714545037473	2.467647769837866e-05	0.05572451227238446	0.01732594782829578	0.0002672497860914701	0.5854676972861983	0.6837242533424348	0.0003436724123274423	0.1495980702401204	0.001700849256910453
0.2700170917444269	3.113441641086195e-05	0.06935454086988395	0.02235288296921766	0.0003433194730479349	0.6592466617678169	0.7126809893252126	0.0004431104494966451	0.1714437344692507	0.001884816383179708
0.2748819285398158	3.826464494943819e-05	0.08502468341612399	0.02788839317699368	0.0004272304506153076	0.7317812486925398	0.7269493752244998	0.0005526097229002573	0.1942889576451778	0.002055762234196022
0.2796892435043931	4.549225216992627e-05	0.1021282354723137	0.03345181038528981	0.0005119242327198108	0.7956497802834424	0.7213196983017832	0.0006626817325801099	0.2165516241712818	0.002192075486970002
0.2843632224455918	5.257328540507677e-05	0.120746780306999	0.03881837763128116	0.0005942159889535807	0.847591276390525	0.6928113770495029	0.0007689008480919137	0.2378389715759144	0.00228287943637252
0.2888301540101398	5.90088581598487e-05	0.1399117668705583	0.04358467685355811	0.0006680650003115021	0.8852053457381079	0.6452256834931228	0.0008632980783411814	0.2572146510188114	0.002324620692473113
0.2930195921846577	6.424722561124474e-05	0.1582116710006801	0.04732029174163169	0.0007269149864742277	0.9069145377184763	0.5853788909673853	0.0009373621069275117	0.2735632521068472	0.002318300462285512
0.2968654673351004	6.795842345073586e-05	0.1744348988126365	0.04977943919975555	0.0007669078205174552	0.9135985141017826	0.5214519975468671	0.0009862245120047723	0.2862698089034466	0.002272044420559202
0.3003071283122631	7.02083363202794e-05	0.1881793597468921	0.05103654920510454	0.0007889865362833066	0.907135681880162	0.456846111856022	0.001011341549992247	0.2953131151884672	0.002193618696810428
0.3032902993364854	7.124867984777661e-05	0.1990857869807187	0.0513248316723947	0.0007963780313268087	0.8920690964927978	0.3974734290094581	0.001017299647343139	0.3011062517783036	0.002099270475253096
0.3057679370955254	7.150388264685805e-05	0.2070378800205539	0.0510138200219024	0.0007943178047997934	0.8728600279787381	0.3465415565384232	0.001011373741683346	0.3041277139387673	0.002003815563945147
0.3077009768984096	7.140329722943919e-05	0.2120747065807359	0.05043748133617314	0.0007875844674302046	0.8538276520861358	0.3071091149570017	0.001000143283784483	0.3049883414026687	0.0019210203180793
0.3090589714577417	7.135142041341291e-05	0.2144463758669397	0.04977612727694746	0.0007788195026674764	0.8359230407312281	0.2777189504971425	0.0009871638389561815	0.3039296316294178	0.001852802445123506
0.3098208116596206	7.367091738631133e-05	0.2164819508719683	0.04988567500434874	0.0007809735123840008	0.8315484671963186	0.2629912419519956	0.0009893621511680654	0.3046463909833037	0.001829921211367262
0.31	7.440685293009101e-05	0.2170247246501266	0.04996594153564468	0.0007822770186997767	0.8311275493622021	0.2597030851844478	0.000990954002138158	0.3049431833249308	0.001826232270033075
