DataType=double
version=3
OpenSimVersion=4.5
endheader
time	RightLeg_1	RightLeg_2	RightLeg_3	RightLeg_4
0	0.01164471524342781	0.08820560856129833	0.2238447101010534	0.2631944074986365
0.0004542507337261803	9.561500859311955e-05	0.1036103864527549	0.1902996150969374	0.2451620438826627
0.001515784775164009	4.800427279372244e-05	0.1064395130275175	0.1928466123349915	0.2538349037597352
0.003164446411839883	3.255296227955284e-05	0.1069263633084085	0.199215390737856	0.2638993403388508
0.005374104194047435	2.504485314247518e-05	0.1052448367125831	0.2036325383705311	0.2741166338478247
0.008109887166813518	2.052383942863223e-05	0.1006434335187651	0.2062515268252776	0.2887260385888564
0.01132864367758793	1.776355193428003e-05	0.09523935931862426	0.20739861152154	0.3066655381032888
0.01497960949210789	1.609503545951796e-05	0.08925933127346797	0.2058335041365538	0.3263151030319769
0.01900520557876997	1.42678742367508e-05	0.07896262910821128	0.1979902243541469	0.3516840657564462
0.02334194532480019	1.3714368431339e-05	0.06981772625478166	0.189882949368775	0.3731670206094293
0.02792143545395889	1.323224958182934e-05	0.0598837540488586	0.1745814009789259	0.3930962319432372
0.0326714545037473	1.317184180460451e-05	0.04908201655027367	0.1553664923848808	0.4084113084594834
0.03751709174442691	1.330679423094949e-05	0.03824447544130338	0.1319429743607285	0.414154060144484
0.04238192853981579	1.440139526698303e-05	0.02664455337478611	0.1070241650557477	0.4151062583040359
0.04718924350439309	1.564267154874344e-05	0.01618433874691472	0.08258573209658637	0.4079395958647969
0.0518632224455918	1.750661650179453e-05	0.008515387672672237	0.05914869573093351	0.3942931978493551
0.05633015401013977	2.017713739399518e-05	0.002735212019126632	0.03956882762699188	0.3730860919910322
0.06051959218465776	2.358941106828105e-05	0.0003286412448055831	0.02720921761876882	0.3442550253601921
0.06436546733510043	2.885183256529089e-05	0.0003383525738032134	0.01870981544909611	0.3146128387127947
0.06780712831226307	3.76203473924086e-05	0.003810298639925547	0.01374959590514746	0.2872994450036732
0.07079029933648544	5.17759756570868e-05	0.01287341801168296	0.01352226609722496	0.2582581570599158
0.07326793709552543	7.387101353506509e-05	0.0232844096964604	0.0132373871423761	0.2330886732669377
0.07520097689840965	0.0001140452606860354	0.03359731312066616	0.01321575053756474	0.2132567015436804
0.0765589714577417	0.0002172283748651527	0.04377221269759168	0.01560761812081823	0.1983741894410356
0.07732081165962061	0.0001661125961287535	0.05322268330744628	0.03105138823070597	0.1929604062936567
0.0775	0.05161978031530912	0.0645600857578037	0.09348869259215054	0.1983540149284804
0.07795425073372618	0.0003641989235472209	0.05332137952901483	0.02046157143287353	0.1816669541276812
0.07901578477516402	0.0001917742888881691	0.05358356506368933	0.01398514837870035	0.1653599467769413
0.08066444641183987	0.0001446719433486621	0.0586351556391782	0.01341630061838606	0.1400886016258192
0.08287410419404742	0.0001358943203730867	0.06794579174556192	0.01563927108599783	0.1069844331245744
0.08560988716681352	0.0001533181939190609	0.0818168110579649	0.0223753637471924	0.06785478231788722
0.08882864367758794	0.0002165423449367321	0.09982035504111031	0.03612169684275646	0.02637635992114573
0.09247960949210787	0.003859768118631424	0.1146121368335757	0.05758797078312372	0.0002265169433592895
0.09650520557876997	0.03700505280553923	0.1196489979806978	0.08706761121698658	7.922114324054874e-05
0.1008419453248002	0.08251618287889495	0.1269163280837025	0.1208375996580962	5.527695954787859e-05
0.1054214354539589	0.1363933993485906	0.1371710671885706	0.1599010396464322	4.044089629529068e-05
0.1101714545037473	0.1920536065308442	0.1508827391930749	0.2033846421458234	3.432623753485409e-05
0.1150170917444269	0.2460371489834341	0.1686183739579514	0.2503367698790595	3.178754631827374e-05
0.1198819285398158	0.297966694090956	0.1904540977243874	0.2988116899978752	2.930808853629507e-05
0.1246892435043931	0.3491901457459512	0.2152477504994303	0.3470701736120403	2.861000431231275e-05
0.1293632224455918	0.3999422678551798	0.2407151772857139	0.3934191421366982	2.929434289056232e-05
0.1338301540101398	0.4486936515685751	0.2641545813675381	0.4366642604974851	3.043307824479591e-05
0.1380195921846578	0.4946761256676593	0.2836307562291303	0.4758798689539856	3.157237295403625e-05
0.1418654673351004	0.5375431990659894	0.2985577059486335	0.510242246866883	3.289875828782485e-05
0.1453071283122631	0.5757492836119726	0.3093853124130841	0.5391290932335377	3.547090489774973e-05
0.1482902993364854	0.6084883660354947	0.3167377785551511	0.5626012444034276	3.970378029904964e-05
0.1507679370955254	0.6366888695360646	0.3211594971945102	0.5808348494614716	4.69810888668043e-05
0.1527009768984096	0.6580918208067621	0.3228479150311334	0.5938485928665094	6.141228931078047e-05
0.1540589714577417	0.6724567058578852	0.322485160802533	0.6021213682969495	9.484539533266556e-05
0.1548208116596206	0.6797299796562353	0.320434284640202	0.605679671809558	0.0001697755894087827
0.155	0.7023994258841648	0.3184278655226693	0.6320004817102091	0.03003911169501561
0.1554542507337262	0.686593403459131	0.3219914025237662	0.6111738816819938	0.0001332721688123151
0.156515784775164	0.6994038209499538	0.3235971980359684	0.6168295486114819	6.808402259861346e-05
0.1581644464118399	0.7173131563279522	0.3255677960256866	0.6266042290328488	4.490795750067278e-05
0.1603741041940474	0.7397666182286693	0.3264829909433746	0.6366167113306485	3.271793276971025e-05
0.1631098871668135	0.7681021690461152	0.3259265451538136	0.6459195919609662	2.51859389321929e-05
0.1663286436775879	0.8013372867281828	0.3230640810990906	0.6519297736200449	1.994283067840996e-05
0.1699796094921079	0.838226204218813	0.3169996465796376	0.6515863759981358	1.614258234816646e-05
0.17400520557877	0.8793807756956528	0.3071811828513102	0.6414809375592164	1.265669863714791e-05
0.1783419453248002	0.9184587161694018	0.2943336365521783	0.6208723383352048	1.016377390272716e-05
0.1829214354539589	0.9570034717380993	0.2778316960177538	0.5868067786624367	8.445949772450945e-06
0.1876714545037473	0.9935154579060312	0.2583952753358725	0.5401450845255999	6.884263607620511e-06
0.1925170917444269	1.02794840882893	0.2356595836996098	0.4818376071030643	5.736680424694995e-06
0.1973819285398158	1.058305511230531	0.2097078404428452	0.4155877669811561	4.802766123912505e-06
0.2021892435043931	1.085054403955495	0.1805104210300126	0.3448667538192898	4.07889430387165e-06
0.2068632224455918	1.109219695075639	0.1490302467692706	0.2742534334395548	3.588080781602443e-06
0.2113301540101398	1.130480654090102	0.1185618282326302	0.2099524866739708	3.30618908606084e-06
0.2155195921846577	1.148624290227817	0.09298094859155759	0.1577438369894346	3.11724032231453e-06
0.2193654673351004	1.162954936923372	0.07422082039332278	0.1194806726857356	3.101656293358346e-06
0.2228071283122631	1.173035535647979	0.0625961305593985	0.09411214008966762	3.226837232972457e-06
0.2257902993364854	1.18060052794564	0.05660111008155178	0.07889864035381766	3.541813274221539e-06
0.2282679370955254	1.190772694286528	0.05328008838995602	0.06954921166405237	4.146059421561432e-06
0.2302009768984097	1.200904656411629	0.05129847510503716	0.06345579870262519	5.346477590872922e-06
0.2315589714577417	1.206590049538468	0.05014331415868511	0.05921511892329345	8.133089965056683e-06
0.2323208116596206	1.216850510625126	0.05734701553659161	0.06906417029569467	1.88228248194644e-05
0.2325	1.227621107919	0.1018364365828668	0.1341768328632729	7.676738641215763e-05
0.2329542507337262	1.215469566270464	0.05088786687469438	0.05796298473374262	1.110963593076164e-05
0.234015784775164	1.224079199381219	0.05073241123971717	0.05659760721205265	6.034897453988108e-06
0.2356644464118399	1.237853428978034	0.05170358041199474	0.05613085588590128	4.080732807887344e-06
0.2378741041940474	1.256533190554777	0.05138341247888434	0.0531035671927369	3.059032955832208e-06
0.2406098871668135	1.287193617027901	0.04995881581794981	0.04882349346047321	2.412033928367308e-06
0.2438286436775879	1.324895564340099	0.05038630376118869	0.0469405065403905	1.970516624538732e-06
0.2474796094921079	1.363807999232141	0.06255510539010967	0.06042668537651963	1.66573042337248e-06
0.25150520557877	1.40653631802532	0.08709572574322078	0.090373726683733	1.444808020556465e-06
0.2558419453248002	1.453599396556667	0.1252131176608735	0.1376639855865758	1.263008226892737e-06
0.2604214354539589	1.507357646238148	0.1727064349891716	0.1988229049921579	1.134766561605716e-06
0.2651714545037473	1.565523103923368	0.2275087838335101	0.2724085088148276	1.036355076866613e-06
0.2700170917444269	1.63180994755095	0.2831644941275748	0.3514484046963533	9.692766953506293e-07
0.2748819285398158	1.664461534311786	0.3471518661469069	0.4384848552975329	9.184985985122296e-07
0.2796892435043931	1.651550283608511	0.416993891929559	0.5259600666190021	8.881957427320231e-07
0.2843632224455918	1.586251944625324	0.4930240128319405	0.6103399932943326	8.813424605680353e-07
0.2888301540101398	1.477272071602156	0.5712870089537574	0.6852814683738978	8.977491159356532e-07
0.2930195921846577	1.340220123343995	0.6460185608726448	0.7440168567091483	9.397566675950486e-07
0.2968654673351004	1.193829894315739	0.712270614565598	0.7826816117260199	1.01855683420915e-06
0.3003071283122631	1.045889078696637	0.7684009434494414	0.8024460905680788	1.147222633113287e-06
0.3032902993364854	0.9099347491842381	0.8129419675150931	0.806977239224316	1.349366806957519e-06
0.3057679370955254	0.7933105671131128	0.8454183727103293	0.8020854991555006	1.678204627708624e-06
0.3077009768984096	0.7030191198909513	0.865989316054353	0.7930219472134379	2.261734125763581e-06
0.3090589714577417	0.6357232270160864	0.8756760252412906	0.7826212418974098	3.538274530479057e-06
0.3098208116596206	0.6019990605712795	0.8839880635074504	0.7843379302551419	8.262330457586842e-06
0.31	0.5944695042490145	0.8862043179069039	0.7855983098343713	9.658831514602895e-06
