DataType=double
version=3
OpenSimVersion=4.5
endheader
time	hip_flexion_r	knee_angle_r	ankle_angle_r	hip_flexion_r_u	knee_angle_r_u	ankle_angle_r_u
0	0.4153593362295527	0.3789398543918677	0.02911393631745116	-2.351931008047575	1.123428767001173	-5.670965964017127
0.0004542507337261803	0.4142923222360875	0.3794738996877643	0.02654584845512595	-2.346325189212598	1.227101247828025	-5.632552692835204
0.001515784775164009	0.4118075195693509	0.3809032556443931	0.02063432274611723	-2.334923208739675	1.467031212233191	-5.499253076676937
0.003164446411839883	0.4079751588173769	0.3836379132275481	0.01176984841253906	-2.31379193411757	1.851687893027713	-5.247410277858094
0.005374104194047435	0.4028944362784649	0.3883028292344713	0.0005906983080678774	-2.284862284317013	2.370747807643708	-4.866698948217916
0.008109887166813518	0.3966921210050169	0.3956679272940762	-0.01205837271791915	-2.24979237243063	3.012677670230883	-4.378966604296004
0.01132864367758793	0.3895104965860063	0.40656581897596	-0.02522557571757837	-2.21345640171069	3.756352780378653	-3.806073166240002
0.01497960949210789	0.381494955355944	0.4217892728789538	-0.03800635307462097	-2.17902125225718	4.57797441754188	-3.206197401703551
0.01900520557876997	0.3727754817187801	0.4419693814566845	-0.04970616719529584	-2.155975426479302	5.439103890467385	-2.621350728152788
0.02334194532480019	0.3634452380408718	0.4674576623551137	-0.05992990897045206	-2.150160706997613	6.303353627250218	-2.118905611790981
0.02792143545395889	0.3535679757310964	0.4982469032308334	-0.0687021733338198	-2.168103783123085	7.126727156135299	-1.73211160354031
0.0326714545037473	0.3431672760867119	0.5339165853710583	-0.07619880581094375	-2.216173584851395	7.872794239512741	-1.442097612016966
0.03751709174442691	0.3322446130263411	0.5736535292821073	-0.08267970797523294	-2.297718424598818	8.505585789723952	-1.24783702827658
0.04238192853981579	0.3207999478987845	0.616301350341677	-0.08843961474541123	-2.41260641690567	9.005149346063488	-1.132303075960228
0.04718924350439309	0.3088685257474043	0.660512707818937	-0.09374811266661071	-2.555981787186703	9.366242301323101	-1.086930442254927
0.0518632224455918	0.2965464364361574	0.7048702253072712	-0.09884279852415459	-2.72039509044749	9.594921884553012	-1.103245655352514
0.05633015401013977	0.2840065626746948	0.7480154351156776	-0.10391591471923	-2.897026371300649	9.705322121548985	-1.1778259305139
0.06051959218465776	0.2714993296380916	0.7887335022893707	-0.1090890766442856	-3.075292834110665	9.719687079053147	-1.300598662940229
0.06436546733510043	0.2593469093889208	0.8260279601388885	-0.1143825599653899	-3.245252502508201	9.664347151552503	-1.4584402439033
0.06780712831226307	0.2479116979245352	0.8591335557735408	-0.119675518062646	-3.39998840683543	9.567428813736006	-1.617816528651786
0.07079029933648544	0.2375699401003926	0.8875126268042626	-0.1247010263725874	-3.533061782903663	9.454389908527322	-1.748727586122762
0.07326793709552543	0.2286816407641953	0.9108026001811476	-0.1291487748197293	-3.641297671162831	9.343776522352938	-1.837118388225956
0.07520097689840965	0.2215627327235632	0.9287740279784181	-0.1327484364545262	-3.724015644221139	9.248654076271913	-1.883116344890536
0.0765589714577417	0.2164666731215033	0.9412858283333865	-0.1353169579977373	-3.780907532758112	9.17840141910917	-1.895980246917851
0.07732081165962061	0.2135745115502419	0.9482636670198683	-0.1367600978160804	-3.811460680642504	9.139878337552538	-1.890630255461507
0.0775	0.2128909103284628	0.9499005794623557	-0.1370986113475125	-3.818206040920798	9.131619724566823	-1.886962764047313
0.07795425073372618	0.2111529002090581	0.9540435161354989	-0.1379538218246539	-3.834641822384667	9.108645455950855	-1.880095879919979
0.07901578477516402	0.2070593238138795	0.9636811013431382	-0.1399518342246773	-3.87796884201695	9.048154117549929	-1.887985719192957
0.08066444641183987	0.2006117376827289	0.9785146908277593	-0.1430961898380268	-3.943432617390563	8.944891052106001	-1.931668954799475
0.08287410419404742	0.1918019565564448	0.9981142113266176	-0.1474661224487249	-4.029943522924272	8.792792806199063	-2.02921157530675
0.08560988716681352	0.1806376324961708	1.021894885260703	-0.1532211664639928	-4.130496517715938	8.58981194292987	-2.18224795778917
0.08882864367758794	0.1671649106611007	1.04913984138235	-0.160565568728038	-4.238723039473634	8.337734565475646	-2.382491278198101
0.09247960949210787	0.1514927464883416	1.07905685338565	-0.1696636889504913	-4.34315980638619	8.051921665516364	-2.595340170151233
0.09650520557876997	0.1338133566187361	1.110844215034437	-0.1804868683063546	-4.436491210769894	7.740343043793713	-2.768339366302963
0.1008419453248002	0.1144059102916499	1.143676431009887	-0.1927182015155434	-4.508455524335798	7.400630711953497	-2.853905122591853
0.1054214354539589	0.09365365583213198	1.176748221295575	-0.2057617958072986	-4.547882277184891	7.043967066430271	-2.821327251400124
0.1101714545037473	0.07204701973713823	1.209354612440033	-0.2188216256179849	-4.540819844806933	6.689084847882006	-2.656613166242895
0.1150170917444269	0.05017452872627837	1.240958462457664	-0.2310524029925403	-4.47678724476226	6.362639159879294	-2.375272660253793
0.1198819285398158	0.02868278297616533	1.271216372116944	-0.2417538521556867	-4.347344508458455	6.086431692585135	-2.015191888015467
0.1246892435043931	0.00822748704557269	1.299940657193349	-0.2505257586439824	-4.151172934064932	5.874284228432726	-1.634916341427483
0.1293632224455918	-0.0105955533055952	1.327031898026388	-0.2573466159376419	-3.891722320317453	5.727848199570323	-1.29144542038245
0.1338301540101398	-0.02730763683917947	1.352407236529443	-0.2624832398757685	-3.580824164737609	5.6422276008001	-1.018996200502666
0.1380195921846578	-0.04160213995056095	1.37595603227962	-0.2663185587696412	-3.234522512512427	5.60653482223173	-0.8209140157429606
0.1418654673351004	-0.0533596359111298	1.397510925176881	-0.2691989275773208	-2.873329080147731	5.607929819078825	-0.6833132044401293
0.1453071283122631	-0.06264466825649728	1.416848298320335	-0.2713780997891282	-2.51724208009426	5.632615985876685	-0.5861631393888893
0.1482902993364854	-0.0696648675945768	1.433702955839853	-0.2730188515150612	-2.186193658373183	5.669458491110271	-0.5158182836243803
0.1507679370955254	-0.07472540486400159	1.447796964524435	-0.2742323446450374	-1.896391822485959	5.708476207492664	-0.4645924773405219
0.1527009768984096	-0.07816551926313642	1.458864386640716	-0.2750960779969671	-1.662026041423429	5.742943535896954	-0.4303717647548577
0.1540589714577417	-0.08030854487507044	1.466680653766877	-0.2756668638180928	-1.493258856071711	5.768512833111476	-0.4107194555396094
0.1548208116596206	-0.08140952953328184	1.471080829538659	-0.2759763807094999	-1.397424361723175	5.783166928772044	-0.4028881427378308
0.155	-0.08165797393094681	1.472117447720001	-0.276048529520965	-1.374745973250179	5.786578170478338	-0.4016146915222492
0.1554542507337262	-0.08226914072813729	1.474748417108668	-0.2762302189291597	-1.316330843587047	5.796734816886678	-0.3980096606000778
0.156515784775164	-0.08359446918846025	1.48091275439661	-0.2766462674543638	-1.180360722954954	5.817397044234379	-0.3852447051690371
0.1581644464118399	-0.0853635094734605	1.490531864214524	-0.277261869148138	-0.9649711495148252	5.851791039075062	-0.3608584907908639
0.1603741041940474	-0.08717197621847411	1.503513305520013	-0.2780185845906761	-0.6708951363549671	5.897982340340782	-0.3234920580301006
0.1631098871668135	-0.08849995091355972	1.51972749421575	-0.2788373196187185	-0.2985666392612025	5.95504653043557	-0.2748653201902438
0.1663286436775879	-0.08874424333197906	1.538995548069148	-0.2796289391938811	0.1481400858665907	6.015887364703842	-0.2170224484039349
0.1699796094921079	-0.08726507975150266	1.561067764694105	-0.2803023027697131	0.663302564229013	6.072468567381751	-0.1519364227010116
0.17400520557877	-0.08344229489533539	1.585598207051254	-0.2807690763757441	1.236436284147941	6.109692603318345	-0.07968846914834105
0.1783419453248002	-0.07673875869194957	1.612117016859147	-0.2809408958270138	1.854705676126451	6.113265037380195	0.001111696817129193
0.1829214354539589	-0.06676099904043709	1.640027138520493	-0.2807319567943552	2.501224005834039	6.066383655509094	0.09088663325957036
0.1876714545037473	-0.05331269630235091	1.668601926962858	-0.2800696671386788	3.158345896997931	5.953413606439169	0.1887832186214302
0.1925170917444269	-0.036426829184114	1.697016227054184	-0.278905687003692	3.806847555727393	5.76042517996388	0.2915912727144767
0.1973819285398158	-0.01638156524160705	1.724392430422365	-0.2772443120113497	4.428490412282351	5.4790691811318	0.3898854805378331
0.2021892435043931	0.006311405852862551	1.749876436430559	-0.275160921287155	5.005706159866326	5.106844093179324	0.4739686110153158
0.2068632224455918	0.03093845257415728	1.77271416865122	-0.2727941437601608	5.524801997332982	4.649432680702831	0.5348023372599249
0.2113301540101398	0.05664256644672194	1.792335824556388	-0.2703169613495335	5.976052100386036	4.120815025012566	0.5708737851517438
0.2155195921846577	0.08248951278530114	1.808419337159346	-0.2678859519382887	6.355869112467615	3.54462633643432	0.5869995403484491
0.2193654673351004	0.1075405608232353	1.82092691215109	-0.2656211454058329	6.665098776180467	2.949365381197525	0.5889187758465244
0.2228071283122631	0.130907530866956	1.830086868391894	-0.2636045093771053	6.908522705370484	2.366044038456556	0.5816461032905638
0.2257902993364854	0.1517983753899113	1.836344955557362	-0.2618867259314699	7.09303622841019	1.823921651162039	0.5689366881461666
0.2282679370955254	0.1695422811610227	1.840280201610077	-0.2604962886237037	7.227479951506329	1.349198568462302	0.552413237079648
0.2302009768984097	0.1836049668558095	1.842517851895026	-0.2594440237811828	7.320439793378712	0.963556317876932	0.5359316540646395
0.2315589714577417	0.193586521568773	1.843637658781129	-0.2587249621653661	7.379226736435466	0.6848343446487131	0.522782136650926
0.2323208116596206	0.1992202076253299	1.844099082565267	-0.2583296273907936	7.410092104151198	0.5259752478523811	0.5152628530445904
0.2325	0.2005486236378397	1.844189925119357	-0.2582374274081621	7.417329457125182	0.4885417593008765	0.5134869342202886
0.2329542507337262	0.2039222653061146	1.844390503075013	-0.2580052541278848	7.4357598473795	0.3938935511747337	0.5086261387372315
0.234015784775164	0.2118357480543235	1.844687995512283	-0.2574724079207599	7.473292938997536	0.1660262410653459	0.4947258503259775
0.2356644464118399	0.224201849948727	1.844666446383886	-0.2566784948563686	7.526842172489021	-0.1936488955272315	0.4673494021366364
0.2378741041940474	0.2409008524269609	1.843692194862967	-0.2556939177082225	7.585251612710495	-0.6908569109672031	0.4224469278184055
0.2406098871668135	0.2617297318293755	1.840936635103638	-0.2546256277869844	7.638021630428415	-1.327653652075097	0.3568588887118107
0.2438286436775879	0.2863748717339278	1.835415291443317	-0.2536172081635025	7.670030100140691	-2.108423755804842	0.2676517351180676
0.2474796094921079	0.314387743309399	1.826049148962089	-0.2528486464814914	7.668963472233013	-3.027691472061488	0.1500826928065768
0.25150520557877	0.345183254178085	1.811763411117226	-0.2525482114747329	7.623391628341963	-4.074773760229448	-0.005696207173662149
0.2558419453248002	0.378051860018813	1.791596711007563	-0.2529911265008473	7.527014790489146	-5.229241063859115	-0.2030355922497349
0.2604214354539589	0.4121944225131251	1.764819848315075	-0.2544509280671707	7.376050344984975	-6.467319399159861	-0.4392612690194539
0.2651714545037473	0.4467654143368798	1.731033544556992	-0.2571773587559701	7.172747957171192	-7.758655433364882	-0.7132003756827276
0.2700170917444269	0.4809317325526816	1.690248356007781	-0.2613621288018859	6.922391876199968	-9.074101833314078	-1.018118597806397
0.2748819285398158	0.5139195227266844	1.642917634759323	-0.2671080473988858	6.633411156224089	-10.38044749920646	-1.34750547448648
0.2796892435043931	0.5450530432806736	1.589966669501731	-0.274399337940234	6.3137929978825	-11.64313683764762	-1.687330601239377
0.2843632224455918	0.5737835507756573	1.532756113729443	-0.2830648977574572	5.97628431731991	-12.82891798413246	-2.019792825519938
0.2888301540101398	0.5997238068673134	1.473017202224143	-0.2927731783612328	5.635729617862055	-13.90841394519447	-2.32278951516841
0.2930195921846577	0.6226499619055648	1.412731667247085	-0.3030446524177023	5.308513716359978	-14.86064949946417	-2.573208264166746
0.2968654673351004	0.6424861368369773	1.353991790176777	-0.3133035469129749	5.00712963953746	-15.67706917168837	-2.75183786444443
0.3003071283122631	0.6592582564779066	1.298848423361944	-0.32296893020198	4.740246280410936	-16.35974423942303	-2.854884193649207
0.3032902993364854	0.6730598548390769	1.24921010133563	-0.3315524974638129	4.513474144787237	-16.91335215275397	-2.890954848596829
0.3057679370955254	0.6840136296474637	1.206762113103529	-0.3387130519356138	4.329368695996745	-17.34806963167554	-2.884923540529098
0.3077009768984096	0.6922451340893772	1.172909746794621	-0.3442745134941655	4.187143727348412	-17.67588005762055	-2.868516376885112
0.3090589714577417	0.6978633113179614	1.148751434716421	-0.3481629495702467	4.087315888781402	-17.90308087880589	-2.859789555194289
0.3098208116596206	0.7009559967970815	1.135063932030724	-0.3503421906933702	4.03140593144639	-18.02973054180827	-2.862811098819732
0.31	0.7016771579625515	1.131830526210392	-0.3508553720831487	4.018497970372124	-18.05912479998154	-2.865401168782755
