DataType=double
version=3
OpenSimVersion=4.5
endheader
time	hip_flexion_r	knee_angle_r	ankle_angle_r
0	15.39664664318597	235.5549096308449	59.00877003294087
0.0004542507337261803	10.54067602380401	224.1945004420094	104.1501139922054
0.001515784775164009	11.83153192875326	229.9093577078728	139.4339583074502
0.003164446411839883	13.12146384496959	234.6660892581457	164.2777248574181
0.005374104194047435	13.14563321197668	235.2450238338567	176.6042554444948
0.008109887166813518	12.16770072712247	233.252890611279	179.6993245200343
0.01132864367758793	10.54414354282024	228.8156695263422	173.3127561089386
0.01497960949210789	7.918471728963446	220.2968998741615	155.4694717217506
0.01900520557876997	3.56810200439952	207.3566316354701	133.1257299554193
0.02334194532480019	-1.018783493271592	190.3794822310695	98.61374656396086
0.02792143545395889	-6.926761863533436	168.9998729583382	72.32667078101525
0.0326714545037473	-13.3715048914156	144.4681008236674	49.90100369575633
0.03751709174442691	-20.28903918619341	116.6061745243659	31.37879025999557
0.04238192853981579	-26.84312828957991	88.77960922568434	16.26281889670621
0.04718924350439309	-32.6768144408194	61.62841305847056	2.939328649369184
0.0518632224455918	-37.54957049501482	36.36400287320787	-10.20592304020907
0.05633015401013977	-41.33534738272628	13.37920621003534	-23.06665140941593
0.06051959218465776	-43.54795073652846	-6.205986255953775	-35.78657589549014
0.06436546733510043	-44.74064193271208	-22.13146997303889	-45.17452639609322
0.06780712831226307	-44.9676265931021	-33.74436659981351	-46.17351850279923
0.07079029933648544	-44.13460180355342	-41.75841951036701	-40.43744703546032
0.07326793709552543	-43.22154840188867	-47.38620136786876	-29.97030062092768
0.07520097689840965	-42.32887518427437	-50.87195962564705	-16.54507240729945
0.0765589714577417	-41.21807987815141	-52.06563507298286	-0.8260612327444683
0.07732081165962061	-38.3423283469544	-47.50825471248689	17.13230358151028
0.0775	-30.64658502443019	-47.13391528500333	27.98753590049139
0.07795425073372618	-39.71658881544414	-53.36496898080759	5.011916210715967
0.07901578477516402	-40.31278820510276	-59.61126868688472	-16.42656336456964
0.08066444641183987	-39.64431622141204	-65.56070330929599	-35.61532444361261
0.08287410419404742	-38.15226405234397	-71.59754696475534	-50.73943118961091
0.08560988716681352	-35.50572580935973	-76.58484082002178	-60.18733516516436
0.08882864367758794	-31.35369464079655	-79.09133462466875	-62.32216878388957
0.09247960949210787	-26.02604357640661	-77.38040790250183	-52.50118934812119
0.09650520557876997	-20.14936922250378	-77.88588049337106	-32.35599455896237
0.1008419453248002	-12.95037582059179	-78.43575068162056	-6.863139171323056
0.1054214354539589	-3.908931928355244	-76.95043375606974	21.11199832277498
0.1101714545037473	7.044630676130602	-71.70643921567685	47.32112670987033
0.1150170917444269	19.70001739740305	-62.54462879156682	67.5880004795215
0.1198819285398158	33.6047268254986	-50.60717564186179	78.52568782713504
0.1246892435043931	48.19931455984902	-37.64045998240849	77.85636118450122
0.1293632224455918	62.75248314206436	-25.01636039247391	67.83797159669514
0.1338301540101398	76.44540483768037	-13.50630244906707	53.90531870380784
0.1380195921846578	88.67056791905367	-3.677860221283101	40.85279598281997
0.1418654673351004	99.09597582941446	4.14116725602522	31.30580827746881
0.1453071283122631	107.6116691452009	10.0984126853257	25.46474484129318
0.1482902993364854	114.3182287021239	14.37918460299387	21.94962768877176
0.1507679370955254	119.452658545799	17.02197495297162	19.20632025691561
0.1527009768984096	123.0608954176131	18.49726324588284	16.06740215833951
0.1540589714577417	125.3296690861927	19.14971089359677	12.33182100034685
0.1548208116596206	126.3468888987893	19.15292883221942	7.807139294009545
0.155	130.4539927724058	26.40933820790766	5.353007420233022
0.1554542507337262	127.5705654477388	19.858219668423	9.898772536464778
0.156515784775164	129.2110027520421	20.21280977529933	13.41470743859037
0.1581644464118399	131.7337437289186	20.9116236696457	15.99144501677272
0.1603741041940474	134.529486865721	21.09524635807306	17.4909046397398
0.1631098871668135	137.4452712180662	20.1627171110957	17.96259658833918
0.1663286436775879	140.052493713435	17.59930287457829	17.89961390059813
0.1699796094921079	141.8944778286276	12.88262276161652	17.81443818834985
0.17400520557877	142.7008667832999	5.441602137667566	18.17541735569004
0.1783419453248002	142.130643869366	-4.190984712137748	19.13005674109634
0.1829214354539589	140.029642107764	-16.5668283491784	20.06579786269597
0.1876714545037473	136.3605443607461	-31.38600256046335	21.1207549218046
0.1925170917444269	131.0825912987404	-48.53505615538589	20.99290787941031
0.1973819285398158	124.1718560782195	-67.43960950140914	19.15982172287966
0.2021892435043931	115.7447546218792	-87.60561160930575	15.46615201476548
0.2068632224455918	106.1198826887595	-108.2865573920287	10.47299645448653
0.2113301540101398	95.79531759229883	-128.3255406338452	5.768446305234209
0.2155195921846577	85.39888501289835	-146.6639126923242	2.041257423804513
0.2193654673351004	75.36467792010134	-162.6990075104561	-0.9817777832855974
0.2228071283122631	66.01005825252193	-176.1667821969928	-3.178577197958315
0.2257902993364854	57.70363202012761	-187.1637761836908	-5.514262838467992
0.2282679370955254	50.80769385663617	-196.0618188992355	-7.760515076304962
0.2302009768984097	45.33498412245911	-202.8837574569266	-9.284638927410626
0.2315589714577417	41.26150390745264	-207.574652253745	-9.904243002244488
0.2323208116596206	40.23155804606871	-209.0150691549866	-9.8650336266269
0.2325	45.32458191449059	-202.7285325739873	-10.04499513793226
0.2329542507337262	37.37771137523653	-212.1704258442965	-11.41266208791333
0.234015784775164	34.45913639540589	-215.8042077161667	-14.65783688458931
0.2356644464118399	29.88842366103412	-221.174150736287	-18.35783168901394
0.2378741041940474	23.28946040925826	-228.4366537835874	-22.10718581370784
0.2406098871668135	15.01387426337473	-237.3927487663578	-25.74441262356488
0.2438286436775879	5.069571124493557	-247.2471668952967	-29.67571683225039
0.2474796094921079	-5.667931530984987	-256.1281995707894	-35.05071603382764
0.25150520557877	-16.72477141863107	-263.4993058164602	-42.27670838640385
0.2558419453248002	-27.63754596751357	-268.6205557759303	-48.47917070948084
0.2604214354539589	-38.0118372460331	-271.5318120045188	-54.72256554563437
0.2651714545037473	-47.41997452027935	-271.9448198622717	-60.37568298052638
0.2700170917444269	-55.6583277148606	-270.5332734842382	-65.47067444543846
0.2748819285398158	-63.10128153127738	-266.0451977488798	-69.59320916850925
0.2796892435043931	-69.62427040371597	-258.721606661992	-71.40607551762388
0.2843632224455918	-74.5749952999884	-248.0903484199497	-70.19337084646341
0.2888301540101398	-77.52216215376519	-234.7041531219742	-64.64498666426066
0.2930195921846577	-78.45406411167778	-219.5842228339636	-53.79882787265259
0.2968654673351004	-78.07640029532755	-204.9799589605805	-38.36316921612296
0.3003071283122631	-76.88853515428886	-191.5991876523066	-20.85375265895235
0.3032902993364854	-75.02193129889535	-179.6734716280464	-3.388230154867244
0.3057679370955254	-73.78035844161366	-171.7338437707667	7.022967930541165
0.3077009768984096	-73.42754360562975	-167.847817884762	8.774130156566475
0.3090589714577417	-73.67054042408665	-166.9513195203987	1.921066285259609
0.3098208116596206	-72.53373974442007	-164.7682585723498	-11.86054910114324
0.31	-72.17984652739523	-164.1279396902212	-15.8756210701357
