DataType=double
version=3
OpenSimVersion=4.5
endheader
time	pelvis_tilt	pelvis_list	pelvis_rotation	pelvis_tx	pelvis_ty	pelvis_tz	hip_flexion_r	hip_adduction_r	hip_rotation_r	knee_angle_r	knee_adduction_r	knee_angle_r_beta	ankle_angle_r	subtalar_angle_r	mtp_angle_r	hip_flexion_l	hip_adduction_l	hip_rotation_l	knee_angle_l	knee_adduction_l	knee_angle_l_beta	ankle_angle_l	subtalar_angle_l	mtp_angle_l	lumbar_extension	lumbar_bending	lumbar_rotation	arm_flex_r	arm_add_r	arm_rot_r	elbow_flex_r	pro_sup_r	wrist_flex_r	wrist_dev_r	arm_flex_l	arm_add_l	arm_rot_l	elbow_flex_l	pro_sup_l	wrist_flex_l	wrist_dev_l
0	0.3109968118728745	0.1155362362514332	-1.064368436555413	1.587320662661359	0.7538467783813965	-0.2808857387462287	-2.176937336929774	-1.762901203953018	-3.028188489325252	0.9484413436412356	-2.832528219751185e-14	0.9284668431621628	-5.553819169448654	0.1044031436076888	0	-1.355747500771059	0.3375217120966232	-2.728139125007439	-11.16125389958583	-8.876869430875522e-14	-11.16125390923954	0.3946915912052683	3.948111598547437	0.004879595151293169	-0.3617713374824304	-0.6768124203969023	0.9878997120436874	0.6672709809265166	-0.5612488249637486	0.5247448797688115	0.9057109565231536	-1.35767605518265e-12	0	0	-1.466827901173376	5.01812449954582	-0.3412792222706696	-0.2186754776044754	-1.35767605518265e-12	0	0
0.0004542507337261803	0.3324190175199658	0.1070811667835109	-1.070345231362579	1.589786031989317	0.7503193182728483	-0.2813092055643454	-2.174266396315569	-1.766926196370772	-3.005598668886646	1.030880683465428	-1.527993966207559e-14	1.014683804563389	-5.530936507310225	0.06815652749069841	0	-1.387646691493696	0.3308121804376627	-2.752021823059734	-11.16507869558134	-6.629019143970776e-14	-11.16507869747514	0.394627798118614	3.980367579885296	0.004863172953618865	-0.3743607975132225	-0.6683584489559782	0.992169704982413	0.6649350379570141	-0.5618564191730284	0.526877213277575	0.8965073709593813	-7.091635687620358e-13	0	0	-1.452048396383454	5.022437508956913	-0.3282750091349162	-0.2209948505474711	-7.091635687620358e-13	0	0
0.001515784775164009	0.3824794134598664	0.08732155596872766	-1.084308214037206	1.595546984564044	0.7420735302481944	-0.2822985614700447	-2.168166877262617	-1.776328758646136	-2.95277768074971	1.223736146237207	6.811942652893646e-15	1.21615410938493	-5.477307752362788	-0.01653637451364275	0	-1.46217381423368	0.3151312999231606	-2.807832258276796	-11.17397385741221	7.776262994313105e-15	-11.1739738412899	0.3944878771332941	4.055737891331197	0.004824794615135897	-0.4037772943135851	-0.6485995316202843	1.002145830907276	0.6594739066718316	-0.5632770751591445	0.5318592338593799	0.8749994719448277	6.330436526893756e-13	0	0	-1.417525442726094	5.03250608572327	-0.2978948419171812	-0.2264150466429247	6.330436526893756e-13	0	0
0.003164446411839883	0.4602127855998884	0.05661558336279204	-1.105925952706709	1.60448860453703	0.7292255786440965	-0.2838311568227844	-2.159404980089578	-1.790875571887125	-2.87022729786247	1.523850445955027	6.550538349034873e-15	1.528905730931719	-5.393056276583168	-0.1478848807836833	0	-1.577627881180612	0.2907534191668019	-2.894498211451028	-11.18707788110475	4.468882366413469e-14	-11.18707783882278	0.3944222863600059	4.172657602712598	0.004765168565758406	-0.4494032928340853	-0.6178636951666931	1.017600432722399	0.6509544537884078	-0.5654964368370267	0.5395803275812326	0.8415936130883721	3.519333341896091e-13	0	0	-1.364158504833248	5.047970620527606	-0.2508649010300921	-0.2348345733245595	3.519333341896091e-13	0	0
0.005374104194047435	0.564290106347869	0.01533943622690135	-1.13442272739605	1.616433041108853	0.7117157269399781	-0.2858574976035635	-2.14936464180285	-1.809978544062058	-2.755988002677699	1.924990596947624	-4.320225695527776e-15	1.947019798472176	-5.277714360756496	-0.3226120123676047	0	-1.730312537349027	0.2579126496263842	-3.010563273189844	-11.19966524413072	-1.76284271276914e-14	-11.19966517966135	0.3953956697425527	4.328398124109137	0.004685102443690723	-0.510129889396761	-0.5763309196678168	1.038038927925929	0.6392713431778146	-0.5685613660547471	0.5498131412303884	0.7968058914996602	-5.097274635085788e-13	0	0	-1.294384480223935	5.067487179719762	-0.1889042770134472	-0.2461288963954515	-5.097274635085788e-13	0	0
0.008109887166813518	0.6927061780444038	-0.03622691875690176	-1.167835401551618	1.631065378380991	0.6889115730434213	-0.2882581435467319	-2.140391958026608	-1.832092428661679	-2.600583754181236	2.417439622340862	1.924255155788073e-14	2.460444595685924	-5.124327692142852	-0.5337351178789447	0	-1.911320779675472	0.2166082007787188	-3.153869185266698	-11.19588830749099	1.255929124482729e-14	-11.19588826130179	0.4007072365467963	4.517400471714088	0.004585465619544832	-0.5836393026871507	-0.5236028838934951	1.062268173486411	0.6237719351009534	-0.5726984679401596	0.5620198924600501	0.741291280438502	9.92340357775524e-13	0	0	-1.214804238831513	5.086934301433596	-0.1163512399425818	-0.260144363489427	9.92340357775524e-13	0	0
0.01132864367758793	0.8425230640746832	-0.09761674065708512	-1.20332907856848	1.647959471422602	0.659962873029583	-0.2908714415536142	-2.135544418431254	-1.855058982307996	-2.391366765246314	2.988676499231465	2.890653581131362e-14	3.054412387035368	-4.92209090994632	-0.7707207716042906	0	-2.10825852354002	0.166895077730442	-3.32111606012301	-11.15402989346261	-4.089225542083078e-15	-11.15402990418732	0.4145504881328428	4.731338651922838	0.004468165316421528	-0.6665269593511638	-0.4591974178339294	1.088605525877692	0.6034697040172794	-0.5780894064406442	0.5752928702836462	0.6757718924108279	-3.556497540366743e-13	0	0	-1.134159310999916	5.100593021520065	-0.03884255342229601	-0.2765944093318191	-3.556497540366743e-13	0	0
0.01497960949210789	1.009667981018037	-0.167483745790166	-1.238629503537277	1.666696289648193	0.624930303237772	-0.2935905802100907	-2.138328990223702	-1.877414294257152	-2.126505584982253	3.620664424781557	-6.498805091711763e-15	3.710610553012085	-4.671741467073163	-1.022369667906527	0	-2.312002880095471	0.1096786574593214	-3.507282329838027	-11.0645603737041	1.014622029036526e-14	-11.0645603543011	0.4376097855594321	4.961057665905923	0.004337531176591363	-0.7553227377744349	-0.3840042547115786	1.115744555619244	0.577898962053726	-0.5843279656680801	0.5884838764155158	0.6009500264365476	-5.980836376406789e-13	0	0	-1.056687883338884	5.105368036108578	0.04087584452085152	-0.294887116231216	-5.980836376406789e-13	0	0
0.01900520557876997	1.189019654355859	-0.2440354599039972	-1.270992497438554	1.686783146427056	0.5839984561116658	-0.2962909042357572	-2.15233458505925	-1.897431121149287	-1.805676372824424	4.291607345447393	-4.702201567722232e-15	4.406311732504808	-4.374988511685931	-1.274943853039824	0	-2.512023127586748	0.04620335627741474	-3.705635512913425	-10.91761396004141	-2.53356215406963e-14	-10.91761396061299	0.469794218680346	5.194819580619729	0.004194575813950841	-0.8457174814736739	-0.2993393802539998	1.14212747398272	0.5464891362755584	-0.5907106780331419	0.6000595788612619	0.5175051662156444	3.524311856691355e-13	0	0	-0.9865922144774663	5.097759641310108	0.1201247004211797	-0.3142864553434876	3.524311856691355e-13	0	0
0.02334194532480019	1.374584722250909	-0.3252076290068846	-1.296966441030645	1.707637288579974	0.5372162686657256	-0.2988051333603174	-2.181001807115987	-1.912843964469587	-1.42726650231697	4.976846314656462	-7.377067484428419e-15	5.114943301049811	-4.035149590149223	-1.512343877478801	0	-2.695224130074145	-0.02212704533616137	-3.907766534293397	-10.69929568334269	1.055016005830489e-14	-10.69929569326028	0.5110154517944354	5.418015799145706	0.004045008557249997	-0.932457341640534	-0.2066388321383975	1.165777547454694	0.5083908714290883	-0.5963338534892325	0.6081139493537658	0.4261007411722867	1.290325625555454e-13	0	0	-0.9293645728302165	5.072961408427622	0.1954038067190563	-0.3340275767622743	1.290325625555454e-13	0	0
0.02792143545395889	1.55973305462132	-0.4083118871553638	-1.313600849006006	1.72868997045548	0.4852529280377585	-0.3009938428559594	-2.226947348045315	-1.921856456238804	-0.9979489612956455	5.648715583317536	-2.14659012296278e-14	5.808777832587131	-3.661679877091329	-1.719623748394652	0	-2.851289360006117	-0.09327780084787479	-4.103621006392396	-10.40467772645344	-5.805998602863101e-15	-10.40467774661007	0.5582597760650345	5.615450192337121	0.003891623158432654	-1.010404794140583	-0.1083848893626339	1.184986568175884	0.4631416428366437	-0.5998069371343417	0.610628505935871	0.3273932387586896	-3.522697956999679e-13	0	0	-0.8871447529900695	5.027973806220423	0.2652235487728834	-0.3532965517180495	-3.522697956999679e-13	0	0
0.0326714545037473	1.737720246321635	-0.4904531241085519	-1.318144905897517	1.749369538929457	0.428931980362437	-0.3027146499401728	-2.291293939480246	-1.922759338535628	-0.5271475261118396	6.281599825914181	2.267880335357122e-15	6.460689232700023	-3.264173815029259	-1.883595690924256	0	-2.970861978484369	-0.1649834424611155	-4.282244282660677	-10.03141218116583	1.23708343840112e-15	-10.03141228371565	0.6074146682825168	5.771687775688138	0.003732956282106719	-1.074554668650513	-0.007445545421758699	1.198087426242824	0.4104122699229583	-0.5995599798291805	0.6056106364082664	0.222128183155995	-2.779171797638608e-14	0	0	-0.8611951756789664	4.960198760140014	0.3284445961166192	-0.3714068482804873	-2.779171797638608e-14	0	0
0.03751709174442691	1.902236072523565	-0.5686630863737916	-1.308561521634674	1.769149283507486	0.3693456346426707	-0.3038461832566595	-2.374742938599855	-1.914294830416156	-0.02830696769263957	6.849748369598351	9.994837087760088e-15	7.046924211260555	-2.857873240547619	-1.994973769488652	0	-3.047347662151079	-0.2347985234450814	-4.432719257629193	-9.582758313619879	6.780630622685424e-15	-9.582758245652734	0.6531444759205733	5.872981073305019	0.003576740303840338	-1.120702904393377	0.09292026648853818	1.203725512181684	0.35023030715654	-0.593966818621071	0.5913730561227704	0.1112398004539066	1.898952289194135e-13	0	0	-0.8510249744021803	4.868348615875616	0.3847401152426952	-0.3878579133449608	1.898952289194135e-13	0	0
0.04238192853981579	2.047979017463415	-0.6401710944281049	-1.283791078508553	1.78757809726196	0.3077809570677925	-0.3043009480864455	-2.476096206468776	-1.895815452533186	0.482446754898943	7.333009564958118	5.197161616454293e-16	7.54943009782146	-2.45974564778354	-2.049574019589899	0	-3.077492619898425	-0.3003095253011012	-4.545416561739477	-9.067464477640895	4.078718488000059e-15	-9.067464445093359	0.6896784069117115	5.908981798047446	0.003424858926002208	-1.145926751285347	0.1893470006568136	1.201000642581134	0.2830583040123975	-0.5815948016328553	0.5667903559914764	-0.004042430406778858	2.127691443904681e-13	0	0	-0.8546735401056406	4.752672371748039	0.4343745774041184	-0.4023785272291825	2.127691443904681e-13	0	0
0.04718924350439309	2.171141855536518	-0.7026900694781125	-1.243901864303893	1.804301105216788	0.2456116935673931	-0.3040367075714194	-2.591489203993845	-1.867373855614877	0.9883180886529441	7.722034757524364	-1.111153936875192e-15	7.957462439966648	-2.086841474675665	-2.04865359175856	0	-3.061485509041852	-0.3593850237331255	-4.613307795521108	-8.498763811557179	-6.251271359026692e-15	-8.498763863785868	0.7118520703967784	5.874211263582895	0.003276486697231641	-1.148925428924506	0.2787212021183546	1.189569909815683	0.2098238218269732	-0.5614779170972655	0.5315108574089675	-0.1221180386079045	-2.963951575568733e-14	0	0	-0.8692808290279783	4.614994476415559	0.4778688956802852	-0.4149241314690719	-2.963951575568733e-14	0	0
0.0518632224455918	2.269715598875088	-0.7546268660991594	-1.190193758872922	1.819076889732498	0.1842471242866983	-0.3030676108336413	-2.716390037993254	-1.829810998936704	1.473227449016736	8.014117147144646	6.151472324554078e-15	8.26825823148739	-1.757446168671744	-1.998517039024424	0	-3.003026380537943	-0.4103719782251297	-4.633052030176407	-7.893857075121931	-3.133673926895912e-15	-7.893857050295402	0.7159084637649826	5.76913489971742	0.003132494443204094	-1.130229614758612	0.3584606501959573	1.169751402629722	0.1319541607681247	-0.5333272009658583	0.4860955995322833	-0.2409979381853159	8.361816631982893e-14	0	0	-0.8913989821084476	4.458836193887764	0.5158991977764228	-0.425622130249758	8.361816631982893e-14	0	0
0.05633015401013977	2.34357505968445	-0.7952395386937371	-1.125099610813603	1.831780034429247	0.1250423749418202	-0.3014649727096628	-2.845250773910564	-1.784699605915537	1.923541448434145	8.21489091772097	-2.054881739687358e-14	8.486547556283369	-1.478932906088581	-1.90925395349399	0	-2.90874562176946	-0.4522720168895306	-4.605637584818469	-7.272323972919334	-1.069363035045429e-14	-7.272323955282189	0.7002563415705132	5.600393018462151	0.003003494035432688	-1.09214130347875	0.426790341941935	1.142525325727046	0.0513266878125174	-0.4976745183851997	0.4320395447819415	-0.3583538756853216	-5.579699785241317e-13	0	0	-0.9175819372406159	4.289195302894777	0.5490752811441759	-0.4347011869956767	-5.579699785241317e-13	0	0
0.06051959218465776	2.39433304770966	-0.8246713855321353	-1.051994968679535	1.842396048178672	0.06925233765450606	-0.2993530260600208	-2.971566316184961	-1.734239106410264	2.328940815868166	8.33743118679163	2.340866872228151e-14	8.623163253606801	-1.251952341188357	-1.793138069586962	0	-2.787535670513889	-0.4848145667962853	-4.536401798321107	-6.654905466461476	1.490563811556603e-14	-6.654905424513862	0.6657433154775656	5.380267621644094	0.0028838529547148	-1.038488991367867	0.4828708637227078	1.109484947523748	-0.02980407021997081	-0.4558855500729909	0.371680211627688	-0.471628520593893	4.090794212740854e-13	0	0	-0.9447261878730475	4.112288124174269	0.5778988389905949	-0.4424143945501576	4.090794212740854e-13	0	0
0.06436546733510043	2.425009785253176	-0.8438837822824047	-0.9748886667428615	1.851006464989005	0.01798851890752961	-0.296898194044861	-3.08920389098723	-1.681066831059315	2.682878214597149	8.398959232224133	-4.015478597759746e-14	8.693034959237853	-1.072445157440009	-1.662939998828896	0	-2.649638199135118	-0.5084433580859308	-4.434435893448806	-6.062089108501892	-1.071859104714217e-14	-6.062089067535337	0.6155658938060309	5.12539704562697	0.002775271022017705	-0.974204064037002	0.5268138316197691	1.072705502887835	-0.1089324391091595	-0.4100580087531206	0.3080004953377422	-0.5781826215960401	-2.060418214146869e-13	0	0	-0.97038453363268	3.935109394309357	0.6027234988242167	-0.4489827576685348	-2.060418214146869e-13	0	0
0.06780712831226307	2.439580665616474	-0.8544884528954805	-0.8980776630464489	1.857770236764363	-0.02780161148479434	-0.2942906186287935	-3.192795926345271	-1.628046245497914	2.98234681766145	8.41794286214094	4.777893421963346e-15	8.713023719241887	-0.9314399297320961	-1.530542677383991	0	-2.505768201174456	-0.5242059923269371	-4.311502611163466	-5.513045172199429	3.824387676323746e-15	-5.513045158510971	0.5547753020465287	4.8550426020448	0.00268322622182044	-0.9048174086320728	0.5595568819132781	1.034569407458973	-0.1834477336004118	-0.3628161063583902	0.2443640723072435	-0.6754509496143314	-3.06656841383161e-13	0	0	-0.9928849613976418	3.764962406387093	0.6237883490445286	-0.4545636106437011	-3.06656841383161e-13	0	0
0.07079029933648544	2.442481936653344	-0.8585178312585034	-0.8258017968700894	1.862899363644344	-0.06734367676664246	-0.2917256588719434	-3.279448916798847	-1.578047740163608	3.227259238462644	8.410144395474381	4.559991888798923e-14	8.699958489035108	-0.8212597046588628	-1.40601067954892	0	-2.366301533076035	-0.5335769607834042	-4.180697689123846	-5.024785277538352	3.003485278941156e-14	-5.024785229509136	0.4895609405000255	4.589203416468649	0.002602275872261421	-0.8359451922507876	0.5826447703339063	0.9975642611085731	-0.250792691862332	-0.3170485957223241	0.1842256144670758	-0.7610791801908285	7.227691242454463e-13	0	0	-1.011334994640537	3.608972254442565	0.6412518642575882	-0.4592453914829228	7.227691242454463e-13	0	0
0.07326793709552543	2.438142198831626	-0.8581677629012525	-0.7619505396847734	1.866632251857861	-0.100029977426153	-0.2893887639760163	-3.348345654498288	-1.533754393961837	3.419550725402608	8.387650296539878	-4.148061807905308e-14	8.669133293765677	-0.7373549498456028	-1.297175232333337	0	-2.240633356659832	-0.5382421920930174	-4.055095824538317	-4.611665144626376	-5.58653149490114e-14	-4.611665050820152	0.4264495905579151	4.346889139368234	0.002533919071926464	-0.7728393829841398	0.5979533847781794	0.964086447409917	-0.3086108541017749	-0.2756339704876499	0.1308586747402057	-0.8330255046732699	-1.178499819051231e-12	0	0	-1.025500019932972	3.473661872841958	0.6552293103374012	-0.4630606343598099	-1.178499819051231e-12	0	0
0.07520097689840965	2.430585781860133	-0.8555500342737267	-0.7098433007033573	1.869207491109472	-0.1254077391029375	-0.2874408442611379	-3.400583879652388	-1.497504003911748	3.562227026067214	8.359295944474804	1.737290979802186e-14	8.633343597171109	-0.6760887114426288	-1.209645642579714	0	-2.136716471063348	-0.5398814763926025	-3.946572910756964	-4.285154246920678	3.543514677860652e-14	-4.285154145868086	0.3715730730904668	4.144743414677295	0.002481244252830066	-0.7200420484937451	0.6074074474542286	0.9362702671758439	-0.3548697258252917	-0.2411932774218095	0.08713216146496633	-0.8896217790616197	1.08284244098058e-12	0	0	-1.035610971943954	3.364617363800328	0.665814095560634	-0.466006562221628	1.08284244098058e-12	0	0
0.0765589714577417	2.423131614411002	-0.8524800088805258	-0.6720894566001203	1.870837843753737	-0.1431604127163809	-0.2860095170276707	-3.435679209223647	-1.471173057559176	3.65848724608987	8.334604877275282	1.438041403640421e-13	8.602414519978616	-0.6352557388338876	-1.147107117049217	0	-2.060775636758527	-0.5399733779681766	-3.864906810539695	-4.053819247940476	8.478053769769395e-14	-4.053819174828047	0.3300867423301576	3.996093513973993	0.002445557481425508	-0.681156235852805	0.6127276827832682	0.9158553909803626	-0.3879515165336333	-0.2158934979967485	0.0553496281851981	-0.9295996965111224	3.572210478345092e-12	0	0	-1.042137303417137	3.286257058712113	0.6730850288111935	-0.4680649191732875	3.572210478345092e-12	0	0
0.07732081165962061	2.418185996624171	-0.8503131697317484	-0.6505091165594685	1.871687322273531	-0.1530896717654376	-0.2851845024160101	-3.454526020641416	-1.456095164616023	3.711027291896652	8.319267698986252	-1.417492378240722e-14	8.583069365276534	-0.6127435254858354	-1.111726451997153	0	-2.017147904287115	-0.5396398715098141	-3.817159237074908	-3.923395250251536	-1.670711933384038e-14	-3.923395206830251	0.3057612816108509	3.910364229338763	0.002426206005565649	-0.6587125285332882	0.6152317280408516	0.9040915359741382	-0.4067164289041325	-0.2013050135965061	0.03714404871799726	-0.9520995880139488	-5.268743105501012e-13	0	0	-1.045569355166	3.24168086017061	0.6771048135775098	-0.46921656677405	-5.268743105501012e-13	0	0
0.0775	2.416943746217577	-0.8497571535216193	-0.6453924124712546	1.871880286746461	-0.1554217782276537	-0.2849881981083771	-3.458504811135441	-1.452517194024394	3.723230821526482	8.315615617221349	-6.1904286734137e-14	8.578316980414858	-0.6074918736429684	-1.103378660012756	0	-2.006781702661398	-0.5395211259472863	-3.805728879502067	-3.892655372407046	-3.482403039896746e-14	-3.89265533726554	0.2999307143365286	3.889960335283115	0.002421725491612563	-0.6533692670947487	0.615770364672371	0.9012924430626628	-0.4111511941302599	-0.197832742832894	0.03282338020556053	-0.9573987949640037	-1.558700886092764e-12	0	0	-1.04635143837232	3.231133166049674	0.6780441161418955	-0.4694871599160717	-1.558700886092764e-12	0	0
0.07795425073372618	2.41366053442308	-0.8482685800223928	-0.6323524642303393	1.872357757926367	-0.1613279733721974	-0.2844867534076171	-3.468575700147158	-1.443393389500998	3.753902911212259	8.305989695951522	-1.235493672669896e-13	8.565930381527698	-0.5944886106032907	-1.082177090681266	0	-1.980326477006014	-0.5391512422447001	-3.776413337482912	-3.814623763887839	-4.257935079733327e-14	-3.814623751545607	0.2849645767022197	3.837830266505091	0.002410481540227933	-0.6397152812338245	0.6170498342650108	0.8941420208333326	-0.4224293033818727	-0.188960735217465	0.02180497822274984	-0.9708442717184103	-2.811153566295117e-12	0	0	-1.04828988987969	3.204287681717386	0.6804147734965778	-0.4701726858645465	-2.811153566295117e-12	0	0
0.07901578477516402	2.405243970719229	-0.8443485423949533	-0.6015009534885998	1.87340786138456	-0.1750964956437366	-0.2832939919624692	-3.495288881822642	-1.421775793446466	3.824092553830067	8.279472151418611	-4.986478472964618e-14	8.535130294789546	-0.5660229505823406	-1.032444122850139	0	-1.917532994430602	-0.5379013527907497	-3.706024946721111	-3.631713754191759	-1.691933051340142e-14	-3.631713801588066	0.248959754752323	3.713771491227085	0.002384761743968599	-0.6072094727555474	0.6195582548439138	0.8771292510885411	-0.4489825739258538	-0.1678406533786496	-0.004304685707320084	-1.002327640488829	-1.017588438125601e-12	0	0	-1.052564464523076	3.140964976237392	0.6858959575588399	-0.4717724217286506	-1.017588438125601e-12	0	0
0.08066444641183987	2.390136247269558	-0.8370387973516308	-0.5525691536179898	1.874854987766154	-0.1963809319509688	-0.2813851900458458	-3.535890806867406	-1.387393940584245	3.928929987564431	8.230274372963208	5.682651999018068e-14	8.48236884693206	-0.5258089196793388	-0.9548589607813135	0	-1.817398291968207	-0.534888066238297	-3.591563731237206	-3.346222009532298	5.612591253039225e-15	-3.346222137962367	0.1902146479754401	3.515046192083957	0.002345557256732004	-0.5551137536526565	0.6221146624042653	0.8498777326938907	-0.4907574547357368	-0.1339768905752084	-0.04583398860144548	-1.051383318318525	1.829759908686502e-12	0	0	-1.058451104126048	3.041031087246231	0.6942454310859903	-0.4742513489187454	1.829759908686502e-12	0	0
0.08287410419404742	2.366098797759795	-0.8249278116329785	-0.4851551450365521	1.876439651454033	-0.2247001060604557	-0.2787251506599491	-3.58990186139698	-1.339818055887557	4.061369878825805	8.151740649694908	-2.4504850009996e-14	8.402927362402634	-0.4782595758195266	-0.8507280384313437	0	-1.678466127126973	-0.5288030556318117	-3.428614166503844	-2.961289650090562	1.327910665287501e-14	-2.961289773734903	0.1062133233186915	3.237659770999603	0.002291632394794739	-0.4823709141394705	0.6229847398904599	0.8118108677850131	-0.5477254738382633	-0.08660674041999965	-0.1032867851560633	-1.117388797626692	-7.516959474402658e-13	0	0	-1.064780468700382	2.904200231804848	0.705123229310388	-0.477563262886854	-7.516959474402658e-13	0	0
0.08560988716681352	2.330547729684444	-0.8063108214878925	-0.3990239856028193	1.877829096520498	-0.2593926320082097	-0.2752834796084498	-3.652446930603991	-1.27864598993611	4.212362999517404	8.038656488463905	-7.278093205410957e-15	8.292182738151959	-0.428305623498615	-0.7226420792547923	0	-1.499521102275501	-0.5180321033899467	-3.212375395741271	-2.481928325245839	-2.652100004513495e-14	-2.48192825727426	-0.005818659618282225	2.877863930649795	0.002221246120022116	-0.3880237725736999	0.6200225037889919	0.7623255082511395	-0.6197095846801028	-0.02491873808671669	-0.1770884789547265	-1.199419075791959	3.224745006384076e-15	0	0	-1.069882256005868	2.730510374558484	0.7180906010583941	-0.4816416379529803	3.224745006384076e-15	0	0
0.08882864367758794	2.280949840066535	-0.7793943913524577	-0.2943624813903124	1.878635478226074	-0.2996139445808472	-0.2710491292744466	-3.717787903767182	-1.20365520212593	4.371441574094915	7.890901726237153	-7.760545399646473e-15	8.146953567646522	-0.3817656555000519	-0.5749509894302886	0	-1.280194617172347	-0.500819679341463	-2.938736874062285	-1.915540208615643	-2.188233175120171e-14	-1.915540044230823	-0.1482929752916927	2.433580340987977	0.00214109796782778	-0.2716176995594366	0.6108865618647359	0.7009509049506245	-0.7062604421864751	0.05173781192544944	-0.2673593933526793	-1.296190095480018	-7.88912854358064e-13	0	0	-1.071575344666019	2.520679279249809	0.7326293376915962	-0.4863856837730561	-7.88912854358064e-13	0	0
0.09247960949210787	2.215262455177152	-0.7425452151055157	-0.1720397185170601	1.878436921550625	-0.3443400227935875	-0.2660460964077992	-3.777021397342159	-1.114961717268326	4.527511841327147	7.714892043904653	1.057746989313331e-14	7.966758021950742	-0.3434367010939955	-0.4140334181945965	0	-1.021574686970167	-0.4754763758422156	-2.60548598469152	-1.27233546758968	1.297253047431737e-14	-1.272335439147758	-0.3225180895358067	1.905908958535369	0.002056809658200139	-0.1336291244318241	0.5933176403171151	0.627524620557549	-0.8065191262735959	0.1436101666218634	-0.3736659693732924	-1.406017364751684	4.441262008633121e-13	0	0	-1.067219588615621	2.276473303388447	0.7481689936663173	-0.49163380194285	4.441262008633121e-13	0	0
0.09650520557876997	2.13236419215103	-0.6945620358171355	-0.03382987795735758	1.876800906535684	-0.392378488611563	-0.2603472386086313	-3.821239921321342	-1.013165058635751	4.669793192803687	7.519530323626978	-7.031449570645953e-15	7.75470842593411	-0.3175277798993442	-0.2482232106622094	0	-0.7267304513048273	-0.4406142964670202	-2.213479610901115	-0.5655504431248155	2.10789159577964e-15	-0.5655504383981158	-0.5279344140661392	1.300476654583125	0.001963853238875599	0.02414218741669707	0.5654572184973703	0.5423635890496433	-0.9190821993715327	0.2502951861849757	-0.4947838906667914	-1.526804397601944	1.584933131854744e-13	0	0	-1.05384922308647	2.001033740404776	0.7641273892256824	-0.4971257435264236	1.584933131854744e-13	0	0
0.1008419453248002	2.032412096760892	-0.6349361719196868	0.117452914729764	1.873310844058782	-0.442388958187775	-0.2540830441803279	-3.842111729562398	-0.8994549751174532	4.788791240349216	7.307020279366486	1.634779404376249e-15	7.517797605399258	-0.3087050154425993	-0.08732069352018949	0	-0.4010577392276475	-0.3953829976337791	-1.767554180806941	0.1886209349337382	-2.808308143056606e-16	0.1886208446700944	-0.7614742279430744	0.6283310219338216	0.001866160424959781	0.1982929136307074	0.5261680032673465	0.4464013558252164	-1.04189410568198	0.3705310245875065	-0.6285193976960763	-1.656074178941489	-3.062902046780939e-14	0	0	-1.028393248771831	1.699092754384643	0.7799683571856912	-0.5024610715904404	-3.062902046780939e-14	0	0
0.1054214354539589	1.917059239850578	-0.5640562458249846	0.2779532588683992	1.867595488407275	-0.492918657162824	-0.2474432684454627	-3.831511266546408	-0.7756576310762007	4.877156062643389	7.078867239106586	-5.731351436068209e-15	7.266427572852177	-0.3194292903530163	0.05828985341718409	0	-0.0523628276354891	-0.3396678123518816	-1.27693895253492	0.9714384976364425	-3.455608993255373e-15	0.9714383774222857	-1.017222413353256	-0.09389985879619989	0.001766818931391658	0.3837246853948593	0.4753011052481457	0.3412608334104438	-1.172197388736593	0.5020767231288397	-0.7716376504171323	-1.791049100324361	-4.722404313670809e-13	0	0	-0.9879703007664888	1.377012756724535	0.7952745079898216	-0.5070665303978374	-4.722404313670809e-13	0	0
0.1101714545037473	1.78947844514368	-0.4833104208539583	0.4429368801502189	1.859359627928281	-0.5424550457612075	-0.2406665121561435	-3.780656985776167	-0.6442076803055521	4.930281880941293	6.846787217507485	3.751049874663706e-15	7.013207500327173	-0.3463764814212139	0.1787884969457232	0	0.3093735817836738	-0.2742090992786037	-0.7549972594201007	1.762384863160046	-8.378717972014355e-15	1.762385044923134	-1.286534645771901	-0.8447603313599235	0.001666830028456408	0.5738043636983305	0.4138487812507923	0.2292375288969592	-1.306571839635647	0.641724737169682	-0.9199403020159219	-1.928774628232784	-2.028273826657642e-14	0	0	-0.930228040441936	1.04259965873986	0.8098223662173407	-0.5101898966246716	-2.028273826657642e-14	0	0
0.1150170917444269	1.654162668752202	-0.3950495286845498	0.6071163795670838	1.848416213601233	-0.589496734781531	-0.2340221539802517	-3.68237423262703	-0.508042246639823	4.946552858444157	6.627371606304341	4.729048821912175e-15	6.771229211171544	-0.381730010990023	0.2661281575491756	0	0.6725736966885285	-0.200609130114678	-0.2182488056971767	2.540259309606264	8.963246351590092e-15	2.540259354315659	-1.558687229664191	-1.599627477242461	0.001569096213087677	0.7608039563658525	0.3439326687295213	0.1131823524435354	-1.441085122984149	0.7854700445725622	-1.068513306095654	-2.066270962629976	3.236121488830486e-13	0	0	-0.8536845123791231	0.7046782379870589	0.8236380901977962	-0.5109354768376563	3.236121488830486e-13	0	0
0.1198819285398158	1.516510774877218	-0.3023976628945455	0.765105983092498	1.834719879562754	-0.6326439995802163	-0.2277821211510885	-3.533112018080292	-0.3704276670695977	4.927217874228945	6.435481719886857	-4.366018153763667e-15	6.552184432581891	-0.4180464610815885	0.315068856948849	0	1.024950097206502	-0.1212120482605276	0.3152030054334736	3.284511112219021	4.96434089200958e-15	3.284510983344143	-1.82200581811505	-2.333054219596312	0.001473860063640616	0.9365968195012739	0.268606143009128	-0.003706795873789142	-1.571558181389704	0.9288268168350182	-1.212131772224312	-2.200690116075497	1.683830758831639e-13	0	0	-0.7580229020013907	0.3724647432582015	0.837008556153423	-0.5083487349603871	1.683830758831639e-13	0	0
0.1246892435043931	1.382250751427327	-0.2089296118225259	0.9119367267315566	1.818393513223835	-0.6707033139731532	-0.2221893478429351	-3.333779740474034	-0.2347415975950741	4.875958425621139	6.280085472659545	2.218642760691629e-14	6.364753483231224	-0.4500324182615709	0.3238351770786808	0	1.354612843376597	-0.03886954858709157	0.8275599296536893	3.97667300457935	1.788578551312044e-14	3.976673039338039	-2.065286343750212	-3.021385925838023	0.001383896216225823	1.093529013170116	0.1914914055252435	-0.1181541658944619	-1.693921416285024	1.067250726623824	-1.345770943606795	-2.329454784318467	1.578392389694444e-13	0	0	-0.6442921728835981	0.05482309927845138	0.8504285277720067	-0.5015478249932046	1.578392389694444e-13	0	0
0.1293632224455918	1.256789732548143	-0.1182680092440526	1.043542582554218	1.799746155251483	-0.7027912386833947	-0.2174310512700221	-3.089377550338969	-0.1042393155702618	4.798269134028621	6.164995144153743	2.383296844288702e-14	6.213612638462878	-0.4748720073496038	0.2942766606274995	0	1.651244589098612	0.04336708166426365	1.303169852916973	4.601710181122257	4.669684620827213e-15	4.601710223158114	-2.279220010634899	-3.645150339874821	0.001299716595829289	1.225330686243314	0.1163149292813636	-0.2270901875174172	-1.804609622543936	1.196591533449619	-1.465140315366381	-2.450362060649614	-2.334805261751878e-13	0	0	-0.5149774773299692	-0.2404722576150694	0.8644842088591402	-0.4898841116694735	-2.334805261751878e-13	0	0
0.1338301540101398	1.14460306585238	-0.03367622056172422	1.157130834940008	1.779276607717503	-0.7284197573609917	-0.2136169998536617	-2.80939844753817	0.0181624566651103	4.700784418417735	6.088386736805582	-3.08910137073955e-14	6.099251373867243	-0.4913506257639156	0.2315203887861042	0	1.90715353964788	0.1225695267389639	1.729973108460186	5.149081791695905	-2.008950172392713e-14	5.149081834501549	-2.457519946862458	-4.190772666304084	0.001222225203073799	1.327904320695444	0.04643346493809781	-0.3279004121321741	-1.900925223559179	1.313491626452953	-1.567143495612457	-2.561642896045333	-3.286959957185575e-14	0	0	-0.3739222471558811	-0.5073383414854361	0.8796930366827809	-0.4731046771416758	-3.286959957185575e-14	0	0
0.1380195921846578	1.048771943994387	0.04227426131005418	1.251371889269767	1.757657172536722	-0.7475493876828141	-0.2107705481813797	-2.506440440139447	0.130055005511139	4.590659949931736	6.044852590554951	-1.095993537347812e-14	6.018561760221738	-0.4989691932487844	0.1432112369449237	0	2.118013837366841	0.1962088547421877	2.100317863017161	5.613333443818514	3.921677217272641e-15	5.61333344161317	-2.597521592503236	-4.651339007487182	0.001152715342444607	1.399838142108142	-0.01555383165311369	-0.4185980604760894	-1.981298719978706	1.415658179397172	-1.650176317576046	-2.661977890624012	2.397552866760682e-13	0	0	-0.2261063030393606	-0.7417448184210804	0.8963374632385936	-0.4514822064161289	2.397552866760682e-13	0	0
0.1418654673351004	0.9707480240190314	0.1079023741174535	1.326383145902693	1.735701058118315	-0.7605914257717383	-0.2088330318382693	-2.195760389932189	0.229638130897337	4.475070806817723	6.026661124435759	4.45438460563703e-15	5.965967711074479	-0.4987796314525795	0.03851123297917956	0	2.283150957775896	0.262339745201604	2.411067898017374	5.994109462521587	5.729734164214833e-17	5.994109378617482	-2.700166289536899	-5.026361815672969	0.001091212259719885	1.442542505142609	-0.06803574842616364	-0.4978973512963211	-2.045394021761034	1.501964069579082	-1.714209258145821	-2.750476300647615	-3.875481659696649e-13	0	0	-0.07730920141810643	-0.9417838887531096	0.9143365030492987	-0.4258804339533925	-3.875481659696649e-13	0	0
0.1453071283122631	0.9103749054739396	0.1624570610719447	1.383524386945978	1.714313822598794	-0.7683538252077909	-0.2076790693629171	-1.892490330237765	0.3157403378423068	4.360841306535657	6.025693214506811	-7.888326972604718e-15	5.934769667349579	-0.4928560720246642	-0.0729447383443606	0	2.405320256234849	0.3196711391620263	2.663082979645039	6.295575365069352	-1.373907551021617e-14	6.295575307350139	-2.769435059588918	-5.32071547793858	0.001037946777036378	1.459985191109117	-0.1104329612697367	-0.5651867930578155	-2.094039649285506	1.572375609761242	-1.760646615141072	-2.826626119810458	1.366924788389649e-13	0	0	0.06629574984221186	-1.107460539413354	0.9331883187370259	-0.3977356403290369	1.366924788389649e-13	0	0
0.1482902993364854	0.8661449022603687	0.2060095491098951	1.425055557763195	1.694434205575633	-0.7719400216388428	-0.2071377507683347	-1.612246431512492	0.3877619244758613	4.254189086764545	6.034057318336572	-1.033440608067196e-14	5.918369242517143	-0.4841448385794455	-0.1819625350658801	0	2.490024094586843	0.3675291465687395	2.860255223220899	6.525344587217674	5.8261027612677e-15	6.525344632253472	-2.811410320027124	-5.543042746388688	0.0009935078000238935	1.458080343236648	-0.1430704664657561	-0.6204205669925685	-2.129002118577011	1.627738455210734	-1.791998269812965	-2.890225291958957	-2.019917410653711e-14	0	0	0.1985643348852329	-1.240267013415012	0.9520001328304352	-0.3689481045122583	-2.019917410653711e-14	0	0
0.1507679370955254	0.8356252145381616	0.2392389442605763	1.453724193739411	1.676971758099812	-0.7726127632478463	-0.2070186071619413	-1.367291991509979	0.445558911314538	4.160552317893984	6.046060260831517	2.097454002714265e-14	5.911140781454069	-0.4750331961795705	-0.280460170144745	0	2.54450215206065	0.4057394777820782	3.008323790452648	6.693087237556846	3.241484144020023e-14	6.693087349964332	-2.833187349920374	-5.703962676649921	0.0009578213978000069	1.443846424369182	-0.1669277740404826	-0.6639576896844662	-2.152647398928045	1.669475308311863	-1.811432337272803	-2.941301380580356	5.180953183896973e-13	0	0	0.3137717978379185	-1.342637475843703	0.9695972594623203	-0.3416969135549338	5.180953183896973e-13	0	0
0.1527009768984096	0.8159696191481631	0.2631630148675252	1.472348579915242	1.662747042639871	-0.7716425769900899	-0.2071360422841093	-1.170185766983324	0.4892920681924662	4.084470065973164	6.057366917557413	-2.66824138303376e-14	5.908855567549088	-0.467660503655885	-0.3618589067963058	0	2.576566036852066	0.4344642917169148	3.113670966343276	6.809024387000533	-1.60755801113092e-14	6.809024498238684	-2.841831809615221	-5.814357203298883	0.0009304817542089791	1.424470952244505	-0.1833284355635547	-0.6963807892079619	-2.167549116045139	1.699253790336168	-1.822284825221342	-2.980026009324106	-1.078607034521308e-12	0	0	0.4069366552015821	-1.417378594747754	0.9846878901269376	-0.318203409125878	-1.078607034521308e-12	0	0
0.1540589714577417	0.8044297685972511	0.2788657518204474	1.483448352966181	1.65243922429735	-0.7701615922742749	-0.2073292162091355	-1.027646432094214	0.5192691627435149	4.0294944895994	6.066895646546574	1.702780019721496e-13	5.908705839382101	-0.4627034605340339	-0.4212283405327317	0	2.593454957007834	0.4540293277429039	3.182249665601091	6.88250374540767	1.506092592748778e-13	6.882503822399221	-2.843513649714824	-5.883917367825936	0.0009114702707623219	1.406415058578185	-0.1936288205158343	-0.7183227077611354	-2.176103196108827	1.718675149962052	-1.8275967028631	-3.006630865503201	1.59520056450438e-12	0	0	0.4740633331533682	-1.467154812138847	0.9960502456199921	-0.300477341746659	1.59520056450438e-12	0	0
0.1548208116596206	0.7987969485367452	0.2872629386470578	1.488954120789132	1.646542900800997	-0.7690382051478738	-0.2074775724880618	-0.9472725354819647	0.5358087261846113	3.998115799267236	6.072933669100211	7.287676697860379e-14	5.909066275362852	-0.4605294226399654	-0.4552715806707798	0	2.60085428649976	0.4647724813519897	3.218740317243636	6.920814448916706	3.320140597245716e-14	6.920814498281604	-2.842871033301051	-5.92004528629831	0.0009008894237044295	1.394654509752996	-0.198951626087206	-0.7303240524962187	-2.180197035367801	1.729020366705064	-1.829729201827552	-3.021336826094257	1.503691963347301e-12	0	0	0.512315719358421	-1.49408386815109	1.002711273367518	-0.2900786219580732	1.503691963347301e-12	0	0
0.155	0.7975611047584736	0.2891942317642142	1.490173598946385	1.645144208193564	-0.768743228131351	-0.207516636923283	-0.9280818961514696	0.539669452702806	3.990680116502462	6.07478559823419	1.107278802135798e-14	5.909192438919705	-0.4601149956071676	-0.4633524176987872	0	2.602375774689185	0.4672743871738224	3.227115073947728	6.92951954751531	-3.474177111513183e-14	6.929519589890689	-2.842554493486249	-5.928240219734844	0.0008984115307744491	1.391716674255337	-0.2001551824998208	-0.7331143102190707	-2.181085569923559	1.731395685952948	-1.830141637156169	-3.024772659053728	8.232631322190777e-13	0	0	0.5213741471805531	-1.500313311200433	1.004308598446856	-0.2875845948349127	8.232631322190777e-13	0	0
0.1554542507337262	0.7945812969926812	0.2940147334805772	1.493136022533426	1.641578250061526	-0.767942768392063	-0.2076227760219232	-0.8790213984841591	0.549405845033436	3.971736826363991	6.079450765632561	-1.181530173879101e-13	5.909577579838851	-0.4588882411414457	-0.483960110736617	0	2.605857167391204	0.4735736660040093	3.247989534470835	6.951063890952987	-1.74829036964119e-13	6.951063915310039	-2.841470164709797	-5.948498480981957	0.0008921512165872374	1.383974756953561	-0.203122872676923	-0.7401319237194794	-2.183210421820272	1.737317929220397	-1.831034436486339	-3.033443105263778	-1.377318406873827e-12	0	0	0.544441479888801	-1.515926687261023	1.008410845760487	-0.2811790829195892	-1.377318406873827e-12	0	0
0.156515784775164	0.7884819458401638	0.3048531564972335	1.49933653449077	1.633132105821519	-0.765776258492475	-0.207910500846052	-0.7646410232565133	0.5718719724765714	3.926951091302356	6.086983566381141	-1.048261452838035e-13	5.910806060754402	-0.4542980003881093	-0.5327792075994521	0	2.61187794927608	0.4880488777708933	3.29477444734084	6.998472113196945	-9.841913754267771e-14	6.998472097131656	-2.837362976091923	-5.992953344877666	0.0008776580821725405	1.364227715909407	-0.2095865120313244	-0.7562169838550832	-2.187457412382731	1.750599340402946	-1.832262595810568	-3.053482654516793	-2.348324964425046e-12	0	0	0.5989222583500953	-1.551412534286164	1.018298189310332	-0.2657404247983721	-2.348324964425046e-12	0	0
0.1581644464118399	0.7814476749972066	0.3204779113621588	1.506957473143808	1.619701673575322	-0.7615831848294341	-0.2084671592022321	-0.5833853557705898	0.605952347422734	3.855985393319891	6.099110811006659	4.92298669877499e-14	5.91343133993504	-0.4444885527878494	-0.6103134818385187	0	2.615286504886341	0.5098279405514804	3.361865129423233	7.063887829054164	8.322047360920254e-14	7.063887768775825	-2.826636518781709	-6.053989204242583	0.0008555944679317351	1.32891992006124	-0.2182900224268037	-0.780315027026205	-2.192034051071705	1.769662702177172	-1.831767635370996	-3.083982376390597	1.424284994798437e-12	0	0	0.6851031336029423	-1.603735721237689	1.034513556466371	-0.2404310691949643	1.424284994798437e-12	0	0
0.1603741041940474	0.7767788055117919	0.3390489748791689	1.513336561546758	1.601107179704184	-0.7543654345449192	-0.2094210726486364	-0.3358684325306154	0.6500381268411204	3.75825970195653	6.113949143884638	-3.645490940951747e-14	5.917720621216985	-0.4272282583646778	-0.7171285784278575	0	2.60832938005323	0.5376206066071123	3.441096856124203	7.13575214170837	-9.014428137232469e-14	7.135752078855865	-2.804051738286923	-6.120570801517592	0.0008269389738391421	1.272634677955998	-0.2273383646288163	-0.8108985556324001	-2.194249915293619	1.792194435090881	-1.826472046292726	-3.12365164687674	-9.223138721978578e-13	0	0	0.8035070597302735	-1.66852113959145	1.057955346795101	-0.2038883072234114	-9.223138721978578e-13	0	0
0.1631098871668135	0.7787460864716544	0.3581602187070129	1.515167948657605	1.57715037895456	-0.7428621809801934	-0.2109271310528598	-0.0222274372242422	0.7020139254446918	3.633269921712182	6.131008540218369	2.354141837750441e-14	5.922924475442076	-0.400835990571386	-0.8531600266671596	0	2.581085947339557	0.5697030670059332	3.522168031808086	7.199405814781517	5.654103849377912e-14	7.199405829994006	-2.763321596678955	-6.179045190272304	0.000792728223917759	1.188532772985543	-0.234263048049221	-0.8459920725007062	-2.190655924276817	1.815247811142007	-1.812488735118857	-3.170806106623488	6.672012580829694e-13	0	0	0.9544918134108048	-1.74024809711353	1.08983000736774	-0.1543169646593707	6.672012580829694e-13	0	0
0.1663286436775879	0.7923078107206534	0.3749781647254693	1.508814550957433	1.547657042261452	-0.72565234089694	-0.2131475813123396	0.3544688814967161	0.7593509268324351	3.480790968866766	6.144715706740994	-1.177243764725742e-14	5.926453847251787	-0.3641338013659441	-1.017089163094846	0	2.52218783846242	0.6039846533109871	3.59345190752882	7.238169283848649	-8.554780814061491e-15	7.238169374252809	-2.697927193781736	-6.214421259064312	0.0007537949141298944	1.068940485949203	-0.2361806173815843	-0.8832850634960556	-2.177284627718399	1.835462059309933	-1.785446033084148	-3.223429678889222	-3.598201146041256e-13	0	0	1.137948278374908	-1.812684779848661	1.131596941944391	-0.08957846771491224	-3.598201146041256e-13	0	0
0.1699796094921079	0.8226868194892549	0.3864592872035538	1.490701013772862	1.512525656277645	-0.7012907273132085	-0.2162285576957493	0.7891403576734358	0.8192507907571875	3.301058621570791	6.14769950386255	6.074292809329834e-15	5.923141253270029	-0.3170002156972989	-1.205769784940051	0	2.419828513280711	0.6381281927548714	3.643032911349336	7.234749474741592	-1.552246717598648e-16	7.234749417410027	-2.602114269774459	-6.211911473942392	0.0007110347247935929	0.9061507001324278	-0.2300395797719738	-0.9202878547642126	-2.149986401468856	1.849359765376126	-1.740925755110007	-3.279251063231197	3.478580021817621e-13	0	0	1.352980972584491	-1.879449919792262	1.184861321739387	-0.007331927361624632	3.478580021817621e-13	0	0
0.17400520557877	0.8748110111831686	0.3896431840834899	1.457754817622239	1.471780473914965	-0.6684716127891077	-0.220276355935575	1.27309445039373	0.8788395239697853	3.094913635770346	6.129642160873075	-1.660745122329335e-14	5.90481022484127	-0.2605390869543672	-1.413840040429503	0	2.263039237427163	0.6697261665382728	3.659882124139134	7.172902407003368	-2.720099677021207e-14	7.172902330398959	-2.47195813888328	-6.158576284651053	0.0006667928300518307	0.6934098846071461	-0.2129507766404466	-0.9545209493486162	-2.104853401369807	1.853705168746122	-1.674994178727637	-3.33583252260438	-2.299354517706523e-13	0	0	1.597614388205384	-1.934658871988659	1.251203647259842	0.09476290521970218	-2.299354517706523e-13	0	0
0.1783419453248002	0.9526594310700137	0.3819972860081944	1.407839637254227	1.42562199768055	-0.6262110644290657	-0.2253344155823812	1.794565901558416	0.9353981599260085	2.86390380918744	6.07833620870987	1.634140703350046e-14	5.860382020148314	-0.1965506977232175	-1.633652822120305	0	2.043130175227903	0.6965203007790882	3.635030657120117	7.039205540607352	1.659442113709031e-14	7.039205573081805	-2.306322968634219	-6.044849220139987	0.0006220873644055343	0.4260056336777354	-0.1825698627882127	-0.9837178303001823	-2.038699135592256	1.845884145714702	-1.584774176824236	-3.390669711771377	7.533166716515328e-14	0	0	1.868580829110394	-1.973577912835788	1.331948880546726	0.2187798575016531	7.533166716515328e-14	0	0
0.1829214354539589	1.058599918752033	0.3617650456037485	1.340108314478343	1.374464916452333	-0.5740232676211814	-0.2313659750061647	2.339134609014703	0.9865999759642341	2.610348570069197	5.980256362244706	-2.185053924606768e-15	5.776677904722912	-0.1294477795543907	-1.855616287176073	0	1.75510902904634	0.7166379557564205	3.562568232631471	6.824715194919473	8.292715868340328e-15	6.824715095334964	-2.107510393648088	-5.865706637112151	0.000577436109442934	0.1023072334553392	-0.1374732563579759	-1.006012408169956	-1.94953420179935	1.824247009392635	-1.468975586748879	-3.441305298774941	4.013975448041999e-14	0	0	2.161244682194032	-1.99318089005729	1.42789752682271	0.3662128891950456	4.013975448041999e-14	0	0
0.1876714545037473	1.192837616404198	0.328254354102084	1.255202602177039	1.318962696724864	-0.5120599887196602	-0.2382505359603139	2.890416393374212	1.030714399020733	2.337372441692325	5.822742390993191	-6.178475856845467e-15	5.639935992837927	-0.0631467777282282	-2.068961702860584	0	1.398830459024145	0.7288068254644511	3.440304058989418	6.526247179447911	-2.056599397661557e-14	6.526247230869262	-1.88141550047209	-5.621290297269994	0.0005352196033746056	-0.2754281343790718	-0.07745363476881859	-1.020081530714051	-1.836960177199247	1.788348655191866	-1.328282463397615	-3.485459575860381	-2.984845117591697e-13	0	0	2.469702224851235	-1.992497796979739	1.539059646056159	0.5376458027755192	-2.984845117591697e-13	0	0
0.1925170917444269	1.353102217156883	0.2820017534195211	1.155248309810981	1.260010727282891	-0.441190104862536	-0.2457889087319078	3.430855808900033	1.066736926925604	2.04890893601844	5.595738462392416	1.786425817063578e-16	5.437874886876983	-0.0004152135811803554	-2.26285674707347	0	0.9796226394486436	0.7325064947851385	3.269982510852849	6.147041381374483	7.615280578284814e-15	6.147041454867807	-1.637090905485969	-5.316889781049046	0.000495409037637041	-0.7006722392562368	-0.003663862542271508	-1.025221906405719	-1.702400213075342	1.739031247161876	-1.16550135449625	-3.521176716043219	-3.289681527536059e-14	0	0	2.78706688681549	-1.972670500111328	1.664444611481474	0.732447413480662	-3.289681527536059e-14	0	0
0.1973819285398158	1.534673420268156	0.224765256654436	1.043637555229873	1.198721248574506	-0.3629909743448174	-0.2537225288673348	3.94332752494895	1.094417030777898	1.749665595838197	5.292958831584082	4.066432436082796e-15	5.161961132327764	0.05502610829869019	-2.427685395355634	0	0.5082065752204319	0.7280232577013611	3.05703195932451	5.696663560412701	1.564706919054647e-14	5.696663494411282	-1.385746980555304	-4.962313864849163	0.0004589638733038543	-1.162801199553402	0.08143672588702459	-1.021357360934664	-1.549104691909403	1.678324558087193	-0.9854130954587548	-3.546980649790276	4.852009565445578e-13	0	0	3.105908939973721	-1.936686824981879	1.801957745154947	0.9485448644639718	4.852009565445578e-13	0	0
0.2021892435043931	1.730781340803435	0.1593321078890985	0.9246385369398327	1.136378862929589	-0.2796458692805496	-0.2617628461912966	4.412611797181956	1.114181932864496	1.445035736404969	4.912842091831629	3.983548864446548e-15	4.809428396978417	0.1010750418247743	-2.556253851655792	0	-0.0001428235903225099	0.7163900987242504	2.809913845699792	5.190143861928954	-4.00916314333916e-15	5.190143876897125	-1.139352360942359	-4.570788637577396	0.0004269524989954174	-1.64786195502428	0.1743378222300813	-1.008989431578156	-1.381910672467413	1.609179968428329	-0.7943304927341965	-3.562021664774902	1.48183351318966e-13	0	0	3.418779898757554	-1.888840904211413	1.948439684006369	1.182322694196505	1.48183351318966e-13	0	0
0.2068632224455918	1.9333323210581	0.0891699419013235	0.8029127131903631	1.074374928509295	-0.1937640480750084	-0.269619289225852	4.827143913969574	1.126977326338357	1.140947542856531	4.460386965825212	2.282254063352477e-15	4.384606322878209	0.1352843875812482	-2.644681759878593	0	-0.5270762764333687	0.6992192639133815	2.539204458505321	4.646503284510092	7.049578636888945e-15	4.646503225832904	-0.9091020425557944	-4.157590084750329	0.0003991999775788909	-2.13983300299522	0.2708923917300174	-0.9891135721595088	-1.206786351038627	1.535092198645974	-0.5994336325036566	-3.566187509772423	-4.504298911108454e-14	0	0	3.718728931788382	-1.83403259007855	2.099857016080663	1.428679275345322	-4.504298911108454e-14	0	0
0.2113301540101398	2.133831229717881	0.01798707652171498	0.6830350926576668	1.014130513852692	-0.108149671940639	-0.277031065113059	5.180427735600168	1.134064968714342	0.8436532743988521	3.948336848954013	-9.755822290861834e-15	3.899259359393208	0.156817562493001	-2.692805257878775	0	-1.053027809163885	0.6784567779821749	2.256569099629136	4.086933609717481	-1.436485501899371e-14	4.086933589473888	-0.7040551840486947	-3.738638459849374	0.0003758456101828728	-2.622165758668011	0.3668092396976637	-0.963122031188463	-1.030241027639377	1.459685399089443	-0.4080084484997861	-3.560151465250007	2.5937751354968e-14	0	0	3.999721136921274	-1.77705536652376	2.251620054804296	1.681247979229883	2.5937751354968e-14	0	0
0.2155195921846577	2.32432072818293	-0.05071144478936607	0.569101210922617	0.9570183480187897	-0.0255611529632009	-0.2837876195458993	5.471387270906426	1.136821530763054	0.559478325225396	3.397623193386272	-5.647177519157154e-15	3.371859702027569	0.1665386058634316	-2.704034511627273	0	-1.559106189688943	0.6561089887097995	1.973781824295451	3.532940876886594	-1.370083295795165e-14	3.532940830898315	-0.5301976371038826	-3.329254031552305	0.0003565731681432254	-3.07932632048786	0.4581274001473959	-0.932705636127074	-0.8587085031093599	1.386340865997761	-0.226733160033537	-3.545336798397201	-3.396646846286814e-13	0	0	4.256896670251582	-1.722014796828506	2.398973385577865	1.932758695264125	-3.396646846286814e-13	0	0
0.2193654673351004	2.498159158878858	-0.1139876476640705	0.4644724315428337	0.9042942069549844	0.05149486950637822	-0.2897409094779682	5.703239207302837	1.13657317549734	0.2945607107202204	2.833947125313873	1.513339062640747e-14	2.825952396588891	0.1650720612029808	-2.684732896697518	0	-2.028687887188302	0.6339948139439854	1.701908102032055	3.004731251873428	2.770228696556083e-14	3.004731200105921	-0.3900715550596056	-2.943212407096452	0.0003416339546247932	-3.498063909772269	0.5415856457927692	-0.8997564842793428	-0.698012564454259	1.317924472416682	-0.06113596498906421	-3.523796289153052	1.664010244477388e-13	0	0	4.486648812976269	-1.671970070278439	2.537387929093998	2.175490302708584	1.664010244477388e-13	0	0
0.2228071283122631	2.650502888404826	-0.1696935556766231	0.3716726253317835	0.8570464225469998	0.1209115110172833	-0.2948082424244831	5.881838356655956	1.134484386922769	0.05461303357690886	2.285971573070432	-7.020112661607249e-16	2.287953714023409	0.1542952717346416	-2.643278194781828	0	-2.448469684757984	0.6135688751679479	1.450720330481827	2.520032304969014	-1.177783394064816e-14	2.520032383167918	-0.2829773435489812	-2.592161568701197	0.0003301926624366903	-3.86820519955053	0.6148308305764804	-0.8662682453071096	-0.5529958982536713	1.256641473869619	0.08470015047197708	-3.498022168815319	-5.786017587050254e-13	0	0	4.686543222384152	-1.62882656121662	2.662883077850213	2.401749317189966	-5.786017587050254e-13	0	0
0.2257902993364854	2.778437609547997	-0.2165306421361582	0.2924167597622339	0.8161661133489442	0.1810527214379383	-0.2989641134874568	6.014416429459374	1.131502393448949	-0.1552679918792191	1.778978812392852	-3.495526441974297e-15	1.784794858791712	0.1370984181813719	-2.589001438859461	0	-2.808878913602145	0.5958392294886935	1.228365967635954	2.093429210145556	4.730585972057609e-14	2.09342924635394	-0.2056337963711975	-2.285392037754157	0.0003212223379152579	-4.182893165096864	0.6764507947205373	-0.8342320445916085	-0.4273478410024268	1.204015511124567	0.2081733559262685	-3.470716066309516	1.011977862772328e-12	0	0	4.855126678307057	-1.593443308843596	2.772230068652955	2.604311091377158	1.011977862772328e-12	0	0
0.2282679370955254	2.880780638343765	-0.2539597500570698	0.227733148155464	0.7823417141679624	0.2307495241712599	-0.3022275223907691	6.109168593206973	1.128347224209505	-0.330732680842452	1.337654042171553	-2.759604179989568e-14	1.341778878327435	0.1157771321353862	-2.531179662205028	0	-3.103878687395496	0.581379036678312	1.041266970543622	1.736191539033888	-5.821519920311342e-14	1.736191467735352	-0.1531164622763215	-2.029898759255623	0.0003149126408316962	-4.438306712066789	0.7258547387685674	-0.8055298714748034	-0.3236226737024102	1.16096635571647	0.3079787587843115	-3.444552545765964	-9.323961534313632e-13	0	0	4.99168149881255	-1.565881815122527	2.863018512900103	2.77677525857009	-9.323961534313632e-13	0	0
0.2302009768984097	2.957642084484001	-0.2820056603600173	0.1781352327364373	0.7560736408447057	0.269242007117886	-0.304644612800301	6.173456128326746	1.125531892584404	-0.468251988732439	0.9795514880098667	3.465411490588678e-14	0.9808914588174051	0.0949103997036525	-2.478199013814369	0	-3.330321453839551	0.5704103273394044	0.894199296646626	1.456483259982223	1.395622784184809e-14	1.456483141094928	-0.1198804899966773	-1.830642371066658	0.0003109218803339399	-4.632998695400387	0.7630518698183536	-0.7818322261043178	-0.2434023656702147	1.127948136523177	0.3837785698939478	-3.421964229996329	2.606618304843802e-14	0	0	5.095976317993603	-1.545711869228016	2.93360187096574	2.913811915522081	2.606618304843802e-14	0	0
0.2315589714577417	3.009863506425568	-0.3010111941749301	0.1438033621959725	0.7377004718490648	0.2960873449335471	-0.3062710333040105	6.213586738706668	1.123397543089825	-0.565145456743021	0.7234217719160451	2.923925850337926e-15	0.719647512619339	0.07771745006517428	-2.436937810409582	0	-3.487057453219017	0.5629274399421681	0.7904833564056889	1.259806926160229	-4.878355271827272e-14	1.259806829506535	-0.100711057542821	-1.690909564550314	0.0003085336749063697	-4.767036619976342	0.7883865790542554	-0.7645072248215605	-0.1875404067862011	1.105109680962066	0.4358117579602988	-3.40496658391387	9.983763572001661e-13	0	0	5.168048172412647	-1.532305786485437	2.982961189410502	3.011302689847181	9.983763572001661e-13	0	0
0.2323208116596206	3.038465989080642	-0.3113988357920503	0.1247414703885751	0.7274265010017895	0.3110643676405762	-0.3071566094272488	6.234387630905171	1.122150667821762	-0.6195946117990183	0.5771606482004487	-5.950499636355992e-14	0.570379451004457	0.06782125378041143	-2.412353964319051	0	-3.574040397608745	0.5588246759505482	0.7321983714905971	1.14949359080525	-2.490057134177577e-14	1.149493531421335	-0.0914944893772022	-1.612659875064058	0.0003073145414413898	-4.84115946568322	0.8022892072184193	-0.7545449898984541	-0.1564114042458872	1.092440804420477	0.4645297398828216	-3.395026411141711	3.685861255761155e-13	0	0	5.208044008634346	-1.525075340985814	3.01054545418639	3.066414902727337	3.685861255761155e-13	0	0
0.2325	3.045117903887354	-0.3138120820334516	0.1202795153303863	0.7250137632473497	0.3145776059447561	-0.3073620419440329	6.239139805500344	1.121852636896196	-0.6324102080447359	0.5436640255394397	-6.293193321905047e-14	0.5349929627944801	0.06542463936345419	-2.406423325820857	0	-3.594394529623402	0.5578704755546836	0.7184816235649152	1.123554854738192	-5.941175142807051e-15	1.123554806476397	-0.08948870373801529	-1.594272880905449	0.000307039137754804	-4.85847655870696	0.8055254916576428	-0.7521765816300694	-0.149113447009598	1.089476844880493	0.4712330714590574	-3.392646442060788	-7.826479156727293e-15	0	0	5.217405403259572	-1.523405807299629	3.017020824257032	3.07942005012798	-7.826479156727293e-15	0	0
0.2329542507337262	3.061848794526736	-0.3198772831189466	0.1090057034976111	0.718904020759501	0.323466991174316	-0.3078778879439751	6.250898299729602	1.121089407323994	-0.6649128480263405	0.4584681573112638	-4.237895459218338e-14	0.4448175634382226	0.05896090241589313	-2.39113731942358	0	-3.645808609821728	0.5554708168638577	0.683698301614283	1.057816946259185	1.420541368407082e-14	1.057816929547873	-0.08468177494235866	-1.547694240771871	0.0003063596011691969	-4.902171584533763	0.8136708439002112	-0.7461295969793249	-0.1306551553793126	1.081990902122672	0.4881368989891748	-3.386541706178419	-1.013188430655729e-12	0	0	5.241058607766331	-1.519227285287319	3.033413215815011	3.112459851412704	-1.013188430655729e-12	0	0
0.234015784775164	3.10018758094065	-0.3337484915889988	0.08287463834998608	0.70466525585483	0.3441412858473109	-0.3090553939822029	6.276492689583094	1.11926550200425	-0.7409444386610968	0.2482474308457678	2.608782007559215e-14	0.2315018386033927	0.04179858773457173	-2.354020680794994	0	-3.764885043903934	0.5499767748282407	0.6023715019690601	0.9043306695358242	-4.220440912623397e-15	0.9043307392821269	-0.07501099737099613	-1.439051421352432	0.0003048729682392822	-5.00310386581414	0.8323681951449406	-0.7317590464319229	-0.08776973314037338	1.064658290840797	0.5271262312910919	-3.371878149356671	-1.024022108980033e-12	0	0	5.295894186342245	-1.509768303442878	3.071581726906449	3.190058653312964	-1.024022108980033e-12	0	0
0.2356644464118399	3.157513605687412	-0.3544060075880268	0.04291245189174482	0.682668786788778	0.3759487187805391	-0.3108046243752073	6.311836086717032	1.116334935345017	-0.859216774810317	-0.0811208188769463	2.102350218031802e-14	-0.1067776565322283	0.01007004300214487	-2.292566121454102	0	-3.946635678307604	0.5417897204599966	0.4760395456413388	0.6665121261998139	3.109693735955032e-14	0.666512314631076	-0.06437147082843679	-1.270996403690945	0.000302853966956882	-5.156414744950889	0.8604254685566881	-0.7087798123004709	-0.02192273247160214	1.038214928214249	0.5861896859671825	-3.348010761911659	8.903856536151624e-13	0	0	5.379834081742549	-1.495949218179379	3.130422611541548	3.311605364146628	8.903856536151624e-13	0	0
0.2378741041940474	3.229798959259994	-0.3802712036746911	-0.009388813287062859	0.6534394911638433	0.4179271335429979	-0.3129919959590761	6.3506258026496	1.112260803534913	-1.018020568332871	-0.5382128712171137	1.990371830451097e-14	-0.5728527035356297	-0.04054937887114389	-2.203138674975725	0	-4.183546550332315	0.5315629412390397	0.306947097704803	0.3493732198192538	1.802700235805985e-14	0.3493733847521862	-0.05856893910816492	-1.047351331484601	0.0003007789628916917	-5.354809258349734	0.8960304426856136	-0.676735055066688	0.06469432357382689	1.003760951517064	0.6623179777506221	-3.31396883312381	7.94439726323305e-13	0	0	5.489990022795399	-1.479146704813079	3.208291597892405	3.476320435850547	7.94439726323305e-13	0	0
0.2406098871668135	3.311432245485912	-0.4091395465205272	-0.07200363003114077	0.6177090349560693	0.4687064172600188	-0.3154405028548859	6.384384680484112	1.107065805031967	-1.214934753669497	-1.121858294155414	1.75941425027304e-15	-1.168586626802308	-0.1143188243294512	-2.081691549189684	0	-4.465008708814143	0.5202603063915765	0.09852394275229295	-0.03961854195539216	4.235374895629658e-15	-0.03961868455111778	-0.06494960748377249	-0.7736050383547621	0.0002993111223462406	-5.588154826314212	0.9366870642711154	-0.6351148231472542	0.1689478136540684	0.9628269371790145	0.7513806599535909	-3.268643594290708	-9.160450157242463e-13	0	0	5.62264495299559	-1.461155869661158	3.302792437057746	3.682786190280125	-9.160450157242463e-13	0	0
0.2438286436775879	3.395263279062538	-0.4382060524408909	-0.1424218414823087	0.5764226829176664	0.526488621318841	-0.3179370755413468	6.403407162035915	1.100873191223604	-1.446758593521657	-1.836223381291058	-1.197795828234275e-14	-1.893183385425279	-0.214501615924612	-1.92453620724514	0	-4.777264949014971	0.5091726798094588	-0.1443959209575896	-0.4901980328111102	6.391742762245905e-15	-0.4901981829908026	-0.09176830437464271	-0.4570243278413125	0.0002990913091242247	-5.843544349720128	0.979263968742768	-0.583454574018787	0.2867176881686749	0.9173540413319859	0.8482001567327407	-3.210976068985611	1.629631047457266e-13	0	0	5.773455692272687	-1.444045006012069	3.410701030080582	3.928662946672666	1.629631047457266e-13	0	0
0.2474796094921079	3.472843099834169	-0.4641806536169338	-0.2177554011648623	0.5307316889778494	0.5890663290818969	-0.3202443318171578	6.399644901872769	1.09393109210661	-1.7094711001438	-2.67566175029404	1.944009752905717e-14	-2.741404894266759	-0.3450095959059717	-1.72917870186376	0	-5.103695041251846	0.4998799741798021	-0.4154597638850149	-0.9891923445648321	-1.303456604968845e-14	-0.9891921787301208	-0.1473182180201117	-0.1066094690660254	0.000300718826184764	-6.105668987117362	1.020135887754058	-0.5214467517639508	0.4129548773806935	0.8696160411132314	0.9467602764276726	-3.140168133261821	1.011366016422278e-13	0	0	5.937710502555137	-1.429914509442829	3.527963168472316	4.210420896001795	1.011366016422278e-13	0	0
0.25150520557877	3.534919084131416	-0.4835171914620006	-0.2949049020341833	0.4819682447024186	0.6538950559625833	-0.3221175213709517	6.367927695671128	1.086612764454204	-1.99822950036929	-3.626130905982138	-4.135877362834715e-14	-3.701978105022334	-0.5093480570929956	-1.495103230470598	0	-5.425555593514559	0.4941385442779934	-0.7068422654581886	-1.520752850816712	-2.149478859748389e-14	-1.520752879306578	-0.2388720756142113	0.2671506324935332	0.0003048952485552226	-6.357592484111015	1.055435909312327	-0.4490570338785743	0.5418770822264339	0.8220741373930613	1.040574423482725	-3.055891704169095	-7.98141327485289e-14	0	0	6.110613339974663	-1.420573369991644	3.649805903222942	4.523138359381166	-7.98141327485289e-14	0	0
0.2558419453248002	3.572195618569137	-0.4927532879759283	-0.3707734218328854	0.4315994336225508	0.7182281682760795	-0.3233257043698379	6.30553436614381	1.079391641546428	-2.307419778639961	-4.665661361746933	1.790594535294585e-14	-4.756549783285235	-0.705191151728328	-1.224362063468481	0	-5.723212638793632	0.4936915178743892	-1.009490364121603	-2.066993504701062	1.124543834068576e-14	-2.066993473722148	-0.3715615218294798	0.6527354739233282	0.000312213812647467	-6.581947479511347	1.081409505406221	-0.3666318260780608	0.6673152910087172	0.7771724771995816	1.123203497674001	-2.958462820748331	1.774149879150314e-14	0	0	6.287558237492138	-1.417184979956404	3.770986711483537	4.860425436852111	1.774149879150314e-14	0	0
0.2604214354539589	3.576304298420966	-0.4889250980542824	-0.4425013760195914	0.381153210840791	0.779307255811721	-0.3236730373274544	6.213866498151489	1.072795998172313	-2.630770135802751	-5.766977018476834	-2.727899403497265e-16	-5.87956076745051	-0.927005626430747	-0.921835492993161	0	-5.97779616629118	0.5000232929398448	-1.313578206344732	-2.609031261862858	-2.407887585344799e-15	-2.609031334096519	-0.5473889342390101	1.038235194625358	0.000322977369452876	-6.762476774771135	1.094829672810298	-0.274979976174194	0.7831901072839202	0.7371012256163803	1.188871785359996	-2.848946055250964	2.779411205910632e-14	0	0	6.464354925007606	-1.419966923584988	3.886176129476747	5.214529317930962	2.779411205910632e-14	0	0
0.2651714545037473	3.540843878651608	-0.4699888962078033	-0.5076825860984631	0.3321337468183454	0.8345822324025914	-0.3230190619324572	6.097453938728666	1.067353657903237	-2.961503256927215	-6.898993210596905	-1.16669432404568e-14	-7.039156532647412	-1.167801524345364	-0.5951070213009957	0	-6.173044189519803	0.5141011584729216	-1.609112459582518	-3.128282338385265	-1.870439021871252e-14	-3.128282380174787	-0.7645604345707504	1.412078238388079	0.0003378353431946076	-6.885701101472544	1.093401371720298	-0.1754128081297897	0.8840467129890238	0.7035684914564242	1.233084424327337	-2.729165059169463	-2.514783648517974e-13	0	0	6.637365386866707	-1.428024637118247	3.990419291976561	5.576622239556448	-2.514783648517974e-13	0	0
0.2700170917444269	3.46232403162071	-0.4351595479474226	-0.5645388392061976	0.2859174764236216	0.8819456731360131	-0.321294398175431	5.962803209044778	1.063532226213014	-3.292584842778244	-8.028634028212645	2.511507916995883e-14	-8.199473443201887	-1.417602497519922	-0.253875308812603	0	-6.297120310554392	0.5361727206327759	-1.886697593193808	-3.607971397183344	5.706595571437376e-15	-3.607971323223005	-1.017386834724922	1.763829921098764	0.00035667453018375	-6.942493392890087	1.076077556101322	-0.06972458787849474	0.9655941284838303	0.6776269286456018	1.25314459830112	-2.601607158778329	1.652509312580522e-13	0	0	6.803566982516925	-1.439426220271643	4.07962757884155	5.937329730653847	1.652509312580522e-13	0	0
0.2748819285398158	3.34077068807392	-0.3850918008782218	-0.6119980223608757	0.2436706446826813	0.9199046038795006	-0.3185089037766791	5.81690030115301	1.061690873186084	-3.616905079760287	-9.121769401022037	-6.887421630831215e-15	-9.323274819783565	-1.66755953614213	0.09083247426359604	0	-6.343870620346674	0.5656557251568383	-2.138175612105522	-4.034318848461106	-2.845022907615485e-15	-4.034318870642513	-1.296657683527585	2.084764031458634	0.0003793441115311288	-6.929112940386718	1.043205476669915	0.03987787304386203	1.025077969808807	0.6595897857425675	1.248442894958881	-2.469251658862158	9.018807499259499e-14	0	0	6.960490596440273	-1.451440164100673	4.150939093866948	6.287274063609553	9.018807499259499e-14	0	0
0.2796892435043931	3.179959059486232	-0.3218373283853515	-0.649738250242528	0.2062446331869418	0.9477492232485778	-0.3147534763654337	5.667274201220202	1.062025327920059	-3.927756220502696	-10.14637153449325	-6.831641387110852e-15	-10.37633404217063	-1.908149091836614	0.4279403158129188	0	-6.313739706581742	0.6012044826151427	-2.357492501763958	-4.397965132728977	1.938467481707848e-14	-4.397965163166398	-1.590855299020351	2.3686061923454	0.000404862643549285	-6.847822167644628	0.9964918265842024	0.1509162679396534	1.061604151122048	0.6490566878532077	1.220513089877413	-2.335329539461898	-2.538801731552532e-13	0	0	7.106226679076078	-1.46112225634991	4.203044692698106	6.617956932927874	-2.538801731552532e-13	0	0
0.2843632224455918	2.986961666831665	-0.2486168683671579	-0.6780440633456581	0.1741909026897933	0.9654869162478694	-0.3101830244308054	5.521873177955196	1.064560051904176	-4.218761453258463	-11.0719332008358	-1.283317200074707e-15	-11.3287664671396	-2.131069911871985	0.7469231736672346	0	-6.213105046975876	0.640838018477129	-2.54066512005559	-4.693748784061911	-3.982550522822085e-15	-4.693748827313574	-1.887085826717985	2.61131340941597	0.0004334171001867225	-6.706181715203259	0.9387410532416096	0.2607672211123691	1.075946423453822	0.6450338759238081	1.172713526075992	-2.203121150179816	2.962274377872797e-13	0	0	7.239184186729423	-1.465624408794129	4.236049256707977	6.921950793009185	2.962274377872797e-13	0	0
0.2888301540101398	2.771609369377908	-0.1693765566169802	-0.6978331172634783	0.1476219921420632	0.9739875212701216	-0.3050193190114159	5.388671282861096	1.06908782611165	-4.484991301031675	-11.87543594541595	-3.61501847044934e-15	-12.16156047584942	-2.331755988519663	1.039641735271778	0	-6.054380701330286	0.682325335011516	-2.686945788213826	-4.922389029313737	-8.878293905261286e-15	-4.922388938503221	-2.173444880749177	2.812140767467757	0.0004642066235459665	-6.516782649539513	0.8735393801266895	0.3668863612826242	1.070751841231153	0.6461372145942391	1.109866507295058	-2.075700603291851	-3.332260454840618e-14	0	0	7.358384263400852	-1.463205435653824	4.251693494920507	7.194245368257578	-3.332260454840618e-14	0	0
0.2930195921846577	2.545001239785087	-0.08837215397377476	-0.7102401446536701	0.1264561253347216	0.9745024464296588	-0.2995024845113163	5.274499334540107	1.075262851361941	-4.721915217613107	-12.54256938173801	-8.272665157330897e-15	-12.86121882725304	-2.506775409638439	1.29933811360633	0	-5.852718099797777	0.7233164349569116	-2.797066546647007	-5.087247418475513	-1.018394052077365e-14	-5.08724749097139	-2.438796204988452	2.971709810278861	0.0004953732315102848	-6.2944390320539	0.8047415539599938	0.4668465461901299	1.049480291154782	0.6508050590607892	1.037429153226463	-1.955892772664247	-5.31625869547619e-13	0	0	7.462885670438402	-1.452742590776304	4.252432772774494	7.431006073479781	-5.31625869547619e-13	0	0
0.2968654673351004	2.31883526222596	-0.009639271044585968	-0.7167623768825508	0.1102125986010098	0.9688884966660926	-0.2939054541558974	5.183157077465093	1.082544593597253	-4.927210971615869	-13.0740088296527	5.032580642732932e-15	-13.42785210856998	-2.653636300377814	1.522762189295409	0	-5.626293449193021	0.7618319267513423	-2.874848381136897	-5.196747130772405	2.433368990612581e-14	-5.196747149194195	-2.675469792938365	3.093682687121615	0.0005266570912720275	-6.056022839750257	0.7361819294294618	0.5585706511939939	1.0167681921411	0.6575261642948493	0.961115361952817	-1.846075071479132	6.525430035217236e-13	0	0	7.55248695016033	-1.434873077002009	4.241808015712632	7.631338210488396	6.525430035217236e-13	0	0
0.3003071283122631	2.104307959917055	0.06334626057549959	-0.7190711172154723	0.09812270882118293	0.9593503599690105	-0.2885114034831813	5.114139608257636	1.090272135714626	-5.100628626393979	-13.4814310903485	7.411371898801128e-15	-13.87293277611323	-2.773389933061622	1.70978714880836	0	-5.394250097499851	0.7964203612978207	-2.926378704364564	-5.262803406208432	-6.429100741776555e-15	-5.26280335179317	-2.879401566733352	3.183948687671237	0.0005564866255335193	-5.818674260834177	0.6713536777813023	0.6403781436115207	0.9778449962198575	0.6650018092558542	0.8863271435631923	-1.748165087281685	-4.13641170940919e-13	0	0	7.627653152819912	-1.411763757057456	4.223958459733687	7.796812582380428	-4.13641170940919e-13	0	0
0.3032902993364854	1.910163246468723	0.1276892982271887	-0.7181466629903609	0.08984687745852704	0.947259806571808	-0.2835185251400103	5.065469719753924	1.097967396935937	-5.240033390084634	-13.78075085669074	-5.988282949579094e-15	-14.19775885785687	-2.864446388676785	1.858395805128901	0	-5.17012532160395	0.8257142881545544	-2.95457750032743	-5.291635564949697	-2.514280804821508e-14	-5.291635536117254	-3.045647695743845	3.245007777703136	0.0005839327733878198	-5.594835105213861	0.6129601390443055	0.7107020902581449	0.9361180803268938	0.6722053323028941	0.8171710069279526	-1.663915987381049	-9.786408398079444e-14	0	0	7.687850719754922	-1.384395488027875	4.201467807246067	7.926768946645092	-9.786408398079444e-14	0	0
0.3057679370955254	1.744343595997054	0.1814264240535943	-0.7154698097488037	0.08447731011303788	0.9346998746138936	-0.2791655490255117	5.032583712734592	1.104998694864245	-5.34773815611562	-13.99018116179981	-9.309102446069165e-15	-14.42410710948858	-2.93105918542935	1.971937968547595	0	-4.969596676453746	0.8492844176022816	-2.966699995905043	-5.296315430704768	7.280689983546891e-14	-5.296315431699298	-3.175307769494234	3.283924190391365	0.0006079635172580768	-5.397866585111235	0.5632959631306523	0.7685873138357452	0.8962702289065221	0.6784642288804666	0.7573385583186663	-1.594466076834993	-8.884775346099767e-14	0	0	7.734283912299544	-1.356337225358264	4.17818087262377	8.025126432429751	-8.884775346099767e-14	0	0
0.3077009768984096	1.613487663743492	0.2234176744516234	-0.7127341531298346	0.08080350357517843	0.9240449278314667	-0.2756995559360021	5.010478345187553	1.110700568467789	-5.428948456169438	-14.13571137193123	8.340296997357991e-14	-14.58566394498435	-2.981043948756666	2.057080032354617	0	-4.808322236007003	0.8673893319194785	-2.9722802195453	-5.293373187304582	-1.905939760513774e-14	-5.293373213220061	-3.273481889214531	3.310237438114521	0.0006271429378121585	-5.240507958733962	0.5241762356049305	0.8135602351254119	0.8634227980740738	0.6834240729833824	0.7098825728254589	-1.540468921704368	1.087804680022499e-12	0	0	7.769274449658169	-1.332593551479141	4.158448139302252	8.098550383111681	1.087804680022499e-12	0	0
0.3090589714577417	1.52130420430661	0.2529284720609626	-0.7107010771335053	0.07831119908333342	0.9164125702753946	-0.2732526346795471	4.995647497008044	1.11474336015977	-5.485515128014215	-14.22938859070666	-1.549695910846943e-15	-14.69657504716886	-3.015731589051841	2.116301878536191	0	-4.694195427162185	0.8800594009628909	-2.97553388926798	-5.290172909348806	-2.922227628270158e-14	-5.290172952537954	-3.341937398709886	3.328026930450681	0.0006406917919961432	-5.12932771145733	0.4966300740182639	0.8451220192651452	0.8400447265363896	0.686921576225853	0.6764108327312596	-1.502567182685868	-3.578730410130309e-13	0	0	7.7936433235647	-1.31559467642529	4.144316692175724	8.149562259619195	-3.578730410130309e-13	0	0
0.3098208116596206	1.469567494805547	0.2694850343752212	-0.7095511158591306	0.07692050305021081	0.9121183573344566	-0.2718788886172928	4.987294955822925	1.117014518833898	-5.517208142922492	-14.27981015263928	-1.480270356783687e-13	-14.75857762770785	-3.035638255816476	2.149475393679169	0	-4.630099905015961	0.8871631790363774	-2.977302811304226	-5.288281678199279	2.482673367823324e-14	-5.288281731133704	-3.380297592816988	3.337948011877976	0.0006482989693661225	-5.0669017731374	0.4811712124826701	0.8628255378491477	0.8269040071853001	0.6888847712876528	0.657621871254648	-1.481306899692387	-1.60388398732753e-12	0	0	7.807296350717188	-1.306031248373139	4.136366173794025	8.178131869128359	-1.60388398732753e-12	0	0
0.31	1.457398592042753	0.2733792274230386	-0.7092805610345504	0.07659346665055916	0.9111082350705463	-0.2715557686957654	4.98533195425097	1.117548732092243	-5.524662155629323	-14.29167319559557	-1.85075408944933e-13	-14.77315914244246	-3.040388269995769	2.157277553583174	0	-4.615023749227232	0.888833989863035	-2.977718406391678	-5.287836060815737	3.836534444091175e-14	-5.287836116035665	-3.389319745107466	3.34028101188186	0.0006500882754776634	-5.052218447454505	0.4775351681905349	0.8669894661495114	0.8238130356283474	0.6893465355523551	0.6532025212981925	-1.476306403965118	-1.782014803094621e-12	0	0	7.810507459538915	-1.303781668036706	4.134495985627604	8.184851180990862	-1.782014803094621e-12	0	0
