DataType=double
version=3
OpenSimVersion=4.5
endheader
time	pelvis_tilt	pelvis_list	pelvis_rotation	pelvis_tx	pelvis_ty	pelvis_tz	hip_flexion_r	hip_adduction_r	hip_rotation_r	knee_angle_r	knee_adduction_r	knee_angle_r_beta	ankle_angle_r	subtalar_angle_r	mtp_angle_r	hip_flexion_l	hip_adduction_l	hip_rotation_l	knee_angle_l	knee_adduction_l	knee_angle_l_beta	ankle_angle_l	subtalar_angle_l	mtp_angle_l	lumbar_extension	lumbar_bending	lumbar_rotation	arm_flex_r	arm_add_r	arm_rot_r	elbow_flex_r	pro_sup_r	wrist_flex_r	wrist_dev_r	arm_flex_l	arm_add_l	arm_rot_l	elbow_flex_l	pro_sup_l	wrist_flex_l	wrist_dev_l
0	-0.5348472418112918	-0.001307464155940068	-0.1590969566077488	-0.161255059	0.9403797739999999	0.3774675260000001	0.4463481471699127	-0.07040863339818758	-0.1822436041317115	0.3518502204352238	0.1021521049148762	0.3555293809999998	0.05028168247800019	0.2269102551791182	0	0.902587487935164	-0.2101214367325454	-0.1461404716570466	0.7812039342231138	0.08218151389187185	0.7812039340000001	0.2531487174668463	-0.1123902515111026	-0.0004759512870188536	-0.1308556600628516	0.08870948660083203	0.06756247435495884	0.001722590945419712	-0.2722836989492026	-0.392541385266687	1.53589373157768	1.570796326969429	0	0	-1.034518324451213	-0.7732366604748657	-0.9683691889963988	0.5829859442329989	1.570796326969429	0	0
0.0004542507337261803	-0.5347011057538703	-0.001256902095414223	-0.1595818042375098	-0.1605334574760147	0.9407214082794101	0.3773398372667488	0.4453596491190768	-0.0712103467453835	-0.1836140302894385	0.352350838718446	0.1021521049148762	0.3559707198146014	0.04776361940766582	0.2269494478443515	0	0.9019643935022138	-0.2099696411503597	-0.1473851552238051	0.7761330576921037	0.08218151389187184	0.7761330574663674	0.2533279919121561	-0.1105894927592921	-0.0004737384572368384	-0.1310228543483614	0.08840396417027963	0.06801219835046884	0.002025168728845099	-0.272538784638916	-0.392302535211822	1.536303061076634	1.570796326969429	0	0	-1.035181275283665	-0.7709561941330976	-0.9685212617361747	0.5828860839484944	1.570796326969429	0	0
0.001515784775164009	-0.5343216610219225	-0.001153719293135352	-0.1607254242060806	-0.1588427876791728	0.9415135217792353	0.3770406927945414	0.4430547727762642	-0.07309099042856097	-0.1867765473246255	0.3536703883465192	0.1021521049148762	0.3571547771924741	0.04191948753372055	0.2269768434107149	0	0.9004517985474155	-0.2096267953108558	-0.1503361425991815	0.764276215128434	0.08218151389187181	0.7642762149102768	0.2537468263146759	-0.1063241910189038	-0.0004685964032215711	-0.1314358652579314	0.08770496561414343	0.06907071582964806	0.002728121861412584	-0.2731359682071363	-0.3917405925838778	1.53724331851651	1.570796326969429	0	0	-1.036704346851657	-0.7656193591981328	-0.968853609846727	0.5826486135493509	1.570796326969429	0	0
0.003164446411839883	-0.5336269995070486	-0.001035062419389002	-0.1625309214323658	-0.156204898079993	0.9427263709836345	0.3765740134722483	0.4394891080035072	-0.07603156317389581	-0.1915767787097491	0.3561350313989746	0.1021521049148762	0.3594176581759659	0.03295552236405946	0.2268412516577278	0	0.8979459113711218	-0.2091273389131895	-0.1550367530601593	0.7458431052374241	0.08218151389187184	0.7458431050679369	0.2543971053531367	-0.09954123126201135	-0.0004606910950053274	-0.1321391858369436	0.08666096693617042	0.07073566628159908	0.003808359286582999	-0.2740664472493681	-0.3908573671749619	1.538658359699937	1.57079632696943	0	0	-1.038997302159567	-0.7573096615352563	-0.969305925035428	0.5822683916963866	1.57079632696943	0	0
0.005374104194047435	-0.532495064043078	-0.0009555246437438211	-0.1650062795747062	-0.1526463177601552	0.9443184595072269	0.3759445959013173	0.4347345091233991	-0.08001001975291477	-0.1977939619365277	0.3602269820978528	0.1021521049148762	0.3632583083968084	0.02115931855794981	0.2263210018438963	0	0.8942905301952163	-0.2085211019238025	-0.1615608655892536	0.7211079558584804	0.08218151389187184	0.7211079558111434	0.2552693717381626	-0.09014870338918383	-0.0004502501131932598	-0.133199444986151	0.08534147551885206	0.0730068860592641	0.005233924702179349	-0.2753193575355425	-0.3896537358957413	1.540468515658257	1.570796326969429	0	0	-1.04193396369751	-0.7461334153275648	-0.9697914437510772	0.5817370125440573	1.570796326969429	0	0
0.008109887166813518	-0.5307754723905921	-0.0009839500386872374	-0.1681561375451895	-0.1482040405774996	0.9462347328170808	0.3751592324848475	0.4288785483853826	-0.08499248393386444	-0.2051257297557439	0.3665334422764446	0.1021521049148762	0.369288687681733	0.006915404647507672	0.2251478659727308	0	0.8893065239748105	-0.2078718015152773	-0.1699932871730148	0.6904669230480277	0.08218151389187185	0.6904669231653401	0.2563570183396539	-0.07804732784089642	-0.0004375688459834665	-0.1346961625226656	0.0838364618932292	0.07588023349046226	0.006961971896900523	-0.2768803689946815	-0.3881327116435179	1.54257248871007	1.57079632696943	0	0	-1.045364035519992	-0.7322417196352804	-0.9702076420167182	0.5810444931844544	1.57079632696943	0	0
0.01132864367758793	-0.5283042291069804	-0.001199200596216991	-0.1719733794077051	-0.1429267524820924	0.9484061669403505	0.3742271334218236	0.4220151816896059	-0.09092739351029724	-0.213166971582283	0.3756860575504998	0.1021521049148763	0.3781675835843679	-0.009276683403793257	0.2230448837675134	0	0.882832811544875	-0.2072543196959429	-0.1804145440708712	0.6544868411357049	0.08218151389187185	0.6544868413055489	0.2576670213523756	-0.06315991721444586	-0.0004229983608751661	-0.1367092763707359	0.08225413729126074	0.07934244394266171	0.00893767322176447	-0.2787323132199352	-0.3863019806946548	1.544853161039768	1.57079632696943	0	0	-1.049140773270065	-0.7158434887702726	-0.9704552342864918	0.580180637396019	1.57079632696943	0	0
0.01497960949210789	-0.5249219918028174	-0.001683194727032814	-0.1764327014752501	-0.1368757688410302	0.9507523093725553	0.3731601356118034	0.4142363145527234	-0.09774208052041294	-0.2214217199690589	0.3882845714500401	0.1021521049148763	0.3905233699873866	-0.02682217718861034	0.2197657859706166	0	0.8747577112766898	-0.2067492942939594	-0.1928811329999502	0.6139151331252487	0.08218151389187185	0.6139151332729301	0.259220776693127	-0.04546213644960363	-0.0004069246842600534	-0.1393065920934457	0.08071438716778101	0.08336729757518448	0.01109501959989581	-0.2808543532020888	-0.3841768524040625	1.547184000021719	1.570796326969429	0	0	-1.053136234415278	-0.6972095218060227	-0.9704493020624301	0.579137236530838	1.570796326969429	0	0
0.01900520557876997	-0.520494478518136	-0.002511746964414238	-0.1814866007039095	-0.1301256697599291	0.9531864907967867	0.3719727086157589	0.4056260000740434	-0.1053418646692462	-0.2293469556776182	0.4048148276253459	0.1021521049148762	0.4068721335509209	-0.04507579793820665	0.2151320614516677	0	0.8650384986477975	-0.2064354392036981	-0.2074021719282536	0.5696512718588079	0.08218151389187182	0.5696512721159456	0.2610448361055179	-0.02501264171683918	-0.0003897510473723146	-0.1425321107833336	0.07933835896926698	0.08791330564462936	0.01335942099463657	-0.2832197166293728	-0.3817833697674146	1.549435612275013	1.570796326969429	0	0	-1.057243247920791	-0.6766677792585125	-0.9701220442430765	0.5779107886445644	1.570796326969429	0	0
0.02334194532480019	-0.5149324112138852	-0.003746751511222351	-0.1870583350468092	-0.1227650034893458	0.9556186219166118	0.3706821700057745	0.3962561788681652	-0.1136062981419543	-0.23636822267634	0.4255754458737064	0.1021521049148762	0.4275344438325859	-0.06336929327250883	0.209074445853487	0	0.8537350324650574	-0.2063834079041015	-0.223915891903478	0.5227560142836286	0.08218151389187181	0.5227560144266769	0.2631697420046128	-0.001988412720325652	-0.0003718879455932352	-0.1463921042436497	0.07824087019092735	0.0929195409677523	0.01564841699189177	-0.2857943076269246	-0.3791617836546652	1.551482344436359	1.570796326969429	0	0	-1.061391325707061	-0.6546076910911264	-0.9694343858005959	0.5765045182957576	1.570796326969429	0	0
0.02792143545395889	-0.5082089152708925	-0.005427565293939241	-0.1930402774716761	-0.1148962917433108	0.9579607527940227	0.3693085934594385	0.386187172579199	-0.1223897274505711	-0.2419317976447754	0.4506118705497758	0.1021521049148762	0.4525699338803564	-0.08106738415707224	0.2016562661655244	0	0.8410199626746243	-0.2066482263298749	-0.2422677644635923	0.4744085340132622	0.08218151389187184	0.4744085342002294	0.2656173306571114	0.02329165030451191	-0.0003537144382564248	-0.1508464537148115	0.07751964421239058	0.09830454850514021	0.01787500633248679	-0.2885343371062046	-0.3763686240883398	1.553208603636578	1.570796326969429	0	0	-1.065543881115134	-0.6314716419903681	-0.9683761210328525	0.5749300653894625	1.570796326969429	0	0
0.0326714545037473	-0.5003713146382398	-0.007564024541190287	-0.1992960098993865	-0.1066353801451058	0.960132856100739	0.3678745491801541	0.3754746549781401	-0.1315242426834561	-0.2455627639361111	0.4796782864246687	0.1021521049148762	0.4817389352974847	-0.09761452273780669	0.1930774217646585	0	0.8271749509278842	-0.2072626516745738	-0.2621952904376296	0.4258457784515884	0.0821815138918718	0.4258457782483643	0.2683865801537954	0.05035718146970344	-0.0003356077446337441	-0.1558053442236238	0.07724522452166954	0.1039672371253803	0.01995210866638599	-0.2913846392553326	-0.3734767509204392	1.554514980417325	1.570796326969429	0	0	-1.069689417846546	-0.6077409863405819	-0.9669626996874701	0.5732081136707966	1.570796326969429	0	0
0.03751709174442691	-0.4915449636136495	-0.01013262254682597	-0.2056659900185005	-0.09811009175757031	0.9620677161644622	0.3664046986339013	0.3641802318751626	-0.14082464576622	-0.2469142657554997	0.5122369807275735	0.1021521049148762	0.5144989084974895	-0.1125797367783697	0.1836573387704826	0	0.812575268524163	-0.2082328522277575	-0.2833242498108247	0.3782973801144899	0.08218151389187184	0.3782973797844417	0.2714434802130302	0.07859517214061705	-0.0003178999542348811	-0.1611322428105499	0.07745371919471251	0.1097896511708214	0.02179766532157478	-0.2942787871094962	-0.3705727439962847	1.55532418701784	1.570796326969429	0	0	-1.073831732240961	-0.5839188689096481	-0.9652317567517987	0.5713677304551484	1.570796326969429	0	0
0.04238192853981579	-0.4819281115496026	-0.01307612254641298	-0.2119779550825862	-0.08945804410676783	0.9637154017473152	0.3649251439181093	0.3523782611655969	-0.1500965691087453	-0.2458118929910493	0.5474691841796707	0.1021521049148762	0.5500392658504162	-0.1256873276462431	0.1737962116837253	0	0.7976581027486835	-0.2095365577718538	-0.3051796341753693	0.3329066909380853	0.08218151389187181	0.3329066910172629	0.274714567981596	0.1072817846005383	-0.0003008707380746896	-0.1666544780497652	0.07814241049881325	0.1156424654759062	0.02334088163862945	-0.2971412513056191	-0.3677512354796271	1.555586606894521	1.570796326969429	0	0	-1.077975597976195	-0.5605069055065421	-0.9632367831199662	0.5694447614266311	1.570796326969429	0	0
0.04718924350439309	-0.4717781828426164	-0.01630738268618599	-0.2180598655523584	-0.08082378989076444	0.9650460210811932	0.3634626170727711	0.3401781351095238	-0.159146092421206	-0.242275388857636	0.5843639592895349	0.1021521049148762	0.5873482621607088	-0.1368139208526487	0.1639241551862093	0	0.7828839925489095	-0.2111247202337559	-0.3272124561146885	0.2906607997422617	0.08218151389187184	0.2906607996514926	0.2780898408706802	0.1356335415085591	-0.0002847628509371496	-0.1721794262241151	0.07927016958350405	0.1213921423537792	0.02452836305199022	-0.2998921859638128	-0.3651067708524072	1.55528505102233	1.57079632696943	0	0	-1.082115567664382	-0.5379809225907464	-0.9610420895498507	0.5674795693676908	1.57079632696943	0	0
0.0518632224455918	-0.4613916111101712	-0.01971670851442656	-0.2237540731973435	-0.07235541243337129	0.9660508876526036	0.362043542007034	0.3277367443748698	-0.1677902074162259	-0.2365186597531346	0.621808812570406	0.1021521049148762	0.6253006417649232	-0.1459927017867587	0.1544478157567558	0	0.7686950160502664	-0.2129263045954282	-0.3488397059336799	0.2523323725028494	0.08218151389187181	0.2523323723696666	0.2814339792241759	0.1628719489812069	-0.0002697862482574939	-0.1775141795615404	0.08076228447613086	0.1269092580040469	0.0253296738680871	-0.3024542213857875	-0.3627242659411504	1.554438025057131	1.570796326969429	0	0	-1.086227694907349	-0.5167669245608719	-0.9587181980201536	0.5655146942574332	1.570796326969429	0	0
0.05633015401013977	-0.4510804676789294	-0.02318170956385934	-0.2289301860806921	-0.0642008241020928	0.9667418273541609	0.3606930906752356	0.3152636632051628	-0.1758664449049522	-0.2289261542642335	0.65868317314765	0.1021521049148762	0.6627502912946867	-0.1533809308138957	0.1457057598716798	0	0.7554775600659627	-0.2148556267721711	-0.3694914103956148	0.2184442847684409	0.0821815138918718	0.218444284746032	0.2846046039325049	0.1882905891233514	-0.0002560859948673702	-0.1824851403896843	0.08251920350933198	0.1320767001308476	0.02574128730853581	-0.3047602451780958	-0.3606697130731189	1.553100737832401	1.570796326969429	0	0	-1.090266564166537	-0.4972211282691166	-0.9563385829626714	0.5635928201639351	1.570796326969429	0	0
0.06051959218465776	-0.4411495804128985	-0.02657798907750724	-0.2334946141176232	-0.05650401257829533	0.967148872359159	0.3594343397554788	0.3030177013090537	-0.183240372952056	-0.2200118562209497	0.6939376948547246	0.1021521049148762	0.6986128974528871	-0.1592000464059328	0.1379401393709658	0	0.7435346258300671	-0.2168209489551254	-0.3886564434816406	0.1892596831721123	0.08218151389187181	0.1892596832512891	0.2874730528403631	0.2113129752165691	-0.0002437514198908768	-0.1869542363562948	0.08442754907455959	0.1367965814510662	0.02578822785493029	-0.3067605889628859	-0.3589828643248449	1.551363212822814	1.570796326969429	0	0	-1.094167009007625	-0.4796164341059162	-0.9539771863783107	0.5617552745729293	1.570796326969429	0	0
0.06436546733510043	-0.4318773995073201	-0.02978896684829323	-0.2373951968504324	-0.04940147770169628	0.9673166202995531	0.3582876289342047	0.2912943408090647	-0.1898098730346523	-0.2103683278179057	0.7266483921911899	0.1021521049148762	0.731927436269814	-0.1637021857019799	0.1312877186844794	0	0.7330713314040043	-0.2187329047895222	-0.4059187230730171	0.1647982292205446	0.08218151389187184	0.16479822948963	0.2899428032318635	0.2315308362334818	-0.0002328720913216324	-0.1908290727602528	0.08637152097099567	0.1409947769283907	0.02552286122585463	-0.3084280755011084	-0.3576733499862079	1.549345248136116	1.57079632696943	0	0	-1.09784963690877	-0.4641373312058259	-0.9517064614111806	0.5600410410433779	1.57079632696943	0	0
0.06780712831226307	-0.4235027910706162	-0.03271338979241712	-0.2406203217633446	-0.04301904395148343	0.9672996945240817	0.3572701833588788	0.2804081013753092	-0.1955057485414937	-0.2006144619372721	0.7560457737370924	0.1021521049148762	0.76189145178032	-0.1671287446526178	0.1257884219324738	0	0.7241943694740273	-0.2205114140414757	-0.4209776105780412	0.1448747088817432	0.08218151389187182	0.1448747092314614	0.2919611529187119	0.2487168033019209	-0.000223479163317584	-0.1940657047331211	0.08824281779947511	0.1446224487504194	0.02502071528052087	-0.3097597636373039	-0.3567210387070225	1.547188449407534	1.570796326969429	0	0	-1.101228351874415	-0.4508837352969792	-0.9495955488751002	0.5584861248627542	1.570796326969429	0	0
0.07079029933648544	-0.4162185501394799	-0.03526968791362207	-0.2431929165298535	-0.03746917609907007	0.9671577338866482	0.3563960209999639	0.2706737312008774	-0.2002888302348196	-0.1913487723220171	0.7815262262011646	0.1021521049148762	0.7878711612168374	-0.169690006463921	0.1214063140067247	0	0.7169239562927937	-0.2220901957412124	-0.4336500333835933	0.1291539832669328	0.08218151389187185	0.1291539836948072	0.2935217873601266	0.2628108591154054	-0.0002155948693712681	-0.1966641725188178	0.08994775661805823	0.1476544546755215	0.02437363484329699	-0.3107749546144437	-0.3560806264358606	1.545046028386252	1.570796326969429	0	0	-1.104218136452212	-0.4398829602194044	-0.9477084568286138	0.5571230717538181	1.570796326969429	0	0
0.07326793709552543	-0.4101710893195946	-0.0373970462036612	-0.2451605510140226	-0.0328488623269796	0.9669503547466755	0.355676087676379	0.262384757372927	-0.2041442996405599	-0.1831124346480462	0.8026368990270372	0.1021521049148762	0.8093919217177563	-0.1715573366124445	0.118056677275705	0	0.7112150101090101	-0.2234185762728843	-0.4438558447013407	0.1172148428156848	0.08218151389187182	0.1172148434222367	0.2946582376680966	0.273885016869054	-0.0002092320024467359	-0.1986582457782681	0.09141103812373427	0.1500850936489129	0.02368098223607572	-0.3115098167316175	-0.3556896636792805	1.54307136703623	1.570796326969429	0	0	-1.106741659238608	-0.4311078058068994	-0.9461022550330856	0.5559804907489769	1.570796326969429	0	0
0.07520097689840965	-0.4054647841924049	-0.03905372011059383	-0.2465833841467986	-0.02923805093215695	0.9667324454887207	0.355118553162682	0.2557928765305479	-0.2070743066345725	-0.1763633497265562	0.8190482978612539	0.1021521049148762	0.8261167093726246	-0.1728646831363493	0.1156334676449851	0	0.7069834076654574	-0.2244608886524894	-0.4515910897060739	0.1086153365026982	0.08218151389187182	0.1086153373045252	0.2954303359791051	0.2820941627172021	-0.0002043849864663094	-0.2001016370499816	0.0925763977413214	0.1519220633881257	0.02303987449630105	-0.3120096395609975	-0.3554786809830265	1.541406455686892	1.570796326969429	0	0	-1.108733910403588	-0.4244979926261069	-0.9448253955963818	0.5550825253235346	1.570796326969429	0	0
0.0765589714577417	-0.4021689247746031	-0.04021358281282257	-0.2475218175383962	-0.02669855353593639	0.966550080926684	0.3547291761667851	0.2510980174071878	-0.2090901099884448	-0.1714601287813231	0.8305352700674968	0.1021521049148762	0.8378202665761486	-0.1737103545896485	0.1140331548222904	0	0.7041330537018183	-0.2251942065111794	-0.4568955654530903	0.1029530239536058	0.08218151389187182	0.1029530248773908	0.2959070337991567	0.2876223786026413	-0.0002010398658000672	-0.2010532112232235	0.0934049901452928	0.1531797325022621	0.02253555460308412	-0.3123201027788701	-0.3553818383382556	1.540171228514087	1.57079632696943	0	0	-1.110144753182364	-0.4199819061207815	-0.9439162713938799	0.554448292452018	1.57079632696943	0	0
0.07732081165962061	-0.4003247349670089	-0.04086223123287702	-0.2480256398949761	-0.02527294748759362	0.9664372318892013	0.3545115958920307	0.2484415191565051	-0.2102051791386013	-0.168652865345143	0.8369615733987026	0.1021521049148762	0.8443666518827126	-0.174159824592065	0.1131727077914144	0	0.7025796446322981	-0.2256054705042523	-0.4598219064039258	0.0999143144320695	0.08218151389187185	0.09991431540083907	0.2961492888556871	0.2906342125918467	-0.000199184144481819	-0.201563622447063	0.09387276654946945	0.1538730009657963	0.02223285889752301	-0.3124790400240113	-0.3553465886912838	1.539454454591292	1.57079632696943	0	0	-1.110940013477097	-0.417495255621499	-0.9434019542452594	0.5540912629673946	1.57079632696943	0	0
0.0775	-0.399891535082174	-0.04101454788628395	-0.24814174534785	-0.02493754561516208	0.9664095910427283	0.3544605117293227	0.2478143826259097	-0.2104657740280456	-0.1679867982790809	0.8384710805746438	0.1021521049148762	0.8459042131896994	-0.1742630133236033	0.1129742471487948	0	0.7022191234072701	-0.2257021572676935	-0.4605048738718482	0.09921404150879834	0.08218151389187185	0.09921404248461342	0.2962035559463263	0.2913330775545202	-0.0001987497984778721	-0.2016811776903108	0.09398305744691936	0.1540347530276255	0.0221595828461954	-0.3125148006725832	-0.3553403197990992	1.539283374707872	1.57079632696943	0	0	-1.111127437530266	-0.4169153288632382	-0.9432805407663558	0.5540071605844366	1.57079632696943	0	0
0.07795425073372618	-0.3987943750476552	-0.04140021689425148	-0.2484319573456075	-0.0240871335397019	0.9663376488214703	0.3543311693162648	0.2462206967040559	-0.2111235116789681	-0.1662885371593411	0.8422944269821178	0.1021521049148762	0.8497981249730763	-0.1745203602784286	0.1124778499298519	0	0.7013135404579288	-0.2259471548646803	-0.4622269890789005	0.09746351728963597	0.08218151389187184	0.09746351827632556	0.2963364105551323	0.2930882767639486	-0.0001976522877110091	-0.2019748758661408	0.0942630668576552	0.1544425446976661	0.02197025750646626	-0.3126026550590386	-0.3553279087773897	1.538845422424735	1.57079632696943	0	0	-1.11160318612786	-0.4154536757743268	-0.9429719997217441	0.5537937399738651	1.57079632696943	0	0
0.07901578477516402	-0.3962365676765884	-0.04229865688266853	-0.2490868924812752	-0.0220989965235709	0.9661590815607932	0.3540298074514911	0.2424744561104425	-0.2126442854935464	-0.1622662021316734	0.8512075937934391	0.1021521049148762	0.8588750306546159	-0.1750989290043892	0.1113554579618132	0	0.6992445661107488	-0.2265188666561063	-0.4661986525428816	0.09351117957108229	0.08218151389187184	0.09351118053966358	0.2966199272187071	0.2970966928741834	-0.0001951071921207324	-0.2026367758195449	0.09491947735568552	0.155382714452145	0.02150776511794907	-0.3127920812725455	-0.3553185758041886	1.537798135415027	1.570796326969429	0	0	-1.112718282577886	-0.4120857527052755	-0.9422467997637993	0.5532937863075004	1.570796326969429	0	0
0.08066444641183987	-0.3922832507567913	-0.04368487998733498	-0.2500383944174648	-0.0190091570838285	0.9658528440542919	0.3535643157705683	0.2365955948308149	-0.2149601041653393	-0.1558744451335078	0.8649827669098955	0.1021521049148762	0.8729038806745805	-0.1759381350888775	0.1097172224267546	0	0.696165319300175	-0.2274033793362323	-0.4722151305912104	0.08775882906932633	0.08218151389187184	0.08775882988750967	0.29698242077135	0.3030566249953936	-0.0001912078680335335	-0.203595178958876	0.0959432506199521	0.1568064768416469	0.02073319652137915	-0.3130410549797309	-0.3553597455148904	1.536105223234199	1.57079632696943	0	0	-1.114458587745844	-0.4069894819352348	-0.9411090793585115	0.5525139488609875	1.57079632696943	0	0
0.08287410419404742	-0.3870276375794262	-0.04552155436531727	-0.2511852755316	-0.01486454302850593	0.9653875755552609	0.3529454689368958	0.2286035784935697	-0.2179735164161688	-0.1470448176362124	0.8832971051409229	0.1021521049148762	0.8915610040198619	-0.1769599985484649	0.1077223870422915	0	0.6923020217210407	-0.2285790073773701	-0.479973204089058	0.08078967183722696	0.08218151389187184	0.08078967234596987	0.297311017215429	0.3105194761801006	-0.0001860840257087982	-0.2047420191066796	0.09731941109814717	0.1586426787976748	0.01958605157865283	-0.3132851748863608	-0.3555241297507115	1.533709149946384	1.57079632696943	0	0	-1.116804738979578	-0.4004204253736603	-0.9395629502731863	0.5514623542183409	1.57079632696943	0	0
0.08560988716681352	-0.3806017065096758	-0.04775381735532594	-0.2523953747656534	-0.009728965045101096	0.9647252904661626	0.3521876097291424	0.2185389592936811	-0.221555848506335	-0.1357239561587205	0.905703233265355	0.1021521049148762	0.9144010252147984	-0.1780825588687279	0.1055705431399297	0	0.687953210312268	-0.2300117782008696	-0.4890609162909412	0.07334335929604736	0.08218151389187182	0.07334335970366229	0.2974503209001332	0.3188888101286781	-0.0001799103588797835	-0.2059336550437331	0.09902072492898832	0.1607965069217364	0.01798947864305699	-0.3134384797402182	-0.3559070047951162	1.530540072241364	1.57079632696943	0	0	-1.11972545033117	-0.3927117174975134	-0.9376160212907857	0.5501502591182442	1.57079632696943	0	0
0.08882864367758794	-0.3731778801254126	-0.05030724886374916	-0.2535121875311835	-0.003683149632163618	0.9638254532139513	0.3513083042903963	0.2064798641769558	-0.2255516545992272	-0.1219039667400899	0.9316419403561945	0.1021521049148762	0.9408617367529889	-0.1792370218008813	0.1034833709541403	0	0.6834772103789085	-0.2316528026929163	-0.4989657401086515	0.06626571040918111	0.08218151389187177	0.0662657112861635	0.2972052659200584	0.3274426547383014	-0.0001728917651141749	-0.206996726360425	0.1010033463963531	0.1631523563563136	0.01585599743576541	-0.3133964615982565	-0.3566213480932859	1.526523740536323	1.570796326969429	0	0	-1.123173180608326	-0.3842590726434509	-0.9352810546003902	0.5485923162272262	1.570796326969429	0	0
0.09247960949210787	-0.3649672057705344	-0.05308751922728955	-0.2543646319734414	0.003175687119551013	0.9626496160634403	0.3503277889828747	0.1925597393272355	-0.2297853688686938	-0.1056512102567186	0.9604669326067277	0.1021521049148762	0.9702813491130634	-0.1803819097278476	0.101680569513765	0	0.6792724773254482	-0.2334368700114877	-0.5090936002922306	0.06044645751426676	0.08218151389187178	0.06044645874175445	0.2963496359560687	0.3353713298023851	-0.0001652293229761409	-0.2077382218036631	0.1032038900458928	0.1655786404991389	0.01309505508038395	-0.3130413715018299	-0.3577903699744342	1.521590879935826	1.570796326969429	0	0	-1.127079648134958	-0.3755001203218916	-0.9325775735728139	0.5468069017626765	1.570796326969429	0	0
0.09650520557876997	-0.3562128506664988	-0.05598262243510727	-0.2547799687100223	0.01073472988399895	0.9611662680531472	0.3492682135726428	0.1769823273497962	-0.2340701763851101	-0.08712848289502091	0.9914714973537126	0.1021521049148762	1.001929155792547	-0.1815128304554652	0.1003522719840044	0	0.67575054459349	-0.2352831535761574	-0.5188011383872565	0.056748634739624	0.08218151389187181	0.05674863598883499	0.2946420801878004	0.3418323702883915	-0.0001571362109550304	-0.2079602455772908	0.1055391698194744	0.1679347705176566	0.009622367946424281	-0.3122502784537709	-0.3595371905823179	1.515687523052808	1.57079632696943	0	0	-1.131352091552293	-0.3668884696392157	-0.9295332144212892	0.544816595390461	1.57079632696943	0	0
0.1008419453248002	-0.3471784204505374	-0.05886828909679691	-0.2545992348651482	0.01886701993046275	0.9593554815710383	0.3481527096569834	0.1600344812252542	-0.238218830253798	-0.06660610464132491	1.023936323577674	0.1021521049148762	1.03504741236078	-0.1826609372394073	0.09963206490353191	0	0.6733027338249479	-0.2370986812225535	-0.5274412828752698	0.05593488475294339	0.0821815138918718	0.05593488589877911	0.2918500467452227	0.3460206437449563	-0.0001488333848921146	-0.2074790014750251	0.1079095385953728	0.1700802145654016	0.005370655445372533	-0.3109058737798425	-0.3619719791061027	1.508785452642939	1.57079632696943	0	0	-1.135871488410442	-0.3588636827473147	-0.9261845485621806	0.5426488496668067	1.57079632696943	0	0
0.1054214354539589	-0.3381317550333898	-0.06161655345471932	-0.2536937496166941	0.02743355531905575	0.9572129040144348	0.3470043563841324	0.1420887745149934	-0.2420556982760541	-0.04445924341058472	1.057152949803119	0.1021521049148762	1.068898386533167	-0.1838908695754292	0.09957590343577767	0	0.6722635210437633	-0.2387847203187683	-0.534418693115802	0.0585975409278228	0.08218151389187181	0.05859754143218523	0.2877798692894895	0.3472471914440959	-0.0001405152311015509	-0.2061462615455819	0.1102060810077322	0.1718850536268107	0.0003009487456247335	-0.308909320878137	-0.3651776130748195	1.500891708466676	1.570796326969429	0	0	-1.140493960997707	-0.3518194626906868	-0.9225771167880383	0.540336798850389	1.570796326969429	0	0
0.1101714545037473	-0.3293260766589531	-0.06410666697716173	-0.2519805463697655	0.03628606172887221	0.9547526360602681	0.3458451639885218	0.1235966303162896	-0.2454289089554296	-0.02115140352623863	1.090459545056908	0.1021521049148762	1.102807943634572	-0.1852794747371494	0.1001520148682395	0	0.6728749898182297	-0.2402455562955472	-0.5392480653042523	0.06510017264911883	0.0821815138918718	0.06510017328337732	0.2823087909145509	0.3450161227060144	-0.0001323624198598153	-0.2038703735347376	0.1123209853816501	0.1732409409900651	-0.005586784336748514	-0.3061936912125629	-0.3691956578756019	1.492056054594248	1.570796326969429	0	0	-1.145056284145205	-0.3460733911097456	-0.9187645201944733	0.5379200142109383	1.570796326969429	0	0
0.1150170917444269	-0.3209813269605307	-0.06623680164121093	-0.2494342455945951	0.04527039202726481	0.9520085948322269	0.3446952209584854	0.1050732645268951	-0.2482212097508616	0.002793287390221016	1.123299533063514	0.1021521049148762	1.136196899088647	-0.1868783601464676	0.1012450774265013	0	0.675257689857141	-0.241398464132577	-0.5416058613154149	0.07553796405323651	0.08218151389187178	0.07553796552796777	0.2754128375426328	0.3390866343163337	-0.0001245233649260163	-0.2006330755617442	0.1141594763950236	0.1740710041942531	-0.01224528624552702	-0.3027359372125261	-0.3740149743716861	1.482375440713587	1.570796326969429	0	0	-1.149385766945168	-0.3418421176406052	-0.914806619307893	0.5354448559397859	1.570796326969429	0	0
0.1198819285398158	-0.3132689153945864	-0.06793450850608956	-0.2460931120806851	0.0542304466085797	0.9490340657692624	0.3435721260165083	0.08706205077617543	-0.2503581389645312	0.0268243117894872	1.155233503760988	0.1021521049148762	1.168594034464441	-0.1886964882909293	0.1026749161007107	0	0.6793930868178593	-0.2421831947097021	-0.5413658425503642	0.08972263696237663	0.08218151389187184	0.08972263797190928	0.2671840552464618	0.3295081622553431	-0.0001171231659031975	-0.196498402481074	0.1156510332921141	0.1743371509038673	-0.0195755724004518	-0.2985651880226668	-0.3795652903201431	1.47199482642986	1.57079632696943	0	0	-1.1533139131717	-0.3392256895022439	-0.910767161018009	0.5329639849277005	1.57079632696943	0	0
0.1246892435043931	-0.306302704071115	-0.06916389931001832	-0.2420578789109438	0.06301241635730084	0.9458993267807735	0.3424908061045596	0.07008903217876156	-0.2518123987580214	0.05039999943805969	1.185921071236924	0.1021521049148762	1.199629505426519	-0.1907017866846615	0.1042265416767117	0	0.685121436853483	-0.2425692046405717	-0.5386113121318096	0.107194696734285	0.08218151389187182	0.1071946975622653	0.2578321960097606	0.3166210594955466	-0.0001102557566468955	-0.1916109800607019	0.1167575253069754	0.1740435334148039	-0.02742770597328419	-0.2937655526685223	-0.3857174770890317	1.461104199367785	1.57079632696943	0	0	-1.156692353287899	-0.3382036034768661	-0.9067113831771825	0.5305346434373521	1.57079632696943	0	0
0.1293632224455918	-0.3001378945301753	-0.06992807876300258	-0.2374832405854778	0.07146905631219382	0.9426874887682805	0.3414637026477811	0.05461518762854517	-0.2526038316107059	0.07301873656812621	1.215092083218452	0.1021521049148763	1.229012642442086	-0.1928312217274369	0.1056856288113132	0	0.6921564601475984	-0.2425592329391356	-0.5336216247940965	0.1272619504162625	0.08218151389187185	0.127261951454346	0.2476692702873532	0.3010220463486698	-0.0001039852280669181	-0.1861829374663467	0.1174764843403258	0.1732355545411814	-0.03560730848256058	-0.288472556120875	-0.3922911100625235	1.449932099922065	1.57079632696943	0	0	-1.159408808419335	-0.3386432909030951	-0.9027042095573444	0.5282155340910221	1.57079632696943	0	0
0.1338301540101398	-0.2947778163229899	-0.07026635968070816	-0.2325633536614388	0.07946366016724707	0.9394890028847327	0.3405012562528297	0.0409943628828226	-0.2527950567149423	0.09424257897168771	1.242516462903071	0.1021521049148763	1.256501988745517	-0.1950040692446507	0.1068723292177135	0	0.7001150523143417	-0.2421885880704716	-0.5268359363940457	0.1490592155986515	0.08218151389187182	0.1490592168184352	0.2370795153099961	0.2835009874301133	-9.835384228983355e-05	-0.1804711123760301	0.1178388755350337	0.1719946015936809	-0.04388726982802327	-0.2828636012644168	-0.3990684190572685	1.438736351554761	1.570796326969429	0	0	-1.161400505094885	-0.340319577962332	-0.8988094603738886	0.5260624985398449	1.570796326969429	0	0
0.1380195921846578	-0.2901868962136112	-0.07024694945428045	-0.2275138386646743	0.08687337151959373	0.9363955329503598	0.3396125422007709	0.02944074812255226	-0.252483462463295	0.1137115547806032	1.267964250313438	0.1021521049148762	1.281876594434752	-0.1971333280571219	0.1076669691800078	0	0.7085572573129189	-0.241520425330908	-0.5188016220872218	0.1716208076386101	0.08218151389187182	0.1716208089788422	0.2264808273124591	0.2649610259833465	-9.338002991894818e-05	-0.1747484935191446	0.1179020638971063	0.1704294501595258	-0.05202305730871414	-0.2771440346098063	-0.4058123743446211	1.427792933604673	1.570796326969429	0	0	-1.162662625618936	-0.3429417730557894	-0.8950901207943366	0.5241236083231041	1.570796326969429	0	0
0.1418654673351004	-0.2863068203934934	-0.06995673770193318	-0.2225533089816357	0.09359153443304224	0.9334940365405162	0.3388058848867271	0.02001769333306747	-0.2517907373756644	0.131148633202642	1.29119161745358	0.1021521049148762	1.304915776736008	-0.1991359983057222	0.1080233954513656	0	0.7170296663188201	-0.2406380796065164	-0.5101170413152571	0.1939556313419327	0.08218151389187181	0.1939556325044509	0.216285417653515	0.2463362130119697	-8.906573436636785e-05	-0.1692752350579201	0.1177397677888679	0.1686657756261633	-0.05976928276061765	-0.2715311766936426	-0.4122858199846808	1.417383990725992	1.57079632696943	0	0	-1.163250063138952	-0.3461839614276544	-0.8916092492317671	0.5224346170164854	1.57079632696943	0	0
0.1453071283122631	-0.2830724598318116	-0.06949025657441536	-0.217887236780942	0.09952889905876834	0.9308618915021845	0.3380892986874072	0.01264577365283859	-0.2508513568713776	0.1463565428199093	1.31193319318467	0.1021521049148762	1.325390890409655	-0.2009439093397493	0.107968740320428	0	0.7251049875913212	-0.2396359536204878	-0.5013779494215069	0.2151150399677918	0.0821815138918718	0.215115040846397	0.2068668695458324	0.2285191989306122	-8.540234605974178e-05	-0.1642746213668677	0.1174312931369895	0.1668353359634448	-0.0668950139779292	-0.2662388196600881	-0.4182685204365343	1.40778590234555	1.570796326969429	0	0	-1.163271812903873	-0.3497141004486249	-0.8884307873768953	0.5210158203705084	1.570796326969429	0	0
0.1482902993364854	-0.2804245911670222	-0.06893973786324234	-0.213696118268987	0.1046136489665595	0.9285636698068555	0.3374706711944019	0.007131269181267885	-0.2498013877315755	0.1592082984328878	1.329915926033969	0.1021521049148762	1.343068595687755	-0.2025072935168203	0.1075912480914464	0	0.7324118744699758	-0.2386104669837324	-0.4931343772293241	0.2342459745562498	0.08218151389187181	0.2342459754095504	0.1985383215928163	0.2123072843293144	-8.237269810950548e-05	-0.1599180279094892	0.1170521570492691	0.1650661584582703	-0.07319576202978358	-0.2614642212241118	-0.423569709518813	1.399258165631682	1.57079632696943	0	0	-1.162878525697615	-0.3532184892658197	-0.8856194797059608	0.5198711882813188	1.57079632696943	0	0
0.1507679370955254	-0.2783176123134367	-0.06838757867455644	-0.2101287269674683	0.1087903888523171	0.9266498093219495	0.3369576688213581	0.00320576232097719	-0.2487686606830932	0.1696335586871391	1.344871878043121	0.1021521049148762	1.357722128604171	-0.203795187927436	0.1070198039460327	0	0.7386517906764889	-0.237652218706688	-0.4858612790094285	0.2506256111581627	0.08218151389187185	0.2506256122174119	0.1915432152576881	0.1983697968504749	-7.995554464652703e-05	-0.1563206435801867	0.1166674877275756	0.1634745960023146	-0.07850098639614717	-0.2573787558970229	-0.4280349709633899	1.392033629089756	1.57079632696943	0	0	-1.162244821966373	-0.3564197495515252	-0.8832393584099753	0.5189901802096303	1.57079632696943	0	0
0.1527009768984096	-0.2767219146629287	-0.06790170549335556	-0.2073000870383419	0.1120183783424361	0.9251570421065426	0.3365574099030879	0.0005735384427378865	-0.247864911135183	0.1776029544366818	1.356561473328306	0.1021521049148762	1.369145964311192	-0.2047898774316394	0.1063996006457407	0	0.7436029061298575	-0.2368399842243459	-0.4799427962216435	0.2636778027805957	0.08218151389187185	0.2636778040655894	0.1860570142313779	0.1872349623470192	-7.813051491756217e-05	-0.1535471719016011	0.1163286355450508	0.1621595793652029	-0.08267705220799826	-0.2541224125002093	-0.4315476483145242	1.386310387877068	1.57079632696943	0	0	-1.161548699418327	-0.3590880913784713	-0.8813507028126787	0.5183520499472732	1.57079632696943	0	0
0.1540589714577417	-0.2756218833600277	-0.06753356408959378	-0.2052929228951221	0.1142694101731748	0.9241100859872593	0.3362759994586452	-0.001043316735544086	-0.2471800297549844	0.1831124544221579	1.364786306165293	0.1021521049148762	1.377169933825074	-0.2054828110942608	0.1058680818908162	0	0.7471138692718494	-0.2362366402486606	-0.4756673726379371	0.2729750627966344	0.08218151389187185	0.2729750642120911	0.1821962699695678	0.179291117795289	-7.687985415616929e-05	-0.1516245886583356	0.1160725660851864	0.1611989204361696	-0.08562656135279056	-0.2518015065982663	-0.4340261259297128	1.382245407673612	1.57079632696943	0	0	-1.160950657478732	-0.3610469382884558	-0.8800058600352061	0.5179318511657204	1.57079632696943	0	0
0.1548208116596206	-0.2750112208581886	-0.06731789524137353	-0.2041606420647695	0.1155260639575837	0.9235237604267424	0.3361179930381243	-0.001864702829698084	-0.2467781165539229	0.1861703567846779	1.369405849039985	0.1021521049148763	1.381671542142008	-0.2058694162051963	0.1055342380125647	0	0.7490925815028284	-0.235886639338125	-0.4732290160804008	0.2782331576043384	0.08218151389187191	0.2782331590681932	0.1800301394266567	0.1747946189446685	-7.618949435502289e-05	-0.1505575300587297	0.1159230032361031	0.1606470875909944	-0.0872859960961062	-0.2504881848070801	-0.435419313773221	1.379949223543741	1.57079632696943	0	0	-1.160574952736893	-0.3621749792072388	-0.8792445049057092	0.517706875543815	1.57079632696943	0	0
0.155	-0.2748681969917887	-0.06726624778915877	-0.2038937291591015	0.11582098	0.9233859840000003	0.3360808120000001	-0.002048878938470167	-0.2466817598104732	0.1868861066381879	1.370492862830318	0.1021521049148763	1.382730389	-0.2059601826661224	0.1054519350700246	0	0.7495587618315591	-0.2358031332293009	-0.4726515038305157	0.2794740685279241	0.08218151389187191	0.2794740700000001	0.1795207575045114	0.1737330799160725	-7.6028287546125e-05	-0.150307886465418	0.1158872453159299	0.1605159718596739	-0.08767674201645138	-0.2501781513719887	-0.4357472173722572	1.379407527249964	1.57079632696943	0	0	-1.160482340498015	-0.3624432603322624	-0.8790646878013029	0.5176551200115512	1.57079632696943	0	0
0.1554542507337262	-0.2745065893962699	-0.06713378213305625	-0.2032161368602511	0.1165674791409875	0.9230369607660437	0.33598652369436	-0.002500229145393384	-0.2464344004225479	0.1886945785703626	1.373249667275336	0.1021521049148762	1.38541472801537	-0.2061899549299197	0.1052367829558249	0	0.7507417040777151	-0.2355894404166757	-0.4711808239817362	0.2826267295814026	0.08218151389187187	0.2826267310686428	0.1782297560209427	0.1710355432523053	-7.562160652463919e-05	-0.1496774405277096	0.1157956461002999	0.1601813572325852	-0.08866799128519891	-0.2493903131213207	-0.4365787716336351	1.378031550622048	1.57079632696943	0	0	-1.16024027235555	-0.3631283346483689	-0.8786075510451942	0.517525934831869	1.57079632696943	0	0
0.156515784775164	-0.2736664592626941	-0.06681586961395225	-0.2016277415584365	0.1183056013792306	0.9222228765276564	0.3357659772475284	-0.003467650079775342	-0.2458392273882994	0.1928870053365443	1.379697490026961	0.1021521049148762	1.391688559797516	-0.2067243762664511	0.1046972114944341	0	0.7535113688368683	-0.2350790121726445	-0.467707892866422	0.2900310481220763	0.08218151389187181	0.2900310496132847	0.1752154239951555	0.1646970568745776	-7.468226818035943e-05	-0.1482185796017749	0.1155765347757798	0.1593871054803377	-0.09098788700505205	-0.247538972295253	-0.4385232355035901	1.374800783539164	1.570796326969429	0	0	-1.159633483428492	-0.3647565013251471	-0.8775318783412634	0.517235589416989	1.570796326969429	0	0
0.1581644464118399	-0.2723727292456422	-0.06630018568434499	-0.1991492247460248	0.1209870647116901	0.9209636879974263	0.3354227626147794	-0.004724669148248983	-0.2448681733542944	0.1993029526396768	1.389726823730512	0.1021521049148762	1.401435542885963	-0.2075441971530546	0.1037551990816443	0	0.7578212814918753	-0.2342563121787876	-0.4622196862056592	0.301624462765112	0.08218151389187184	0.301624464189184	0.1705456904149888	0.1547650538205532	-7.325357385003737e-05	-0.1459977555793614	0.1152235973364481	0.1581203460841129	-0.09459837661932118	-0.2446368491193754	-0.4415440118920333	1.369741377112174	1.570796326969429	0	0	-1.158575280668052	-0.3673578544161807	-0.8758398283609005	0.5168181113465958	1.570796326969429	0	0
0.1603741041940474	-0.2706521710188066	-0.06557101423332327	-0.195811508232988	0.1245456322929536	0.919288485253705	0.3349611112276663	-0.005932679951694053	-0.2434801783945925	0.2077159328789447	1.403197714620181	0.1021521049148762	1.414506851152582	-0.2086165410831496	0.1022891693294444	0	0.7635949345784588	-0.233098759631612	-0.4547013177964429	0.3173159844677587	0.08218151389187182	0.317315985742981	0.1643230244798973	0.1413110462314769	-7.139485228510173e-05	-0.1431215805595356	0.1147306947555924	0.1563619626479515	-0.09944530340055613	-0.2407009663404069	-0.4455867227151181	1.362882746489554	1.570796326969429	0	0	-1.156931221041103	-0.3709742663145326	-0.8735283766132406	0.5163266521942432	1.570796326969429	0	0
0.1631098871668135	-0.2685263598411897	-0.06461631396043108	-0.1916673173460998	0.1288933783364319	0.9172397892210253	0.3343862016834099	-0.006655737050870691	-0.2416300500614721	0.2178277317302507	1.419918411913663	0.1021521049148762	1.430703782640471	-0.2098897956491145	0.1001420255098183	0	0.7706982313223488	-0.2315834598730381	-0.4451720294064005	0.3369313374493617	0.08218151389187182	0.3369313386451323	0.1567042835997294	0.1244804972053247	-6.917960109740386e-05	-0.1397513131080631	0.1140981799826039	0.1540948107318955	-0.1054449918212122	-0.2357651498010364	-0.4505663072361415	1.354272110945405	1.570796326969429	0	0	-1.154527546180399	-0.3756392303480451	-0.8705911768676728	0.5158355520539738	1.570796326969429	0	0
0.1663286436775879	-0.2660012354849304	-0.06343475210246743	-0.1867981370897677	0.1339227515356594	0.9148753235531171	0.3337038329082891	-0.006388130794724778	-0.2392770386819461	0.2292784855824053	1.43963864980652	0.1021521049148762	1.449775053349203	-0.2112930136206497	0.09713298094056132	0	0.778919168566472	-0.2296935246713011	-0.43371333328669	0.3601773570221948	0.08218151389187184	0.3601773584215238	0.1479101124529599	0.1045251278558936	-6.669098479184947e-05	-0.1361121763335262	0.113339231006242	0.1513105824577463	-0.1124773322760667	-0.2298877705850592	-0.4563598204134435	1.343980526122937	1.570796326969429	0	0	-1.151161640560966	-0.3813606912023911	-0.867017330154073	0.5154411285859059	1.570796326969429	0	0
0.1699796094921079	-0.2630579707671571	-0.06204228377450832	-0.1813190945604976	0.1395095988843488	0.9122688961396719	0.3329201912019694	-0.004592685650839035	-0.2363936477343649	0.2416607788837357	1.462037805785669	0.1021521049148762	1.47140933364008	-0.2127383547625805	0.09307567198674421	0	0.7879522714966426	-0.227424506176275	-0.4204932098263465	0.3866127338864622	0.08218151389187184	0.3866127354165955	0.1382282198804911	0.08182750004353068	-6.40174653000306e-05	-0.1324979089402024	0.112485447917874	0.1480164701075336	-0.1203806329052507	-0.2231582821104586	-0.4628016134578224	1.332108719005253	1.570796326969429	0	0	-1.146616617056856	-0.3881055422387005	-0.8627906269214973	0.5152613009638988	1.570796326969429	0	0
0.17400520557877	-0.2596478022814221	-0.0604768073290684	-0.1753799859679211	0.1455170990339019	0.9095097525684065	0.3320418152665724	-0.0007490958316800911	-0.2329734483533691	0.2545373202515643	1.486709033732803	0.1021521049148762	1.495222826156734	-0.214129191897986	0.08780231914008692	0	0.797393357422207	-0.2247899033925329	-0.4057807806619959	0.4156327467681305	0.08218151389187181	0.41563274786495	0.1280069547598611	0.05691082107457869	-6.124544512906485e-05	-0.1292666994614597	0.1115901738508988	0.1442405475903614	-0.1289500529971093	-0.2157009408723343	-0.469683032260895	1.318792104765009	1.57079632696943	0	0	-1.140680120813861	-0.3957889192170889	-0.8578900539852631	0.515433172841342	1.57079632696943	0	0
0.1783419453248002	-0.2556932240329496	-0.05879948703389308	-0.1691610904085108	0.151800567744848	0.9066998405949132	0.3310758133886066	0.005591452836528843	-0.2290366506283341	0.267461514462606	1.513143631106346	0.1021521049148762	1.520744809088759	-0.215369083409839	0.08119175613965816	0	0.8067496456499101	-0.2218246465053201	-0.389946911602549	0.4464746982234132	0.0821815138918718	0.4464746993506788	0.1176370585196913	0.03042884193438363	-5.845129850328951e-05	-0.1268252906370203	0.1107281067161053	0.1400348626084614	-0.1379413297189477	-0.2076742732937887	-0.4767584619844727	1.304204207851794	1.570796326969429	0	0	-1.13316662518866	-0.4042708879938079	-0.8522923504285784	0.516107675373123	1.570796326969429	0	0
0.1829214354539589	-0.2510970525489197	-0.05709179102909491	-0.16286337445591	0.1582129699810641	0.9039487022560908	0.3300303360536502	0.01475226015608544	-0.2246324573642795	0.2799998437716556	1.540725736083486	0.1021521049148762	1.547406912735244	-0.2163760364302934	0.07319719601891737	0	0.8154680692521924	-0.21858568666713	-0.3734486286899319	0.4782477243588712	0.08218151389187185	0.4782477253116497	0.1075221560011986	0.003134485283252818	-5.570610922699339e-05	-0.1255998288143201	0.1099903185992997	0.1354755731555388	-0.1470808096864517	-0.1992655334465833	-0.483758551220598	1.288557795367392	1.57079632696943	0	0	-1.123941533144575	-0.4133618023147217	-0.8459772180350446	0.5174405805916492	1.57079632696943	0	0
0.1876714545037473	-0.2457593125328218	-0.05544811819208456	-0.1566939489480524	0.1646108288681006	0.9013661817542621	0.3289152194786428	0.026884630583836	-0.2198377653063414	0.2917546605637378	1.568741062521191	0.1021521049148762	1.574543581982589	-0.2170981236547695	0.06386831341497598	0	0.8229811191375208	-0.2151492975908512	-0.3567984439534051	0.5099861505253762	0.08218151389187182	0.5099861512290746	0.0980417246565784	-0.02416967910315473	-5.306508912619061e-05	-0.1259947791603088	0.1094747525911542	0.1306599818836032	-0.1560816406006477	-0.1906804112967082	-0.4904099549546674	1.272103188871942	1.57079632696943	0	0	-1.11294450559016	-0.4228357737300298	-0.8389353358442017	0.5195796847797416	1.57079632696943	0	0
0.1925170917444269	-0.2395999242730612	-0.05396492275080115	-0.1508488687771892	0.1708601142356103	0.8990536409192974	0.3277426585668268	0.04193535664551307	-0.2147524748186422	0.3023858001067314	1.596404512315697	0.1021521049148762	1.601410605856262	-0.2175110434585841	0.05336223592962971	0	0.8287652995372925	-0.2116053604762032	-0.3405228858521966	0.5407205363099689	0.08218151389187181	0.540720537534444	0.08951298351759722	-0.05069199106672367	-5.05691764311658e-05	-0.1283444071030094	0.1092734184197492	0.1257008908605372	-0.164664577019429	-0.1821293558724272	-0.4964592494735227	1.255123461277259	1.570796326969429	0	0	-1.100208902854759	-0.432449811284696	-0.8311786286881985	0.5226486921578993	1.570796326969429	0	0
0.1973819285398158	-0.2325833337052486	-0.05272820710433269	-0.1454961702149356	0.1768415754567572	0.8970948419894027	0.3265277535037052	0.05963566133655795	-0.2094923466776129	0.311629326220369	1.622904224606597	0.1021521049148762	1.627225284414952	-0.2176238370394845	0.04193967405865836	0	0.8324034437401207	-0.2080495742309672	-0.3251168330704342	0.5695562763997875	0.08218151389187185	0.5695562775234899	0.08215935537773376	-0.07571375378145177	-4.824949609010453e-05	-0.1328640786770382	0.10945851861395	0.1207191575273267	-0.1725805635618627	-0.1738127437538896	-0.5016972919646417	1.237926542983937	1.570796326969429	0	0	-1.085874301015594	-0.4419648150978276	-0.8227514599624337	0.5267292047570361	1.570796326969429	0	0
0.2021892435043931	-0.2247401326437959	-0.05180182192102755	-0.1407621218316454	0.1824550018750538	0.8955479354338314	0.3252887509461876	0.07951444143898112	-0.2041807755517626	0.3193117274247044	1.647461889934775	0.1021521049148762	1.651226286780344	-0.2174758436449262	0.02994544310266303	0	0.8336399960086229	-0.2045750297898392	-0.3110010421006008	0.5957473899486218	0.08218151389187181	0.5957473909470778	0.07609225278602659	-0.09864303492512828	-4.612148153391334e-05	-0.1396100027675746	0.1100702474861675	0.115835559727301	-0.1796314910927383	-0.1659074513414087	-0.5059797140256094	1.220834663886345	1.57079632696943	0	0	-1.07018984072419	-0.4511642446737705	-0.8137407978867036	0.5318430492089906	1.57079632696943	0	0
0.2068632224455918	-0.2161808700058186	-0.05121895560969623	-0.1367229711115848	0.1876219831439473	0.8944399120610735	0.3240469026441946	0.1009339898413351	-0.1989409070456857	0.3253580554885275	1.669399998325322	0.1021521049148762	1.672745087190658	-0.2171291589617981	0.01777623010678013	0	0.8324188362827034	-0.2012647284627339	-0.2984893958086201	0.6187536896146726	0.08218151389187184	0.6187536905824766	0.07131000760296274	-0.1190523857404213	-4.419209191612586e-05	-0.1484553553389152	0.111108791566906	0.1111630523193293	-0.1856855790868499	-0.15855705102631	-0.5092397470848884	1.204172011216438	1.57079632696943	0	0	-1.053507538263931	-0.459867089150463	-0.8042831810754529	0.5379376879928687	1.57079632696943	0	0
0.2113301540101398	-0.207098749591517	-0.05097848202873484	-0.1334032231194983	0.1922868922431644	0.8937644876741322	0.3228259194014252	0.1231441803300464	-0.1938892190474287	0.3297929039327488	1.688213445624423	0.1021521049148762	1.691276161193945	-0.2166631523894083	0.005841507900562217	0	0.8288963943262175	-0.198186356318419	-0.2877702477952437	0.6382727479329734	0.08218151389187185	0.6382727486139442	0.06771365199760504	-0.1366960418393605	-4.24621813500514e-05	-0.1590879440345067	0.112532144909744	0.1068002946514454	-0.1906847860784936	-0.151866955729425	-0.5114911136398759	1.188251872423908	1.57079632696943	0	0	-1.036266286622957	-0.467933466078004	-0.794566621247899	0.5448774810291165	1.57079632696943	0	0
0.2155195921846577	-0.1977603608231451	-0.05104667234941746	-0.1307801057954388	0.1964160557186885	0.8934837726324972	0.3216510781485926	0.145345479829688	-0.1891311473718334	0.3327337749006722	1.703628639219756	0.1021521049148762	1.706531643964048	-0.2161566029578694	-0.00547500152186136	0	0.8234278188748532	-0.1953900180103146	-0.2789034536390433	0.6542430274511148	0.08218151389187182	0.6542430281116478	0.06513528264308101	-0.1515060528895223	-4.092887064323018e-05	-0.1710303810432237	0.1142600132677295	0.1028270534584731	-0.1946432380581023	-0.1459046854409309	-0.5128208295728383	1.17336474299297	1.57079632696943	0	0	-1.018968641322329	-0.4752631807382888	-0.7848264036662859	0.5524429832919295	1.57079632696943	0	0
0.2193654673351004	-0.1884862395402843	-0.0513635327704859	-0.128792774775782	0.1999952995117194	0.8935333705497529	0.3205481302958873	0.1667487081962245	-0.1847587780251405	0.3343771993808863	1.715632038816211	0.1021521049148762	1.718468519829035	-0.2156791352479126	-0.01584640448958819	0	0.816529347842735	-0.1929088702119392	-0.2718319845705904	0.6668197990567384	0.08218151389187182	0.666819799419786	0.06337216120386606	-0.1635701973609002	-3.958720963039261e-05	-0.1836793446839814	0.1161827432118202	0.09930181722196986	-0.1976374240736633	-0.1407043871513254	-0.5133737911629916	1.15976879096018	1.57079632696943	0	0	-1.00215328394097	-0.4817891927274864	-0.7753348728253079	0.560339363706623	1.57079632696943	0	0
0.2228071283122631	-0.1796250746980525	-0.05185209284486096	-0.127354243997658	0.2030262623383794	0.8938300008452955	0.3195421424035459	0.1866221583173722	-0.1808502170549202	0.3349787904874735	1.724455194683499	0.1021521049148762	1.727281931583035	-0.2152810438275509	-0.02502154763767061	0	0.808824200745148	-0.1907619406791346	-0.2664049786384802	0.6763297136996709	0.08218151389187182	0.6763297141372363	0.06221921801758095	-0.1730968028294761	-3.843144869340705e-05	-0.1963571944557335	0.1181732788739076	0.09626171344628415	-0.1997903383153289	-0.1362740850752179	-0.5133323827640879	1.147683669148211	1.570796326969429	0	0	-0.9863661630426501	-0.4874687074108642	-0.7663864017580441	0.5682136532425686	1.570796326969429	0	0
0.2257902993364854	-0.1715262128980292	-0.05242859539368468	-0.1263640278352111	0.2055219711991991	0.8942804549953128	0.3186564216283782	0.2043225622468363	-0.1774700609125003	0.3348290593194403	1.730523397105484	0.1021521049148762	1.733365143754284	-0.2149869820058238	-0.03283014436568665	0	0.8009812744505312	-0.1889580506398036	-0.2624079771536673	0.6832122822087869	0.08218151389187185	0.6832122828579151	0.06149413753318936	-0.1803724728478285	-3.746007234461979e-05	-0.2083678069918278	0.1200998504345516	0.09372458247498119	-0.2012524852294926	-0.1326039759596316	-0.5128947361276605	1.137288056376913	1.570796326969429	0	0	-0.9721328353709213	-0.4922744569964191	-0.7582795201214531	0.5756791887133746	1.570796326969429	0	0
0.2282679370955254	-0.1645146446971257	-0.05301176262333446	-0.1257198960040269	0.20750220197101	0.8947906714311114	0.3179116170154236	0.2193122273339909	-0.1746704021590686	0.3342271908169911	1.734381555120639	0.1021521049148762	1.73724301631734	-0.2147982464356022	-0.03917548390017019	0	0.7936554590230931	-0.1874997650126528	-0.2595959327181224	0.6879568920750357	0.08218151389187187	0.6879568926812304	0.06105196956276433	-0.1857183792324774	-3.667229170700786e-05	-0.2190491684278632	0.1218374248401828	0.09169282459934006	-0.2021826310036343	-0.1296743417148242	-0.5122547448372556	1.128720641145914	1.57079632696943	0	0	-0.9599337635057053	-0.4961879140270848	-0.7512984233964449	0.582344618212107	1.57079632696943	0	0
0.2302009768984097	-0.1588712374319679	-0.05352996187056251	-0.1253277479580283	0.2089890911570915	0.8952739707581345	0.3173250441495194	0.2311650441293749	-0.1724919378970257	0.3334550373265888	1.736613363263388	0.1021521049148762	1.739490033314626	-0.2146969129399844	-0.04401824641588698	0	0.7874360879963023	-0.186386591361719	-0.257725139851525	0.6910427605189954	0.08218151389187182	0.6910427609303036	0.06078922584149061	-0.1894496243761489	-3.606753472051523e-05	-0.22781746656147	0.1232766876892706	0.09015842444011003	-0.2027305522930562	-0.1274621502722403	-0.5115858339463226	1.122083710545622	1.570796326969429	0	0	-0.9501835210073456	-0.4991951321473579	-0.7456958238425693	0.5878443463677521	1.570796326969429	0	0
0.2315589714577417	-0.1548191428052907	-0.05392589763244453	-0.1251092025916203	0.2100033514678759	0.8956578482510555	0.3169102272349766	0.239564922089986	-0.1709649074961786	0.3327533879455585	1.73775977356422	0.1021521049148762	1.740645402304658	-0.2146539147579545	-0.04735598445229691	0	0.7828068707087513	-0.1856170813642859	-0.2565812150602083	0.6928871161758894	0.08218151389187181	0.6928871164343857	0.06063983980505269	-0.1918407167845176	-3.564695967819128e-05	-0.2342003346082258	0.1243301883428582	0.08910840122785949	-0.2030231098929354	-0.125945945898579	-0.5110292151163195	1.117448138224172	1.570796326969429	0	0	-0.9432141637689827	-0.501285023958792	-0.7416784683526478	0.5918673726460491	1.570796326969429	0	0
0.2323208116596206	-0.1525151798417633	-0.05415918988500402	-0.1250069177780851	0.2105614461715075	0.895889128585351	0.3166765590716558	0.2443012665068673	-0.1701095309216373	0.3323021006000914	1.738247395430057	0.1021521049148762	1.741136921518609	-0.2146409645208168	-0.04920324219354568	0	0.7801171114796432	-0.1851897880600709	-0.2560011912775769	0.6938048644466474	0.08218151389187177	0.6938048646446342	0.06056669549936061	-0.1930991053701047	-3.541237576771657e-05	-0.2378603402198342	0.1249361233073151	0.08852975265986275	-0.2031541178747122	-0.1251088615725415	-0.5106862347349211	1.114857865826851	1.570796326969428	0	0	-0.9392616816870898	-0.5024496283735628	-0.739395415855577	0.5941824787303307	1.570796326969428	0	0
0.2325	-0.1519701257552054	-0.05421520531157281	-0.1249849654499933	0.2106915763298835	0.8959451825139463	0.3166215017666468	0.2454176431371642	-0.1699084812814264	0.3321899283164284	1.738345653366858	0.1021521049148762	1.741235958012737	-0.2146390957855308	-0.04963497738674424	0	0.7794748608934035	-0.1850897387477497	-0.255871218767992	0.694008516282777	0.08218151389187177	0.6940085164711075	0.0605504813844671	-0.1933864277423942	-3.535733332245341e-05	-0.2387293717358988	0.1250801743252707	0.08839475904763347	-0.2031814909814733	-0.1249133745630001	-0.5106023955468262	1.114249729671752	1.570796326969428	0	0	-0.9383276219372614	-0.5027227543339698	-0.7388553809820065	0.5947331094741489	1.570796326969428	0	0
0.2329542507337262	-0.1505830714861414	-0.05435913511192382	-0.1249328910059977	0.2110195263205744	0.8960900995530616	0.3164817649030572	0.2482516693586388	-0.1693990518348484	0.3318952741183824	1.738566710311906	0.1021521049148762	1.741458523216789	-0.214636466498813	-0.05072463873916829	0	0.7778304169832257	-0.1848368717589355	-0.2555527475974747	0.694503960094134	0.08218151389187178	0.6945039602675401	0.06051093795593247	-0.1941000463249791	-3.521801591110862e-05	-0.2409462737142706	0.1254479380987494	0.08805445337664439	-0.2032450311981334	-0.1244201806784934	-0.5103844934046773	1.112710000204044	1.570796326969429	0	0	-0.9359522352045625	-0.503413810557672	-0.7374811726599497	0.5961394386272979	1.570796326969429	0	0
0.234015784775164	-0.1473123701780177	-0.05470609623953378	-0.1248310742048906	0.2117751049791874	0.8964444566674136	0.3161543135709878	0.254895252971343	-0.1682099405368425	0.3311491005768767	1.73892412201996	0.1021521049148762	1.741817808921548	-0.2146431413000049	-0.05324338407942363	0	0.7738969293916089	-0.1842501511412801	-0.2548701402495228	0.6955453839458635	0.0821815138918718	0.69554538414634	0.06042637250781109	-0.19568528539036	-3.489360628799884e-05	-0.2462038156755887	0.1263216437703368	0.08727000922072228	-0.2033609320942991	-0.1232808304541694	-0.5098455607221909	1.109122804721947	1.570796326969429	0	0	-0.930359513647839	-0.505021463304263	-0.7342408247584782	0.5994845601577159	1.570796326969429	0	0
0.2356644464118399	-0.1421535728054736	-0.05527351575769929	-0.1247274904801907	0.2129187065949016	0.8970381020700037	0.3156433303753762	0.2652659598817194	-0.1663670512219496	0.3298300674014635	1.739030326894444	0.1021521049148762	1.741921769158911	-0.2146939744398724	-0.05707433878816697	0	0.767539532083284	-0.183350235112655	-0.2539811780063803	0.6968401663916823	0.08218151389187181	0.6968401668136438	0.06031221115627422	-0.1979191378089635	-3.439268887189379e-05	-0.2545792133022139	0.1277172341637737	0.08608241870168144	-0.2034512218298137	-0.1215474495283659	-0.5089275644712931	1.103583211477861	1.570796326969429	0	0	-0.9215589766839967	-0.5074990211208966	-0.7291282428692999	0.6048439153213799	1.570796326969429	0	0
0.2378741041940474	-0.1350956896830379	-0.05608560765622611	-0.1246907263372493	0.2143948212295732	0.8979153455598985	0.3149541081168377	0.279251038065313	-0.1639048080332876	0.3277560931656185	1.738296344123298	0.1021521049148762	1.741173492393385	-0.2148517287530514	-0.06204278717401284	0	0.7585555915700497	-0.1821645314145653	-0.2531161915123971	0.697962145287522	0.08218151389187184	0.6979621461495108	0.06017817663827162	-0.2004801440556438	-3.372592013070883e-05	-0.2661938703726984	0.1296582536109316	0.08455140069907209	-0.2034035994563865	-0.1192916328648249	-0.5075475158080855	1.096222435132362	1.57079632696943	0	0	-0.9095491853746671	-0.510785624897595	-0.7221248201445967	0.6123430487487372	1.57079632696943	0	0
0.2406098871668135	-0.1261459256784688	-0.05716626655781906	-0.1248026201832215	0.2161334908341402	0.8991284866869046	0.3140944138079522	0.2966694984829772	-0.1608689827538289	0.3247017064882148	1.735955068425779	0.1021521049148763	1.738795896892321	-0.2152127353338918	-0.06790660624029325	0	0.7467221483485954	-0.1807261172444547	-0.2525618630732027	0.6983847828583	0.08218151389187188	0.69838478377859	0.06001265121207854	-0.2029701380371077	-3.290534117242924e-05	-0.2811658964807839	0.1321661094110525	0.08275644639107828	-0.2030831965363498	-0.1166020090017092	-0.5056123702436081	1.08721734593705	1.57079632696943	0	0	-0.8943473664433512	-0.5148069220318968	-0.7132178372192814	0.6221353389210823	1.57079632696943	0	0
0.2438286436775879	-0.1153486150486532	-0.05853144861049864	-0.1251486854558567	0.2180550666704141	0.900730741381074	0.3130749559713018	0.3172524048263414	-0.1573155699420387	0.320418034531482	1.731099262235027	0.1021521049148762	1.733874769147917	-0.215907627347927	-0.07435812792193963	0	0.7318420418571123	-0.179070052590411	-0.252636503838255	0.6975297656506082	0.08218151389187187	0.697529765896756	0.05976603130113377	-0.2049489398740903	-3.194270526440528e-05	-0.299569637121565	0.1352511818330891	0.08079453715775051	-0.2023483427821785	-0.1135769008774061	-0.5030356410411537	1.076787955154135	1.570796326969429	0	0	-0.8760052097240781	-0.5194813098310538	-0.7024122502989751	0.6343842800952525	1.570796326969429	0	0
0.2474796094921079	-0.102805099583456	-0.06018109245731204	-0.1258076940320148	0.2200757636753525	0.902768191185752	0.3119097937731029	0.3406305034014683	-0.153309048652362	0.3146562393910871	1.722742469239562	0.1021521049148762	1.725422084339207	-0.2170990539191837	-0.08103317012528782	0	0.7137950529653583	-0.1772291666329551	-0.2536602023218457	0.69482478962452	0.08218151389187187	0.6948247900138278	0.05933765301609561	-0.2059747966396	-3.084837174638744e-05	-0.3213920343811611	0.1389035349602457	0.07877647658616407	-0.2010685729624189	-0.1103161082999655	-0.4997552007847321	1.065192356519356	1.57079632696943	0	0	-0.8546244936311657	-0.5247259878563872	-0.6897440362094052	0.6492412886457625	1.57079632696943	0	0
0.25150520557877	-0.08869131901775891	-0.06209199829088093	-0.1268417056089179	0.2221135171991737	0.9052715788337319	0.3106166093796721	0.36633850541722	-0.1489202124047166	0.3071929519804624	1.709914067008625	0.1021521049148762	1.712460393954792	-0.2189771886597477	-0.08752910823595622	0	0.6925877457683282	-0.1752300654741659	-0.2559221608466216	0.6897655603481069	0.08218151389187182	0.6897655611303996	0.05857081627380584	-0.2056468898243343	-2.963024817958166e-05	-0.3464916447193864	0.1430847741091571	0.07682167112587174	-0.1991428680428624	-0.106912925234696	-0.4957497118770056	1.052718844316791	1.57079632696943	0	0	-0.8303708035314812	-0.5304613234782194	-0.6752938186237496	0.6668197379712651	1.57079632696943	0	0
0.2558419453248002	-0.07326902602221931	-0.06421336311097986	-0.1282879029691318	0.2240936087035732	0.9082490237024126	0.309216742898169	0.3938282672149844	-0.1442238098233367	0.2978558439360318	1.691765174803588	0.1021521049148762	1.694124578729329	-0.2217434557305828	-0.09343220709677673	0	0.6683939243507132	-0.1730903035150388	-0.2596484847997534	0.6819752673612648	0.08218151389187182	0.681975267904132	0.05725956703438692	-0.2036454309030245	-2.829316062946638e-05	-0.3745675858906674	0.1477228515439003	0.07505134992017914	-0.196515604177473	-0.1034475823100934	-0.4910507738098653	1.03967514123447	1.57079632696943	0	0	-0.8034835548498803	-0.5366122930355653	-0.6591987769762511	0.6871670214482427	1.57079632696943	0	0
0.2604214354539589	-0.05688665488825764	-0.06646654602950104	-0.130153412580256	0.2259534712616091	0.9116808049988349	0.307734914711476	0.4224975665409553	-0.1392963043983337	0.2865472028143314	1.66768037943412	0.1021521049148762	1.669771624998281	-0.2255805572953933	-0.09835208795244638	0	0.6415774025661711	-0.1708176578460208	-0.2649743435709085	0.671253775641834	0.08218151389187184	0.671253776444912	0.05516877199419607	-0.1997645875293512	-2.683993474476284e-05	-0.4051455909983611	0.1527114249556682	0.07358049839494057	-0.1931875596081351	-0.09998318492039679	-0.485748133390201	1.026375229742406	1.57079632696943	0	0	-0.7742810780179545	-0.5431064314456248	-0.6416605595790504	0.7102374213501113	1.57079632696943	0	0
0.2651714545037473	-0.0399671550776954	-0.06875000338200328	-0.1324138286568174	0.227646138089494	0.9155171788610753	0.3061986063432986	0.4517257884046293	-0.134214044960541	0.2732633583851691	1.637375437951015	0.1021521049148762	1.639084209051162	-0.2306259909238355	-0.1019589903015223	0	0.6126906481503648	-0.1684121195923195	-0.2719243709776463	0.6576092913287039	0.0821815138918718	0.6576092913849704	0.05206597897371395	-0.1939341167991867	-2.527209168842178e-05	-0.4375863790803103	0.1579146643517031	0.07250910720347972	-0.1892198349341489	-0.09656480314216169	-0.47998629737236	1.013124881185139	1.57079632696943	0	0	-0.7431602995796377	-0.5498687553859376	-0.622947186520962	0.7358692151382151	1.57079632696943	0	0
0.2700170917444269	-0.02298246672045958	-0.07094924300064526	-0.135015531226599	0.2291419571671181	0.9196797886940926	0.3046371234511849	0.4809115674443634	-0.1290520499727091	0.2581079549826285	1.600968203689587	0.1021521049148763	1.602150983342411	-0.2369373210922431	-0.1040179818894477	0	0.582446666753624	-0.1658705647753095	-0.280404423872036	0.6412672526234217	0.0821815138918718	0.6412672532100483	0.04776020980356628	-0.1862269540996235	-2.359075584895928e-05	-0.4711178672838323	0.1631772895514782	0.07191363731989356	-0.1847296216445655	-0.09322172665850197	-0.4739524816445542	1.000207430776687	1.570796326969429	0	0	-0.7105912761022617	-0.5568152765699753	-0.6033877482094697	0.7637696347412397	1.570796326969429	0	0
0.2748819285398158	-0.006417335038782461	-0.07295037801791779	-0.1378812183701238	0.2304283939300595	0.9240666041056884	0.3030804320798946	0.5095029937923529	-0.1238834723786938	0.2412975448179644	1.559007621841504	0.1021521049148763	1.559507947381142	-0.2444768362407523	-0.1044142301413881	0	0.5516667773430943	-0.1631932866581138	-0.290206207189713	0.6226547686255518	0.0821815138918718	0.6226547690084869	0.04214042736058245	-0.1768520912871192	-2.180209793026098e-05	-0.5048878975851	0.1683383802182674	0.07183976388514518	-0.1798782909095681	-0.08997220105876159	-0.4678576799266254	0.987871469479649	1.57079632696943	0	0	-0.6771073857295776	-0.5638474169144464	-0.5833600302773723	0.79351062090531	1.57079632696943	0	0
0.2796892435043931	0.00927207254822407	-0.07465481167371722	-0.1409175707600493	0.2315080751720465	0.9285596768456486	0.3015578948086167	0.5370195551716922	-0.1187796768051557	0.2231585663091177	1.512460409569391	0.1021521049148762	1.512130647509282	-0.2531080697898263	-0.1031647775587791	0	0.5212120796685861	-0.1603909139947973	-0.3010243103701384	0.6023629400080514	0.08218151389187177	0.6023629405451704	0.03520566632743644	-0.1661341807722907	-1.991812627759786e-05	-0.5380296057989528	0.173246537719733	0.07229742466356912	-0.174853768165337	-0.086829424716325	-0.4619141836514767	0.9763218646585828	1.570796326969429	0	0	-0.6432921697157828	-0.5708496527883593	-0.5632725699315841	0.8245370050332768	1.570796326969429	0	0
0.2843632224455918	0.0236976562469982	-0.07599214536910269	-0.1440237318145628	0.2323954476480213	0.9330344811417509	0.300097080003794	0.563062773714376	-0.1138107428259136	0.204115504218487	1.462656859770274	0.1021521049148762	1.461375504830582	-0.2625972283923163	-0.100414746618832	0	0.491910016014714	-0.1574899921992968	-0.3124831925877647	0.5810930540706605	0.08218151389187182	0.5810930541573074	0.02708024405588004	-0.1544831202588842	-1.796099371433696e-05	-0.5697286245984476	0.177773625925576	0.0732589364470605	-0.1698502526824686	-0.08380737786395077	-0.4563136606356561	0.9657149643386739	1.570796326969429	0	0	-0.6097637450512754	-0.5776918602595762	-0.5435437221289213	0.8561869378583898	1.570796326969429	0	0
0.2888301540101398	0.03656985693879056	-0.07692878497175694	-0.1470992508940731	0.2331127255565464	0.9373692535345797	0.2987227677674933	0.5873172150121411	-0.1090460837075696	0.1846713840040609	1.411205786869992	0.1021521049148762	1.408880707291323	-0.2726347508348866	-0.09641944927074191	0	0.464489018503312	-0.1545358604027179	-0.324169457743513	0.5595960981066872	0.08218151389187184	0.5595960984830751	0.01801129319171857	-0.1423586899038998	-1.595698511201267e-05	-0.5992805003638018	0.1818246658350313	0.07466047352641278	-0.1650489634047153	-0.08092523782940145	-0.4512097338261136	0.9561581013454531	1.57079632696943	0	0	-0.5771577421046992	-0.5842361070565556	-0.5245809703511836	0.8877219251876509	1.57079632696943	0	0
0.2930195921846577	0.0477144974885498	-0.07747067552567168	-0.1500508186414412	0.233685534218341	0.9414533253795246	0.2974562400440816	0.6095402981202767	-0.1045549348672013	0.1653806762278935	1.359863617014256	0.1021521049148762	1.356434897848368	-0.2828630213916005	-0.09151413551463528	0	0.4395295452062042	-0.1515919249906837	-0.3356664426537019	0.5386115128122518	0.08218151389187182	0.5386115132101416	0.008347703303386413	-0.1302330948388705	-1.394792576554899e-05	-0.6261310071782494	0.1853425665028698	0.07640686798332633	-0.1606021564186093	-0.07820959967224306	-0.4467074914221716	0.9477130530940624	1.570796326969429	0	0	-0.546108760281817	-0.5903474003340605	-0.506762500458139	0.9183645318521301	1.570796326969429	0	0
0.2968654673351004	0.05707237342152251	-0.0776602903517591	-0.1527962405341464	0.2341397026078582	0.9451920983065405	0.2963150021082088	0.6295419263645106	-0.1004060760950676	0.146822314946646	1.310414308379557	0.1021521049148762	1.305859897398251	-0.2928987677540116	-0.08608279943944755	0	0.4174444113144803	-0.1487362465214138	-0.3465800231699682	0.5188238373537593	0.08218151389187181	0.5188238374993378	-0.001489156061218706	-0.118562557969421	-1.198343113200177e-05	-0.6498898283322416	0.1883071341213995	0.07837873323105521	-0.1566251125059041	-0.07569440677683906	-0.4428617125768687	0.9404021966371859	1.570796326969429	0	0	-0.5172332758739888	-0.5959026545613213	-0.4904253570795479	0.9473335692483144	1.570796326969429	0	0
0.3003071283122631	0.06468686679126177	-0.07756840344688791	-0.155268020220421	0.2344975239547036	0.9485115053052747	0.295312657558127	0.6471619868456038	-0.09666735578299353	0.1295629721637826	1.264528189922312	0.1021521049148762	1.258861649661425	-0.3023633927092783	-0.08051621212520493	0	0.3984721587803174	-0.1460546739008262	-0.3565680687044982	0.5008157852901978	0.08218151389187184	0.5008157855400871	-0.01105088031156625	-0.1077544807720094	-1.011997028328413e-05	-0.670330404785013	0.1907301026948049	0.08044204912113304	-0.1531901095209164	-0.07341888361892077	-0.439680974324572	0.9342172660339938	1.57079632696943	0	0	-0.4911093586198983	-0.6008033814347478	-0.4758549337502085	0.9738868409283967	1.57079632696943	0	0
0.3032902993364854	0.07067658024912594	-0.0772836074056657	-0.1574124684582644	0.234777339609693	0.9513563184147253	0.294459348687159	0.6622555175119814	-0.09340365016371194	0.1141360556379505	1.223685614345214	0.1021521049148762	1.216975888282404	-0.3109031075170681	-0.07519036122734039	0	0.3827090433779691	-0.1436348661400509	-0.365344197416425	0.4850657883273384	0.08218151389187182	0.4850657887076764	-0.01989160366840682	-0.09816077935278474	-8.419384124601544e-06	-0.6873588442199967	0.1926462287585353	0.08245748304350009	-0.150333323247981	-0.07142444668060755	-0.4371391233841445	0.9291280397458614	1.570796326969429	0	0	-0.4682636714436745	-0.6049760369295981	-0.463285966797239	0.9973434204241749	1.570796326969429	0	0
0.3057679370955254	0.07520449236114995	-0.07690069906490929	-0.159188737161867	0.234993074919984	0.9536880924958476	0.2937622550841498	0.6746871741234171	-0.09067466690550148	0.1010185190994217	1.189131423868816	0.1021521049148762	1.181512147016344	-0.3182040382006454	-0.07044379966947088	0	0.3701456931144212	-0.1415597255522605	-0.3726812483029573	0.4719464102565838	0.08218151389187182	0.471946410672565	-0.02759951442088433	-0.09007088126043941	-6.943023942463222e-06	-0.7009783942866756	0.1941035577670571	0.08429013504215291	-0.1480625718293077	-0.06975124549305418	-0.4351882569029424	0.925091574323639	1.570796326969429	0	0	-0.4491579111491672	-0.6083721005482426	-0.4529044290215461	1.017106347348957	1.570796326969429	0	0
0.3077009768984096	0.07845001465180762	-0.07650941410273075	-0.1605691733912283	0.2351527833412158	0.9554846706976347	0.2932259616661505	0.6843311726347683	-0.08853316571763882	0.09060242480282016	1.161828950495703	0.1021521049148762	1.15347249466516	-0.324020964303576	-0.0665494145774651	0	0.360694777237106	-0.139900504797138	-0.3784216825411345	0.461710769534544	0.08218151389187185	0.4617107699243597	-0.03383262264505681	-0.08369718824006145	-5.749301873925779e-06	-0.7112608720501721	0.1951546492460322	0.0858193263470447	-0.1463616612635302	-0.06843495909583552	-0.433770100231647	0.922061611351137	1.570796326969429	0	0	-0.4341733204222949	-0.6109711450281363	-0.4448467935176449	1.032690451177582	1.570796326969429	0	0
0.3090589714577417	0.08057853997867502	-0.07618597678280047	-0.1615356865069273	0.2352608182275964	0.9567343422407915	0.2928532241402436	0.6910799057141765	-0.08702209683497358	0.08319151416996935	1.142482264256741	0.1021521049148763	1.133589829918344	-0.3281689635986224	-0.06371567575281088	0	0.3542425603597567	-0.1387139898702717	-0.3824602589547414	0.4545245249530504	0.08218151389187182	0.4545245252959783	-0.03832449509533175	-0.07918979679315728	-4.888448484676956e-06	-0.7183019876261265	0.1958477764962767	0.08694556840144854	-0.14520499931405	-0.06750449863949817	-0.4328288054698436	0.919995399417968	1.570796326969429	0	0	-0.4236061330287102	-0.6127692704684392	-0.4392092279834924	1.043722898405492	1.570796326969429	0	0
0.3098208116596206	0.08171782330681716	-0.07598697898748791	-0.1620766891915003	0.2353199490432722	0.9574308665263841	0.2926455725771746	0.6948568945454903	-0.08617197542374998	0.0790003553863628	1.131570508013738	0.1021521049148763	1.122369768450163	-0.3305178438071898	-0.06209075504730859	0	0.3506907482719461	-0.1380408192353969	-0.3847278145622487	0.4504949781960387	0.08218151389187182	0.4504949785023476	-0.04088512986657193	-0.07665059247458232	-4.397446049993537e-06	-0.7221859368269107	0.1962202407063607	0.08759615997852986	-0.1445700248280551	-0.06698042635695031	-0.432320645504092	0.9188587818224682	1.570796326969429	0	0	-0.4176634213702908	-0.6137679006937531	-0.4360549492472713	1.049942445684363	1.570796326969429	0	0
0.31	0.08198006240455306	-0.07593834151443128	-0.1622038082382316	0.235333703	0.957594217	0.2925968840000001	0.6957443014215294	-0.08597177158354727	0.07801106817962802	1.128998025996067	0.1021521049148762	1.119723897	-0.3310726098148515	-0.06170489509079385	0	0.3498624390898281	-0.1378817002427934	-0.3852613497467102	0.449547419703381	0.08218151389187182	0.44954742	-0.04149164811445133	-0.07605226208686205	-4.281118122216893e-06	-0.7230925510061395	0.1963061352089967	0.08775114131839347	-0.1444221302043831	-0.06685694486668702	-0.4322032032803703	0.9185937969127842	1.570796326969429	0	0	-0.4162641571977269	-0.6140017247163456	-0.4353139282153424	1.051408473572563	1.570796326969429	0	0
