DataType=double
version=3
OpenSimVersion=4.5
endheader
time	pelvis_tilt	pelvis_list	pelvis_rotation	pelvis_tx	pelvis_ty	pelvis_tz	hip_flexion_r	hip_adduction_r	hip_rotation_r	knee_angle_r	knee_adduction_r	knee_angle_r_beta	ankle_angle_r	subtalar_angle_r	mtp_angle_r	hip_flexion_l	hip_adduction_l	hip_rotation_l	knee_angle_l	knee_adduction_l	knee_angle_l_beta	ankle_angle_l	subtalar_angle_l	mtp_angle_l	lumbar_extension	lumbar_bending	lumbar_rotation	arm_flex_r	arm_add_r	arm_rot_r	elbow_flex_r	pro_sup_r	wrist_flex_r	wrist_dev_r	arm_flex_l	arm_add_l	arm_rot_l	elbow_flex_l	pro_sup_l	wrist_flex_l	wrist_dev_l
0	43.17703223694001	-18.61320213092219	-13.15755703605349	4.821891251807315	-9.96771610894978	-0.9322359110523243	11.75382310495832	-8.860792041920998	49.72927005331315	188.5118562097679	-5.823447598860148e-12	189.8005544965816	50.05364553945938	-79.79450893960063	0	-84.50246313466702	-14.77051989642418	-52.57604077121398	-0.6685044552285859	1.37345483749362e-11	-8.420795189810475	-0.2970149782558451	71.00935768621974	-0.0361522444107979	-34.46260646457954	18.61074991836037	9.400123825816621	-5.07399728234301	-1.337560194520421	4.694196428322467	-20.26102265952255	3.130325237303914e-10	0	0	32.59883659907217	9.494972060914973	28.62800310914847	-5.105929868305216	3.130325237303914e-10	0	0
0.0004542507337261803	43.74688739852799	-18.6132791185723	-13.15724768537793	4.926169677432945	-9.978145338129689	-0.932218051596718	12.74409376200084	-8.860537834236252	49.73158621167953	192.5253049085634	-2.879383217862797e-12	189.7998523276856	49.57521932957766	-79.79364495924928	0	-85.16476428717958	-14.77062695947597	-52.57597874083892	2.476599280061745	1.674564124079077e-11	-8.417588521689328	-0.2789325318264462	71.00872814459758	-0.0361523687944116	-34.58764471819364	18.61096684866013	9.399945896530371	-5.089105366830925	-1.337617515505687	4.694120143927475	-20.26103281684284	3.498833925443044e-10	0	0	32.57390336202572	9.494191754366003	28.62731379726968	-5.105934751252542	3.498833925443044e-10	0	0
0.001515784775164009	43.7821465367828	-18.61601702272353	-13.14647177329449	4.964997291887835	-9.981456097055558	-0.9315918687536742	12.61689802810734	-8.851649238191669	49.81279110609507	192.601771176497	3.289791473323329e-11	189.7758287844212	49.54829266081683	-79.7638434986246	0	-85.06551714777034	-14.77440574468924	-52.57390374135837	2.776980701810038	4.731079908139615e-11	-8.305299901731807	-0.1664106537755146	70.98692171099296	-0.03615597356090544	-34.44986033328336	18.6185953852248	9.393737058437001	-5.123589070085586	-1.33965132131877	4.691500311812257	-20.26136948343555	6.561858244554186e-10	0	0	32.40601580719073	9.466879111947868	28.60312460269578	-5.106147208593188	6.561858244554186e-10	0	0
0.003164446411839883	43.60133430400925	-18.6387036705503	-13.05797849003272	5.00416203636807	-10.01091617577352	-0.9264352810307728	11.8559113206044	-8.778536547528953	50.48155140003685	190.8746802442726	-3.636796496858936e-12	189.5800984388805	50.20005309643444	-79.52014809279382	0	-84.17490538855169	-14.80561593907961	-52.55718602716007	3.604661703752742	-2.630839117872529e-11	-7.381062094872711	0.156579347033114	70.80829668281579	-0.03618318324559821	-34.02673502444169	18.68150258861528	9.342710991873595	-5.202235270966954	-1.356488807935836	4.670120778201862	-20.26407185385403	-6.395874792358082e-10	0	0	31.8955308864878	9.242116270173184	28.40384195194288	-5.108040951976539	-6.395874792358082e-10	0	0
0.005374104194047435	43.2156021059966	-18.73720695886207	-12.67131006410559	5.044655601899597	-10.08861995792129	-0.9039399882730339	10.55737793268179	-8.459383669592356	53.39776995230671	188.2276121179803	-7.430203855212503e-13	188.7204398351174	52.00249487154287	-78.45261096428105	0	-82.20116477607817	-14.94143543321973	-52.48288891061282	5.407721930560111	1.341997802939566e-11	-3.348876691404446	0.799670636551383	70.02623852930671	-0.03630480285567997	-33.24091868100361	18.9555554678458	9.119853256548719	-5.346970356645935	-1.429607569959419	4.576293939738605	-20.27608134350065	3.501934417386954e-10	0	0	30.86179683992059	8.261327473638991	27.53497185972346	-5.115933584826923	3.501934417386954e-10	0	0
0.008109887166813518	42.63013032519913	-18.96727778820284	-11.69017937977125	5.088470975773607	-10.30901795461963	-0.8477070143008086	8.559116465336274	-7.657314838984481	60.60728758706033	184.6216864565444	8.16354748465599e-12	186.4132330700983	58.06497870863799	-75.67636804057001	0	-77.00777715105015	-15.26842335633974	-52.24475855094057	14.33320427052813	-6.750604044865299e-12	6.694362090926318	2.954474654526541	67.98575324904172	-0.03651229252146514	-31.89088401692417	19.62440325223055	8.556779710703644	-5.855124684370374	-1.599464859629693	4.325455298200761	-20.31331242260201	-1.790451492265433e-10	0	0	27.31438192045295	5.808767599846495	25.38725466680915	-5.126848474329697	-1.790451492265433e-10	0	0
0.01132864367758793	41.81848385078128	-19.14411015237949	-10.37306602143366	5.102039357411559	-10.566202032674	-0.7779393453740908	6.068580687113645	-6.632726285179132	69.02347877634004	179.6697490454994	-8.479088056123232e-12	182.4747979913054	64.77055346474754	-71.49517169891737	0	-70.38364116100227	-15.59021058424965	-51.5985706271473	25.29758846932178	1.272937157308074e-12	18.92446331247359	5.288241759965096	64.87583926388427	-0.03623800661033795	-30.30385700216425	20.34617518216537	7.817092638036105	-6.498662242527498	-1.723758370671949	3.903839953701985	-20.4080828266746	6.360708734798822e-11	0	0	23.15234780251084	2.757804569517131	22.88340547504153	-5.080013365005479	6.360708734798822e-11	0	0
0.01497960949210789	40.62570793987663	-19.09718480207026	-8.949607470000077	5.049418904969269	-10.79941160644766	-0.711980242638356	3.410876653584239	-5.613074078095092	75.83656738804252	173.179074166963	-2.156915514271564e-12	176.7457692048385	69.94831835838103	-66.21422589883935	0	-63.64114351582447	-15.72644406183986	-50.28190562425151	34.04212216167575	-2.981967998658095e-12	29.91495890609841	7.095899549669738	60.82725842485858	-0.03542613480425036	-28.58030562609698	20.80708454549544	7.044680408552894	-7.142852532712361	-1.667149219441728	3.295918380872267	-20.59226714602826	-1.471920726445723e-11	0	0	19.46252792165663	-0.1203004094809054	20.85208881108888	-4.927612000937552	-1.471920726445723e-11	0	0
0.01900520557876997	39.13407153296627	-18.91088195392733	-7.078476761692595	4.958645394991258	-11.08537979222417	-0.627510069620498	0.1298771767636779	-4.299593731514316	83.5775123446407	164.6840881492481	2.201833275512015e-12	168.5814137578077	75.24667624454747	-59.05206535712519	0	-54.61492242478854	-15.79372976479748	-48.13779223484311	47.41007296288309	2.191803574546815e-12	43.28968164155494	8.861253629011964	55.0884145262075	-0.03546804288264865	-26.49786646053204	21.24085752400214	6.03631900311629	-7.944063327134431	-1.480983589481559	2.419642869618878	-20.87965105418678	-1.22581654363381e-11	0	0	15.26770011735849	-3.732885383908755	18.50564905584031	-4.701553328202249	-1.22581654363381e-11	0	0
0.02334194532480019	37.16456043634479	-18.48113975495128	-4.875654709103272	4.792873047686284	-11.36350496561671	-0.5314572188929882	-3.471780642708886	-2.799656054859691	90.64690369251753	153.9277642378064	2.60731893585892e-12	157.9225060104343	79.12234732658138	-50.28212457515381	0	-44.79017406020495	-15.68304667850087	-44.91624759231266	59.99903036563562	2.087563070147015e-12	57.22543056356771	10.06365242290772	47.63520557857241	-0.03349651433942773	-24.11068889236011	21.46017694880236	4.858728807848284	-8.850422997903507	-1.073571658924109	1.258922861184004	-21.29138000119122	2.313561384434891e-11	0	0	11.19807856887446	-7.69694806859577	16.28172717849899	-4.392282046157916	2.313561384434891e-11	0	0
0.02792143545395889	34.80425431324004	-17.77108111064349	-2.353242567307274	4.584916238451273	-11.63632083164367	-0.4228344968634782	-7.522403735187247	-1.115698286797977	96.62577823082793	140.6654691978311	-2.582774005500819e-12	144.7933345612219	81.61313416319049	-40.1036206704859	0	-34.11418054318642	-15.35643908954551	-40.43107642582986	73.21071963424019	-4.119629909975245e-12	71.39349699400762	10.41181363432583	38.34422092028247	-0.03371744030687696	-21.36028123419778	21.40399161550395	3.510030981442501	-9.872805446661676	-0.4029002575409686	-0.199943648834822	-21.83482258460544	-4.9997161787607e-11	0	0	7.293230628893223	-11.97861315850827	14.25241112392629	-4.017437899757089	-4.9997161787607e-11	0	0
0.0326714545037473	31.85527276567934	-16.76898537734446	0.4702181588075952	4.266441761933496	-11.8936814373562	-0.3000879126335357	-11.4071852738186	0.7534782852236401	101.3235260792679	125.5718265662147	1.884010793176282e-12	129.4295929028714	82.27617085268299	-28.85554811756928	0	-22.35823339323306	-14.79628037440627	-34.57200087455845	86.12572195721299	4.760471768748898e-12	85.66157193416265	10.11769912334321	27.19426651032501	-0.03284529226486819	-18.28493952108938	21.04219423407866	1.986711859622688	-10.99875487188278	0.5516153748905716	-1.951181195646883	-22.50369467276315	9.103416477002119e-11	0	0	3.726236925922706	-16.57704028880131	12.41713819540635	-3.606000312752708	9.103416477002119e-11	0	0
0.03751709174442691	28.69488229085215	-15.46544686056447	3.509367009859003	4.032204662003997	-12.15042673806882	-0.165311047468724	-15.97574821749357	2.755453446018621	104.2603220247018	108.1085554728441	-8.545620852103644e-13	112.327751365017	81.18347403851236	-17.10015028627801	0	-10.31673306820459	-13.97819776823879	-27.32419585672213	101.0020328346908	-4.209980819294023e-12	99.37420211872079	8.708158550477178	14.38364677600152	-0.03167675834534504	-14.42944166938484	20.32470709916517	0.3219988024872092	-12.21972783517927	1.80281858749678	-3.960558664010374	-23.27827957928656	-5.948912978527212e-11	0	0	0.6440872297811886	-21.34644739531619	10.86863100481024	-3.186152144235332	-5.948912978527212e-11	0	0
0.04238192853981579	25.19660642912575	-13.88891712921483	6.691845715633128	3.707945344337987	-12.34795068129032	-0.02012062643144127	-20.13871391906709	4.8543472138903	105.4157643129124	89.8429449047984	2.063532220130269e-12	94.12457473377097	78.24208816135079	-5.397613519201903	0	1.605019435865415	-12.91386938811099	-18.80660032898579	113.7427397811797	3.948327904718116e-12	112.3193938017378	6.298300902330427	0.2165863323388079	-0.03088296463841896	-10.53490803144265	19.26002351437572	-1.459361278325616	-13.51162517044244	3.327053466098461	-6.175965830914551	-24.12509423755798	3.001444873001255e-11	0	0	-1.89122687029483	-26.21982493953649	9.579261498869506	-2.789208235165189	3.001444873001255e-11	0	0
0.04718924350439309	21.47124500742722	-12.08143625844364	9.911842529992054	3.350897165322157	-12.49349906288853	0.1312166646170997	-23.83739725323952	6.985716238104608	104.7497357162703	71.33668136386925	-3.351459950493565e-12	75.57497740247511	73.25618402654121	5.668009507800655	0	12.36609953306051	-11.62501761281031	-9.262339012342878	122.7772258916159	-4.131458435477326e-12	124.1051620235651	2.969876612567328	-14.83587470851948	-0.03093625733926206	-6.523680940062327	17.86708581752691	-3.309856699176063	-14.853557809024	5.081261907499766	-8.524795446890808	-25.00247075650577	-4.390595818442681e-11	0	0	-3.844136351062623	-31.05935323768539	8.553678004695879	-2.438218627633187	-4.390595818442681e-11	0	0
0.0518632224455918	17.95444744578557	-10.10900169151628	13.07035298708805	3.011674439493055	-12.58764480393294	0.2842396419056866	-27.37619076623264	9.090574367692771	102.4856465334854	53.16460082789956	6.52388314060733e-13	57.43252199546134	66.18110593193887	15.62978070768985	0	22.90887793105173	-10.15839241041208	0.9540379432117679	133.4334658370489	2.866000445078667e-12	134.5637743609902	-1.091090144658451	-30.22784054833603	-0.03023856495251386	-2.638223483834553	16.20424633040651	-5.18068453740213	-16.20097759930113	6.996377149465309	-10.92418220983198	-25.86563836870841	1.424790120468814e-11	0	0	-5.237367324217644	-35.75541162296603	7.748180319145384	-2.148639817778637	1.424790120468814e-11	0	0
0.05633015401013977	14.43357076925499	-8.048185848518795	16.0672668492914	2.678324271228976	-12.64879763941901	0.4336505145706542	-30.14072955318862	11.10596323827777	98.91704314415429	36.41579772471322	-3.411484161227703e-13	40.380120171784	59.0319300141427	24.15631955898869	0	32.41842203188968	-8.573237952417387	11.41968013840044	142.4887940537512	-2.717980626887722e-12	143.5494288806606	-5.655063460503142	-45.37176836573813	-0.02790603186384781	1.289528229705939	14.34771262215782	-7.015362079449346	-17.52567791210856	8.990459316360948	-13.2867124233023	-26.67383007408875	3.084765668012176e-12	0	0	-6.086191710588551	-40.18550482795938	7.127439118700872	-1.925306512928322	3.084765668012176e-12	0	0
0.06051959218465776	11.10579983198024	-5.982978349295073	18.81952565258684	2.361247546281274	-12.66958314830439	0.5744272657773881	-32.20853523111651	12.97893856299207	94.44585719114002	21.35504693328561	3.716299607191819e-12	24.95450987195408	51.72326363316879	31.09327325669219	0	40.62650630392267	-6.940128057440464	21.69198163618623	150.1439807201069	7.520949531545645e-12	151.0476150307895	-10.44171258517583	-59.71641363871689	-0.02914999383795256	5.028144333619402	12.39211733413269	-8.760135892953658	-18.79199167360447	10.97493400841216	-15.52981731509367	-27.39479654679478	6.592004501645616e-11	0	0	-6.445490575401351	-44.25037153104991	6.646883761270443	-1.764707083579474	6.592004501645616e-11	0	0
0.06436546733510043	7.936508562582219	-3.995326591395775	21.26275775279334	2.077616192879563	-12.67686550212047	0.7017496171132175	-33.46985130635821	14.66621736655354	89.48797656100588	8.374927501901162	-5.33492874985404e-12	11.5136530157387	45.51604955250293	36.44543469052009	0	47.50832881147932	-5.331693560631383	31.35938368593752	156.1201793862131	-1.252828234228761e-11	157.105736997924	-15.1631838206345	-72.79462250379449	-0.0270681225865963	8.664911026835064	10.43623098703826	-10.36585540079848	-19.96826712385174	12.86575180915839	-17.5826113152682	-28.00841430733607	-1.222749847015394e-10	0	0	-6.442859667560121	-47.86818325484251	6.271793193946392	-1.657183203370564	-1.222749847015394e-10	0	0
0.06780712831226307	5.080063142554454	-2.159665720798109	23.35679357344063	1.838606478561121	-12.6685004583649	0.81299442682237	-33.84482763663416	16.13788822967397	84.45030763787165	-1.866649021821601	5.885865344219526e-12	0.2309060612925135	40.5065529653588	40.34971021815069	0	52.82751022556454	-3.817588654515019	40.08004363392283	160.7978226631544	1.567640625023766e-11	161.843050472846	-19.56866163328175	-84.26262409737677	-0.02679956756491034	12.08690377013351	8.575534986186952	-11.79299376858295	-21.02678397955014	14.59046802319315	-19.391111909056	-28.50685147841231	4.396354183840932e-11	0	0	-6.201471184040045	-50.98560442154032	5.974221485715889	-1.590206983618033	4.396354183840932e-11	0	0
0.07079029933648544	-35.99084498198107	-0.5380195102750105	25.08407820336249	2.029874709499066	-16.52527164906585	0.9059732151783595	10.26386987332457	17.37611039667117	79.68971485215492	3.040135225878561	-9.777112118531239e-12	-8.879770621960532	35.3113978863993	43.02945142217901	0	85.53582880382272	-2.458573648463168	47.60281054913817	135.9153254689697	-1.863941379024116e-11	165.4168137140128	-23.48430693276829	-93.90940932461899	-0.02747180898956377	72.92157852304874	6.893769727319164	-13.01289139643896	-22.15980099017879	16.09322419739407	-20.92012683290682	-28.89309963640427	3.185517769244573e-11	0	0	-5.290256394898755	-53.57560212055038	5.736256435275728	-1.551263310571988	3.185517769244573e-11	0	0
0.07326793709552543	-0.2919717931561436	0.8219605244171152	26.4462871518188	1.533616585008361	-12.73533504881712	0.9798712426149239	-32.46884359495103	18.37334670444558	75.49911532437409	-15.81954014682735	1.415602287956201e-11	-15.91982481958792	34.06877442593617	44.7476985056776	0	60.38707170136507	-1.303903926776807	53.76919100931275	164.8742846166565	1.388634301985416e-11	168.0044144772183	-26.71567991399923	-101.644897654282	-0.02755901718517757	18.84995878939287	5.458645206045675	-14.00789184304417	-22.71707647396734	17.33588254408939	-22.15228783073377	-29.17773980718032	-1.241584906601908e-11	0	0	-5.192359593778953	-55.63491093795961	5.54768786104531	-1.529941649798092	-1.241584906601908e-11	0	0
0.07520097689840965	-2.584063716441942	1.886661332764511	27.4581353373105	1.442372500827192	-12.77822246931855	1.035160975883728	-31.43265860734093	19.12937621835247	72.10238297280421	-20.78953105019736	2.994078572396671e-14	-21.05590684456997	31.81047328018047	45.76688394887464	0	62.68185522962141	-0.3906232308707881	58.49906612711307	165.3292475962651	-8.632323409738519e-12	169.7812977723255	-29.24719981295783	-107.4700023427066	-0.0267865428078297	21.92270648556575	4.32062746621678	-14.76946234675418	-23.32975366528729	18.29606261207316	-23.08423037648794	-29.37533174498578	3.055047394016135e-10	0	0	-4.66951603134698	-57.17698971124663	5.404129783541149	-1.518715351235118	3.055047394016135e-10	0	0
0.0765589714577417	-4.378558162843809	2.634624331846638	28.14011233395905	1.394173481351854	-12.82487919574495	1.072643494829753	-30.49439141110673	19.64801298358364	69.65843198129784	-24.31395021273028	-1.979547163053738e-12	-24.46768719427443	30.46341840305286	46.31421481668799	0	64.20500697803145	0.255837593667583	61.76722879483932	165.0083862446091	4.525319671696586e-11	170.9019836499692	-31.02540888256288	-111.437596188651	-0.02572551918800682	24.36089382264092	3.513974365845612	-15.29541942632772	-23.7877337246013	18.96327811728406	-23.72123082154729	-29.50065514375553	6.030416873378551e-11	0	0	-4.234656211856894	-58.22372185002614	5.304311580879547	-1.513002970438233	6.030416873378551e-11	0	0
0.07732081165962061	-5.574255361537498	3.053722805392601	28.51174019560209	1.398377688089933	-12.87293422174255	1.093136834231606	-29.49449057421982	19.9342308277543	68.26876215577795	-25.65827199496076	-3.511508449489468e-11	-26.30882244261711	29.91117880090515	46.56066197670229	0	64.74005916225221	0.61982692793894	63.57788677462197	164.319956406167	-7.928375421729693e-11	171.4843889155374	-32.04076674581854	-113.6148457437683	-0.02507874461690034	26.1805025385449	3.059503841622361	-15.58686584158296	-24.09657269343339	19.33431411659205	-24.07159653245998	-29.56595956343138	-1.495071373127759e-09	0	0	-3.936069051601457	-58.79701020859852	5.248537131383749	-1.510388579684723	-1.495071373127759e-09	0	0
0.0775	-5.346824558040717	3.152213024786156	28.59797264000473	1.496569525825201	-12.92109600117266	1.097898198731056	-27.46065602492276	20.00104248296032	67.94009610752693	-18.11060295644334	-3.015718650434986e-11	-26.73414547326803	29.95362362501137	46.61232170190037	0	63.53169096266035	0.7055511287594616	64.00120238204947	164.6776156627383	-7.919383640686308e-11	171.6165285368555	-32.2972353873885	-114.1216634438654	-0.02493093388968309	26.75085082722442	2.952447451997078	-15.6550174046186	-24.21742409672478	19.42120448313614	-24.15323855447347	-29.58078974701266	-1.858964307280988e-09	0	0	-3.834903901135931	-58.93035419730044	5.235433248725593	-1.509823583407049	-1.858964307280988e-09	0	0
0.07795425073372618	-5.998773801852411	3.401715953824163	28.81453562693574	1.301400544229197	-12.83485998044109	1.109865090066523	-29.60781425141815	20.16953213306256	67.10396371251566	-28.12324492298292	-7.566790299685543e-12	-27.79906841376236	28.58412243410275	46.73254568855749	0	65.78551941065102	0.9230304771080311	65.06976952905509	165.1651469487592	-2.015361625697289e-12	171.9432292880856	-32.80281851615516	-115.3972368621717	-0.02458017829528978	26.33634171630465	2.680817651365792	-15.82708417657654	-24.18744699167161	19.64078983720522	-24.35886124315849	-29.61747325460306	-7.315473088554077e-10	0	0	-3.78097844620639	-59.26579026964333	5.20223031863031	-1.508464063760622	-7.315473088554077e-10	0	0
0.07901578477516402	-6.511826105733046	3.983586279618551	29.30899714098108	1.146605289821909	-12.77056542543631	1.137233686759626	-29.64705231605198	20.55825757202922	65.13443522639977	-30.85922891009377	2.299881379447636e-11	-30.21270467280761	26.52101294554642	46.95369463128286	0	67.45281228375178	1.431990577523889	67.54017955757389	167.0749741705473	4.85321314696491e-12	172.6603193428293	-34.06226969611307	-118.3250741494249	-0.02393213016385382	26.44184927726633	2.045005371895777	-16.22512660496729	-24.31801105997278	20.1498429302839	-24.83161833994359	-29.69805764188793	1.022503908418548e-09	0	0	-3.512977144275837	-60.03485679597183	5.12468166728406	-1.505607426376848	1.022503908418548e-09	0	0
0.08066444641183987	-7.614261635820625	4.882872968203685	30.0435112270649	0.9438903545019652	-12.69342666945961	1.17797458296585	-29.21752459014481	21.14756736144974	62.03718660623875	-35.13359632197378	-1.217103663256053e-11	-33.74904393176883	24.11083580822572	47.13191844234124	0	69.59168206094427	2.223548128859775	71.29616200311298	169.0620834030974	1.085819094305157e-12	173.6448618924958	-36.01530336825375	-122.7173159809621	-0.02382748458766426	27.18315091823955	1.056066784437419	-16.8313065955212	-24.58086946691739	20.9277195785404	-25.54300693111335	-29.80866417301056	-3.286115550568991e-10	0	0	-3.016276005501972	-61.18663279113433	5.004039892469832	-1.50163032166303	-3.286115550568991e-10	0	0
0.08287410419404742	-9.430888155251154	6.076379129895376	30.96096376512516	0.584966397147233	-12.60786798759444	1.228959637216263	-27.44037201592688	21.90855248613987	57.82660012112811	-39.40878619821937	2.414484228657242e-12	-38.07506872405484	21.57603055456548	47.06005706028819	0	72.73520913727666	3.283626539011192	76.15737705859958	170.6814448984388	-2.564293932929239e-12	174.7167637478999	-38.60072083115745	-128.2872982896425	-0.0251124102953491	28.23221547068887	-0.2677531093152311	-17.61865845672648	-24.95339512275952	21.94200876753488	-26.44907665732787	-29.92859964861523	7.93048234334583e-11	0	0	-2.249906346390755	-62.6445235583983	4.841428485535143	-1.495791750627435	7.93048234334583e-11	0	0
0.08560988716681352	-11.27945773930527	7.528092847231978	31.98393742475599	0.4291941823201562	-12.51166241998636	1.285898016351981	-25.84846031907573	22.80220100711503	52.54799537991293	-44.30486202285702	-1.584839676092416e-12	-42.76004907075605	18.33303001145941	46.49009937905547	0	74.41088932383431	4.588450586956704	81.86289372719304	172.9418804355054	-6.615723716496396e-12	175.648290156352	-41.66440597375758	-134.6372966000317	-0.02592058062054422	30.3801372525413	-1.894579032075847	-18.5490807036646	-25.4256014498037	23.14446392067561	-27.48766791082719	-30.03129400043378	-6.423817942678476e-11	0	0	-1.113372748900506	-64.30407833066783	4.637960839581637	-1.484684328706483	-6.423817942678476e-11	0	0
0.08882864367758794	-13.64537007751733	9.186462902651758	33.01649124260775	0.1240362045640424	-12.4073385790909	1.343349191436132	-22.526883615138	23.78029519048007	46.29323326750222	-47.44558427425999	6.852873250869175e-13	-47.30378786662491	14.85299896118617	45.16353565548669	0	76.62919230481987	6.101574872858629	88.06693850272843	174.2517168207476	9.536463625850065e-12	176.1793224056319	-45.03410185441197	-141.2630993353511	-0.02367924457301275	32.57791809793364	-3.774272716303166	-19.57304321305136	-25.93900517970501	24.46908241691267	-28.57780675129732	-30.08622185939188	3.305755056459584e-11	0	0	0.3863366643661372	-66.0346620179232	4.39524872379053	-1.460500861219633	3.305755056459584e-11	0	0
0.09247960949210787	-16.28381887090135	10.98263383714444	33.94814939318315	-0.223062926512561	-12.27390311014536	1.394783564755054	-18.12003932711673	24.78730330380608	39.21029796540063	-50.39920912220447	-7.443291466182546e-13	-51.18161767458321	10.80809468388225	42.84858354469031	0	78.44262412176302	7.77170037732358	94.3455369359004	174.6318249141227	-1.03218326313062e-12	176.0354271732867	-48.41366383180024	-147.5735177979874	-0.02293017022230232	34.88401470006956	-5.834834503995804	-20.6304241339686	-26.43900818696086	25.83192095612243	-29.62075910838679	-30.06186731063936	4.836100086129273e-11	0	0	2.288889384415004	-67.68373700617543	4.117155449593039	-1.409347174400557	4.836100086129273e-11	0	0
0.09650520557876997	-18.94599603548011	12.83077715921784	34.66078484810426	-0.5962739576260692	-12.12633454317785	1.43321666041438	-12.25352601441124	25.76321140014773	31.50344264902141	-50.59015621862737	3.907834213259375e-12	-53.89991242933107	6.655285473920712	39.37642892310311	0	79.55096766156612	9.53217000245845	100.2183805251494	173.9240057833143	-1.634379573835338e-12	174.9464222249865	-51.50564932310727	-152.9282406660683	-0.02311181329401203	37.09333057724604	-7.98155688312569	-21.65301509085349	-26.86503908879688	27.1338380389814	-30.50407584583075	-29.92938925899612	-6.193085137850873e-11	0	0	4.634150845070319	-69.08486242850752	3.812267623120729	-1.310529525026183	-6.193085137850873e-11	0	0
0.1008419453248002	-21.58367804324209	14.63122859747308	35.03808978473187	-1.031507339647847	-11.91181120629856	1.451558420740713	-5.171604753778674	26.64753665835459	23.42173866918485	-50.788460596212	-4.667074016994042e-12	-55.05958334002538	1.378762856649411	34.67242850813749	0	79.81216329442705	11.30303855598473	105.1874324758778	171.8650991429622	6.060484569795942e-13	172.666594738317	-53.96686656174535	-156.6943363969576	-0.02189259564682871	38.71943240948009	-10.10000958656891	-22.56892467878711	-27.12305828524547	28.26655505997169	-31.10867356981467	-29.6663639834306	7.257123734842754e-12	0	0	7.374409971583315	-70.06949485428134	3.496601915931588	-1.136781204639553	7.257123734842754e-12	0	0
0.1054214354539589	-23.88996281429161	16.27697012974363	34.97725664946191	-1.509269518088621	-11.61575150139718	1.443472953521523	3.058336139365494	27.38392940825614	15.23724398460898	-50.1678187122005	1.385230111859977e-12	-54.41468100170098	-3.760680965817087	28.77507759671626	0	78.80697966072535	12.99622779599767	108.7892233692222	168.2384986178614	-8.068702376234466e-13	168.9952444783794	-55.43584034649064	-158.3165451936224	-0.02155676195233675	39.38576636054061	-12.06370879575929	-23.30877032833518	-27.19974960406413	29.12222712296056	-31.31906771196279	-29.25988451504195	2.079775131954866e-11	0	0	10.48995031718088	-70.48249329740361	3.19533608030621	-0.8560336574844325	2.079775131954866e-11	0	0
0.1101714545037473	-25.77327023443265	17.6632003167088	34.40153894376952	-2.0237573191306	-11.26129734535741	1.404632399477502	12.63885020578311	27.92473336769435	7.217321797711048	-47.07614619532491	2.202847491631842e-12	-51.9129263670185	-6.873613218781561	21.83896147337912	0	76.58924042316708	14.52336924334495	110.6523595254592	163.0936301057491	1.450740252072376e-13	163.7960195070619	-55.74653195651075	-157.3903477645503	-0.02048256123740995	39.06202752952263	-13.7460730777402	-23.81293101530446	-26.94163515813155	29.60558361521984	-31.03611285656403	-28.70851248814473	-8.35349937631104e-12	0	0	13.96763144353172	-70.19976206146613	2.942560367717327	-0.4349526755236695	-8.35349937631104e-12	0	0
0.1150170917444269	-27.02292298131212	18.6989593392967	33.27106699302683	-2.552023969495526	-10.84579687062139	1.332344434851647	23.18900705925266	28.23548978879579	-0.4029483759547325	-41.30730482404354	5.76566504930378e-13	-47.71014513447764	-7.724116232045422	14.12045393579083	0	72.95902346667515	15.80533411176617	110.5490850248339	156.3401720612987	2.98322811587262e-12	157.016430984756	-54.55616167323706	-153.7223441886527	-0.01992979764838406	37.57214880134488	-15.03523125722513	-24.03868591471276	-26.3235346239045	29.64620536474666	-30.19040447716941	-28.02236332405248	2.353568988769521e-11	0	0	17.74802497814208	-69.14485693521647	2.778332645445994	0.1566281707940245	2.353568988769521e-11	0	0
0.1198819285398158	-27.58528475258987	19.31888004933915	31.5907406038756	-3.121432180934046	-10.35405239685884	1.22776683530343	34.34330397656627	28.29772927123332	-7.441906332591057	-34.03221924368865	-5.235687894695127e-12	-42.14864088848756	-7.307344703717142	5.948627502309662	0	68.13839591276488	16.7819417409611	108.4281137878819	148.0820252180745	-3.869083541049982e-12	148.7041160531749	-51.88681786287929	-147.3644384756612	-0.01915725167690616	34.67389167850213	-15.84908612977093	-23.96585925525219	-25.30162175866358	29.20906134217938	-28.75384790137327	-27.22164100944315	-4.897177850632064e-11	0	0	21.72128790208366	-67.30234513321099	2.743001170354797	0.9405777387662801	-4.897177850632064e-11	0	0
0.1246892435043931	-27.27669889001497	19.49268508775425	29.41200940721959	-3.652280182004614	-9.751715341288879	1.094170529699457	45.37257954953126	28.11088078994257	-13.78190186354398	-25.98832525877613	5.809570210471197e-12	-35.70443169811315	-6.162169277693348	-2.313624738780905	0	61.68713235114495	17.41968276705983	104.421749382827	138.8612249988442	2.836099636785264e-12	139.0152227865051	-47.8199554523186	-138.6123558738927	-0.01830633207352589	30.58664410679841	-16.1474042860403	-23.59966415462868	-23.87252354361564	28.30120100406882	-26.74714788756353	-26.33374175065881	4.614183053546138e-11	0	0	25.78184989671302	-64.72344840739224	2.869684429861262	1.925458261421875	4.614183053546138e-11	0	0
0.1293632224455918	-26.28230561967482	19.23012643213163	26.82889267606592	-4.257849596186912	-8.79173098876552	0.9377838003388894	56.47326388574032	27.6923680227878	-19.36826148721557	-18.1288895293493	-2.323990707980147e-12	-28.91479061545413	-5.028266448494485	-10.31150199072217	0	53.9381413831873	17.71569593343728	98.82467357499335	129.2779617100582	-2.498130835953724e-12	128.2154240152404	-42.57159411255054	-127.9669287396828	-0.01771569720066099	25.32799665160479	-15.93801659472082	-22.97013186049409	-22.06623364167145	26.97164982666258	-24.24102023596569	-25.39031895510907	-5.054851553791405e-11	0	0	29.75196440360716	-61.52329794482488	3.177385334116083	3.103060582669349	-5.054851553791405e-11	0	0
0.1338301540101398	-24.619610776462	18.57996737470635	23.96806620070823	-4.855037087560046	-7.649399851484908	0.7666381788634937	66.90889478833792	27.07623878023081	-24.19887197421512	-11.00739074513929	-1.834221201242751e-12	-22.29652569922504	-3.463278126992051	-17.73639587451547	0	45.2125080938884	17.69705285682136	92.05122006666954	119.4930777525874	5.132260941650784e-13	116.6666357381185	-36.48060529222928	-116.0678653368122	-0.01695151709219452	19.26860993555054	-15.2755933230691	-22.1281773506348	-19.94450887067551	25.30620136575541	-21.35062668221775	-24.42411558642046	3.128393638475803e-11	0	0	33.55129092133199	-57.86909832010481	3.665434054409441	4.446204332528274	3.128393638475803e-11	0	0
0.1380195921846578	-22.35889920442679	17.62320388202149	20.97524339051182	-5.42334186912217	-6.495309025659935	0.5898448651216486	76.19003053260748	26.31038132481136	-28.30848721188718	-4.781487737054608	4.540249437046695e-13	-16.27847922669475	-1.531758957335246	-24.35418455107115	0	36.16837883125421	17.41581461776637	84.58036566502199	109.6995793373055	3.071153216875363e-13	104.8017888351411	-29.94703879123712	-103.6138041548155	-0.01625572309136994	12.54693217957196	-14.25322486923093	-21.13924090063935	-17.60084563553864	23.41659272487229	-18.22382975016261	-23.46714863042049	3.15683530962479e-11	0	0	37.0951204095263	-53.96144177346373	4.311993446243665	5.909743509532984	3.15683530962479e-11	0	0
0.1418654673351004	-19.73337610469251	16.46212639623703	18.00020999883333	-5.958637523378539	-5.390980593239808	0.4161218169499841	84.18387285172021	25.45241132877825	-31.75229625466875	0.3837071426722076	-1.97772703288915e-12	-11.15455076578648	0.4472474639237092	-30.01991593943199	0	27.29335149741561	16.94106433821254	76.90125510919137	100.083394306492	-2.170629890129883e-12	93.09111756959413	-23.36825785401124	-91.28629491992805	-0.01573407982647243	5.547343387154203	-12.98909586832554	-20.07579504863788	-15.15107186010396	21.4273130189332	-15.02596475206039	-22.54930696093637	-8.188598461374609e-11	0	0	40.30247810477019	-50.01297568652988	5.075878146805419	7.43322863990972	-8.188598461374609e-11	0	0
0.1453071283122631	-16.98264122400104	15.20781557850974	15.18360702004161	-6.453958349920446	-4.378353528370268	0.2535382869343673	90.84388062319644	24.5644358467163	-34.59199084749854	4.41079070590817	8.654705721255585e-12	-7.06598551824789	2.113226894297656	-34.67813442870295	0	18.9858514908447	16.34968199695211	69.46844566918486	90.84260716047869	6.26661694389952e-12	82.0046681673802	-17.1031668588115	-79.69086824895999	-0.01519074690794832	-1.327070981092039	-11.61136777449599	-19.01017071131398	-12.72345978867268	19.46271974096281	-11.92380162945773	-21.6978245920531	1.206115352567713e-10	0	0	43.11294453547038	-46.22801670864526	5.901745851231927	8.945780977720293	1.206115352567713e-10	0	0
0.1482902993364854	-14.41217716427078	13.96848030020371	12.64707794737472	-6.894347780588706	-3.354102970330513	0.1089153228307798	96.37607193786695	23.70779405188649	-36.88601710757246	7.094333944891488	-1.044860370188823e-12	-4.013213881076044	3.169690210545925	-38.35029821608569	0	11.28645364662248	15.71788377016022	62.67215927640103	82.40625618421352	9.426300059023059e-13	71.97839305839399	-11.44480735210247	-69.32274000402786	-0.01460382251947201	-7.413796892312432	-10.24425979307397	-18.00877799402352	-10.4501630884219	17.63633292366509	-9.071619966677718	-20.93735069064124	-5.699967660224922e-11	0	0	45.47533623874631	-42.78676383637843	6.727105802358913	10.37203352155168	-5.699967660224922e-11	0	0
0.1507679370955254	-12.31152715714929	12.84077513778716	10.48799072685268	-7.330899184201339	-2.177640500037623	-0.01294004894554138	101.2684865525376	22.93869675987862	-38.68406772302	8.528781533724583	-2.187921004189157e-11	-1.888242418245446	3.781211465290053	-41.11373999766752	0	4.479969445189351	15.11489144457348	56.82444676094552	75.09783610065449	-4.998464313574764e-12	63.38994782258887	-6.642999106610549	-60.55660499227684	-0.01423373626790787	-12.38284639556847	-8.997927371382042	-17.12836437287164	-8.46040787437839	16.0439648110078	-6.601751712722269	-20.28990573819571	-1.049634156966036e-10	0	0	47.34361419503826	-39.83636276871162	7.489137097849349	11.63798092341588	-1.049634156966036e-10	0	0
0.1527009768984096	-10.83274039788422	11.90410217997426	8.778444799175482	-7.705181518897037	-1.188099082418367	-0.108609904867715	105.3227390439686	22.30456108388123	-40.02499446832075	9.331214956316323	3.295327640673244e-11	-0.520480393070948	3.837620256786197	-43.07537979235165	0	-1.862028224351654	14.59847887195135	52.1584406810634	64.97204816469366	-6.676097926680594e-12	56.54329159951189	-2.833853604949972	-53.65526326807441	-0.0140611143632794	-16.17094490076541	-7.962049232647032	-16.41410168016981	-6.843373591684646	14.7604966048704	-4.619122031603211	-19.77463312736414	2.476082612499974e-10	0	0	48.74737553163236	-37.48776499288115	8.131060558342719	12.67676955012983	2.476082612499974e-10	0	0
0.1540589714577417	-9.602163509109602	11.21863322749635	7.567730261826991	-7.927279702199225	-0.4590266133725751	-0.1758813842636865	107.7797780304626	21.84225685077196	-40.93681867138739	9.518413624029634	5.234198936166353e-11	0.2767387491449774	3.473418756123637	-44.34652184520971	0	-4.763125246279152	14.21311180675173	48.83601857917789	63.73720420326946	6.80428630341442e-11	51.66526936337462	-0.1270200003403943	-48.78849926736854	-0.01393276581597145	-18.68510076638103	-7.203948716866063	-15.89938651068255	-5.657566476765194	13.84010309506075	-3.20070353283382	-19.40717030098899	-1.802679681482499e-10	0	0	49.71542889463218	-35.81827097560156	8.606256112180667	13.43311487610164	-1.802679681482499e-10	0	0
0.1548208116596206	-9.089077443714229	10.82476530495787	6.885861888396533	-8.068946768748617	-0.02346372276914011	-0.2135783321413978	109.4554808885483	21.57709477042704	-41.43801395382732	9.763376705068289	-1.970538324124413e-10	0.6619002604112439	2.707253512669149	-45.01970839717405	0	-6.894338386289439	13.98914496283589	46.95856303083191	60.33014290255776	-1.731167060637947e-10	48.90619483146886	1.418126005231002	-46.05513603968304	-0.01384083262522293	-19.90926016833679	-6.768411929795725	-15.60631482999398	-4.986599234869928	13.31770396106352	-2.396629538747202	-19.19900344081864	-1.548654999238003e-09	0	0	50.23454657851432	-34.87585908619705	8.881445531921257	13.86697894146369	-1.548654999238003e-09	0	0
0.155	-9.184773977029986	10.73118932320967	6.725257891629266	-7.441446932629249	0.01913528036357137	-0.2224364127439699	108.8445019285406	21.51413750319973	-41.55485118193334	9.918509890309267	-2.356046435702278e-10	0.7458407555456363	2.120980335722846	-45.17380231902543	0	-11.33360732929393	13.93567850484745	46.51570856683158	58.42894040114953	-1.815218509763611e-10	48.25502945217879	1.798962544001929	-45.41212362751428	-0.01381577863403531	-16.59089668812311	-6.664947386324629	-15.53695399466543	-4.895499488260629	13.19424409826212	-2.206692384403458	-19.14982808055149	-1.100834697444147e-09	0	0	50.33716158840947	-34.65366680430355	8.947059428124867	13.97001939250472	-1.100834697444147e-09	0	0
0.1554542507337262	-8.406906707773373	10.49240928046274	6.317787312180285	-8.168178613073188	0.3774621263464151	-0.2448741067554778	110.3956231781279	21.35354851348436	-41.84928743841972	9.455106502277118	-6.451440212295929e-11	0.9471134730218098	3.53078537263136	-45.55712350272855	0	-8.748460712580272	13.79881709450713	45.39103834231567	58.14274013282087	-6.222508164819076e-11	46.60064285746952	2.64696746355261	-43.78207784072406	-0.01374604645886445	-21.17024948175562	-6.400957977209625	-15.36041072510234	-4.422983313573138	12.88030618597416	-1.723858620630245	-19.02479917738387	9.499221874770099e-12	0	0	50.67128302086645	-34.08956674020256	9.114898431201897	14.23292314990053	9.499221874770099e-12	0	0
0.156515784775164	-7.087233366873908	9.925960086219824	5.364088744237158	-8.322074405155959	1.06023178914665	-0.2971874532013241	111.7599806585723	20.97287414414577	-42.5277783166312	8.994764280954314	9.584365457830887e-11	1.352022995600547	5.01099872436704	-46.41156434647935	0	-11.76863738300225	13.47177575849234	42.75255650574161	54.2636248611888	9.357920200582668e-11	42.71509373882296	4.703256708881346	-39.97434216673205	-0.01355392022615746	-23.40378703388733	-5.774869672655876	-14.94403043602864	-3.474888776335776	12.14160870615732	-0.5884893315428398	-18.73054132169847	9.912030701907721e-10	0	0	51.39889004301355	-32.76721982990661	9.515432794806598	14.85671593912473	9.912030701907721e-10	0	0
0.1581644464118399	-4.771688828574186	9.024229687983924	3.880695464414348	-8.585172856944421	2.058043978147754	-0.3779961519492804	113.5364815662901	20.36740323870742	-43.55604600039176	8.437682561823237	-2.551064508526463e-11	1.794242274000563	6.652148799582719	-47.62169326535307	0	-14.60093679139491	12.94475914406495	38.63139023281563	45.91540106803123	-3.355293680980754e-11	36.63173871948192	7.915495413037231	-34.07169210365238	-0.01320555584289907	-27.16324154577272	-4.778817783216468	-14.28753640685539	-1.97389681591582	10.98193740592305	1.1921787200058	-18.2676132761863	-4.632517422136623e-10	0	0	52.50604903390794	-30.7049124917963	10.16001409118153	15.85141753981233	-4.632517422136623e-10	0	0
0.1603741041940474	-0.4021931031912018	7.77805533465401	1.89401583751385	-8.793384415735243	3.152929151835827	-0.4851561147285187	113.653890235311	19.53086316044056	-44.88888096199223	7.226451413438852	1.034191169319449e-11	2.015662210370007	8.345793824377029	-49.01405198986789	0	-11.99667976323035	12.20473917710505	33.0786622361423	28.37252523160368	1.188563104246508e-11	28.40075216119173	12.19063825333452	-26.20271263594088	-0.01274066847749564	-32.56114297018372	-3.403953954954934	-13.39127233772921	0.1052702012787448	9.408861823273359	3.605315186886556	-17.63545721669336	2.348629382108895e-10	0	0	53.97801792186392	-27.93287803859911	11.06526721006974	17.23329082617189	2.348629382108895e-10	0	0
0.1631098871668135	7.615680714199105	6.184987951311132	-0.5513204656111774	-8.693682411662699	4.38335542719063	-0.6152996896301733	109.3057351458127	18.46022367407248	-46.47374656230062	4.128734425402545	-6.750604044865299e-12	1.672221775539471	9.949988313388484	-50.36155670782045	0	-6.665983775131679	11.2410784498251	26.18891244964621	6.349483553816075	-3.830688276480689e-12	18.1204135947489	17.30752628530349	-16.56927672950683	-0.01229419117792923	-40.69176474983895	-1.649997389985131	-12.2605167882809	2.773073872370363	7.441836827640555	6.620881008514038	-16.83317578659556	-1.458027939268249e-10	0	0	55.73259446348789	-24.5060281521249	12.24769032961192	19.01964625592043	-1.458027939268249e-10	0	0
0.1663286436775879	11.49211639194914	4.257002012202166	-3.386962207572955	-9.171761298301799	5.652191386103622	-0.7633509370286984	112.0645844144748	17.16021114365305	-48.25644741194693	2.289089935667679	5.090633441214117e-13	0.3523897599440685	11.16103058745461	-51.39652827033758	0	-6.452247387286381	10.05096687366882	18.11447702610462	-12.17423867693579	1.625399662972717e-12	5.959842268102299	22.90048889443893	-5.45838000101315	-0.01191698065133777	-46.93560552305317	0.465881491832406	-10.90870992780626	5.920620478805112	5.118611945670047	10.18218076484111	-15.85927568000086	9.117903798866636e-11	0	0	57.67950074232481	-20.51309233395711	13.71791881573614	21.22424686732697	9.117903798866636e-11	0	0
0.1699796094921079	17.11883268597153	2.027392586307126	-6.517553691317287	-9.549810926166053	7.775402911118604	-0.9227552135577217	112.8622652123669	15.64765331208157	-50.18575878412203	-3.022369500874404	-5.108400342354944e-12	-2.391293115600228	12.02804020035477	-51.83026104533909	0	-12.48763024581302	8.644469434614919	9.073636992140518	-11.87570102973252	-4.180026144923834e-12	-7.822068969978294	28.75590104202823	6.756192905763365	-0.01145061597325297	-54.72424228119342	2.90137626023475	-9.35977181228743	9.481840059307608	2.500141635538546	14.19792275755612	-14.71176053918372	-1.035767157111708e-11	0	0	59.57962155881626	-16.08275631783996	15.47464841027821	23.85223732368107	-1.035767157111708e-11	0	0
0.17400520557877	21.94361806745295	-0.4442729533064792	-9.821206890077807	-10.24398445229674	10.68361555299403	-1.085833446587993	115.5386325273721	13.95493978545464	-52.21564651630882	-10.51257624394655	6.967882021870409e-12	-6.993651660734931	12.38103649186997	-51.38048638506154	0	-27.41791942048813	7.048376324192268	-0.6518290316460934	-35.60526504278764	3.90911818339034e-12	-22.86561671902211	34.60147722743067	19.62802953631186	-0.01054589377848764	-62.52890454392036	5.583981405767258	-7.648753080934815	13.27198833402757	-0.3273541268289282	18.5374228660565	-13.38843182225543	-2.936813271428652e-11	0	0	61.26335922225014	-11.38459907893973	17.49856624472179	26.8946572711614	-2.936813271428652e-11	0	0
0.1783419453248002	27.37165034953669	-3.07101804188615	-13.15535157241898	-10.82977136885946	13.08628551869057	-1.243444323122863	115.7468089096477	12.13104171923989	-54.30482503835855	-19.76818856944113	1.413163263004684e-13	-13.81677694379579	12.52548527207164	-49.80398198298994	0	-41.37422822952189	5.307609525774289	-10.73116327831431	-48.58246058080013	3.177694506409028e-12	-38.71459038745425	39.98293895687454	32.66714468830017	-0.01011338135468843	-71.09647230659388	8.410780978882389	-5.820129439300805	17.29867867061699	-3.254872375441117	23.03183420921843	-11.88754226868426	2.672894417430178e-11	0	0	62.76354165584529	-6.622376183361931	19.74801260400529	30.32322590857751	2.672894417430178e-11	0	0
0.1829214354539589	32.71161808194223	-5.742003614885235	-16.36779283081343	-11.41906431440886	15.13133215807087	-1.386539087766805	114.342615054533	10.23908316718799	-56.41461155351737	-30.68545575120407	-1.839078888033297e-12	-23.08656603991341	12.1632152426119	-46.93043756285323	0	-55.22218328476575	3.484313059392186	-20.80946994024814	-63.39699034707228	-5.481295428814035e-12	-54.83664730621746	44.47941713834376	45.37978259100768	-0.009321412114529293	-79.64825178187878	11.25393039973184	-3.923846278026013	21.40159334491628	-6.157964260930237	27.48237335224773	-10.2100653705911	-1.948103164140566e-11	0	0	63.94265009729209	-2.018778953346741	22.15743161800622	34.08718909468902	-1.948103164140566e-11	0	0
0.1876714545037473	37.68475549396587	-8.331034942090705	-19.31211537571419	-11.94965538421167	17.2118474602641	-1.507271656101492	111.3138261540872	8.350964890729781	-58.50598725549636	-44.20384127924061	-3.714298645238602e-13	-34.83885852753452	11.26034436721386	-42.69174896353573	0	-68.76092256641982	1.653412521551216	-30.53886796027999	-78.40798137607453	5.351883572696117e-13	-70.66251639502414	47.70225219791322	57.31175882293516	-0.008504190075377392	-86.78158694399279	13.97180436471005	-2.009947708896026	25.41781104118559	-8.908394893144425	31.67659506873107	-8.362360922173735	-1.051164988432124e-11	0	0	64.68625313584076	2.206335493397322	24.63983415357859	38.11196931936026	-1.051164988432124e-11	0	0
0.1925170917444269	41.6843773291311	-10.70918823574956	-21.86429090353013	-12.51955142396598	18.69490018072879	-1.59868268339302	106.9304787883494	6.539058415204154	-60.5375313197093	-58.73967329084994	2.171428257756835e-12	-48.88758516379682	10.04235021252506	-37.14009355492559	0	-82.78743037135189	-0.1038743638346591	-39.60957210271454	-94.81158658094785	3.903166780495591e-12	-85.63662020144503	49.35438471610269	68.08712571533539	-0.007916147198244574	-93.33799891538936	16.42434589655948	-0.1232605581856568	29.16960934490432	-11.38825472770401	35.41024709418247	-6.359618405782862	1.286616467214569e-11	0	0	64.85368614764511	5.861527793932108	27.09320147276185	42.30093722819254	1.286616467214569e-11	0	0
0.1973819285398158	46.1852685250006	-12.75975441448555	-23.93689112929506	-12.64062296498302	19.65485500362035	-1.657357897391956	97.9855767934617	4.867499807484968	-62.46585223775615	-75.72670811625707	-4.438545181671954e-12	-64.82473111256286	8.494166204743902	-30.44943077755158	0	-85.32871835076743	-1.708831232424427	-47.77536796651688	-77.40654487721326	-4.891159350610353e-12	-99.27011503696191	49.12469052954767	77.43598523176502	-0.007043496780979376	-97.58379673880918	18.49000176617853	1.700237827560374	32.6640115923454	-13.50361337238012	38.51132512022208	-4.228969209862635	1.323319350963951e-11	0	0	64.77437649300759	8.807455183068765	29.41034894104128	46.54088582974715	1.323319350963951e-11	0	0
0.2021892435043931	46.62600145332719	-14.39280250390931	-25.48780179168003	-13.35508518440591	20.62841292983364	-1.682130677089183	93.50718617602678	3.384942761112179	-64.24837301225816	-92.35588973098506	4.763422332676283e-12	-82.05618175708175	6.976827806410014	-22.89843274141736	0	-102.0067255859957	-3.0942931566099	-54.86928339054646	-119.9162565990655	3.359807838753913e-12	-111.1884174952342	47.43199476721718	85.20820754118967	-0.006296321982551029	-100.1769190388338	20.08099492929276	3.43439526719167	35.48831878132391	-15.19479875184535	40.86155354793601	-2.010671162814042	1.371356587161464e-11	0	0	63.98132958742664	10.9732577526098	31.49082736826726	50.71016662812439	1.371356587161464e-11	0	0
0.2068632224455918	47.32214655286691	-15.55648795436781	-26.52158997229301	-13.43416464160248	21.23871357208149	-1.674562025542163	84.66545381767361	2.120084078021314	-65.84783486164082	-111.2949166342381	-3.280920362146375e-12	-99.86790757246148	4.639042154283723	-14.83721659048198	0	-111.9775347250908	-4.212778840638801	-60.80871901806244	-126.8559512295118	-2.480902105669321e-13	-121.1614623845561	44.12592343963607	91.37265275438307	-0.005572669877254244	-99.89156102200974	21.15394034042875	5.061393252332767	37.76154633981615	-16.44126371272417	42.41051962897633	0.2427598568547597	-1.187171131136819e-11	0	0	62.90679607483843	12.36236015992223	33.25310043787717	54.68906874319338	-1.187171131136819e-11	0	0
0.2113301540101398	47.01164972777944	-16.24292778530485	-27.08387880229288	-13.58409016810537	21.57976483132051	-1.639446564232441	75.81710265043826	1.081244742073437	-67.23706199143975	-129.0900795143144	1.506523920279687e-12	-117.5089512964561	2.752701604162384	-6.644524927611513	0	-117.7207340668604	-5.042247163194129	-65.59096129717726	-133.3235128387658	-2.261571390869744e-12	-129.1144643394449	39.81375880608155	96.00392713634959	-0.00489728035709858	-98.51651115590363	21.71383858763099	6.568764652452526	39.45625214786528	-17.26043809780123	43.17954438390196	2.470351204569938	-5.044207521263568e-11	0	0	61.53334130872054	13.04586235878925	34.64476063386235	58.37062362130253	-5.044207521263568e-11	0	0
0.2155195921846577	45.88087303575121	-16.48754298928492	-27.25074076476302	-13.6621107909659	21.28413823390922	-1.58229561115617	66.88400279445661	0.2591195726382286	-68.40218604725065	-144.4039936404222	-2.713688149648545e-12	-134.2756187482155	0.5041904518564291	1.315543911586221	0	-122.2790725936202	-5.587579214784848	-69.2812575768309	-137.5873725103576	1.331026727348732e-12	-135.1190701354188	34.938818095399	99.26020986372242	-0.004270145350897	-96.97234345889952	21.81097745349125	7.946372659689246	40.57101728032337	-17.70141596889431	43.25515506928924	4.60835189028695	9.220678151186998e-12	0	0	60.00911344598944	13.14614299328757	35.64874914658321	61.6698160823687	9.220678151186998e-12	0	0
0.2193654673351004	44.21290182309971	-16.3622851839536	-27.11593999858468	-13.66806090809056	20.51164541622699	-1.510669295875451	58.37626140862096	-0.3683029780195229	-69.34376497099367	-156.7907569051112	7.03903745164909e-12	-149.5810858204028	-2.195484771844232	8.728773190210532	0	-125.060912369231	-5.87851331680702	-71.99671047817441	-140.7249358733913	-6.117166301639456e-13	-139.3671025560461	29.88187911858031	101.356491871047	-0.003520629167692738	-95.29511524335135	21.53181439697738	9.184463143870882	41.21910384384879	-17.83535950458356	42.7743837364598	6.596124623469849	6.977090171674084e-11	0	0	58.43877529282989	12.81499808247019	36.2843005192297	64.5299226005295	6.977090171674084e-11	0	0
0.2228071283122631	42.31502317563651	-15.96439021849127	-26.7787275032393	-13.66127989991273	19.59686826127638	-1.431779229955094	50.71160913657313	-0.8302187890933284	-70.07540958631238	-166.752825995916	-8.596021432268356e-12	-162.9975839594144	-5.003820274114378	15.35220659164882	0	-126.4534729915497	-5.963495194667515	-73.88807735797961	-142.4866712115778	2.760042705712227e-12	-142.1360200250841	25.00724328424274	102.5373757751299	-0.003165983873615781	-93.69825404635218	20.98595584540913	10.27311203046969	41.27629219476172	-17.74486990179935	41.90493512954758	8.381490977197842	-2.026005821996722e-10	0	0	56.89985048173783	12.21100435530305	36.60202859350188	66.92441062268915	-2.026005821996722e-10	0	0
0.2257902993364854	40.49120447278319	-15.40334108971344	-26.33401406549851	-13.66593289431167	18.72301174613365	-1.352865580770124	44.04665782122033	-1.158063004523292	-70.62053834454939	-174.6989237686169	1.365298558035658e-11	-174.2676178763572	-7.896430860329005	21.02042431337107	0	-126.6062780096041	-5.90206420433518	-75.12222081723327	-143.1266878516437	4.098223478533909e-12	-143.7490898755015	20.54053514593249	103.0524278949533	-0.002802722015220561	-92.32372280031932	20.29217890628432	11.20267869698602	41.28760100886399	-17.51416386607491	40.82535811041193	9.923641810676285	4.577802794036385e-10	0	0	55.48033725047766	11.48131130363937	36.67525946909257	68.8546983876293	4.577802794036385e-10	0	0
0.2282679370955254	38.89540682455038	-14.78794094687129	-25.86556814980768	-13.68124073025651	17.98828756773714	-1.280418702182234	38.47721746488941	-1.381695931938074	-71.00816873445703	-180.978783281019	-3.003848850303556e-11	-183.2860222415916	-10.44384297810549	25.63825768386764	0	-125.842290791865	-5.756291922171295	-75.86570695709516	-142.7461340794833	-2.189092970487873e-11	-144.537735480606	16.6962419337838	103.1360502561073	-0.002270964265098993	-91.21639232963342	19.56540435448549	11.96476605502581	40.97008832436763	-17.2211468585813	39.70674377383178	11.19402322636419	-4.870537940332628e-10	0	0	54.23544171401786	10.74935330606398	36.58844742192817	70.34386063821076	-4.870537940332628e-10	0	0
0.2302009768984097	37.76502409930242	-14.21629884915646	-25.4422848523312	-13.71965314381833	17.43474774531945	-1.219823243134395	34.0305775824032	-1.526999315389116	-71.26858505729945	-185.6261120597849	3.378546529646713e-11	-190.0612907419307	-12.32602843631466	29.16526278610018	0	-124.6399863518975	-5.583876814070155	-76.27102386917608	-141.5488475196734	1.990124256661762e-11	-144.809794489436	13.67750448236637	102.9926282537986	-0.001872273556420395	-90.63516989828477	18.90716479816677	12.5527806048576	40.62778900171759	-16.93226576838359	38.69948776142767	12.17502193711723	2.323875651722231e-10	0	0	53.23591909480092	10.1100815857593	36.42595591628754	71.42797202013081	2.323875651722231e-10	0	0
0.2315589714577417	37.18554106652599	-13.76795678107932	-25.11653572149066	-13.77679143981508	17.07022754813131	-1.175233286909473	30.79113268054802	-1.614407923996264	-71.42913296186408	-188.6158152004392	-6.439695712582447e-11	-194.6658765366616	-13.37057238147671	31.59560897756849	0	-123.3885524280376	-5.432510156120447	-76.46529071152156	-139.9169720419135	-5.664306147167814e-11	-144.8228584168937	11.63644128579419	102.7858938493726	-0.001653322743496985	-90.62456248035954	18.39854733698332	12.96227747930694	40.34933392667958	-16.6992668355468	37.92370021411056	12.85740582371355	-1.552278081849064e-09	0	0	52.51743825817633	9.629886395302986	36.26154302667275	72.14646401665649	-1.552278081849064e-09	0	0
0.2323208116596206	37.16225487455236	-13.49996257999359	-24.92402645305695	-13.85478758468413	16.88265647855252	-1.149518843825511	28.76464246425758	-1.658310642666572	-71.51102815221152	-189.8730030483617	1.254317299548498e-10	-197.1885059858009	-13.58802726849103	32.94009450430338	0	-122.4071636272847	-5.33688794387758	-76.54189804705817	-138.2844182570746	1.254391509052029e-10	-144.766492570131	10.67634905862626	102.632513075166	-0.001548717349905408	-91.19483586185301	18.09703360270135	13.19063729351077	40.17587977923835	-16.55812562109106	37.46456345546284	13.23740142363714	4.049893981578987e-09	0	0	52.10324096511053	9.350510037245559	36.1511069569523	72.53339084694419	4.049893981578987e-09	0	0
0.2325	37.57887545975314	-13.43523476628149	-24.87775731223002	-13.89194626408306	16.84035189575373	-1.143399497684025	28.7461558451382	-1.668110646715689	-71.52943229931979	-187.4755652462763	8.319028731857835e-11	-197.7752522451024	-13.46142379655193	33.25423932643513	0	-122.6320475247305	-5.313293205675425	-76.55655489324892	-137.0029373208968	1.134791798725644e-10	-144.7466238992905	10.61396620461194	102.5925850089916	-0.001525235736232785	-91.784443696816	18.02445805646883	13.24420123546117	40.13470487166945	-16.52386556232953	37.35411831468771	13.32646123124705	3.629609401987921e-09	0	0	51.9993469698427	9.28383119836529	36.12323000997817	72.6226781070169	3.629609401987921e-09	0	0
0.2329542507337262	36.30307010823726	-13.26828233270161	-24.75880423076326	-13.76814709768136	16.68410501501315	-1.127767083153844	27.60895580034143	-1.692066932783584	-71.57461917300863	-191.7772000786533	-1.722637922249897e-11	-199.2511620409241	-14.95752804434563	34.04694313765352	0	-122.0547373914288	-5.251610032934297	-76.58799436262106	-138.5971919737762	-2.923497844853543e-12	-144.6850166596782	9.122302237156468	102.4848477410608	-0.001466944566892685	-89.90714202574026	17.8376788945353	13.37973216251984	39.99038988244223	-16.4352279661819	37.06999249260501	13.55166781538518	-8.026074348773072e-11	0	0	51.77600288849047	9.113223645613893	36.04931332112238	72.84605577320896	-8.026074348773072e-11	0	0
0.234015784775164	34.70639194230107	-12.86231829687496	-24.47175308649944	-13.60591480947854	16.34060085299402	-1.090580505449747	25.75620936206106	-1.743158426073129	-71.67197302875647	-194.7368069779506	1.112100827597807e-11	-202.6339872672811	-17.47276314710203	35.87818948846872	0	-121.2606763899907	-5.09712510646758	-76.62963667537878	-139.396333019615	7.1529891757628e-13	-144.4785029837575	6.511393880117174	102.1970042852706	-0.0013338844306698	-87.43734754010129	17.3857941425491	13.69498424139316	39.64715753723422	-16.21828818880478	36.38318410924548	14.07464507506165	-5.69121906238829e-10	0	0	51.22931198467456	8.706260866155626	35.8584343982665	73.35123197510295	-5.69121906238829e-10	0	0
0.2356644464118399	32.51659379907028	-12.1888364802391	-24.00182192801953	-13.43647118079449	15.84379782040237	-1.031072819405942	22.76148523881521	-1.809290943315676	-71.80011953078792	-198.9506316830542	5.47398406125849e-12	-207.6942484848782	-20.73115391591809	38.65948214753224	0	-119.2687563849953	-4.828987878753689	-76.60662198892344	-140.091710252864	3.89194443228252e-12	-143.9855361886083	2.909486052182272	101.6517290155912	-0.001110086667888069	-84.31301466650289	16.64233884737087	14.18036076440465	39.07395845340647	-15.8550832765277	35.25466807725472	14.87688565980056	3.847568314899326e-10	0	0	50.36992278534653	8.053973308588041	35.51153073473655	74.08784566321481	3.847568314899326e-10	0	0
0.2378741041940474	29.66484696254914	-11.20759222422524	-23.3291250144097	-13.24061895711465	15.21426799040942	-0.9481789652106825	18.54114408343193	-1.873784153135301	-71.92746010391775	-204.5385745205971	-1.036388742904625e-11	-214.0799118429692	-24.50962865732111	42.25692643920069	0	-115.2781892747962	-4.417788929323293	-76.41062466978808	-140.1814060371549	-2.516059729075354e-12	-143.0012764663692	-1.577458479733708	100.7393050997858	-0.000761281897565023	-80.30018499150499	15.5703660671725	14.82216916274715	38.16658350315743	-15.32114287238409	33.62946388207016	15.93073559928146	-2.377013426262654e-10	0	0	49.20615162852427	7.149375808795435	34.9508658799552	74.98017328425865	-2.377013426262654e-10	0	0
0.2406098871668135	26.11731276342445	-9.875986286734733	-22.43492376868704	-13.02832179633149	14.48703227101453	-0.8410179071471633	13.07070650014064	-1.917615975190732	-72.01385489986922	-211.4633742133914	-7.062292626635839e-12	-221.3008478653749	-28.28509832837237	46.48325500547227	0	-108.4818495254654	-3.831266101300238	-75.91059053705432	-139.9449772821435	-7.428545308678817e-12	-141.2809066076559	-6.804888727867291	99.33391246983422	-0.0003147105269484027	-75.3318880424747	14.13220906410384	15.60138546462405	36.87534621632716	-14.59184279935942	31.45047589794027	17.19676058560353	-8.535780791559374e-11	0	0	47.76578954353385	5.999046467496987	34.10677296631727	75.92730726958365	-8.535780791559374e-11	0	0
0.2438286436775879	21.78064599614459	-8.159268580757628	-21.30750739654367	-12.75065080282769	13.68351627220724	-0.7092978883447164	6.478491997204394	-1.922101605005035	-72.0131806803814	-219.2889867183148	7.489935314669056e-12	-228.7331315428809	-32.06324719725315	51.09925349377107	0	-98.59371730552255	-3.041097340988065	-74.96634832591002	-138.5031894927357	3.642112492753892e-12	-138.5686775252676	-12.67204725093344	97.31171360422661	0.0001728562604743566	-68.97626472446109	12.29966322351132	16.49333699161472	35.10939593107732	-13.6489827852914	28.67277170072148	18.62333434156058	1.16550573602839e-10	0	0	46.07930580647813	4.633751674674752	32.9063787014934	76.80685717910076	1.16550573602839e-10	0	0
0.2474796094921079	16.60745921512587	-6.042146366145026	-19.94739777429859	-12.39818722594407	12.82785506637284	-0.5536301795895732	-0.2503338408552409	-1.871424899425045	-71.87647869479476	-225.9894197080775	-4.30096296151942e-12	-235.6418672254016	-36.54250119832395	55.82307207943344	0	-86.92526604990756	-2.031028567609126	-73.44385526644943	-134.9367332963554	-4.835804361521166e-12	-134.6317318153025	-18.99040600219974	94.5692064015883	0.0007222671880690673	-61.08942429585267	10.06504690143606	17.46737849716491	32.81600891713421	-12.48735280650884	25.27899659513738	20.14766765836809	-5.093356622289539e-11	0	0	44.1797627733831	3.116902682541836	31.28514387865223	77.48165454782645	-5.093356622289539e-11	0	0
0.25150520557877	10.37299385342184	-3.53904694231363	-18.37063034877902	-11.94050297083121	11.91993170357298	-0.3761598807337054	-6.939165686687353	-1.754443218553243	-71.55435345120425	-231.4727171602813	5.935665069101202e-12	-241.2212488224965	-41.34476664315215	60.34645432896721	0	-74.43265829788052	-0.8043430437194455	-71.22932126970728	-128.7674553222267	5.79427517625881e-12	-129.2893052463307	-25.6128555303068	91.03801476358997	0.001354331134994867	-51.37554652288181	7.450247459365182	18.48713127570222	29.94956030552694	-11.11972920128981	21.29217845690293	21.6988379449226	1.635402916847352e-11	0	0	42.11591895040559	1.547638477720226	29.19891809037624	77.80838883896494	1.635402916847352e-11	0	0
0.2558419453248002	3.050435873193207	-0.7012840877543951	-16.60976819298003	-11.41577342651102	10.94143352877299	-0.1804186376998831	-12.99712453076823	-1.565655109523007	-71.00051031028954	-234.8796108372786	-4.342577960289985e-12	-244.6655346058139	-45.41001545130793	64.36052170768468	0	-61.86885116975446	0.6106955556574557	-68.24389132222524	-120.662497034969	-1.47848884122132e-12	-122.4435000498738	-32.32814889051664	86.69680288145287	0.002013036874645938	-40.08902575790054	4.512335266705174	19.51168633576408	26.51654555105453	-9.579321382100934	16.78439798134888	23.20311104404047	-1.115660054747743e-11	0	0	39.94676798974008	0.05580367289655185	26.63569433041669	77.65092599351348	-1.115660054747743e-11	0	0
0.2604214354539589	-5.058820818768983	2.381300405787315	-14.71189838202966	-10.77277804035945	9.84750034689802	0.0289639598678892	-18.45860999423614	-1.305095955185432	-70.17319459274378	-235.8003933288898	2.377052793690813e-12	-245.2508765564622	-48.50600661672868	67.58447781962977	0	-49.22516584495619	2.159164205204668	-64.45420542262356	-111.0179273949516	-2.583428230878679e-12	-114.0987794540215	-38.89834934341077	81.57565036648791	0.002705510074572247	-27.33103436910745	1.343326693550102	20.4979751803867	22.58685074492966	-7.918764357133163	11.87809162870955	24.59093733585144	6.624332110014325e-12	0	0	37.74186719560976	-1.210845795640058	23.62310937694883	76.89413705651516	6.624332110014325e-12	0	0
0.2651714545037473	-13.70320492600358	5.585506515925474	-12.73394429012898	-10.08352513464469	8.616148334668063	0.2461671654140256	-22.96952811346171	-0.9774338703421066	-69.034110807199	-233.8451577089602	-1.273314191454746e-12	-242.412406879254	-49.94356203059797	69.79166799168132	0	-36.58195690896569	3.762710345198057	-59.87683050984997	-100.5458674079885	2.845237070537621e-12	-104.3638972677753	-45.04935131986054	75.75207638151758	0.003540973103568863	-13.858058349688	-1.936707807041518	21.40410676869804	18.26747552789006	-6.205629281518576	6.738697159542697	25.80438538489463	-3.454368407541422e-12	0	0	35.55275047505422	-2.105113533591457	20.22923136473078	75.45538215191739	-3.454368407541422e-12	0	0
0.2700170917444269	-20.9591119731852	8.767372333668765	-10.73871547635336	-8.946505436604912	7.211506084248087	0.4649834058368848	-29.14663403063145	-0.5916317373718759	-67.55944612576756	-228.9330994294513	1.420174997355036e-12	-235.8710999014195	-50.05762929397351	70.84405035736054	0	-22.47021154837513	5.329549179772552	-54.5925381570975	-78.9443663024353	-6.784648393580602e-13	-93.46988182789039	-50.51918240637314	69.35675909072114	0.004238848927455068	0.4109421186194844	-5.191581511630243	22.19419350261881	13.79678181191968	-4.515014966322893	1.561461886900454	26.80416232094462	3.143219641325557e-11	0	0	33.57571588730418	-2.508400040111444	16.56135540900472	73.30664971982688	3.143219641325557e-11	0	0
0.2748819285398158	-29.94247680261443	11.77809589902006	-8.783811417125737	-8.229973814127831	5.625723997600134	0.6789143827461248	-30.83476507982293	-0.1588099461550548	-65.71577889339139	-220.0504803593085	-6.522760629348226e-12	-225.5516262774103	-49.32089299655574	70.67509147418389	0	-9.715955473378585	6.763599231574839	-48.7112729989489	-77.49418236403001	-1.826091825674757e-12	-81.69598907813071	-54.98523792071633	62.53026680280655	0.005052148626866263	14.2907643014519	-8.287019464686672	22.84011460229475	9.081438737118216	-2.921062325701579	-3.453044907196896	27.57071155281384	-8.281888234972363e-11	0	0	31.41395392478647	-2.335189587482423	12.7427062319283	70.45262987298014	-8.281888234972363e-11	0	0
0.2796892435043931	-37.56504081179564	14.48605899941569	-6.929051299972253	-7.281363658297169	3.918978734341616	0.8822148124299714	-32.72629299930257	0.3038993607669696	-63.53025874366064	-207.9696402676002	9.937997533967223e-12	-211.929031173718	-47.48987585649919	69.37099508433177	0	3.220960125415449	7.987202008482593	-42.44528237981027	-65.14157682000864	4.597234171913876e-12	-69.48218722759536	-58.33621125037598	55.49679860369366	0.005602324423107364	27.54335010553756	-11.10269894408835	23.32926849155026	4.539999116871687	-1.487769562083396	-8.11078064302847	28.10918145608359	7.505738480285311e-11	0	0	29.47629064684671	-1.587369925253758	8.927625225891756	67.00493906652973	7.505738480285311e-11	0	0
0.2843632224455918	-44.35906303796927	16.78613899880093	-5.202350748444394	-6.328730920212326	2.103154510624481	1.071357913142012	-33.07630758174113	0.7829531161718094	-60.93903411919363	-192.0793768772861	-1.015754419462694e-11	-195.2068333648884	-45.59501941332269	66.97523129747621	0	16.89109500573183	8.931971032577181	-35.90199255813618	-54.01475498594701	-2.048898235733606e-12	-57.06820354626308	-60.30737491046777	48.34882952138932	0.006616127140376359	39.83288110798421	-13.55620530730688	23.6532148442643	0.2183569068827369	-0.2636476310389388	-12.26995811267255	28.43374849559351	1.202800968691101e-12	0	0	27.61923853627855	-0.2591201623746582	5.212832077419089	63.00194574640073	1.202800968691101e-12	0	0
0.2888301540101398	-50.31347469007664	18.62814007909746	-3.668551523019128	-5.448454641089379	0.288205652691365	1.239437688715568	-31.60346396746614	1.24722766789095	-58.16091396306714	-173.5953199528854	9.4182561765426e-12	-177.0989121661042	-43.51311257369334	63.90694097884542	0	29.97452805547241	9.595476902703387	-29.51973820107877	-43.81918547753889	-1.14865618030799e-12	-45.21892250233006	-60.8063126254555	41.51037006160847	0.007127285994845203	50.56763326669397	-15.58586507521868	23.83558659337425	-3.711919154043521	0.7259862208857961	-15.79754808643897	28.5895805088665	-1.6111056392339e-11	0	0	25.87049975336825	1.439671167183297	1.795496045874881	58.80392338753293	-1.6111056392339e-11	0	0
0.2930195921846577	-55.17286150720807	19.98214350775043	-2.271805890785147	-4.619541112670155	-1.493179052593653	1.392325486353809	-28.93966937697022	1.699182736442207	-54.88547466959887	-152.6414998038987	-7.869467159868989e-12	-156.633363904977	-40.92606931727753	59.96557906790003	0	43.27657935116077	9.932970675019831	-23.04192572667595	-35.21756541292094	-6.168910132847176e-13	-33.50483067795351	-60.20763087505788	34.6690104901122	0.007796509433830567	59.69939011097675	-17.20679091130897	23.86606681016292	-7.278144715107205	1.472314909610592	-18.70638637251627	28.58655223768851	-3.543685277072604e-11	0	0	24.14214862659675	3.612598348007388	-1.415863119719764	54.17291685370362	-3.543685277072604e-11	0	0
0.2968654673351004	-58.76517679923171	20.91041057721122	-1.146407231375576	-3.893802326523932	-3.111850570877857	1.515421325132956	-25.4553624166014	2.081030115789622	-51.87936263485936	-131.9773628491053	9.375441871880812e-12	-138.1292856211086	-38.15526405583423	56.21325594195325	0	55.14204678756364	10.06892743370404	-17.48099570725823	-27.79805407118898	2.453641472098111e-12	-23.59371723428809	-58.5607323301228	28.8447053505839	0.008444032325772646	66.67133101949233	-18.39820628877625	23.82324411659097	-10.25964783514043	1.996512918847245	-20.89983869317438	28.5127559499634	7.102868656823693e-11	0	0	22.57125257074821	5.685883647521197	-4.055109700217264	50.03460598539435	7.102868656823693e-11	0	0
0.3003071283122631	-61.28994142229577	21.44923645524488	-0.1729010673067783	-3.263050295447794	-4.549174133425621	1.621434319002475	-21.94437910071854	2.416464326389698	-48.66910183709481	-112.4038159356331	-9.17343887637103e-12	-119.4758473089342	-35.03186021271203	52.19920323759672	0	65.9682890619336	9.978109912022461	-12.25024122920013	-21.48513121027653	-2.056273625196172e-12	-14.4599908236571	-56.33010969319474	23.38784783034417	0.008909058847174117	71.82005545996883	-19.25012788859572	23.69035361896431	-12.73184032637555	2.323633950710284	-22.52953001317958	28.36066843791882	-7.517632340148278e-11	0	0	21.13123313945907	7.885003188067177	-6.376796243770779	45.90026111419476	-7.517632340148278e-11	0	0
0.3032902993364854	-63.29811101836687	21.65383996514874	0.7797439466033095	-2.500345918214609	-5.923018243161385	1.724457867696467	-18.66135764745868	2.737398702834848	-44.7705872951009	-93.19405783621883	1.896153225779022e-12	-98.30329402729177	-30.52306116608976	47.41457997684974	0	77.53621189217999	9.641867044464597	-6.68819240642722	-8.002071280810981	-2.066384383727524e-12	-4.944129118949565	-52.44366289443749	17.58179805323632	0.009500662126046635	77.31574332616388	-19.86920885081373	23.44927245963212	-15.33330561776414	2.488394127140711	-23.78425285687047	28.11641217820431	-2.833175427393778e-11	0	0	19.31909301556706	10.46974112659702	-8.672381255283755	41.22914855294881	-2.833175427393778e-11	0	0
0.3057679370955254	-63.91364494424685	21.7134592985409	1.31976184835048	-2.18302667140336	-6.714677223286708	1.782730209966721	-16.44176972036148	2.917837773284207	-42.42827188805507	-79.76387013889574	1.039270328415936e-11	-85.79666637435815	-28.19985331360324	44.55409146115453	0	82.74426202128194	9.40816555538149	-3.458957086265419	-9.136525980415104	1.39311844038579e-11	0.5492620569499785	-50.6026050613329	14.20988135651808	0.009857636595300281	78.46728789129303	-20.18272082191084	23.29332160540601	-16.42461765159774	2.55464137120623	-24.43590462841664	27.96149701233603	1.988350544129109e-10	0	0	18.50963350081814	12.00951977501725	-9.977413634325387	38.47289973386047	1.988350544129109e-10	0	0
0.3077009768984096	-63.88193689211715	21.72938782602614	1.478701883302154	-1.981770785915014	-7.15829478326088	1.799877317903097	-15.23958983668243	2.970884185911875	-41.73504827523025	-72.87251797911246	2.062867084756427e-12	-82.1015331884519	-27.28231007556668	43.70801197160948	0	85.15649291280954	9.338153779826706	-2.506409218716138	-6.635397510457153	-3.034448727744024e-11	2.16882128896245	-49.98239621362454	13.21518254746987	0.00996487590698293	78.33895325288216	-20.27392409233808	23.24687305327469	-16.7586098457922	2.573357709087996	-24.62597275106635	27.9154406382708	-1.836358752503149e-10	0	0	18.24258890384088	12.46477777912122	-10.36159494860167	37.65861479949716	-1.836358752503149e-10	0	0
0.3090589714577417	-63.595819395517	21.7321791559584	1.508151199451617	-1.773579215109878	-7.43295404436863	1.803054114605859	-14.80772378563163	2.980714200332728	-41.60623456800531	-69.62172894201933	-3.350101329339509e-11	-81.41533716338286	-26.82667965420061	43.55079804151768	0	86.63917605516374	9.325056275484418	-2.329673707868644	-4.611276514351591	2.041682079509271e-11	2.469221676238114	-49.75463232954373	13.03063396008275	0.009984352590376284	78.43062485714599	-20.29071529296855	23.23821036007807	-16.84131662764295	2.576749108163141	-24.66102539656695	27.90685687773256	-3.103223973176595e-10	0	0	18.15536471028114	12.54936556635068	-10.43279740942662	37.50741467243144	-3.103223973176595e-10	0	0
0.3098208116596206	-63.26756561568192	21.73240048582653	1.509890442511163	-1.59736398104077	-7.580301864836606	1.803241847131967	-14.77423965987058	2.981294635359748	-41.59875773755384	-66.89350576698632	-6.167795851848717e-11	-81.37534850968649	-26.61045342362393	43.54166951369283	0	87.08766270923032	9.324326808244136	-2.319319798754179	-2.819866788991604	5.748625386962159e-12	2.486852577430321	-49.74537754270879	13.01982028563933	0.009985613734420438	78.62026740785919	-20.29174481847081	23.23771857241343	-16.80078134910474	2.576976429911455	-24.66315384509675	27.9063674245164	-9.915635500527914e-10	0	0	18.16230455173004	12.55427968574481	-10.43699629793038	37.49859856950296	-9.915635500527914e-10	0	0
0.31	-63.17593370188417	21.73240251310506	1.509890903812991	-1.550509939646946	-7.61429339421373	1.803241900922844	-14.77691414594439	2.981294785820761	-41.59876031278735	-66.16936998983397	-6.231891759136265e-11	-81.37535662157961	-26.56356634551226	43.54167253972608	0	87.15180262025869	9.324328150126775	-2.31931997424574	-2.339324152171937	5.19327231989526e-12	2.486853408992735	-49.74606340491462	13.01982039807993	0.009985617892363933	78.67558187125353	-20.29174641095615	23.23771913270851	-16.78280535199419	2.576977432406247	-24.66315644149347	27.90636790421127	-1.009290716783714e-09	0	0	18.16844346146906	12.55427814917415	-10.43699719464331	37.49860018938261	-1.009290716783714e-09	0	0
