DataType=double
version=3
OpenSimVersion=4.5
endheader
time	pelvis_tilt	pelvis_list	pelvis_rotation	pelvis_tx	pelvis_ty	pelvis_tz	hip_flexion_r	hip_adduction_r	hip_rotation_r	knee_angle_r	knee_adduction_r	knee_angle_r_beta	ankle_angle_r	subtalar_angle_r	mtp_angle_r	hip_flexion_l	hip_adduction_l	hip_rotation_l	knee_angle_l	knee_adduction_l	knee_angle_l_beta	ankle_angle_l	subtalar_angle_l	mtp_angle_l	lumbar_extension	lumbar_bending	lumbar_rotation	arm_flex_r	arm_add_r	arm_rot_r	elbow_flex_r	pro_sup_r	wrist_flex_r	wrist_dev_r	arm_flex_l	arm_add_l	arm_rot_l	elbow_flex_l	pro_sup_l	wrist_flex_l	wrist_dev_l
0	0.4191220580874706	0.1155362362513742	-1.064368436555736	1.587342209570569	0.817318419212205	-0.2808857387456078	-2.278620915600551	-1.762901203952764	-3.028188489325223	0.9095871667776803	-3.386745728878527e-14	0.9284668431619791	-5.532517638198028	0.1044031436081107	0	-1.404995861920205	0.3375217120964267	-2.728139125007343	-11.21872699160709	-4.456210646172529e-14	-11.16125390923876	0.3899624514023183	3.94811159854724	0.004879595151293562	0.06328762935259835	-0.676812420396654	0.9878997120435304	0.6198510809609648	-0.5612488249637401	0.5247448797688424	0.9057109565224126	-4.674107979251285e-13	0	0	-1.478728990041742	5.018124499544554	-0.3412792222733169	-0.2186754776035573	-4.674107979251285e-13	0	0
0.0004542507337261803	0.4389088492164341	0.1070811667834849	-1.070345231362714	1.589560321013069	0.8127891602171314	-0.2813092055640415	-2.273023959855192	-1.766926196370695	-3.005598668886678	0.9963207727850012	-3.617842678208218e-14	1.014683804563503	-5.509902264989921	0.06815652749090403	0	-1.443572822666787	0.3308121804375914	-2.752021823059749	-11.21813578165421	-3.798122999910477e-14	-11.16507869747446	0.3898349764840661	3.980367579885194	0.004863172953618772	0.04757046376852214	-0.6683584489558574	0.9921697049823973	0.6175419691060609	-0.5618564191730289	0.5268772132776021	0.8965073709597892	-3.210306607911484e-13	0	0	-1.463931165892306	5.022437508956228	-0.3282750091359776	-0.22099485054711	-3.210306607911484e-13	0	0
0.001515784775164009	0.4853675974097533	0.08732155596874235	-1.084308214037123	1.59482031900688	0.8021899595043439	-0.2822985614701999	-2.259381387640239	-1.776328758646229	-2.952777680749788	1.201192860645125	-1.999604935916211e-14	1.216154109385152	-5.457390041736184	-0.01653637451370037	0	-1.533989363902143	0.3151312999231906	-2.807832258276879	-11.21516901927031	-2.127586857574502e-15	-11.17397384128978	0.3895740801504324	4.05573789133122	0.004824794615135622	0.01099324853473282	-0.6485995316203139	1.002145830907359	0.6121250460337648	-0.5632770751591301	0.5318592338593844	0.874999471945659	2.536387346235737e-13	0	0	-1.429405685719895	5.032506085723439	-0.2978948419164094	-0.2264150466431317	2.536387346235737e-13	0	0
0.003164446411839883	0.5575046355733677	0.05661558336276648	-1.105925952706686	1.603031702044666	0.7857240783048021	-0.2838311568227256	-2.239345424862835	-1.790875571887026	-2.870227297862386	1.51716722591536	1.367069582054245e-14	1.528905730931484	-5.375144925765169	-0.1478848807836643	0	-1.673590548294253	0.2907534191667146	-2.89449821145096	-11.20998459757113	2.232541462350713e-14	-11.187077838823	0.3895892497325868	4.172657602712571	0.004765168565758824	-0.04564760241138677	-0.6178636951666507	1.017600432722297	0.6036090845679776	-0.5654964368371449	0.5395803275811258	0.8415936130873911	3.199174592396461e-13	0	0	-1.376428402418067	5.047970620527542	-0.2508649010305332	-0.2348345733244539	3.199174592396461e-13	0	0
0.005374104194047435	0.6532842200504732	0.01533943622689883	-1.134422727396049	1.614144680963817	0.7635124448944349	-0.2858574976035225	-2.214287391201021	-1.809978544062066	-2.75598800267767	1.936247001100919	-5.968458911720703e-15	1.947019798472226	-5.262721240610663	-0.3226120123676312	0	-1.857607495542142	0.2579126496264482	-3.010563273189821	-11.20058320164386	-1.327581304814626e-14	-11.19966517966117	0.390473391611464	4.328398124109154	0.004685102443690521	-0.1197347122555188	-0.5763309196678558	1.038038927925952	0.5919888423936535	-0.5685613660548022	0.5498131412304756	0.7968058915000773	-3.397756800469345e-13	0	0	-1.306825513379183	5.067487179719757	-0.188904277013513	-0.2461288963955566	-3.397756800469345e-13	0	0
0.008109887166813518	0.7709747806736189	-0.03622691875685861	-1.167835401551678	1.627996495907806	0.7356621763103027	-0.2882581435469928	-2.188382372461189	-1.83209242866174	-2.600583754181316	2.446167919107498	1.3103570279298e-14	2.460444595685766	-5.112786313230393	-0.5337351178789705	0	-2.076123417004906	0.2166082007787606	-3.153869185266646	-11.1750421362223	1.587275533352184e-14	-11.19588826130225	0.3954009881439595	4.517400471714131	0.004585465619544948	-0.2093104084586144	-0.5236028838935501	1.062268173486441	0.5767300234384587	-0.5726984679398666	0.5620198924602111	0.7412912804378824	3.049572087919549e-13	0	0	-1.226851406611457	5.086934301433903	-0.1163512399420044	-0.2601443634894204	3.049572087919549e-13	0	0
0.01132864367758793	0.9065921663411052	-0.0976167406571158	-1.203329078568387	1.644428588526054	0.7020018814603912	-0.2908714415535051	-2.164458832171782	-1.85505898230795	-2.391366765246232	3.032871772708693	1.206555151470702e-14	3.054412387035439	-4.914260414869556	-0.770720771604319	0	-2.312696028681147	0.1668950777304398	-3.321116060123043	-11.10981493185882	-6.286890267549835e-15	-11.15402990418711	0.408951770833176	4.731338651922815	0.004468165316421502	-0.3087667602416118	-0.4591974178338853	1.088605525877672	0.5568039569962246	-0.5780894064407871	0.5752928702834871	0.6757718924105174	-1.982832918777359e-13	0	0	-1.14602762167689	5.100593021519908	-0.03884255342237721	-0.2765944093319473	-1.982832918777359e-13	0	0
0.01497960949210789	1.057626590939181	-0.1674837457901643	-1.238629503537299	1.662955473166997	0.6630551452598128	-0.2935905802101197	-2.147676077415258	-1.87741429425716	-2.126505584982256	3.677059640436588	-1.336222134784469e-14	3.710610553012011	-4.668130676145938	-1.022369667906504	0	-2.557948374106059	0.1096786574593041	-3.507282329838018	-11.00184391890842	-2.674397417411013e-15	-11.06456035430112	0.4316586957213393	4.961057665905929	0.004337531176591428	-0.4170676780361537	-0.3840042547115837	1.115744555619224	0.5319198144930981	-0.5843279656680969	0.5884838764156192	0.600950026436904	8.778068075860684e-14	0	0	-1.06825871692712	5.105368036108686	0.04087584452076221	-0.2948871162310931	8.778068075860684e-14	0	0
0.01900520557876997	1.217635154307188	-0.2440354599039891	-1.270992497438576	1.683136632308054	0.6189404103480787	-0.2962909042357377	-2.139750269386451	-1.8974311211493	-1.805676372824448	4.357860812075368	-1.011909279395088e-14	4.40631173250488	-4.375539500461398	-1.274943853039825	0	-2.795944404977096	0.04620335627742082	-3.705635512913456	-10.83876508665015	-8.848700606341088e-15	-10.91761396061296	0.4638867513793916	5.194819580619717	0.004194575813950776	-0.5269866978996114	-0.2993393802540058	1.142127473982731	0.5015720642186876	-0.5907106780330944	0.6000595788612351	0.5175051662158837	-7.241433867216667e-14	0	0	-0.9983878509235016	5.097759641310097	0.1201247004212095	-0.314286455343551	-7.241433867216667e-14	0	0
0.02334194532480019	1.38398174699905	-0.3252076290068905	-1.296966441030665	1.7042742543619	0.5703329824595422	-0.2988051333602575	-2.147841383261273	-1.912843964469572	-1.427266502316988	5.049072382662867	2.278750972972633e-15	5.1149433010499	-4.040113305389155	-1.512343877478779	0	-3.011874609508883	-0.02212704533615471	-3.907766534293442	-10.60450451908308	5.852861680053463e-15	-10.69929569326028	0.5052768633851497	5.4180157991457	0.004045008557249971	-0.6380458792529278	-0.2066388321383845	1.165777547454701	0.4651759700037046	-0.596333853489299	0.6081139493537647	0.4261007411723117	1.221491083959935e-14	0	0	-0.9411952894461564	5.072961408427517	0.1954038067189087	-0.3340275767622289	1.221491083959935e-14	0	0
0.02792143545395889	1.547924994115742	-0.4083118871553618	-1.313600849005981	1.725801941301457	0.5175590044304299	-0.3009938428559877	-2.171906282813032	-1.921856456238806	-0.9979489612956484	5.724579711003985	8.925754269739996e-16	5.808777832587106	-3.671489716645652	-1.719623748394664	0	-3.192230845478773	-0.09327780084788982	-4.103621006392377	-10.30039037047905	-3.099912063415183e-15	-10.40467774661002	0.552422656208323	5.615450192337131	0.003891623158432671	-0.7406696522191787	-0.1083848893626376	1.184986568175889	0.4223252882844086	-0.5998069371343242	0.6106285059358569	0.3273932387586299	-9.945301004240835e-14	0	0	-0.8989772205079012	5.027973806220402	0.2652235487729633	-0.3532965517179854	-9.945301004240835e-14	0	0
0.0326714545037473	1.707641264975782	-0.4904531241085534	-1.318144905897498	1.746808299260263	0.4617956774773051	-0.3027146499401562	-2.218280776224284	-1.922759338535625	-0.5271475261118299	6.35707098704755	-1.358937669130035e-15	6.460689232700013	-3.281447228597526	-1.883595690924265	0	-3.3272745425626	-0.1649834424610915	-4.282244282660653	-9.920838712076435	1.738102026610478e-16	-10.03141228371572	0.6015011565975432	5.771687775688149	0.003732956282106759	-0.8369370027986285	-0.007445545421765733	1.198087426242821	0.3727887587917654	-0.5995599798291744	0.6056106364082179	0.2221281831559037	2.663334348273162e-14	0	0	-0.8730437744257094	4.960198760140004	0.32844459611653	-0.3714068482805741	2.663334348273162e-14	0	0
0.03751709174442691	1.852832859947178	-0.5686630863737893	-1.308561521634707	1.766905979038961	0.4033770061057516	-0.3038461832566655	-2.282627584022952	-1.914294830416178	-0.02830696769263633	6.924550920035223	1.607783301279179e-15	7.046924211260506	-2.884758625592319	-1.994973769488652	0	-3.405426700871391	-0.2347985234451084	-4.432719257629194	-9.469499782268079	1.448947110106097e-15	-9.582758245652682	0.6476035681082164	5.872981073305001	0.003576740303840291	-0.9140778864903933	0.09292026648854637	1.203725512181675	0.3165541080638491	-0.5939668186210716	0.5913730561228022	0.1112398004539671	1.211842283385216e-13	0	0	-0.8626566151610877	4.868348615875682	0.3847401152426855	-0.3878579133449772	1.211842283385216e-13	0	0
0.04238192853981579	1.986035083584298	-0.6401710944281057	-1.28379107850854	1.785778282550587	0.3439474670817528	-0.304300948086482	-2.373090417737318	-1.895815452533169	0.4824467548989436	7.405364263030998	5.385465454655621e-15	7.549430097821501	-2.496160551656437	-2.049574019589914	0	-3.427634635315224	-0.3003095253010917	-4.545416561739419	-8.943254334804319	5.926248796202454e-16	-9.067464445093391	0.684449129566155	5.90898179804746	0.00342485892600225	-0.9776100926328934	0.1893470006568087	1.201000642581138	0.2540027784513668	-0.5815948016328579	0.5667903559915085	-0.004042430406844062	1.686394962764417e-14	0	0	-0.8659437031892807	4.752672371748047	0.4343745774042385	-0.4023785272291647	1.686394962764417e-14	0	0
0.04718924350439309	2.095805548652903	-0.7026900694781135	-1.243901864303873	1.802745214993287	0.2839842449117593	-0.3040367075713762	-2.475975731924557	-1.867373855614892	0.9883180886529235	7.793957237358372	1.839392697056932e-15	7.957462439966695	-2.131070091472099	-2.04865359175853	0	-3.39208886353173	-0.359385023733143	-4.613307795521147	-8.376744390016883	1.606057724765563e-16	-8.498763863785868	0.7071339004363759	5.874211263582878	0.0032764866972316	-1.015148945288963	0.2787212021183593	1.189569909815682	0.1858319605439797	-0.561477917097264	0.5315108574089299	-0.1221180386077571	3.133169603875625e-15	0	0	-0.8799170190549681	4.614994476415546	0.4778688956802943	-0.4149241314691044	3.133169603875625e-15	0	0
0.0518632224455918	2.190968101692875	-0.7546268660991551	-1.190193758872934	1.817601960250262	0.225652693651605	-0.3030676108336893	-2.599325263978906	-1.829810998936656	1.473227449016817	8.083651760092719	-5.131554116466381e-15	8.268258231487195	-1.804570627129709	-1.998517039024434	0	-3.311938074155035	-0.4103719782250783	-4.633052030176331	-7.776121614971874	-2.007719641843505e-15	-7.893857050295424	0.7117889150509331	5.769134899717361	0.003132494443204159	-1.041043046920487	0.3584606501959461	1.16975140262971	0.1132889481653662	-0.5333272009658012	0.486095599532324	-0.2409979381857008	-8.122155006195983e-14	0	0	-0.9013688351949822	4.45883619388789	0.515899197776433	-0.4256221302498136	-8.122155006195983e-14	0	0
0.05633015401013977	2.259436409286039	-0.7952395386937418	-1.125099610813633	1.83033924593494	0.1688865221893434	-0.3014649727095915	-2.723497836267793	-1.784699605915604	1.923541448434076	8.28486822609992	-5.841275403013618e-15	8.486547556283632	-1.525005113064883	-1.909253953493986	0	-3.185065075649304	-0.4522720168895878	-4.605637584818646	-7.162031998105293	-6.088010278468486e-15	-7.272323955282149	0.6969838413761322	5.600393018462223	0.003003494035432629	-1.038305390941547	0.4267903419419421	1.142525325727052	0.03795286966318601	-0.4976745183852589	0.4320395447818581	-0.358353875685049	-6.42693997835306e-14	0	0	-0.9267961773235722	4.289195302894645	0.5490752811440368	-0.4347011869955067	-6.42693997835306e-14	0	0
0.06051959218465776	2.318283035813851	-0.824671385532131	-1.051994968679488	1.8408545372997	0.1163729109938415	-0.2993530260601169	-2.860431395937312	-1.734239106410227	2.328940815868208	8.403777276846057	5.792184052531568e-15	8.623163253606599	-1.292602840910212	-1.793138069586962	0	-3.035866080931182	-0.484814566796207	-4.536401798321045	-6.544996679115201	1.365167660848904e-14	-6.654905424513862	0.6633889870252894	5.380267621644025	0.002883852954714795	-1.033046355211689	0.4828708637227109	1.109484947523754	-0.03808694468777574	-0.4558855500730163	0.3716802116277812	-0.4716285205939429	1.51387091922453e-13	0	0	-0.9532507221639506	4.112288124174251	0.5778988389905662	-0.4424143945502985	1.51387091922453e-13	0	0
0.06436546733510043	2.347055890099913	-0.8438837822824166	-0.9748886667429362	1.849452900817193	0.0668442199122761	-0.2968981940446337	-2.977937888290759	-1.681066831059366	2.682878214597087	8.463273321728453	-2.949158539876855e-15	8.693034959238151	-1.106307636750006	-1.662939998828893	0	-2.860220469878683	-0.5084433580860547	-4.434435893448867	-5.961371143746595	-8.679439399750358e-15	-6.06208906753531	0.6142583769218768	5.125397045627141	0.002775271022017653	-0.995030360846064	0.526813831619773	1.072705502887847	-0.112660587379111	-0.4100580087531191	0.3080004953375692	-0.5781826215956785	3.847669040687133e-15	0	0	-0.9780343522658637	3.935109394309408	0.6027234988242429	-0.4489827576682246	3.847669040687133e-15	0	0
0.06780712831226307	2.383354603860656	-0.8544884528954644	-0.8980776630463343	1.856060066170043	0.02461476755112584	-0.294290618629218	-3.109889041636971	-1.628046245497816	2.982346817661479	8.469334364449567	4.641546656763097e-15	8.713023719241512	-0.9577693120916846	-1.530542677384006	0	-2.697688306974622	-0.5242059923268284	-4.311502611163287	-5.405805520457315	1.034749074734323e-14	-5.513045158511015	0.5545116616411594	4.855042602044535	0.002683226221820527	-0.9801543014126419	0.5595568819132732	1.034569407459002	-0.183128305955622	-0.3628161063583515	0.2443640723074927	-0.6754509496149784	-1.714095257700916e-13	0	0	-1.000026730726745	3.764962406386944	0.6237883490444375	-0.4545636106441827	-1.714095257700916e-13	0	0
0.07079029933648544	2.333163092136797	-0.8585178312585269	-0.8258017968702318	1.861854775631563	-0.01933518300742568	-0.2917256588712719	-3.140418102159491	-1.578047740163696	3.22725923846255	8.472380390167874	-8.960103370605087e-15	8.699958489035488	-0.845129930972305	-1.406010679548906	0	-2.488128262142929	-0.5335769607836336	-4.180697689124114	-4.965817110291125	-8.136042712198194e-15	-5.024785229509064	0.4903240686046015	4.589203416469038	0.002602275872261345	-0.8472540603129861	0.5826447703339098	0.9975642611085184	-0.2475671723500414	-0.3170485957222512	0.1842256144667659	-0.7610791801893978	2.27638399959121e-15	0	0	-1.017185412390874	3.608972254442762	0.6412518642580561	-0.45924539148231	2.27638399959121e-15	0	0
0.07326793709552543	2.273584446884618	-0.8581677629012066	-0.7619505396845382	1.866414836464179	-0.05705437413558218	-0.2893887639770354	-3.15133488869798	-1.533754393961686	3.419550725402847	8.461332197545204	1.554042638534161e-15	8.669133293764872	-0.7596609166157582	-1.297175232333339	0	-2.29638956604141	-0.5382421920925415	-4.055095824537613	-4.60369635700823	3.580262234756075e-15	-4.611665050820295	0.4281091235297028	4.346889139367497	0.002533919071926706	-0.7116358143676793	0.5979533847781837	0.9640864474099116	-0.3032410349752921	-0.2756339704878345	0.1308586747407321	-0.8330255046757578	-2.015087751741196e-14	0	0	-1.03002058653917	3.473661872841685	0.6552293103368311	-0.4630606343608838	-2.015087751741196e-14	0	0
0.07520097689840965	2.285416284215712	-0.8555500342737972	-0.7098433007038117	1.869143790715188	-0.0802516182351744	-0.2874408442596681	-3.229690906371934	-1.497504003912038	3.562227026066857	8.421242410180733	1.139455943508039e-14	8.633343597172734	-0.695483501450179	-1.209645642579659	0	-2.188212173222222	-0.5398814763933257	-3.946572910758374	-4.273890050941102	-2.045827243041139e-14	-4.285154145867845	0.3740420694316586	4.144743414678634	0.002481244252829569	-0.6941529829269366	0.6074074474542458	0.9362702671759605	-0.3476625848380944	-0.2411932774216164	0.08713216146395018	-0.8896217790568323	1.842385589904956e-13	0	0	-1.039742909680341	3.36461736380069	0.6658140955609377	-0.4660065622197054	1.842385589904956e-13	0	0
0.0765589714577417	2.272436835181686	-0.8524800088804074	-0.6720894565994429	1.871150486440358	-0.0984629292360733	-0.2860095170299035	-3.262389924832585	-1.471173057558576	3.658487246090378	8.393258426212583	1.866757313635445e-14	8.602414519976167	-0.6535205204443546	-1.147107117049394	0	-2.095906078433214	-0.5399733779671969	-3.864906810537549	-4.055496186013944	3.487690849421924e-14	-4.053819174828345	0.3331010045857519	3.996093513972067	0.002445557481426238	-0.6503482612905804	0.6127276827831964	0.9158553909800825	-0.3796950522996664	-0.2158934979968352	0.05534962818694548	-0.9295996965191766	6.736610139883857e-13	0	0	-1.045696487537621	3.286257058711918	0.6730850288116015	-0.4680649191759485	6.736610139883857e-13	0	0
0.07732081165962061	2.273782830950319	-0.8503131697319012	-0.6505091165602905	1.872158725572436	-0.1077363162317981	-0.2851845024132512	-3.291095558500666	-1.456095164616928	3.711027291895965	8.372501992341491	1.804429652460205e-15	8.583069365278787	-0.6303678412997837	-1.111726451996939	0	-2.05054314056096	-0.539639871510733	-3.817159237077585	-3.926302737498117	1.877076461122292e-14	-3.923395206829948	0.3090919826284177	3.910364229340949	0.002426206005564816	-0.6388288275911886	0.615231728040925	0.9040915359744716	-0.3979021012636083	-0.2013050135966807	0.03714404871598662	-0.9520995880056137	1.941619020168027e-13	0	0	-1.048876071518755	3.241680860170265	0.6771048135768241	-0.4692165667715309	1.941619020168027e-13	0	0
0.0775	2.27084269250111	-0.8497571535216814	-0.6453924124715944	1.872429826730045	-0.1102362506947505	-0.2849881981066751	-3.294179852147856	-1.452517194024849	3.723230821526156	8.368509415281906	-4.126477234202175e-15	8.578316980415915	-0.625078543186532	-1.103378660012647	0	-2.037525359051095	-0.5395211259478017	-3.805728879503666	-3.898266634273859	4.210143173993752e-15	-3.892655337265371	0.3033239589008423	3.889960335284415	0.002421725491612125	-0.6312169184903542	0.61577036467238	0.9012924430628493	-0.4022381659636411	-0.1978327428326158	0.03282338020429608	-0.9573987949597214	-1.115934502851356e-13	0	0	-1.049550497130941	3.231133166049862	0.678044116142221	-0.469487159914365	-1.115934502851356e-13	0	0
0.07795425073372618	2.268243541441916	-0.8482685800221762	-0.6323524642291884	1.873060794279377	-0.1160829545524427	-0.2844867534102773	-3.307263397186655	-1.443393389500036	3.753902911213121	8.357518183650084	-1.287527683195989e-14	8.565930381524629	-0.6118083799456584	-1.082177090681498	0	-2.008088289644174	-0.5391512422436527	-3.776413337480296	-3.823367671040063	-1.580014365559136e-14	-3.814623751545966	0.2885398539434605	3.837830266502845	0.002410481540228931	-0.6191742409913674	0.617049834264878	0.8941420208329898	-0.4132280271977286	-0.1889607352165218	0.0218049782245763	-0.9708442717288186	-7.733450677159563e-13	0	0	-1.051282827980343	3.204287681718384	0.6804147734986377	-0.4701726858668175	-7.733450677159563e-13	0	0
0.07901578477516402	2.26156683513146	-0.8443485423951701	-0.6015009534897965	1.874338726443596	-0.1296679812604211	-0.2832939919601526	-3.338871096731833	-1.421775793447588	3.824092553829228	8.325522752445057	-5.55659955971233e-17	8.535130294792875	-0.5826173955509057	-1.032444122849872	0	-1.937163192122977	-0.5379013527919434	-3.706024946723574	-3.647043529103177	5.486528736541832e-15	-3.631713801587712	0.2530529394870786	3.713771491229209	0.002384761743967659	-0.5912492683538941	0.6195582548441311	0.8771292510888734	-0.4389628568382155	-0.1678406533796979	-0.004304685709153981	-1.002327640478859	-2.892846552506855e-13	0	0	-1.055163278788687	3.14096497623632	0.6858959575561201	-0.4717724217263474	-2.892846552506855e-13	0	0
0.08066444641183987	2.250024445511586	-0.837038797351481	-0.5525691536170968	1.876090699515025	-0.1506585521471507	-0.281385190047567	-3.387455962756496	-1.387393940583348	3.928929987565031	8.271505012312456	1.299162062174516e-14	8.482368846929475	-0.5409966304705089	-0.9548589607815197	0	-1.824392919113172	-0.5348880662373603	-3.591563731235397	-3.369724124365033	-3.063790240943738e-15	-3.346222137962609	0.1952827747505523	3.515046192082354	0.002345557256732631	-0.5470184070891855	0.6221146624040862	0.849877732693607	-0.4792712263513077	-0.1339768905745197	-0.04583398860005283	-1.051383318325221	4.51898482649673e-13	0	0	-1.060551338971259	3.04103108724714	0.6942454310879269	-0.4742513489204754	4.51898482649673e-13	0	0
0.08287410419404742	2.231133967474786	-0.8249278116330604	-0.4851551450370661	1.877742499762133	-0.1786091081730408	-0.2787251506589197	-3.450133135988971	-1.339818055888015	4.061369878825454	8.18864420296048	-8.600951281230442e-15	8.402927362404093	-0.4905269606372094	-0.8507280384312312	0	-1.666816994511574	-0.5288030556323657	-3.42861416650483	-2.994415887727005	2.794481571561396e-15	-2.961289773734773	0.1128341582949131	3.237659771000505	0.002291632394794406	-0.4859168956654116	0.6229847398905255	0.8118108677851144	-0.5339931590420962	-0.0866067404203584	-0.1032867851568429	-1.117388797622862	-2.348354008917935e-13	0	0	-1.066396921685617	2.904200231804396	0.7051232293093425	-0.4775632628859783	-2.348354008917935e-13	0	0
0.08560988716681352	2.202778254704594	-0.8063108214878584	-0.3990239856025909	1.879103432985423	-0.212967310399126	-0.2752834796089099	-3.522969185343945	-1.278645989935894	4.212362999517608	8.074118633541042	9.998392234454023e-16	8.292182738151391	-0.43597597948756	-0.7226420792548444	0	-1.465310782850924	-0.518032103389698	-3.212375395740799	-2.524257181152834	-1.605067048911808e-14	-2.4819282572743	0.002998655445464848	2.877863930649425	0.002221246120022242	-0.4058194280211946	0.6200225037889697	0.7623255082511783	-0.6029087445847081	-0.02491873808652157	-0.1770884789543987	-1.199419075793747	7.363429435862339e-14	0	0	-1.071035851148539	2.730510374558576	0.718090601058887	-0.4816416379533239	7.363429435862339e-14	0	0
0.08882864367758794	2.16273468030081	-0.7793943913524808	-0.2943624813905157	1.88004456477004	-0.2530736684943992	-0.2710491292741977	-3.601341921729458	-1.203655202126102	4.371441574094784	7.925709526401084	-4.626007866913464e-15	8.146953567646975	-0.3825843020710904	-0.5749509894302408	0	-1.222365077445914	-0.5008196793416189	-2.938736874062562	-1.965101475097844	-9.728446056641668e-15	-1.915540044230803	-0.1366073136652808	2.433580340988156	0.002141097967827645	-0.3043427463726229	0.6108865618647625	0.7009509049506255	-0.6855924773536799	0.05173781192533963	-0.2673593933529013	-1.296190095478767	-1.461248842552826e-13	0	0	-1.07224556739091	2.520679279249757	0.7326293376912365	-0.4863856837728912	-1.461248842552826e-13	0	0
0.09247960949210787	2.10800674501235	-0.7425452151054934	-0.1720397185169405	1.879825818092671	-0.2981298052869248	-0.2660460964079274	-3.675503374011233	-1.11496171726822	4.527511841327207	7.746997142978431	-3.754960877497118e-15	7.966758021950312	-0.3357868113360678	-0.4140334181946299	0	-0.9388480532716387	-0.4754763758421093	-2.605485984691362	-1.327963718671133	1.115200753400897e-14	-1.272335439147776	-0.3073622114559473	1.905908958535254	0.002056809658200289	-0.181209056872965	0.5933176403171199	0.6275246205575291	-0.7812319738104088	0.1436101666218829	-0.3736659693731378	-1.406017364752486	1.154105424602168e-13	0	0	-1.067433446835262	2.276473303388479	0.7481689936665231	-0.4916338019428698	1.154105424602168e-13	0	0
0.09650520557876997	2.037053588582751	-0.6945620358171544	-0.03382987795739952	1.878208747014079	-0.3472491430675956	-0.2603472386085261	-3.737207451530344	-1.01316505863584	4.669793192803683	7.54252854174441	3.590809784776915e-15	7.754708425934376	-0.3006036259966733	-0.2482232106621811	0	-0.6207163335478294	-0.440614296467064	-2.213479610901166	-0.6259767712381956	1.724354648020602e-16	-0.5655504383981007	-0.5087033356679137	1.300476654583282	0.001963853238875561	-0.03610398021410344	0.5654572184973613	0.5423635890496782	-0.8885819471152083	0.2502951861849445	-0.4947838906668716	-1.526804397601782	5.107270668355983e-14	0	0	-1.053572811446028	2.001033740404742	0.7641273892255862	-0.4971257435263825	5.107270668355983e-14	0	0
0.1008419453248002	1.949028193149874	-0.6349361719196805	0.1174529147298202	1.874666177962283	-0.3993993908766152	-0.2540830441803902	-3.774974020108844	-0.8994549751174086	4.788791240349229	7.323487177354311	2.515304342173808e-15	7.517797605399199	-0.2828661231362881	-0.08732069352019994	0	-0.2746244322071603	-0.3953829976337604	-1.767554180806918	0.1243054901052627	-3.433275951506173e-16	0.1886208446700804	-0.737781733480252	0.6283310219336934	0.001866160424959757	0.1285726777313161	0.5261680032673423	0.446401355825182	-1.00571284633667	0.3705310245875291	-0.6285193976959957	-1.656074178941515	-1.040180560282853e-13	0	0	-1.027607397464769	1.69909275438471	0.7799683571858523	-0.5024610715905374	-1.040180560282853e-13	0	0
0.1054214354539589	1.844726180330458	-0.5640562458249945	0.2779532588683453	1.868877450438151	-0.4532950179923769	-0.2474432684453872	-3.78039225021679	-0.7756576310762374	4.877156062643355	7.091004278959526	-8.755079357024385e-15	7.266427572852404	-0.2889745025272066	0.05828985341718212	0	0.0889206146111623	-0.339667812351926	-1.276938952535012	0.9035886931269212	-3.358954391498619e-16	0.9714383774222937	-0.9887100345729736	-0.09389985879607148	0.001766818931391656	0.3078636607381915	0.4753011052481587	0.3412608334104808	-1.130193240360031	0.502076723128781	-0.7716376504172082	-1.79104910032402	5.057503175353531e-15	0	0	-0.9867900533337473	1.377012756724492	0.7952745079896507	-0.5070665303976964	5.057503175353531e-15	0	0
0.1101714545037473	1.726540045291163	-0.4833104208539526	0.4429368801502281	1.86046703260908	-0.5076403779602847	-0.2406665121562071	-3.743285526939413	-0.6442076803055365	4.930281880941293	6.859488834910575	2.564192270088415e-15	7.013207500327116	-0.3152021880329774	0.1787884969457232	0	0.4585916837327741	-0.2742090992785838	-0.7549972594200756	1.691067517262755	-4.112775311891947e-15	1.762385044923125	-1.253304572884667	-0.8447603313599555	0.001666830028456423	0.4945190035404812	0.4138487812507814	0.2292375288969537	-1.258928425790173	0.6417247371697401	-0.9199403020159269	-1.928774628232985	1.149821253229269e-14	0	0	-0.928802895010147	1.042599658739855	0.8098223662172892	-0.5101898966247521	1.149821253229269e-14	0	0
0.1150170917444269	1.598352026850976	-0.3950495286845485	0.607116379567132	1.849412823015796	-0.5612374056710066	-0.2340221539802251	-3.656948570799393	-0.5080422466398196	4.9465528584442	6.643994512144172	1.175678314332182e-14	6.771229211171274	-0.3513416143328167	0.2661281575491923	0	0.8213342289349548	-0.2006091301146596	-0.2182488056971641	2.465603029074138	6.884740659863274e-15	2.540259354315676	-1.52117462799348	-1.599627477242541	0.001569096213087685	0.6807853107141173	0.3439326687295168	0.1131823524435141	-1.388120814614541	0.7854700445725575	-1.068513306095609	-2.066270962630011	7.428655902564242e-14	0	0	-0.8520417474227475	0.7046782379870389	0.8236380901978363	-0.5109354768377232	7.428655902564242e-14	0	0
0.1198819285398158	1.465205229261346	-0.3023976628945421	0.7651059830924654	1.835595144905285	-0.612821363186275	-0.2277821211511217	-3.516935827469617	-0.3704276670695712	4.927217874228967	6.460781219171132	-4.374256694287539e-15	6.552184432582013	-0.3882441179035108	0.315068856948836	0	1.165175075984552	-0.1212120482605378	0.3152030054334637	3.206669401022837	2.726690519222501e-15	3.284510983344184	-1.780665870008308	-2.333054219596261	0.001473860063640601	0.8570118596202754	0.2686061430091298	-0.003706795873798276	-1.513873997743853	0.9288268168349977	-1.212131772224345	-2.20069011607546	-1.733825869368405e-14	0	0	-0.7561040064176243	0.3724647432582012	0.8370085561534746	-0.5083487349602865	-1.733825869368405e-14	0	0
0.1246892435043931	1.332990689383666	-0.2089296118225162	0.9119367267315821	1.819329656899929	-0.6612542742327524	-0.2221893478429695	-3.325507574701057	-0.2347415975950473	4.875958425621098	6.315851716534373	-1.970922638929368e-15	6.364753483231278	-0.4208079197877916	0.3238351770786584	0	1.4778759701763	-0.03886954858708686	0.8275599296537439	3.896634953222541	-3.338752720212739e-17	3.976673039338017	-2.020899858650529	-3.021385925838112	0.001383896216225823	1.014416232761794	0.1914914055252466	-0.1181541658944584	-1.6322341485576	1.067250726623886	-1.345770943606732	-2.329454784318618	-1.065392936898817e-14	0	0	-0.6419549044079997	0.05482309927852421	0.8504285277720791	-0.5015478249932627	-1.065392936898817e-14	0	0
0.1293632224455918	1.207583993863009	-0.1182680092440538	1.043542582554207	1.800875465547352	-0.7047442201463635	-0.2174310512699947	-3.087515402352898	-0.1042393155702529	4.798269134028559	6.213303154566516	1.004603079977374e-14	6.213612638462624	-0.4469174810309413	0.2942766606274895	0	1.748677630389555	0.04336708166431608	1.303169852916993	4.523580789007836	2.446980441070183e-15	4.601710223158022	-2.232609829800979	-3.645150339874766	0.001299716595829306	1.145536169200638	0.1163149292813597	-0.2270901875174439	-1.739762755912269	1.196591533449603	-1.465140315366328	-2.450362060650022	-9.099480604188071e-15	0	0	-0.5121695032974176	-0.2404722576150291	0.8644842088591846	-0.4898841116694494	-9.099480604188071e-15	0	0
0.1338301540101398	1.093588815592834	-0.03367622056171301	1.157130834940119	1.780517387537381	-0.7414994319075467	-0.2136169998537052	-2.81183362779482	0.01816245666512386	4.700784418417951	6.147992534173275	-3.762005229956593e-15	6.099251373867322	-0.4662239894898974	0.2315203887861189	0	1.97052539781274	0.1225695267389462	1.729973108460283	5.079342027538009	-4.667370749259273e-15	5.149081834501822	-2.409542623964185	-4.190772666304293	0.001222225203073848	1.245539963835697	0.04643346493811319	-0.3279004121321815	-1.833731009865333	1.31349162645305	-1.567143495612577	-2.561642896045081	-1.057253603848008e-13	0	0	-0.3707876402596253	-0.5073383414855046	0.8796930366827918	-0.4731046771417862	-1.057253603848008e-13	0	0
0.1380195921846578	0.9949715070019857	0.04227426131004575	1.251371889269615	1.758994349151435	-0.7711592684248549	-0.2107705481813076	-2.511829422091727	0.1300550055110861	4.590659949931462	6.115467564504643	-3.751944622545855e-15	6.018561760221768	-0.4767062487518441	0.1432112369449248	0	2.141283238974473	0.1962088547421857	2.100317863016916	5.559802224676073	5.572029867115744e-16	5.613333441612792	-2.548936747969453	-4.651339007486856	0.001152715342444512	1.312532363638431	-0.01555383165314168	-0.4185980604760238	-1.91250276836719	1.415658179397044	-1.650176317575929	-2.661977890623668	1.18076590614837e-13	0	0	-0.2227867612801551	-0.7417448184210174	0.8963374632384611	-0.4514822064160117	1.18076590614837e-13	0	0
0.1418654673351004	0.9138506676894509	0.1079023741174586	1.326383145902772	1.737112050253854	-0.7940189827030995	-0.2088330318383038	-2.203322312690202	0.2296381308974077	4.47507080681781	6.106869945661687	-1.011549307698827e-14	5.965967711074206	-0.4789091431676704	0.03851123297917849	0	2.263410340052404	0.2623397452016096	2.411067898017549	5.963217211122408	-7.862757435798736e-15	5.994109378617749	-2.651623356697992	-5.026361815673114	0.001091212259719929	1.347578366459719	-0.06803574842613913	-0.4978973512964006	-1.975568224478668	1.50196406957914	-1.714209258145889	-2.750476300648134	-6.848397174740204e-14	0	0	-0.07394057375120688	-0.9417838887532237	0.9143365030493991	-0.4258804339535601	-6.848397174740204e-14	0	0
0.1453071283122631	0.8505916168569909	0.1624570610719293	1.383524386945871	1.71575521956865	-0.810846437723263	-0.2076790693628869	-1.901939648759415	0.3157403378421598	4.360841306535788	6.115624047557386	2.197111638148597e-15	5.934769667350595	-0.4743297993649533	-0.07294473834434115	0	2.343240327000076	0.3196711391619554	2.663082979644937	6.292239987284496	4.196117590704625e-15	6.2955753073501	-2.721354443675466	-5.320715477938594	0.001037946777036365	1.354964317417742	-0.1104329612697588	-0.5651867930577715	-2.023602366449967	1.572375609761223	-1.760646615141024	-2.826626119809374	3.299755795378582e-14	0	0	0.0696252340882535	-1.107460539413339	0.933188318736802	-0.3977356403287656	3.299755795378582e-14	0	0
0.1482902993364854	0.8037248607791729	0.2060095491098866	1.425055557763264	1.695853259268427	-0.8224525942717433	-0.2071377507683266	-1.622736910396587	0.387761924475965	4.254189086764175	6.132765170415064	1.985970909968001e-14	5.918369242515451	-0.4664219657416648	-0.1819625350659098	0	2.388432776331806	0.3675291465687436	2.860255223220995	6.55028087220823	6.757148683863948e-15	6.525344632253169	-2.763983402718486	-5.543042746388443	0.0009935078000238519	1.341907990421446	-0.1430704664656952	-0.6204205669925337	-2.058200540057761	1.627738455210618	-1.791998269813124	-2.890225291960182	1.674894598646358e-13	0	0	0.2017836966521767	-1.24026701341497	0.9520001328306873	-0.3689481045126314	1.674894598646358e-13	0	0
0.1507679370955254	0.7706715622301672	0.2392389442605978	1.4537241937393	1.678251490238443	-0.8293705659447761	-0.2070186071619961	-1.377960489600222	0.4455589113143844	4.160552317894338	6.152486793444817	-8.739862420473778e-15	5.911140781455977	-0.4576885483763773	-0.2804601701446906	0	2.408220760662315	0.4057394777821838	3.008323790452445	6.746312516523885	2.679058410145507e-14	6.69308734996436	-2.786402701072557	-5.703962676650058	0.0009578213978000266	1.317365114090146	-0.16692777404065	-0.6639576896844981	-2.081647928142057	1.669475308312134	-1.81143233727257	-2.94130138057867	-5.631374063085663e-14	0	0	0.3167917681585997	-1.342637475843597	0.9695972594618939	-0.3416969135542497	-5.631374063085663e-14	0	0
0.1527009768984096	0.7482949270762427	0.2631630148674845	1.472348579915439	1.663713828412275	-0.8326115915181282	-0.2071360422841395	-1.178296427265534	0.4892920681927549	4.084470065972648	6.169589048287579	-3.020080556830149e-14	5.908855567546002	-0.4502842237107916	-0.3618589067964085	0	2.410757127708974	0.4344642917167621	3.113670966343511	6.88183851949259	-3.740693029786505e-14	6.809024498238834	-2.79557581284599	-5.814357203298805	0.0009304817542090059	1.289747537795487	-0.183328435563277	-0.6963807892079431	-2.096447795875751	1.699253790335601	-1.822284825221694	-2.980026009326163	-1.000801778657689e-13	0	0	0.4096684763524405	-1.417378594748039	0.9846878901277546	-0.3182034091269033	-1.000801778657689e-13	0	0
0.1540589714577417	0.7343978929302357	0.2788657518204677	1.483448352965906	1.653095734755755	-0.8337473282952641	-0.2073292162088681	-1.03352287993485	0.5192691627431735	4.029494489600464	6.182608046607362	7.634843600240056e-14	5.908705839386706	-0.4452228556527436	-0.4212283405325423	0	2.405989258059949	0.454029327742875	3.182249665600924	6.968182760400834	6.241131839252927e-14	6.882503822399348	-2.79758581154505	-5.88391736782639	0.0009114702707623234	1.266053671504193	-0.1936288205161328	-0.7183227077611813	-2.104943025884639	1.718675149962694	-1.827596702862688	-3.006630865500664	4.199334027357884e-13	0	0	0.4765288240171155	-1.467154812138673	0.9960502456190781	-0.3004773417453737	4.199334027357884e-13	0	0
0.1548208116596206	0.7273111441966946	0.2872629386471083	1.488954120789745	1.647005984181339	-0.8339245784276236	-0.2074775724886153	-0.9508581531406883	0.5358087261849069	3.998115799266166	6.189784481749117	2.627234902426193e-14	5.909066275358147	-0.4428399458985917	-0.4552715806711069	0	2.401742123720109	0.464772481352458	3.218740317244469	7.016311442053562	1.771359658100933e-14	6.920814498281851	-2.797099185856991	-5.920045286298151	0.0009008894237044935	1.251337575876949	-0.1989516260869716	-0.7303240524960632	-2.108994917133426	1.729020366704914	-1.829729201827926	-3.021336826098373	-4.37508211621957e-13	0	0	0.5146027677028937	-1.494083868150985	1.002711273369104	-0.2900786219598485	-4.37508211621957e-13	0	0
0.155	0.7256838750511376	0.2891942317642129	1.490173598946756	1.645556154395476	-0.8339223962722833	-0.2075166369236868	-0.9311823459206852	0.5396694527030579	3.990680116501983	6.191602658831421	-1.329874395256851e-14	5.909192438918566	-0.4423745583001542	-0.4633524176989403	0	2.400400567773892	0.4672743871738552	3.227115073948074	7.026777627147904	-1.465720960739125e-14	6.929519589891409	-2.796810818204501	-5.928240219734834	0.0008984115307744866	1.247747669150997	-0.2001551824996531	-0.7331143102190191	-2.10987534122872	1.731395685952708	-1.830141637156654	-3.024772659056247	-6.782807378157546e-13	0	0	0.5236150942135311	-1.500313311200468	1.004308598447943	-0.2875845948358982	-6.782807378157546e-13	0	0
0.1554542507337262	0.7217316814972186	0.2940147334804569	1.493136022532826	1.641979939434409	-0.833827924232896	-0.207622776021531	-0.8813866881084396	0.5494058450331905	3.971736826365539	6.195971720266154	-9.007143306406078e-14	5.909577579848223	-0.4410540934079301	-0.4839601107361716	0	2.396073709689817	0.4735736660031008	3.247989534469556	7.053505816828682	-7.4240177906419e-14	6.951063915311265	-2.795802771046704	-5.948498480982306	0.0008921512165871697	1.238960310392242	-0.2031228726771475	-0.7401319237196418	-2.111987692882441	1.737317929220326	-1.831034436486565	-3.03344310525963	-9.112963695145969e-13	0	0	0.546558047188531	-1.515926687261359	1.008410845758948	-0.2811790829174325	-9.112963695145969e-13	0	0
0.156515784775164	0.7134037799883433	0.3048531564972772	1.499336534491091	1.633154648327027	-0.8330621558624796	-0.2079105008460372	-0.7631975849292614	0.5718719724765493	3.926951091301097	6.205801250512845	-2.466009511583614e-14	5.910806060746231	-0.4364252624552964	-0.5327792075997168	0	2.385408293774896	0.4880488777716976	3.294774447341251	7.112660672312604	-2.830363915019396e-14	6.998472097130454	-2.791904596851227	-5.992953344877048	0.0008776580821725377	1.215060441194571	-0.2095865120311284	-0.7562169838547956	-2.116176223261071	1.750599340402768	-1.832262595810425	-3.053482654519246	-1.760379661151628e-13	0	0	0.600735441289507	-1.551412534286321	1.018298189310402	-0.2657404247996116	-1.760379661151628e-13	0	0
0.1581644464118399	0.7038138911566088	0.3204779113621576	1.50695747314375	1.619298773308479	-0.8304691255859258	-0.2084671592024395	-0.5778634435070906	0.6059523474228328	3.85598539332069	6.220028316919864	3.432041307850132e-14	5.913431339940169	-0.4267786718790836	-0.6103134818384477	0	2.363085945830915	0.5098279405510037	3.361865129423315	7.197117938527402	3.609133506555957e-14	7.063887768776691	-2.781502874105859	-6.05398920424317	0.0008555944679317598	1.173513011161846	-0.218290022426945	-0.7803150270264865	-2.120674403632449	1.769662702177492	-1.831767635371017	-3.083982376389533	3.536832595767012e-13	0	0	0.6863903589414875	-1.603735721237448	1.034513556466825	-0.2404310691943778	3.536832595767012e-13	0	0
0.1603741041940474	0.6972006646026119	0.3390489748791558	1.513336561546722	1.5999349577505	-0.8246829219479734	-0.209421072648448	-0.3252877317640825	0.6500381268410903	3.758259701955808	6.237820989376701	-1.117058268024036e-14	5.917720621213695	-0.41010756891554	-0.7171285784278667	0	2.332466106148922	0.5376206066073854	3.441096856123935	7.277767279469469	-2.634665809888475e-14	7.135752078854977	-2.759275316837539	-6.120570801516898	0.0008269389738390979	1.107745229387033	-0.2273383646286997	-0.810898555632156	-2.122756433477501	1.792194435090618	-1.82647204629265	-3.123651646877672	-2.88958644134842e-13	0	0	0.8040385804627972	-1.668521139591468	1.057955346794816	-0.2038883072237861	-2.88958644134842e-13	0	0
0.1631098871668135	0.7078517782408882	0.3581602187070309	1.515167948657624	1.576148722506071	-0.8143338336826538	-0.2109271310529554	-0.02152133269636236	0.7020139254447412	3.633269921712566	6.253020633749996	1.587275533352184e-14	5.922924475443647	-0.3849767928671701	-0.8531600266671319	0	2.308037686165289	0.569703067005803	3.522168031808271	7.328191220451343	1.374388378695372e-14	7.199405829994308	-2.718863034153789	-6.179045190272645	0.0007927282239177719	1.007350284835119	-0.2342630480493289	-0.8459920725008712	-2.118826642733193	1.815247811142126	-1.812488735118853	-3.170806106622952	1.815177071733568e-13	0	0	0.9541365160189121	-1.74024809711353	1.089830007367945	-0.1543169646591298	1.815177071733568e-13	0	0
0.1663286436775879	0.7392996630819511	0.3749781647254521	1.508814550957409	1.547403666713467	-0.7982030207782115	-0.2131475813123394	0.3340093778648979	0.7593509268324086	3.48079096886662	6.26350578514616	-6.901571219950995e-15	5.926453847251119	-0.3508234339784653	-1.017089163094866	0	2.287952701786235	0.6039846533110413	3.593451907528793	7.309184717004193	-4.957489421015014e-15	7.238169374252817	-2.654021838394619	-6.214421259064221	0.0007537949141298962	0.8656117073259426	-0.2361806173815164	-0.8832850634959974	-2.104840744667523	1.835462059309862	-1.785446033084229	-3.223429678889417	-1.552282871203247e-13	0	0	1.136693779661469	-1.812684779848678	1.131596941944247	-0.08957846771503457	-1.552282871203247e-13	0	0
0.1699796094921079	0.791032317121205	0.3864592872035848	1.490701013772886	1.513255828827075	-0.7740142265409935	-0.216228557695736	0.7452086361295701	0.819250790757196	3.301058621570975	6.263218990006431	-1.059117498684437e-14	5.923141253270473	-0.3083653372405206	-1.205769784940077	0	2.256526557683163	0.6381281927548587	3.643032911349419	7.270362224643545	-3.417610331356857e-15	7.234749417410319	-2.559590698453466	-6.211911473942639	0.0007110347247936174	0.6806511594601887	-0.2300395797719865	-0.920287854764254	-2.076696511377067	1.849359765376231	-1.740925755109987	-3.279251063231105	1.687569570999904e-13	0	0	1.350887244046874	-1.879449919792282	1.184861321739465	-0.007331927361583449	1.687569570999904e-13	0	0
0.17400520557877	0.8703875855009078	0.3896431840834688	1.457754817622203	1.473442331307686	-0.7367818696276663	-0.2202763559354802	1.204396498430425	0.8788395239697621	3.094913635770264	6.236183793097416	-9.956222453376638e-15	5.904810224841087	-0.2590416775957678	-1.413840040429486	0	2.176602529348894	0.6697261665382552	3.659882124139097	7.175882449208078	-9.015249699830706e-15	7.172902330398837	-2.431805555146909	-6.158576284650913	0.0006667928300518069	0.4438515206328701	-0.2129507766404403	-0.9545209493485663	-2.030863130276619	1.853705168746053	-1.674994178727666	-3.335832522604525	-1.585805368970514e-14	0	0	1.594210467347687	-1.934658871988657	1.251203647259684	0.094762905219726	-1.585805368970514e-14	0	0
0.1783419453248002	0.9768616430684974	0.3819972860081941	1.407839637254279	1.427701524719254	-0.6849253623596971	-0.2253344155824613	1.707388091597033	0.9353981599260135	2.863903809187391	6.170935457680478	1.151416884540805e-14	5.860382020148141	-0.2050186982118221	-1.633652822120296	0	2.02701861138373	0.6965203007791093	3.6350306571201	6.990806334907884	1.305300934850355e-14	7.039205573081682	-2.269727238160955	-6.044849220139962	0.0006220873644055422	0.1548351292977279	-0.1825698627882321	-0.9837178303001953	-1.964550441374584	1.845884145714716	-1.584774176824179	-3.390669711771196	1.201141133923478e-14	0	0	1.863292624968884	-1.973577912835776	1.331948880546939	0.21877985750164	1.201141133923478e-14	0	0
0.1829214354539589	1.114891924157805	0.3617650456037497	1.340108314478335	1.376709736015347	-0.6202871968945226	-0.2313659750061531	2.234494976365446	0.9865999759642283	2.610348570069235	6.056122147350084	3.666287341045194e-15	5.776677904723407	-0.1481454883447451	-1.855616287176101	0	1.804602762240797	0.7166379557563849	3.562568232631506	6.732611077735305	5.151036772479271e-15	6.824715095335073	-2.075808055980655	-5.865706637112211	0.0005774361094429302	-0.1914919598336668	-0.1374732563579689	-1.006012408169962	-1.875862858087577	1.824247009392642	-1.468975586748948	-3.441305298774984	4.061694149473366e-14	0	0	2.153545741952991	-1.993180890057295	1.42789752682263	0.366212889194975	4.061694149473366e-14	0	0
0.1876714545037473	1.282378173124016	0.3282543541020826	1.255202602177025	1.321277719175232	-0.5433839017759745	-0.2382505359602708	2.770801260415167	1.030714399020728	2.337372441692359	5.878781069349731	-2.705204232359607e-15	5.639935992837862	-0.09248879635500984	-2.068961702860572	0	1.5120739058529	0.7288068254644521	3.440304058989339	6.402676256091882	-1.111110185481643e-14	6.526247230869231	-1.856312938394446	-5.621290297269995	0.0005352196033746032	-0.5866844513186762	-0.07745363476880981	-1.020081530714033	-1.7645408399294	1.788348655191872	-1.328282463397636	-3.485459575860352	-5.721378959439365e-14	0	0	2.459312371688329	-1.992497796979836	1.539059646056008	0.5376458027756311	-5.721378959439365e-14	0	0
0.1925170917444269	1.474700810840542	0.2820017534195156	1.155248309810973	1.261806170254543	-0.4560217020425732	-0.2457889087319239	3.301234066180504	1.066736926925594	2.048908936018452	5.629998749040839	5.198683405315102e-15	5.437874886876751	-0.04060698980011157	-2.262856747073451	0	1.140331401735858	0.7325064947851443	3.269982510852819	5.966985692852537	5.983177109475086e-15	6.147041454867801	-1.620391858940667	-5.316889781048989	0.0004954090376370389	-1.024069683131534	-0.003663862542262752	-1.025221906405731	-1.632169434096221	1.739031247161848	-1.165501354496212	-3.521176716043195	-4.283302161506507e-14	0	0	2.77328679195806	-1.97267050011128	1.66444461148152	0.7324474134806404	-4.283302161506507e-14	0	0
0.1973819285398158	1.688933716515427	0.2247652566544467	1.043637555229904	1.20066509507363	-0.3627243786151393	-0.2537225288673893	3.799847798177778	1.094417030777935	1.749665595838202	5.303525725548754	-3.614155548239122e-15	5.161961132327582	0.004377807987508309	-2.427685395355654	0	0.7316877487902462	0.7280232577013568	3.057031959324623	5.555546150653819	9.36030387243368e-16	5.696663494411267	-1.380176597786947	-4.962313864849182	0.0004589638733038573	-1.489036655570364	0.08143672588701163	-1.021357360934678	-1.481604444692883	1.678324558087206	-0.9854130954586749	-3.546980649790427	2.428298000193777e-14	0	0	3.088784661736723	-1.93668682498183	1.80195774515507	0.9485448644639176	2.428298000193777e-14	0	0
0.2021892435043931	1.913647666794895	0.1593321078891053	0.9246385369398346	1.138301773621462	-0.2658334435051539	-0.2617628461912805	4.258741428287913	1.114181932864488	1.445035736404926	4.89959435057097	-1.544616022963859e-15	4.809428396978405	0.04184459409405861	-2.556253851655772	0	0.286901149897913	0.7163900987243005	2.809913845699754	5.098368659261661	-4.632419131524815e-15	5.190143876896991	-1.147478885466735	-4.570788637577357	0.000426952498995419	-1.965435872065063	0.1743378222300837	-1.008989431578152	-1.317497689295955	1.609179968428325	-0.7943304927342542	-3.562021664774964	9.360789234487353e-14	0	0	3.398546261265862	-1.888840904211391	1.948439684006371	1.182322694196481	9.360789234487353e-14	0	0
0.2068632224455918	2.132213080696913	0.08916994190131956	0.8029127131903344	1.075348046630951	-0.1678604815685108	-0.2696192892258538	4.67822352927487	1.126977326338383	1.140947542856485	4.425015489426633	2.421443137466795e-15	4.384606322878351	0.06913993926253514	-2.644681759878636	0	-0.2200131664204523	0.6992192639133722	2.539204458505346	4.495742581567503	6.807345013297018e-15	4.646503225833007	-0.9328712706664929	-4.157590084750401	0.0003991999775789051	-2.433861333775128	0.2708923917300131	-0.9891135721595185	-1.14619740019505	1.535092198646014	-0.599433632503613	-3.566187509772227	1.079216045586036e-13	0	0	3.695127435646104	-1.834032590078494	2.099857016080665	1.428679275345298	1.079216045586036e-13	0	0
0.2113301540101398	2.344230741359695	0.0179870765217104	0.6830350926576821	1.015246942134891	-0.07210092789948583	-0.2770310651130343	5.034918932826269	1.134064968714307	0.8436532743989346	3.886985721425903	-8.584309178079639e-16	3.899259359393055	0.08547867703010947	-2.692805257878736	0	-0.7304333860160699	0.6784567779821218	2.256569099629079	3.930791510349695	-1.783324537049452e-15	4.08693358947405	-0.7450855002958578	-3.738638459849312	0.0003758456101828531	-2.87716035796441	0.3668092396976637	-0.9631220311884409	-0.9734817119711334	1.459685399089393	-0.4080084484997971	-3.560151465249924	-2.83074533797563e-14	0	0	3.973245033358027	-1.777055366523844	2.251620054804143	1.681247979230013	-2.83074533797563e-14	0	0
0.2155195921846577	2.538310151445405	-0.0507114447893777	0.5691012109225877	0.9579590824064939	0.01796209544873274	-0.2837876195459687	5.335556590966966	1.136821530763004	0.5594783252253501	3.314071015606056	-8.585403021247868e-15	3.371859702027666	0.09269884043327714	-2.704034511627173	0	-1.236001908805639	0.6561089887098047	1.973781824295365	3.350199730904423	-3.776747746570285e-15	3.532940830897985	-0.5881969007522222	-3.329254031552199	0.0003565731681432149	-3.286698903265141	0.45812740014738	-0.9327056361270494	-0.8057582805618202	1.386340865997739	-0.2267331600336409	-3.545336798396918	-2.19581808496218e-13	0	0	4.227856312290863	-1.722014796828383	2.398973385577908	1.932758695264067	-2.19581808496218e-13	0	0
0.2193654673351004	2.712382440037868	-0.1139876476640612	0.4644724315428048	0.9055382495637667	0.09841971262442249	-0.2897409094778141	5.57520678042125	1.136573175497419	0.2945607107202653	2.733899312533095	1.014551910084799e-14	2.825952396589544	0.08951030877895816	-2.684732896697697	0	-1.710061897427571	0.6339948139439733	1.701908102032212	2.824993810096393	3.521195151970878e-16	3.004731200106466	-0.463433694723038	-2.943212407096679	0.0003416339546248145	-3.656551651379528	0.5415856457928085	-0.8997564842793779	-0.6482730105222019	1.317924472416704	-0.06113596498890035	-3.523796289154034	1.863076832486551e-13	0	0	4.455721741542964	-1.671970070278818	2.537387929094002	2.175490302708763	1.863076832486551e-13	0	0
0.2228071283122631	2.86080819710393	-0.1696935556766157	0.3716726253319286	0.8583898043380083	0.1675028450535878	-0.294808242424773	5.764003118247793	1.134484386922742	0.05461303357666168	2.177296953350401	-9.611705315302988e-15	2.287953714021973	0.07732037628274036	-2.643278194781706	0	-2.144892757707916	0.6135688751681206	1.450720330481772	2.328741535367001	-5.020843150189708e-15	2.520032383166859	-0.3688652025210144	-2.592161568701056	0.0003301926624366985	-3.981708051329756	0.6148308305763914	-0.8662682453071489	-0.5062425308491767	1.256641473869686	0.08470015047189818	-3.498022168814299	-4.74432780448787e-13	0	0	4.654195373133389	-1.628826561215918	2.662883077850668	2.401749317189273	-4.74432780448787e-13	0	0
0.2257902993364854	2.984838442383995	-0.2165306421361688	0.2924167597620354	0.8177343146941252	0.2246526239468327	-0.2989641134870639	5.904429845464699	1.13150239344895	-0.1552679918787513	1.667490554101144	2.768682104595319e-14	1.784794858793731	0.0581306181189909	-2.589001438859539	0	-2.521166945617769	0.5958392294883618	1.228365967635979	1.909779992338061	2.756431187096201e-14	2.093429246355503	-0.3008957795804268	-2.285392037754191	0.0003212223379152246	-4.259247524908896	0.6764507947206672	-0.8342320445915092	-0.3830668279342549	1.204015511124416	0.2081733559263747	-3.470716066311209	5.060539676724971e-13	0	0	4.821871536542911	-1.593443308844781	2.772230068652193	2.604311091378287	5.060539676724971e-13	0	0
0.2282679370955254	3.082767564256846	-0.2539597500570263	0.2277331481557157	0.7837729676493461	0.2701430765168424	-0.3022275223913217	6.007465538369957	1.128347224209598	-0.3307326808432143	1.227134842551373	-3.777765800018824e-14	1.341778878324072	0.03544139361160292	-2.53117966220483	0	-2.835335576170112	0.5813790366788799	1.041266970543743	1.549221422242458	-2.975894735986681e-14	1.736191467732768	-0.2547302803826534	-2.02989875925546	0.0003149126408317547	-4.486523590298839	0.7258547387683916	-0.8055298714749808	-0.2810769076211556	1.160966355716804	0.3079787587842033	-3.444552545763002	-3.297872914081852e-13	0	0	4.957774803863883	-1.565881815120219	2.863018512901394	2.776775258568027	-3.297872914081852e-13	0	0
0.2302009768984097	3.157179749348625	-0.2820056603601742	0.1781352327360559	0.7573682047263233	0.3043638449820251	-0.3046446127992859	6.076900614441191	1.12553189258421	-0.4682519887313102	0.8724866857704185	2.600902394111903e-14	0.9808914588235975	0.01337224897987843	-2.47819901381509	0	-3.076460893169535	0.5704103273385754	0.8941992966462602	1.279486903297284	1.604715734626274e-14	1.456483141099396	-0.2253933800123145	-1.830642371067359	0.0003109218803338903	-4.662277554176749	0.7630518698188394	-0.7818322261041226	-0.2022281556128731	1.127948136522757	0.38377856989367	-3.421964230000401	7.177271375101768e-13	0	0	5.061672734245989	-1.545711869232111	2.933601870963533	2.913811915525917	7.177271375101768e-13	0	0
0.2315589714577417	3.207747010276503	-0.3010111941747088	0.1438033621965469	0.7386441602334055	0.3277986132385171	-0.3062710333056289	6.12147579156627	1.123397543090112	-0.5651454567445547	0.6185483670178336	-5.592392225586501e-14	0.7196475126103061	-0.004105369373788026	-2.436937810408543	0	-3.245783447479227	0.5629274399431667	0.7904833564062212	1.08406163557007	-5.731971736048597e-14	1.259806829500444	-0.2082126537478932	-1.690909564549272	0.000308533674906436	-4.785235294945264	0.7883865790534381	-0.7645072248218201	-0.1472240827124152	1.105109680962465	0.4358117579609756	-3.404966583909502	-1.68281349371193e-12	0	0	5.133463805656941	-1.53230578648027	2.982961189413445	3.011302689842035	-1.68281349371193e-12	0	0
0.2323208116596206	3.236250038990753	-0.3113988357923022	0.1247414703878493	0.728166114039817	0.3407242394749592	-0.3071566094251664	6.143788458796956	1.1221506678214	-0.6195946117966969	0.4741754141284491	-1.381437289846713e-14	0.5703794510159987	-0.01442031359108897	-2.412353964320068	0	-3.338803249605659	0.5588246759492065	0.7321983714895579	0.9810870047986882	-2.261629698239318e-14	1.149493531428355	-0.1997398085056481	-1.612659875065365	0.0003073145414412015	-4.854477502565536	0.8022892072194342	-0.7545449898979275	-0.1165600513853109	1.092440804419954	0.4645297398812582	-3.395026411143802	-4.434388796868945e-13	0	0	5.173329253600183	-1.525075340991646	3.010545454182274	3.066414902733335	-4.434388796868945e-13	0	0
0.2325	3.24283202451812	-0.3138120820335951	0.1202795153298532	0.7256637042466838	0.3437483100442432	-0.307362041942405	6.149051181840229	1.121852636895821	-0.6324102080430909	0.4401990938863389	5.301149662683264e-15	0.5349929628021499	-0.01684634038939681	-2.406423325821522	0	-3.360961385519822	0.5578704755537971	0.718481623564138	0.9551449606577438	-6.940523582464792e-16	1.123554806481551	-0.197839013062457	-1.594272880906372	0.0003070391377546814	-4.870829106321413	0.8055254916582204	-0.7521765816297434	-0.1093609098627461	1.089476844880165	0.4712330714579113	-3.392646442061911	2.605130367335385e-13	0	0	5.182651656180289	-1.523405807303359	3.017020824254123	3.079420050132127	2.605130367335385e-13	0	0
0.2329542507337262	3.259580700053292	-0.3198772831186723	0.109005703498029	0.7193825349881361	0.3513623862643418	-0.3078778879450631	6.161838763075009	1.121089407323904	-0.6649128480278593	0.3539066886696971	1.765245779811626e-14	0.4448175634291839	-0.02331868711566942	-2.39113731942255	0	-3.416522848393137	0.5554708168650098	0.6836983016147996	0.8924501812161423	2.548596054451036e-14	1.057816929542962	-0.1933731724003027	-1.547694240770875	0.000306359601169321	-4.912060820685351	0.8136708438991291	-0.7461295969797312	-0.09116231483277781	1.081990902123104	0.4881368989899018	-3.386541706174597	1.102223552104745e-12	0	0	5.206221895837681	-1.519227285281798	3.033413215817685	3.112459851407826	1.102223552104745e-12	0	0
0.234015784775164	3.29721385770427	-0.333748491589254	0.08287463834944184	0.7048658848269941	0.3688882425257183	-0.3090553939811878	6.190112573514362	1.119265502004171	-0.7409444386596316	0.1484605993288968	-4.220440912623397e-15	0.2315018386127679	-0.04059628852697861	-2.354020680795754	0	-3.545658743530266	0.5499767748273128	0.6023715019687271	0.7448990946684182	-3.79607978801899e-15	0.9043307392866315	-0.1851272872050198	-1.439051421353155	0.0003048729682391704	-5.006073247431921	0.8323681951459385	-0.7317590464314914	-0.04889286201773624	1.064658290840188	0.527126231290524	-3.371878149360372	-1.324681706505793e-13	0	0	5.260896006313645	-1.509768303447912	3.071581726903383	3.19005865331714	-1.324681706505793e-13	0	0
0.2356644464118399	3.352619879026092	-0.3544060075878419	0.04291245189229041	0.6825708162469195	0.3954151125443798	-0.3108046243760828	6.23020153610562	1.116334935345173	-0.8592167748115292	-0.1758683615536216	3.091192660634471e-14	-0.1067776565400524	-0.07214184886493547	-2.292566121453653	0	-3.744105735335518	0.5417897204606812	0.4760395456417771	0.5142424549691018	2.246361500947816e-14	0.666512314627722	-0.1773926496779343	-1.27099640369044	0.0003028539669569881	-5.147658678891106	0.8604254685560737	-0.7087798123008303	0.01601042806287079	1.038214928214791	0.5861896859677559	-3.348010761909184	2.75017498217065e-13	0	0	5.344646279733576	-1.495949218175652	3.130422611544108	3.311605364143606	2.75017498217065e-13	0	0
0.2378741041940474	3.421322163623877	-0.3802712036747615	-0.009388813287332229	0.6531156144940009	0.4297212771221529	-0.3129919959587965	6.275765833170912	1.112260803534861	-1.018020568332276	-0.6218667661726243	1.378670440297201e-14	-0.5728527035312175	-0.1222525276884401	-2.203138674975896	0	-4.003441825424412	0.5315629412386448	0.3069470977046206	0.204831020584646	1.366235978659634e-14	0.3493733847538198	-0.1759848412899125	-1.047351331484734	0.0003007789628916342	-5.329460181514165	0.896030442685821	-0.6767350550664891	0.1013751492800384	1.003760951516748	0.662317977750549	-3.313968833125529	3.843355246521184e-13	0	0	5.454666027740814	-1.479146704815073	3.208291597891264	3.476320435851974	3.843355246521184e-13	0	0
0.2406098871668135	3.497616825057998	-0.4091395465204878	-0.0720036300310105	0.6171651271969518	0.4703385471176637	-0.3154405028550378	6.319216816098411	1.107065805031985	-1.214934753669761	-1.190682143390508	-1.123973748121658e-14	-1.168586626804623	-0.1946715981057401	-2.081691549189582	0	-4.310040190954679	0.5202603063918273	0.09852394275231785	-0.1789933597413356	1.802822148361325e-15	-0.03961868455197927	-0.1875075639725345	-0.7736050383547276	0.0002993111223462614	-5.542455957733472	0.9366870642709773	-0.6351148231473571	0.204063664779169	0.9628269371792009	0.7513806599537144	-3.268643594289721	-2.319585023342122e-13	0	0	5.587305729863679	-1.461155869660192	3.302792437058326	3.682786190279423	-2.319585023342122e-13	0	0
0.2438286436775879	3.57480938040811	-0.4382060524408948	-0.14242184148238	0.5756922324617935	0.5156615713453849	-0.3179370755412948	6.350421507011925	1.100873191223627	-1.446758593521532	-1.884449841493467	-8.090236661018554e-15	-1.893183385424096	-0.2918447688643462	-1.92453620724516	0	-4.643536823952608	0.5091726798093352	-0.1443959209575893	-0.6267571914302079	-5.49741836263056e-15	-0.4901981829905073	-0.2189308102705558	-0.4570243278413026	0.0002990913091242123	-5.774799942149453	0.97926396874282	-0.5834545740187281	0.3199886194224515	0.9173540413318775	0.8482001567326465	-3.210976068986428	-5.893565125934956e-14	0	0	5.738344237339424	-1.444045006012493	3.410701030080374	3.92866294667289	-5.893565125934956e-14	0	0
0.2474796094921079	3.644899155253885	-0.4641806536169572	-0.2177554011648594	0.529733476636095	0.5640434034396478	-0.3202443318171643	6.361771511745141	1.093931092106611	-1.709471100143916	-2.697802983959503	-3.174116788049669e-16	-2.741404894267435	-0.4169762211239054	-1.729178701863845	0	-4.982257216840747	0.4998799741798548	-0.4154597638850374	-1.127686070869416	-5.530157715507826e-15	-0.9891921787302285	-0.2768326927803211	-0.1066094690660721	0.0003007188261847808	-6.012547812065724	1.020135887754067	-0.5214467517639962	0.4440683176108828	0.8696160411132742	0.9467602764277007	-3.140168133261785	7.638792278744674e-14	0	0	5.903092665179047	-1.429914509442702	3.527963168472406	4.210420896001843	7.638792278744674e-14	0	0
0.25150520557877	3.699560614980825	-0.4835171914619985	-0.2949049020341971	0.4807739885817955	0.6138486192553348	-0.3221175213708495	6.346721412158645	1.086612764454129	-1.998229500369192	-3.619354887766878	3.61399310526657e-16	-3.701978105021837	-0.5739982527930692	-1.495103230470555	0	-5.306690517296257	0.4941385442779472	-0.7068422654582063	-1.657501232745167	-6.526355527637679e-15	-1.520752879306332	-0.3667209050068307	0.2671506324935425	0.0003048952485552063	-6.23915995210457	1.055435909312364	-0.4490570338785316	0.5705272992380679	0.8220741373930534	1.040574423482579	-3.055891704168591	-4.953063887297797e-14	0	0	6.076792538215241	-1.420573369991677	3.649805903222752	4.523138359381288	-4.953063887297797e-14	0	0
0.2558419453248002	3.728622035965742	-0.4927532879759338	-0.3707734218328543	0.4300463263579156	0.6634310480388633	-0.3233257043698513	6.303502123606646	1.079391641546472	-2.307419778639997	-4.631417773493595	6.978982993210874e-15	-4.756549783285523	-0.7625409211659937	-1.224362063468494	0	-5.602104240284817	0.4936915178744117	-1.009490364121606	-2.201082738389283	8.561481400906958e-15	-2.066993473722279	-0.4925339517366834	0.6527354739233344	0.0003122138126474732	-6.437861817950845	1.081409505406198	-0.3666318260780851	0.6930670500719101	0.7771724771995935	1.12320349767406	-2.958462820748557	-1.974413913676805e-15	0	0	6.254684345415295	-1.417184979956409	3.770986711483713	4.860425436852011	-1.974413913676805e-15	0	0
0.2604214354539589	3.724492135449182	-0.4889250980542718	-0.4425013760196219	0.3793084630558171	0.71106399593799	-0.3236730373274285	6.230485462104351	1.072795998172307	-2.630770135802731	-5.710319054956775	-1.112837098631386e-15	-5.879560767450269	-0.9780951465996193	-0.921835492993148	0	-5.856037936320136	0.5000232929398218	-1.313578206344739	-2.728304475964573	-6.430488474246695e-15	-2.609031334096495	-0.6558286060820243	1.038235194625323	0.0003229773694528742	-6.592366283950001	1.094829672810305	-0.2749799761741861	0.8056294730833593	0.7371012256163685	1.188871785359994	-2.848946055250962	-2.615189753992794e-14	0	0	6.432576879709508	-1.419966923585017	3.886176129476708	5.214529317930977	-2.615189753992794e-14	0	0
0.2651714545037473	3.679278630853402	-0.4699888962078155	-0.5076825860984364	0.329590058246918	0.754959810005864	-0.3230190619324758	6.132849459557534	1.067353657903247	-2.961503256927219	-6.826706997387516	3.278589785762366e-15	-7.039156532647461	-1.212684764719153	-0.59510702130102	0	-6.06021232519046	0.5141011584729258	-1.60911245958254	-3.237410965999542	-4.278736273631882e-15	-3.12828238017466	-0.855511272913599	1.412078238388057	0.0003378353431946088	-6.69037997840215	1.093401371720337	-0.1754128081297765	0.9026912171856971	0.7035684914564194	1.233084424327237	-2.72916505916913	-3.003273144933344e-14	0	0	6.606532860553569	-1.428024637118251	3.990419291976463	5.576622239556467	-3.003273144933344e-14	0	0
0.2700170917444269	3.595385572766997	-0.4351595479474165	-0.5645388392062058	0.2834963291675974	0.7933804526742584	-0.3212943981754371	6.005887306017571	1.063532226213011	-3.292584842778201	-7.949447485626699	6.037043163804221e-15	-8.199473443202049	-1.455250792429075	-0.253875308812589	0	-6.203344900284576	0.5361727206327837	-1.886697593193775	-3.668260189964895	3.699070869740868e-15	-3.607971323223051	-1.087395421222036	1.763829921098791	0.0003566745301837479	-6.723019282893505	1.076077556101291	-0.06972458787851132	0.9804434291783264	0.6776269286456051	1.25314459830118	-2.601607158778423	8.325075589081351e-14	0	0	6.774015613375418	-1.439426220271601	4.079627578841516	5.937329730653811	8.325075589081351e-14	0	0
0.2748819285398158	3.472083830069113	-0.385091800878225	-0.6119980223609138	0.2418535853897453	0.8246682942466234	-0.3185089037766809	5.858390042200106	1.061690873186102	-3.616905079760379	-9.043009182911614	-1.295927773813931e-14	-9.323274819783434	-1.697487985156027	0.09083247426361185	0	-6.280934719537756	0.5656557251568404	-2.138175612105536	-4.044278275678153	-6.769827757804225e-15	-4.034318870642648	-1.344505873055206	2.084764031458683	0.0003793441115311362	-6.686971066387356	1.043205476669935	0.0398778730438583	1.036147356177377	0.659589785742582	1.248442894958945	-2.469251658862333	-8.806163650773915e-14	0	0	6.932143462969439	-1.451440164100709	4.150939093867104	6.287274063609627	-8.806163650773915e-14	0	0
0.2796892435043931	3.308829829606663	-0.3218373283853413	-0.6497382502425042	0.2043723453105295	0.8476697141102659	-0.3147534763654949	5.706419890822052	1.062025327920066	-3.927756220502745	-10.07330440182323	1.891139181420406e-15	-10.37633404217096	-1.93042673552219	0.4279403158129263	0	-6.297327598976	0.6012044826151413	-2.357492501763988	-4.394267202508845	2.334700362765378e-15	-4.397965163166412	-1.61728212646389	2.368606192345409	0.0004048626435492869	-6.58627366376745	0.9964918265841883	0.1509162679396565	1.068789460972157	0.6490566878532155	1.220513089877439	-2.335329539462077	-1.19961014492591e-13	0	0	7.078373616318453	-1.461122256349878	4.203044692698175	6.617956932927797	-1.19961014492591e-13	0	0
0.2843632224455918	3.117635626086187	-0.2486168683671541	-0.6780440633456326	0.1726777267574382	0.861798987357723	-0.3101830244307356	5.551075528561038	1.064560051904129	-4.21876145325836	-11.00980989789622	-2.368562557520577e-15	-11.32876646713945	-2.147955969355479	0.7469231736672142	0	-6.250312887348638	0.6408380184771173	-2.540665120055507	-4.668150078740718	9.767251088764666e-15	-4.693748827313487	-1.895204339198698	2.61131340941593	0.000433417100186711	-6.428485313519779	0.9387410532416163	0.2607672211123686	1.079904842295717	0.6450338759237912	1.17271352607595	-2.203121150179694	1.137562425869301e-13	0	0	7.211871648569367	-1.465624408794106	4.23604925670782	6.921950793009176	1.137562425869301e-13	0	0
0.2888301540101398	2.90558991989418	-0.1693765566169871	-0.6978331172634757	0.1463071484270713	0.8671565124984211	-0.3050193190113866	5.406645345871788	1.069087826111651	-4.484991301031665	-11.8277309170499	-2.297729883506802e-15	-12.16156047584898	-2.34716662557538	1.039641735271775	0	-6.145863676572234	0.6823253350115133	-2.686945788213864	-4.889318341949385	4.690957099913586e-16	-4.922388938503145	-2.166074982485699	2.812140767467732	0.0004642066235459708	-6.226141900639131	0.8735393801266802	0.3668863612826243	1.071975682260494	0.6461372145942266	1.109866507295029	-2.075700603291776	6.723435650666732e-14	0	0	7.33127635879957	-1.463205435653806	4.251693494920463	7.194245368257515	6.723435650666732e-14	0	0
0.2930195921846577	2.684632919117818	-0.08837215397377191	-0.7102401446536923	0.1252679070909154	0.8646673551780192	-0.2995024845113146	5.278894349983906	1.075262851361906	-4.721915217612889	-12.51235587690463	-8.26920420308935e-16	-12.86121882725245	-2.524311419118623	1.299338113606268	0	-5.992766863337957	0.7233164349568939	-2.797066546646926	-5.05261975682239	-3.402400879959386e-15	-5.087247490971132	-2.420075288644716	2.971709810278738	0.0004953732315102597	-5.994891909948192	0.8047415539599528	0.4668465461901071	1.048971950155587	0.6508050590607701	1.037429153226413	-1.955892772663962	-8.409516113781932e-14	0	0	7.436147504899261	-1.452742590776342	4.252432772774319	7.431006073479725	-8.409516113781932e-14	0	0
0.2968654673351004	2.464967527883148	-0.009639271044583998	-0.7167623768825503	0.1088875594620619	0.8557695826638334	-0.2939054541559327	5.174468192635667	1.082544593597309	-4.92721097161618	-13.05959516712046	3.999294495724907e-15	-13.4278521085714	-2.67637526145902	1.522762189295503	0	-5.80303581687987	0.7618319267513752	-2.87484838113707	-5.174679104576192	-5.208658717093417e-17	-5.196747149194626	-2.648612683738454	3.093682687121788	0.0005266570912720613	-5.751148876538517	0.7361819294295766	0.558570651194044	1.015028340437799	0.6575261642948627	0.9611153619529007	-1.846075071479536	1.706733370661726e-14	0	0	7.525854719840594	-1.434873077002037	4.241808015712897	7.63133821048857	1.706733370661726e-14	0	0
0.3003071283122631	2.258503368609928	0.06334626057548072	-0.7190711172154014	0.09655859222136087	0.8426380497093137	-0.2885114034831375	5.092465170338931	1.090272135714626	-5.100628626393671	-13.48100678315612	5.668203302665049e-15	-13.87293277611165	-2.802859435584542	1.709787148808213	0	-5.59542334878299	0.7964203612978324	-2.926378704364017	-5.259946550192735	5.732062198337534e-15	-5.262803351792854	-2.84685552874531	3.183948687671005	0.0005564866255334854	-5.513082831987441	0.6713536777810667	0.6403781436114402	0.9756196946775662	0.6650018092558663	0.8863271435629771	-1.748165087281994	5.787457695333777e-14	0	0	7.601252737037133	-1.411763757057101	4.223958459733281	7.796812582380102	5.787457695333777e-14	0	0
0.3032902993364854	2.072357118474843	0.1276892982272131	-0.7181466629905603	0.08791631866060878	0.8269965230322881	-0.2835185251401118	5.032198921930569	1.097967396935867	-5.240033390084995	-13.78774537488848	-1.081143919987015e-14	-14.19775885785917	-2.900827144753827	1.858395805129134	0	-5.381233757180478	0.8257142881544577	-2.954577500328653	-5.30541221282504	-1.34561382700244e-14	-5.29163553611756	-3.009346397079645	3.245007777703542	0.000583932773387854	-5.29047192262699	0.6129601390447394	0.710702090258286	0.9337092779951035	0.6722053323028255	0.8171710069285499	-1.663915987379217	-2.407222670159323e-13	0	0	7.661593090570436	-1.384395488028959	4.201467807246785	7.926768946645955	-2.407222670159323e-13	0	0
0.3057679370955254	1.914640067351282	0.1814264240535435	-0.7154698097485729	0.08224640885485246	0.8112396854239813	-0.2791655490254078	4.988638499229499	1.104998694864385	-5.347738156115224	-14.00104070388193	6.672263113971108e-15	-14.42410710948602	-2.973012891007027	1.971937968547317	0	-5.181360151237373	0.8492844176024883	-2.966699995903437	-5.322143503728865	2.047937435195207e-14	-5.296315431698996	-3.13642489288157	3.283924190390891	0.0006079635172580426	-5.096496313684595	0.5632959631300161	0.7685873138355593	0.8940537876738355	0.6784642288806173	0.7573385583177463	-1.594466076837544	1.229825437372261e-13	0	0	7.708238607742502	-1.356337225356712	4.178180872623007	8.025126432428792	1.229825437372261e-13	0	0
0.3077009768984096	1.790992908480769	0.2234176744517354	-0.7127341531299169	0.07814907112136105	0.7978362531085824	-0.2756995559363696	4.958292027359907	1.110700568467616	-5.428948456169803	-14.14804638971211	2.312390763521551e-14	-14.58566394498715	-3.026705002910021	2.057080032354906	0	-5.019342364132574	0.8673893319191872	-2.972280219546878	-5.341010086335457	-1.04217146945636e-14	-5.293373213220562	-3.233742468784404	3.310237438114947	0.0006271429378121869	-4.945204400251122	0.5241762356055266	0.8135602351255394	0.8620008565761614	0.6834240729832143	0.7098825728266274	-1.540468921702384	6.671476993460521e-14	0	0	7.743771341971133	-1.332593551480492	4.158448139303094	8.098550383111153	6.671476993460521e-14	0	0
0.3090589714577417	1.704467227585388	0.252928472060842	-0.7107010771334534	0.07563597830377	0.7879134202763287	-0.2732526346791013	4.937785515135207	1.114743360160037	-5.485515128014295	-14.24474313986233	6.508966880282352e-15	-14.69657504716675	-3.063332776895817	2.116301878536078	0	-4.902420910022721	0.8800594009633489	-2.975533889266531	-5.346308688685067	-1.35736536388674e-14	-5.290172952537695	-3.301324838995771	3.328026930450554	0.0006406917919961732	-4.838601520714217	0.4966300740177508	0.8451220192650646	0.8391277289718284	0.6869215762261538	0.6764108327298967	-1.502567182687905	-1.306943724614849e-13	0	0	7.768448224296828	-1.315594676424185	4.144316692175086	8.149562259620289	-1.306943724614849e-13	0	0
0.3098208116596206	1.656082683579683	0.2694850343754125	-0.7095511158590437	0.07431483932905181	0.7822030867563746	-0.2718788886176572	4.926640291513865	1.117014518833695	-5.517208142922479	-14.29688385607111	-3.134942805222882e-14	-14.75857762771055	-3.083754538672207	2.149475393679258	0	-4.836366601006008	0.8871631790360348	-2.977302811305785	-5.350815566837981	-3.13932984176439e-15	-5.288281731133404	-3.339297629595204	3.337948011878112	0.0006482989693661013	-4.778911380205998	0.4811712124834721	0.8628255378492764	0.8263348597577012	0.6888847712873007	0.6576218712562738	-1.481306899691033	-6.522625587447877e-13	0	0	7.782295727338708	-1.306031248374495	4.136366173794558	8.178131869127983	-6.522625587447877e-13	0	0
0.31	1.644774957939864	0.2733792274233764	-0.7092805610345005	0.07404610933739542	0.7808383895884403	-0.271555768696538	4.92394671258697	1.117548732091807	-5.524662155629406	-14.30877489872825	-4.248753837153503e-14	-14.77315914244796	-3.088492365869951	2.157277553583437	0	-4.820700183080741	0.8888339898622964	-2.977718406394918	-5.350645966717089	-2.183877795021064e-15	-5.287836116035532	-3.348182508510018	3.340281011882245	0.0006500882754776331	-4.7647695415996	0.4775351681920321	0.8669894661497692	0.8233159217966379	0.6893465355516999	0.6532025213013164	-1.476306403961749	-8.323215618490486e-13	0	0	7.785544760989629	-1.303781668039449	4.134495985628876	8.184851180989902	-8.323215618490486e-13	0	0
