DataType=double
version=3
OpenSimVersion=4.5
endheader
time	pelvis_tilt	pelvis_list	pelvis_rotation	pelvis_tx	pelvis_ty	pelvis_tz	hip_flexion_r	hip_adduction_r	hip_rotation_r	knee_angle_r	knee_adduction_r	knee_angle_r_beta	ankle_angle_r	subtalar_angle_r	mtp_angle_r	hip_flexion_l	hip_adduction_l	hip_rotation_l	knee_angle_l	knee_adduction_l	knee_angle_l_beta	ankle_angle_l	subtalar_angle_l	mtp_angle_l	lumbar_extension	lumbar_bending	lumbar_rotation	arm_flex_r	arm_add_r	arm_rot_r	elbow_flex_r	pro_sup_r	wrist_flex_r	wrist_dev_r	arm_flex_l	arm_add_l	arm_rot_l	elbow_flex_l	pro_sup_l	wrist_flex_l	wrist_dev_l
0	-0.5456190260719423	-0.001307464155940068	-0.1590969566077488	-0.1612104709425795	0.9317585430648719	0.3774675260000001	0.4368848513772771	-0.07040863339818758	-0.1822436041317115	0.3619758109326253	0.1021521049148762	0.3555293809999998	0.04890921368853288	0.2269102551791182	0	0.9003558221243777	-0.2101214367325454	-0.1461404716570466	0.7811369651968494	0.08218151389187185	0.7812039340000001	0.2527789215018486	-0.1123902515111026	-0.0004759512870188536	-0.1378472601007629	0.08870948660083203	0.06756247435495884	-0.000143223555975111	-0.2722836989492026	-0.392541385266687	1.53589373157768	1.570796326969429	0	0	-1.032896986428165	-0.7732366604748657	-0.9683691889963988	0.5829859442329989	1.570796326969429	0	0
0.0004542507337261803	-0.5454241064845449	-0.001256902095414223	-0.1595818042375098	-0.1604889182489396	0.9321287869501379	0.3773398372667488	0.4358509876121203	-0.0712103467453835	-0.1836140302894385	0.3624086113523128	0.1021521049148762	0.3559707198146014	0.04640120853447388	0.2269494478443515	0	0.8997088152284941	-0.2099696411503597	-0.1473851552238051	0.7760409658676459	0.08218151389187184	0.7761330574663674	0.2529560339468025	-0.1105894927592921	-0.0004737384572368384	-0.137822153141574	0.08840396417027963	0.06801219835046884	0.0001378202710766163	-0.272538784638916	-0.392302535211822	1.536303061076634	1.570796326969429	0	0	-1.033565339826414	-0.7709561941330976	-0.9685212617361747	0.5828860839484944	1.570796326969429	0	0
0.001515784775164009	-0.5449336999348002	-0.001153719293135352	-0.1607254242060806	-0.158798754681468	0.9329859476813921	0.3770406927945414	0.4334455391629137	-0.07309099042856097	-0.1867765473246255	0.3635750378959346	0.1021521049148762	0.3571547771924741	0.04058013050646908	0.2269768434107149	0	0.8981285351094781	-0.2096267953108558	-0.1503361425991815	0.7641339813374086	0.08218151389187181	0.7642762149102768	0.2533697047012314	-0.1063241910189038	-0.0004685964032215711	-0.1377908266683361	0.08770496561414343	0.06907071582964806	0.0007904893858737966	-0.2731359682071363	-0.3917405925838778	1.53724331851651	1.570796326969429	0	0	-1.035101008337458	-0.7656193591981328	-0.968853609846727	0.5826486135493509	1.570796326969429	0	0
0.003164446411839883	-0.5440736600960098	-0.001035062419389002	-0.1625309214323658	-0.1561626806255283	0.9342949543375183	0.3765740134722483	0.4297369114628846	-0.07603156317389581	-0.1915767787097491	0.365816168895004	0.1021521049148762	0.3594176581759659	0.03165039078919937	0.2268412516577278	0	0.8954839829375486	-0.2091273389131895	-0.1550367530601593	0.7456482594978916	0.08218151389187184	0.7458431050679369	0.254011925049378	-0.09954123126201135	-0.0004606910950053274	-0.1378199883736719	0.08666096693617042	0.07073566628159908	0.00179267612483526	-0.2740664472493681	-0.3908573671749619	1.538658359699937	1.57079632696943	0	0	-1.03741383302742	-0.7573096615352563	-0.969305925035428	0.5822683916963866	1.57079632696943	0	0
0.005374104194047435	-0.5427363020377355	-0.0009555246437438211	-0.1650062795747062	-0.1526082599001644	0.9360065741674986	0.3759445959013173	0.4248175031305494	-0.08001001975291477	-0.1977939619365277	0.3696328152917343	0.1021521049148762	0.3632583083968084	0.01989665595325596	0.2263210018438963	0	0.8915822048775589	-0.2085211019238025	-0.1615608655892536	0.7208873840792177	0.08218151389187184	0.7211079558111434	0.2548734996352099	-0.09014870338918383	-0.0004502501131932598	-0.1380022435699331	0.08534147551885206	0.0730068860592641	0.003113661207332155	-0.2753193575355425	-0.3896537358957413	1.540468515658257	1.570796326969429	0	0	-1.040377955205572	-0.7461334153275648	-0.9697914437510772	0.5817370125440573	1.570796326969429	0	0
0.008109887166813518	-0.5407869846102719	-0.0009839500386872374	-0.1681561375451895	-0.148173400760832	0.9380574952341875	0.3751592324848475	0.4187955885150887	-0.08499248393386444	-0.2051257297557439	0.3756295427372006	0.1021521049148762	0.369288687681733	0.005700238323188195	0.2251478659727308	0	0.8861974761192641	-0.2078718015152773	-0.1699932871730148	0.6902747755692957	0.08218151389187185	0.6904669231653401	0.255947132506291	-0.07804732784089642	-0.0004375688459834665	-0.138454284977766	0.0838364618932292	0.07588023349046226	0.004712667727010789	-0.2768803689946815	-0.3881327116435179	1.54257248871007	1.57079632696943	0	0	-1.043841510305456	-0.7322417196352804	-0.9702076420167182	0.5810444931844544	1.57079632696943	0	0
0.01132864367758793	-0.5380873844540606	-0.001199200596216991	-0.1719733794077051	-0.1429068295695835	0.9403713678173372	0.3742271334218236	0.4117934050953964	-0.09092739351029724	-0.213166971582283	0.3844519072133341	0.1021521049148763	0.3781675835843679	-0.01044288156924666	0.2230448837675134	0	0.8791291600946127	-0.2072543196959429	-0.1804145440708712	0.6543998291990897	0.08218151389187185	0.6544868413055489	0.2572396062076591	-0.06315991721444586	-0.0004229983608751661	-0.1392880124371434	0.08225413729126074	0.07934244394266171	0.006537504738998418	-0.2787323132199352	-0.3863019806946548	1.544853161039768	1.57079632696943	0	0	-1.047656752430353	-0.7158434887702726	-0.9704552342864918	0.580180637396019	1.57079632696943	0	0
0.01497960949210789	-0.5344992461051035	-0.001683194727032814	-0.1764327014752501	-0.1368692131031095	0.9428636302588734	0.3731601356118034	0.4039233416138993	-0.09774208052041294	-0.2214217199690589	0.3967076820479445	0.1021521049148763	0.3905233699873866	-0.02794105210726823	0.2197657859706166	0	0.8702296048669719	-0.2067492942939594	-0.1928811329999502	0.6140267050551275	0.08218151389187185	0.6139151332729301	0.2587721579028726	-0.04546213644960363	-0.0004069246842600534	-0.1406166807966138	0.08071438716778101	0.08336729757518448	0.008525667855828228	-0.2808543532020888	-0.3841768524040625	1.547184000021719	1.570796326969429	0	0	-1.051694851777367	-0.6972095218060227	-0.9704493020624301	0.579137236530838	1.570796326969429	0	0
0.01900520557876997	-0.5299189780585332	-0.002511746964414238	-0.1814866007039095	-0.1301340651219481	0.9454442771724378	0.3719727086157589	0.3952995783461826	-0.1053418646692462	-0.2293469556776182	0.4128921761437505	0.1021521049148762	0.4068721335509209	-0.04615135732558444	0.2151320614516677	0	0.859442059494581	-0.2064354392036981	-0.2074021719282536	0.5700466854783516	0.08218151389187182	0.5696512721159456	0.260572285573215	-0.02501264171683918	-0.0003897510473723146	-0.1425175918018518	0.07933835896926698	0.08791330564462936	0.01060695682114281	-0.2832197166293728	-0.3817833697674146	1.549435612275013	1.570796326969429	0	0	-1.055848875265631	-0.6766677792585125	-0.9701220442430765	0.5779107886445644	1.570796326969429	0	0
0.02334194532480019	-0.5242730201132987	-0.003746751511222351	-0.1870583350468092	-0.1227886649609374	0.9480236579348533	0.3706821700057745	0.3860063760499441	-0.1136062981419543	-0.23636822267634	0.4333063351572169	0.1021521049148762	0.4275344438325859	-0.06440563270535188	0.209074445853487	0	0.8468320084669626	-0.2063834079041015	-0.223915891903478	0.5235312998277789	0.08218151389187181	0.5227560144266769	0.2626719317996618	-0.001988412720325652	-0.0003718879455932352	-0.1450499686990556	0.07824087019092735	0.0929195409677523	0.01270465062899263	-0.2857943076269246	-0.3791617836546652	1.551482344436359	1.570796326969429	0	0	-1.060048274661409	-0.6546076910911264	-0.9694343858005959	0.5765045182957576	1.570796326969429	0	0
0.02792143545395889	-0.5175573836273155	-0.005427565293939241	-0.1930402774716761	-0.1149342819096968	0.9505149491538324	0.3693085934594385	0.3761243341979488	-0.1223897274505711	-0.2419317976447754	0.4579989153210614	0.1021521049148762	0.4525699338803564	-0.08206762483294409	0.2016562661655244	0	0.8326088663563593	-0.2066482263298749	-0.2422677644635923	0.4756399565694738	0.08218151389187184	0.4744085342002294	0.2650931703371264	0.02329165030451191	-0.0003537144382564248	-0.1482089696718794	0.07751964421239058	0.09830454850514021	0.01473858135301802	-0.2885343371062046	-0.3763686240883398	1.553208603636578	1.570796326969429	0	0	-1.064254934216386	-0.6314716419903681	-0.9683761210328525	0.5749300653894625	1.570796326969429	0	0
0.0326714545037473	-0.5098178443057138	-0.007564024541190287	-0.1992960098993865	-0.1066862166148695	0.9528416079141161	0.3678745491801541	0.3657026869642184	-0.1315242426834561	-0.2455627639361111	0.486720792734164	0.1021521049148762	0.4817389352974847	-0.09858213013659683	0.1930774217646585	0	0.8171013854707944	-0.2072626516745738	-0.2621952904376296	0.4275916215925644	0.0821815138918718	0.4258457782483643	0.2678343162267848	0.05035718146970344	-0.0003356077446337441	-0.1519645453509662	0.07724522452166954	0.1039672371253803	0.01662911058250949	-0.2913846392553326	-0.3734767509204392	1.554514980417325	1.570796326969429	0	0	-1.068456833922628	-0.6077409863405819	-0.9669626996874701	0.5732081136707966	1.570796326969429	0	0
0.03751709174442691	-0.5011874140890153	-0.01013262254682597	-0.2056659900185005	-0.09817264747815346	0.9549380544847657	0.3664046986339013	0.354809122752665	-0.14082464576622	-0.2469142657554997	0.5189345180605588	0.1021521049148762	0.5144989084974895	-0.1135196136356709	0.1836573387704826	0	0.8007672910801782	-0.2082328522277575	-0.2833242498108247	0.3805815561501158	0.08218151389187184	0.3782973797844417	0.2708634004379404	0.07859517214061705	-0.0003178999542348811	-0.1562112986738924	0.07745371919471251	0.1097896511708214	0.01830164296216806	-0.2942787871094962	-0.3705727439962847	1.55532418701784	1.570796326969429	0	0	-1.072656047427835	-0.5839188689096481	-0.9652317567517987	0.5713677304551484	1.570796326969429	0	0
0.04238192853981579	-0.4918405385520486	-0.01307612254641298	-0.2119779550825862	-0.08953042058968996	0.956756475984312	0.3649251439181093	0.343490223062572	-0.1500965691087453	-0.2458118929910493	0.5538263404443122	0.1021521049148762	0.5500392658504162	-0.1266024452122055	0.1737962116837253	0	0.7841211988749062	-0.2095365577718538	-0.3051796341753693	0.3357703927992603	0.08218151389187181	0.3329066910172629	0.2741083031580867	0.1072817846005383	-0.0003008707380746896	-0.1608237411221385	0.07814241049881325	0.1156424654759062	0.01969203410017303	-0.2971412513056191	-0.3677512354796271	1.555586606894521	1.570796326969429	0	0	-1.076855771677606	-0.5605069055065421	-0.9632367831199662	0.5694447614266311	1.570796326969429	0	0
0.04718924350439309	-0.482024314358287	-0.01630738268618599	-0.2180598655523584	-0.08090411732023839	0.9582658545146819	0.3634626170727711	0.3318443583367818	-0.159146092421206	-0.242275388857636	0.5903965097770945	0.1021521049148762	0.5873482621607088	-0.1377151662661469	0.1639241551862093	0	0.7677099779843902	-0.2111247202337559	-0.3272124561146885	0.2941203242608937	0.08218151389187184	0.2906607996514926	0.2774595608586599	0.1356335415085591	-0.0002847628509371496	-0.1656178731236545	0.07927016958350405	0.1213921423537792	0.02075182069151309	-0.2998921859638128	-0.3651067708524072	1.55528505102233	1.57079632696943	0	0	-1.08104841571438	-0.5379809225907464	-0.9610420895498507	0.5674795693676908	1.57079632696943	0	0
0.0518632224455918	-0.4719974481148594	-0.01971670851442656	-0.2237540731973435	-0.07244282146750337	0.959457278242871	0.362043542007034	0.3199873638187149	-0.1677902074162259	-0.2365186597531346	0.6275348745422169	0.1021521049148762	0.6253006417649232	-0.1468997367151409	0.1544478157567558	0	0.7520217744054047	-0.2129263045954282	-0.3488397059336799	0.2563532833186344	0.08218151389187181	0.2523323723696666	0.2807830108213169	0.1628719489812069	-0.0002697862482574939	-0.1704337803920353	0.08076228447613086	0.1269092580040469	0.02145332683695587	-0.3024542213857875	-0.3627242659411504	1.554438025057131	1.570796326969429	0	0	-1.085208772934622	-0.5167669245608719	-0.9587181980201536	0.5655146942574332	1.570796326969429	0	0
0.05633015401013977	-0.4620540363355364	-0.02318170956385934	-0.2289301860806921	-0.06429468110566534	0.9603383391077606	0.3606930906752356	0.3081060821969547	-0.1758664449049522	-0.2289261542642335	0.6641217822911014	0.1021521049148762	0.6627502912946867	-0.1543243861165457	0.1457057598716798	0	0.7374968119738549	-0.2148556267721711	-0.3694914103956148	0.2229728372979431	0.0821815138918718	0.218444284746032	0.2839370000975174	0.1882905891233514	-0.0002560859948673702	-0.1750810093498711	0.08251920350933198	0.1320767001308476	0.02179331277458628	-0.3047602451780958	-0.3606697130731189	1.553100737832401	1.570796326969429	0	0	-1.089290457238256	-0.4972211282691166	-0.9563385829626714	0.5635928201639351	1.570796326969429	0	0
0.06051959218465776	-0.4524580415418217	-0.02657798907750724	-0.2334946141176232	-0.05660412978050842	0.9609361203764508	0.3594343397554788	0.2964100857533363	-0.183240372952056	-0.2200118562209497	0.699101372545227	0.1021521049148762	0.6986128974528871	-0.1602157499691403	0.1379401393709658	0	0.7244521543470006	-0.2168209489551254	-0.3886564434816406	0.1942506927835107	0.08218151389187181	0.1892596832512891	0.2867936521448505	0.2113129752165691	-0.0002437514198908768	-0.1794285653152584	0.08442754907455959	0.1367965814510662	0.02179489377273804	-0.3067605889628859	-0.3589828643248449	1.551363212822814	1.570796326969429	0	0	-1.093228148848102	-0.4796164341059162	-0.9539771863783107	0.5617552745729293	1.570796326969429	0	0
0.06436546733510043	-0.443484632370883	-0.02978896684829323	-0.2373951968504324	-0.04950752100428021	0.9612882755706853	0.3582876289342047	0.2851865905491364	-0.1898098730346523	-0.2103683278179057	0.7315520021304984	0.1021521049148762	0.731927436269814	-0.1648210376301096	0.1312877186844794	0	0.7131070758011905	-0.2187329047895222	-0.4059187230730171	0.1701932388212565	0.08218151389187184	0.16479822948963	0.289256261192951	0.2315308362334818	-0.0002328720913216324	-0.1833303791378172	0.08637152097099567	0.1409947769283907	0.02150645850073026	-0.3084280755011084	-0.3576733499862079	1.549345248136116	1.57079632696943	0	0	-1.096941853655123	-0.4641373312058259	-0.9517064614111806	0.5600410410433779	1.57079632696943	0	0
0.06780712831226307	-0.4353412914297385	-0.03271338979241712	-0.2406203217633446	-0.04313073973818327	0.9614456845126705	0.3572701833588788	0.2747106340644149	-0.1955057485414937	-0.2006144619372721	0.7607003820038849	0.1021521049148762	0.76189145178032	-0.1683680859742325	0.1257884219324738	0	0.7035374060426115	-0.2205114140414757	-0.4209776105780412	0.1506277735793248	0.08218151389187182	0.1448747092314614	0.2912719129684649	0.2487168033019209	-0.000223479163317584	-0.1867331983265823	0.08824281779947511	0.1446224487504194	0.02099850048983692	-0.3097597636373039	-0.3567210387070225	1.547188449407534	1.570796326969429	0	0	-1.100346021498638	-0.4508837352969792	-0.9495955488751002	0.5584861248627542	1.570796326969429	0	0
0.07079029933648544	-0.4282751811979475	-0.03526968791362207	-0.2431929165298535	-0.03758528765059521	0.9614564727044339	0.3563960209999639	0.2653542953265266	-0.2002888302348196	-0.1913487723220171	0.7859663536606512	0.1021521049148762	0.7878711612168374	-0.1710533082200811	0.1214063140067247	0	0.6957776331784077	-0.2220901957412124	-0.4336500333835933	0.1351765204016311	0.08218151389187185	0.1291539836948072	0.2928332350268101	0.2628108591154054	-0.0002155948693712681	-0.1895048437377255	0.08994775661805823	0.1476544546755215	0.02035692657876101	-0.3107749546144437	-0.3560806264358606	1.545046028386252	1.570796326969429	0	0	-1.103355529189752	-0.4398829602194044	-0.9477084568286138	0.5571230717538181	1.570796326969429	0	0
0.07326793709552543	-0.4225858257157027	-0.0373970462036612	-0.2451605510140226	-0.03296640045903518	0.9613599737160161	0.355676087676379	0.2575811328800839	-0.2041442996405599	-0.1831124346480462	0.8069537659701692	0.1021521049148762	0.8093919217177563	-0.1730407746577633	0.118056677275705	0	0.6898628384972018	-0.2234185762728843	-0.4438558447013407	0.1233072696115978	0.08218151389187182	0.1172148434222367	0.293972702480837	0.273885016869054	-0.0002092320024467359	-0.1914094455169367	0.09141103812373427	0.1500850936489129	0.01967486203687115	-0.3115098167316175	-0.3556896636792805	1.54307136703623	1.570796326969429	0	0	-1.105891723227028	-0.4311078058068994	-0.9461022550330856	0.5559804907489769	1.570796326969429	0	0
0.07520097689840965	-0.4181806452715493	-0.03905372011059383	-0.2465833841467986	-0.02935585233911174	0.9612270852048789	0.355118553162682	0.2514154864511595	-0.2070743066345725	-0.1763633497265562	0.8232731106017088	0.1021521049148762	0.8261167093726246	-0.1744464985590005	0.1156334676449851	0	0.6855290705772759	-0.2244608886524894	-0.4515910897060739	0.1147254302701113	0.08218151389187182	0.1086153373045252	0.2947487476425287	0.2820941627172021	-0.0002043849864663094	-0.192766240754444	0.0925763977413214	0.1519220633881257	0.01904593242897774	-0.3120096395609975	-0.3554786809830265	1.541406455686892	1.570796326969429	0	0	-1.107892314829187	-0.4244979926261069	-0.9448253955963818	0.5550825253235346	1.570796326969429	0	0
0.0765589714577417	-0.4150836634132468	-0.04021358281282257	-0.2475218175383962	-0.02681622191855093	0.9611059418299828	0.3547291761667851	0.2470051148885495	-0.2090901099884448	-0.1714601287813231	0.8346901631118625	0.1021521049148762	0.8378202665761486	-0.1753622439080851	0.1140331548222904	0	0.6826184983281816	-0.2251942065111794	-0.4568955654530903	0.1090712119234276	0.08218151389187182	0.1029530248773908	0.2952292015536636	0.2876223786026413	-0.0002010398658000672	-0.1936824633251683	0.0934049901452928	0.1531797325022621	0.01855213811764508	-0.3123201027788701	-0.3553818383382556	1.540171228514087	1.57079632696943	0	0	-1.109308425778956	-0.4199819061207815	-0.9439162713938799	0.554448292452018	1.57079632696943	0	0
0.07732081165962061	-0.413353345593532	-0.04086223123287702	-0.2480256398949761	-0.02539029995920307	0.9610272481594191	0.3545115958920307	0.2445103446996485	-0.2102051791386013	-0.168652865345143	0.8410770258796556	0.1021521049148762	0.8443666518827126	-0.1758512902280897	0.1131727077914144	0	0.6810401046862863	-0.2256054705042523	-0.4598219064039258	0.106029769495784	0.08218151389187185	0.09991431540083907	0.2954738504863694	0.2906342125918467	-0.000199184144481819	-0.1941713709055131	0.09387276654946945	0.1538730009657963	0.0182559433455631	-0.3124790400240113	-0.3553465886912838	1.539454454591292	1.57079632696943	0	0	-1.110106277119792	-0.417495255621499	-0.9434019542452594	0.5540912629673946	1.57079632696943	0	0
0.0775	-0.4129455974624031	-0.04101454788628395	-0.24814174534785	-0.02505481464767973	0.9610077774216972	0.3544605117293227	0.2439197105021412	-0.2104657740280456	-0.1679867982790809	0.8425767768728183	0.1021521049148762	0.8459042131896994	-0.1759637655988416	0.1129742471487948	0	0.6806734122757081	-0.2257021572676935	-0.4605048738718482	0.1053291395346456	0.08218151389187185	0.09921404248461342	0.295528729758585	0.2913330775545202	-0.0001987497984778721	-0.1942860335841488	0.09398305744691936	0.1540347530276255	0.0181842584706059	-0.3125148006725832	-0.3553403197990992	1.539283374707872	1.57079632696943	0	0	-1.110294295038684	-0.4169153288632382	-0.9432805407663558	0.5540071605844366	1.57079632696943	0	0
0.07795425073372618	-0.4119146449255335	-0.04140021689425148	-0.2484319573456075	-0.02420411521105613	0.9609563733712702	0.3543311693162648	0.242420387368205	-0.2111235116789681	-0.1662885371593411	0.8463758360210232	0.1021521049148762	0.8497981249730763	-0.1762446728955211	0.1124778499298519	0	0.6797545122125138	-0.2259471548646803	-0.4622269890789005	0.1035753552714604	0.08218151389187184	0.09746351827632556	0.2956631656174301	0.2930882767639486	-0.0001976522877110091	-0.1945700214849325	0.0942630668576552	0.1544425446976661	0.0179990450815231	-0.3126026550590386	-0.3553279087773897	1.538845422424735	1.57079632696943	0	0	-1.110771448578924	-0.4154536757743268	-0.9429719997217441	0.5537937399738651	1.57079632696943	0	0
0.07901578477516402	-0.4095103255597549	-0.04229865688266853	-0.2490868924812752	-0.02221510601153494	0.9608259303621066	0.3540298074514911	0.2388928419176883	-0.2126442854935464	-0.1622662021316734	0.8552308921022168	0.1021521049148762	0.8588750306546159	-0.1768784353465908	0.1113554579618132	0	0.677660356875778	-0.2265188666561063	-0.4661986525428816	0.09961011327120961	0.08218151389187184	0.09351118053966358	0.2959507441706625	0.2970966928741834	-0.0001951071921207324	-0.1952124887040627	0.09491947735568552	0.155382714452145	0.0175467424793936	-0.3127920812725455	-0.3553185758041886	1.537798135415027	1.570796326969429	0	0	-1.111889505986803	-0.4120857527052755	-0.9422467997637993	0.5532937863075004	1.570796326969429	0	0
0.08066444641183987	-0.4057910304701788	-0.04368487998733498	-0.2500383944174648	-0.01912346468110679	0.9605948325335665	0.3535643157705683	0.2333480127839365	-0.2149601041653393	-0.1558744451335078	0.8689132552401828	0.1021521049148762	0.8729038806745805	-0.1778041347645077	0.1097172224267546	0	0.674559103103801	-0.2274033793362323	-0.4722151305912104	0.09382555144928972	0.08218151389187184	0.08775882988750967	0.2963207624563433	0.3030566249953936	-0.0001912078680335335	-0.1961509643961049	0.0959432506199521	0.1568064768416469	0.01678987437903547	-0.3130410549797309	-0.3553597455148904	1.536105223234199	1.57079632696943	0	0	-1.113633667627252	-0.4069894819352348	-0.9411090793585115	0.5525139488609875	1.57079632696943	0	0
0.08287410419404742	-0.4008393708371892	-0.04552155436531727	-0.2511852755316	-0.01497597325536575	0.9602310110474506	0.3529454689368958	0.2257929334344054	-0.2179735164161688	-0.1470448176362124	0.8871007384485506	0.1021521049148762	0.8915610040198619	-0.1789427463247783	0.1077223870422915	0	0.6707006155171298	-0.2285790073773701	-0.479973204089058	0.08679358540284288	0.08218151389187184	0.08078967234596987	0.2966622330485471	0.3105194761801006	-0.0001860840257087982	-0.1972926056205648	0.09731941109814717	0.1586426787976748	0.01567054073282929	-0.3132851748863608	-0.3555241297507115	1.533709149946384	1.57079632696943	0	0	-1.115983892467477	-0.4004204253736603	-0.9395629502731863	0.5514623542183409	1.57079632696943	0	0
0.08560988716681352	-0.3947731203175728	-0.04775381735532594	-0.2523953747656534	-0.009836924254572589	0.95969532033925	0.3521876097291424	0.2162534836387421	-0.221555848506335	-0.1357239561587205	0.9093493471968388	0.1021521049148762	0.9144010252147984	-0.1802081003931187	0.1055705431399297	0	0.6664152065030128	-0.2300117782008696	-0.4890609162909412	0.07924325176174635	0.08218151389187182	0.07334335970366229	0.2968225884897733	0.3188888101286781	-0.0001799103588797835	-0.198513757783914	0.09902072492898832	0.1607965069217364	0.01411567958751843	-0.3134384797402182	-0.3559070047951162	1.530540072241364	1.57079632696943	0	0	-1.118908379531376	-0.3927117174975134	-0.9376160212907857	0.5501502591182442	1.57079632696943	0	0
0.08882864367758794	-0.3877453048831347	-0.05030724886374916	-0.2535121875311835	-0.003786766889723521	0.9589451901428855	0.3513083042903963	0.2047849325646665	-0.2255516545992272	-0.1219039667400899	0.9351020068859001	0.1021521049148762	0.9408617367529889	-0.1815224436517519	0.1034833709541403	0	0.6620877707164019	-0.2316528026929163	-0.4989657401086515	0.07201700292363922	0.08218151389187177	0.0662657112861635	0.2966104757024255	0.3274426547383014	-0.0001728917651141749	-0.1996585721678609	0.1010033463963531	0.1631523563563136	0.01204243437036641	-0.3133964615982565	-0.3566213480932859	1.526523740536323	1.570796326969429	0	0	-1.122359023523682	-0.3842590726434509	-0.9352810546003902	0.5485923162272262	1.570796326969429	0	0
0.09247960949210787	-0.3799462105670463	-0.05308751922728955	-0.2543646319734414	0.003077199348845976	0.9579388341751838	0.3503277889828747	0.1914962185004735	-0.2297853688686938	-0.1056512102567186	0.9637153263991708	0.1021521049148762	0.9702813491130634	-0.1828293540949945	0.101680569513765	0	0.658140509505592	-0.2334368700114877	-0.5090936002922306	0.06600521997576264	0.08218151389187178	0.06044645874175445	0.2958037687277295	0.3353713298023851	-0.0001652293229761409	-0.2005474947881811	0.1032038900458928	0.1655786404991389	0.009365330545075976	-0.3130413715018299	-0.3577903699744342	1.521590879935826	1.570796326969429	0	0	-1.126267085570234	-0.3755001203218916	-0.9325775735728139	0.5468069017626765	1.570796326969429	0	0
0.09650520557876997	-0.3715994447932398	-0.05598262243510727	-0.2547799687100223	0.01064186343611352	0.9566396124801549	0.3492682135726428	0.1765680882219565	-0.2340701763851101	-0.08712848289502091	0.9944905574143977	0.1021521049148762	1.001929155792547	-0.1841046559405971	0.1003522719840044	0	0.6549999257582928	-0.2352831535761574	-0.5188011383872565	0.06207320082525475	0.08218151389187181	0.05674863598883499	0.2941653752886498	0.3418323702883915	-0.0001571362109550304	-0.2009879060247366	0.1055391698194744	0.1679347705176566	0.006004905323192894	-0.3122502784537709	-0.3595371905823179	1.515687523052808	1.57079632696943	0	0	-1.130539410420767	-0.3668884696392157	-0.9295332144212892	0.544816595390461	1.57079632696943	0	0
0.1008419453248002	-0.3629520073246155	-0.05886828909679691	-0.2545992348651482	0.01878017204084925	0.9550202737167557	0.3481527096569834	0.1602676817741898	-0.238218830253798	-0.06660610464132491	1.02672549866273	0.1021521049148762	1.03504741236078	-0.1853615873170761	0.09963206490353191	0	0.6530580746289341	-0.2370986812225535	-0.5274412828752698	0.06098872125041216	0.0821815138918718	0.05593488589877911	0.2914663929866191	0.3460206437449563	-0.0001488333848921146	-0.2007899381135865	0.1079095385953728	0.1700802145654016	0.001897780437233279	-0.3109058737798425	-0.3619719791061027	1.508785452642939	1.57079632696943	0	0	-1.135056475663891	-0.3588636827473147	-0.9261845485621806	0.5426488496668067	1.57079632696943	0	0
0.1054214354539589	-0.3542612451445547	-0.06161655345471932	-0.2536937496166941	0.02735276136831881	0.9530672938401956	0.3470043563841324	0.14295358471317	-0.2420556982760541	-0.04445924341058472	1.059730476849575	0.1021521049148762	1.068898386533167	-0.1866618420434167	0.09957590343577767	0	0.6526346342458632	-0.2387847203187683	-0.534418693115802	0.06334856493148089	0.08218151389187181	0.05859754143218523	0.2875157351076268	0.3472471914440959	-0.0001405152311015509	-0.1997917876865741	0.1102060810077322	0.1718850536268107	-0.002992765855359528	-0.308909320878137	-0.3651776130748195	1.500891708466676	1.570796326969429	0	0	-1.139674374785079	-0.3518194626906868	-0.9225771167880383	0.540336798850389	1.570796326969429	0	0
0.1101714545037473	-0.3457759106769029	-0.06410666697716173	-0.2519805463697655	0.03621096549789566	0.9507844063060281	0.3458451639885218	0.1250665932426641	-0.2454289089554296	-0.02115140352623863	1.092856646777354	0.1021521049148762	1.102807943634572	-0.1880910051353584	0.1001520148682395	0	0.6539391317133239	-0.2402455562955472	-0.5392480653042523	0.0695206988587489	0.0821815138918718	0.06510017328337732	0.2821915198061677	0.3450161227060144	-0.0001323624198598153	-0.1978854933604123	0.1123209853816501	0.1732409409900651	-0.008667433399994956	-0.3061936912125629	-0.3691956578756019	1.492056054594248	1.570796326969429	0	0	-1.144230468052179	-0.3460733911097456	-0.9187645201944733	0.5379200142109383	1.570796326969429	0	0
0.1150170917444269	-0.3377178527034969	-0.06623680164121093	-0.2494342455945951	0.04520035461554762	0.948193887276676	0.3446952209584854	0.1071166965817497	-0.2482212097508616	0.002793287390221016	1.125562432399408	0.1021521049148762	1.136196899088647	-0.189704204424797	0.1012450774265013	0	0.6570472904010967	-0.241398464132577	-0.5416058613154149	0.07960463029349596	0.08218151389187178	0.07553796552796777	0.2754671310333123	0.3390866343163337	-0.0001245233649260163	-0.1950350653985578	0.1141594763950236	0.1740710041942531	-0.01508196757187584	-0.3027359372125261	-0.3740149743716861	1.482375440713587	1.570796326969429	0	0	-1.148552528613128	-0.3418421176406052	-0.914806619307893	0.5354448559397859	1.570796326969429	0	0
0.1198819285398158	-0.330264885967546	-0.06793450850608956	-0.2460931120806851	0.05416497232023773	0.945337125214565	0.3435721260165083	0.08964459300539349	-0.2503581389645312	0.0268243117894872	1.157423687273513	0.1021521049148762	1.168594034464441	-0.1915041205308192	0.1026749161007107	0	0.6618887785533073	-0.2421831947097021	-0.5413658425503642	0.09341842326770061	0.08218151389187184	0.08972263797190928	0.2674304037136607	0.3295081622553431	-0.0001171231659031975	-0.1912887444915729	0.1156510332921141	0.1743371509038673	-0.02214284076668618	-0.2985651880226668	-0.3795652903201431	1.47199482642986	1.57079632696943	0	0	-1.15247205113994	-0.3392256895022439	-0.910767161018009	0.5329639849277005	1.57079632696943	0	0
0.1246892435043931	-0.3235395775703084	-0.06916389931001832	-0.2420578789109438	0.06295116596587907	0.9422735256766539	0.3424908061045596	0.07317668590659959	-0.2518123987580214	0.05039999943805969	1.188119537983176	0.1021521049148762	1.199629505426519	-0.1934509342228062	0.1042265416767117	0	0.6682542165763117	-0.2425692046405717	-0.5386113121318096	0.1105099491087448	0.08218151389187182	0.1071946975622653	0.2582849133877216	0.3166210594955466	-0.0001102557566468955	-0.186782640005797	0.1167575253069754	0.1740435334148039	-0.02970776654754145	-0.2937655526685223	-0.3857174770890317	1.461104199367785	1.57079632696943	0	0	-1.155840328016126	-0.3382036034768661	-0.9067113831771825	0.5305346434373521	1.57079632696943	0	0
0.1293632224455918	-0.3176040948176849	-0.06992807876300258	-0.2374832405854778	0.07141266288588347	0.939079459191943	0.3414637026477811	0.05816907989143472	-0.2526038316107059	0.07301873656812621	1.217384964821945	0.1021521049148763	1.229012642442086	-0.1954809535171363	0.1056856288113132	0	0.6758087295678183	-0.2425592329391356	-0.5336216247940965	0.1302055093831345	0.08218151389187185	0.127261951454346	0.2483349407496779	0.3010220463486698	-0.0001039852280669181	-0.1817252399707283	0.1174764843403258	0.1732355545411814	-0.03759136759321615	-0.288472556120875	-0.3922911100625235	1.449932099922065	1.57079632696943	0	0	-1.158544734815288	-0.3386432909030951	-0.9027042095573444	0.5282155340910221	1.57079632696943	0	0
0.1338301540101398	-0.312467258265501	-0.07026635968070816	-0.2325633536614388	0.07941256477109934	0.9358474079666711	0.3405012562528297	0.0449759322298306	-0.2527950567149423	0.09424257897168771	1.244982427439535	0.1021521049148763	1.256501988745517	-0.1975229075669727	0.1068723292177135	0	0.6841299770230218	-0.2421885880704716	-0.5268359363940457	0.1516694137648945	0.08218151389187182	0.1490592168184352	0.2379567268793015	0.2835009874301133	-9.835384228983355e-05	-0.1763748163625445	0.1178388755350337	0.1719946015936809	-0.04557618001960881	-0.2828636012644168	-0.3990684190572685	1.438736351554761	1.570796326969429	0	0	-1.160523104726408	-0.340319577962332	-0.8988094603738886	0.5260624985398449	1.570796326969429	0	0
0.1380195921846578	-0.3080956281233158	-0.07024694945428045	-0.2275138386646743	0.08682768772661813	0.932677137387836	0.3396125422007709	0.03381056748638162	-0.252483462463295	0.1137115547806032	1.270661037539129	0.1021521049148762	1.281876594434752	-0.1995010344557022	0.1076669691800078	0	0.6927562785567304	-0.241520425330908	-0.5188016220872218	0.1739699152380584	0.08218151389187182	0.1716208089788422	0.2275605389276574	0.2649610259833465	-9.338002991894818e-05	-0.1710065075864665	0.1179020638971063	0.1704294501595258	-0.05342690681324871	-0.2771440346098063	-0.4058123743446211	1.427792933604673	1.570796326969429	0	0	-1.161771663582094	-0.3429417730557894	-0.8950901207943366	0.5241236083231041	1.570796326969429	0	0
0.1418654673351004	-0.3044283102500815	-0.06995673770193318	-0.2225533089816357	0.09355113276282034	0.9296660226917525	0.3388058848867271	0.02473397737228156	-0.2517907373756644	0.131148633202642	1.294158237383434	0.1021521049148762	1.304915776736008	-0.2013409459541424	0.1080233954513656	0	0.7012371872291741	-0.2406380796065164	-0.5101170413152571	0.196139657252017	0.08218151389187181	0.1939556325044509	0.217552082525902	0.2463362130119697	-8.906573436636785e-05	-0.1658826842350571	0.1177397677888679	0.1686657756261633	-0.06090645281985149	-0.2715311766936426	-0.4122858199846808	1.417383990725992	1.57079632696943	0	0	-1.162346202369295	-0.3461839614276544	-0.8916092492317671	0.5224346170164854	1.57079632696943	0	0
0.1453071283122631	-0.3013947307003492	-0.06949025657441536	-0.217887236780942	0.09949342987801495	0.9269033362551575	0.3380892986874072	0.01766274329714129	-0.2508513568713776	0.1463565428199093	1.315186338048782	0.1021521049148762	1.325390890409655	-0.2029830812358045	0.107968740320428	0	0.7091726299055539	-0.2396359536204878	-0.5013779494215069	0.2172384826520538	0.0821815138918718	0.215115040846397	0.2082999062371198	0.2285191989306122	-8.540234605974178e-05	-0.1612252430371588	0.1174312931369895	0.1668353359634448	-0.06779073562233245	-0.2662388196600881	-0.4182685204365343	1.40778590234555	1.570796326969429	0	0	-1.162356406075465	-0.3497141004486249	-0.8884307873768953	0.5210158203705084	1.570796326969429	0	0
0.1482902993364854	-0.2989290763828584	-0.06893973786324234	-0.213696118268987	0.1045824528682644	0.9244663649247628	0.3374706711944019	0.012401485277998	-0.2498013877315755	0.1592082984328878	1.333454584722304	0.1021521049148762	1.343068595687755	-0.2043869597004321	0.1075912480914464	0	0.7162360544407892	-0.2386104669837324	-0.4931343772293241	0.2364003501606162	0.08218151389187181	0.2342459754095504	0.2001138650554219	0.2123072843293144	-8.237269810950548e-05	-0.1571981380806521	0.1170521570492691	0.1650661584582703	-0.07388078788608317	-0.2614642212241118	-0.423569709518813	1.399258165631682	1.57079632696943	0	0	-1.161953326303486	-0.3532184892658197	-0.8856194797059608	0.5198711882813188	1.57079632696943	0	0
0.1507679370955254	-0.296979769997745	-0.06838757867455644	-0.2101287269674683	0.108762588248132	0.9224194620325029	0.3369576688213581	0.008681485892477359	-0.2487686606830932	0.1696335586871391	1.348672385708817	0.1021521049148762	1.357722128604171	-0.205532188480568	0.1070198039460327	0	0.7221816885729873	-0.237652218706688	-0.4858612790094285	0.252876188828368	0.08218151389187185	0.2506256122174119	0.1932354793303743	0.1983697968504749	-7.995554464652703e-05	-0.1539012128489154	0.1166674877275756	0.1634745960023146	-0.07901032085411892	-0.2573787558970229	-0.4280349709633899	1.392033629089756	1.57079632696943	0	0	-1.161311863669235	-0.3564197495515252	-0.8832393584099753	0.5189901802096303	1.57079632696943	0	0
0.1527009768984096	-0.2955121086933383	-0.06790170549335556	-0.2073000870383419	0.1119927749505482	0.9208128047869184	0.3365574099030879	0.006209703527673749	-0.247864911135183	0.1776029544366818	1.360582267021217	0.1021521049148762	1.369145964311192	-0.2064096854796273	0.1063996006457407	0	0.7268413354417572	-0.2368399842243459	-0.4799427962216435	0.2660511962396974	0.08218151389187185	0.2636778040655894	0.1878392055387736	0.1872349623470192	-7.813051491756217e-05	-0.1513802290376748	0.1163286355450508	0.1621595793652029	-0.08304904345956375	-0.2541224125002093	-0.4315476483145242	1.386310387877068	1.57079632696943	0	0	-1.160610159801535	-0.3590880913784713	-0.8813507028126787	0.5183520499472732	1.57079632696943	0	0
0.1540589714577417	-0.2945055600939079	-0.06753356408959378	-0.2052929228951221	0.114244919137055	0.9196812485744845	0.3362759994586452	0.004707373243945601	-0.2471800297549844	0.1831124544221579	1.368968837453226	0.1021521049148762	1.377169933825074	-0.2070177592018262	0.1058680818908162	0	0.7301123295276484	-0.2362366402486606	-0.4756673726379371	0.2754556087853364	0.08218151389187185	0.2729750642120911	0.1840410432589147	0.179291117795289	-7.687985415616929e-05	-0.1496444404846911	0.1160725660851864	0.1611989204361696	-0.08590195308690425	-0.2518015065982663	-0.4340261259297128	1.382245407673612	1.57079632696943	0	0	-1.160008585278534	-0.3610469382884558	-0.8800058600352061	0.5179318511657204	1.57079632696943	0	0
0.1548208116596206	-0.293948787408521	-0.06731789524137353	-0.2041606420647695	0.11550199679461	0.9190459710734052	0.3361179930381243	0.00395150465881261	-0.2467781165539229	0.1861703567846779	1.373682101600029	0.1021521049148763	1.381671542142008	-0.207355943785541	0.1055342380125647	0	0.7319437924253243	-0.235886639338125	-0.4732290160804008	0.2807826377241627	0.08218151389187191	0.2782331590681932	0.1819098442276551	0.1747946189446685	-7.618949435502289e-05	-0.1486854705880867	0.1159230032361031	0.1606470875909944	-0.08750716344815941	-0.2504881848070801	-0.435419313773221	1.379949223543741	1.57079632696943	0	0	-1.159631066864673	-0.3621749792072388	-0.8792445049057092	0.517706875543815	1.57079632696943	0	0
0.155	-0.2938186091090008	-0.06726624778915877	-0.2038937291591015	0.1157969929724404	0.9188965440715108	0.3360808120000001	0.003782842515940854	-0.2466817598104732	0.1868861066381879	1.374791248537242	0.1021521049148763	1.382730389	-0.2074352769350426	0.1054519350700246	0	0.7323740381369236	-0.2358031332293009	-0.4726515038305157	0.2820408620547183	0.08218151389187191	0.2794740700000001	0.1814086600626788	0.1737330799160725	-7.6028287546125e-05	-0.1484615606835644	0.1158872453159299	0.1605159718596739	-0.08788514836035574	-0.2501781513719887	-0.4357472173722572	1.379407527249964	1.57079632696943	0	0	-1.159538049544616	-0.3624432603322624	-0.8790646878013029	0.5176551200115512	1.57079632696943	0	0
0.1554542507337262	-0.2934898608085562	-0.06713378213305625	-0.2032161368602511	0.1165436907183866	0.9185177494060377	0.33598652369436	0.003371106748992492	-0.2464344004225479	0.1886945785703626	1.377604777147271	0.1021521049148762	1.38541472801537	-0.2076359503122188	0.1052367829558249	0	0.733463437379234	-0.2355894404166757	-0.4711808239817362	0.2852390476553891	0.08218151389187187	0.2826267310686428	0.1801384205153685	0.1710355432523053	-7.562160652463919e-05	-0.1478966955979951	0.1157956461002999	0.1601813572325852	-0.08884404835763625	-0.2493903131213207	-0.4365787716336351	1.378031550622048	1.57079632696943	0	0	-1.159294991070572	-0.3631283346483689	-0.8786075510451942	0.517525934831869	1.57079632696943	0	0
0.156515784775164	-0.2927283183293994	-0.06681586961395225	-0.2016277415584365	0.1182820249170587	0.9176329558762333	0.3357659772475284	0.00249819396957085	-0.2458392273882994	0.1928870053365443	1.384187311093583	0.1021521049148762	1.391688559797516	-0.2081018208426605	0.1046972114944341	0	0.7360014582439187	-0.2350790121726445	-0.467707892866422	0.2927576922014616	0.08218151389187181	0.2900310496132847	0.1771724583256989	0.1646970568745776	-7.468226818035943e-05	-0.1465939743550992	0.1155765347757798	0.1593871054803377	-0.09108830788158373	-0.247538972295253	-0.4385232355035901	1.374800783539164	1.570796326969429	0	0	-1.158686116318905	-0.3647565013251471	-0.8775318783412634	0.517235589416989	1.570796326969429	0	0
0.1581644464118399	-0.2915604759766833	-0.06630018568434499	-0.1991492247460248	0.1209632036083234	0.9162614278971771	0.3354227626147794	0.001392113476294088	-0.2448681733542944	0.1993029526396768	1.394430353866002	0.1021521049148762	1.401435542885963	-0.2088137613241943	0.1037551990816443	0	0.739916700190932	-0.2342563121787876	-0.4622196862056592	0.3045568376028533	0.08218151389187184	0.301624464189184	0.1725773954780069	0.1547650538205532	-7.325357385003737e-05	-0.144624171163766	0.1152235973364481	0.1581203460841129	-0.09458121279697566	-0.2446368491193754	-0.4415440118920333	1.369741377112174	1.570796326969429	0	0	-1.157625344543571	-0.3673578544161807	-0.8758398283609005	0.5168181113465958	1.570796326969429	0	0
0.1603741041940474	-0.2900145253255942	-0.06557101423332327	-0.195811508232988	0.1245199629039476	0.9144323268487548	0.3349611112276663	0.0003945137781137809	-0.2434801783945925	0.2077159328789447	1.408194745442641	0.1021521049148762	1.414506851152582	-0.2097390592837763	0.1022891693294444	0	0.7451029532908631	-0.233098759631612	-0.4547013177964429	0.3205543288665867	0.08218151389187182	0.317315985742981	0.1664540492491989	0.1413110462314769	-7.139485228510173e-05	-0.1421015383766037	0.1147306947555924	0.1563619626479515	-0.09927032642485342	-0.2407009663404069	-0.4455867227151181	1.362882746489554	1.570796326969429	0	0	-1.155979282770978	-0.3709742663145326	-0.8735283766132406	0.5163266521942432	1.570796326969429	0	0
0.1631098871668135	-0.2880974652278745	-0.06461631396043108	-0.1916673173460998	0.128864462740253	0.9121895569607854	0.3343862016834099	-7.738058165235318e-05	-0.2416300500614721	0.2178277317302507	1.425282693270912	0.1021521049148762	1.430703782640471	-0.2108276569719117	0.1001420255098183	0	0.7514478361472158	-0.2315834598730381	-0.4451720294064005	0.3405501983619094	0.08218151389187182	0.3369313386451323	0.1589573490596057	0.1244804972053247	-6.917960109740386e-05	-0.1392032448004715	0.1140981799826039	0.1540948107318955	-0.1050740133414539	-0.2357651498010364	-0.4505663072361415	1.354272110945405	1.570796326969429	0	0	-1.153575373181659	-0.3756392303480451	-0.8705911768676728	0.5158355520539738	1.570796326969429	0	0
0.1663286436775879	-0.2857718981811349	-0.06343475210246743	-0.1867981370897677	0.1338918258677196	0.9095932992790732	0.3337038329082891	0.0004233734969228409	-0.2392770386819461	0.2292784855824053	1.445428194719619	0.1021521049148762	1.449775053349203	-0.2120128679419571	0.09713298094056132	0	0.7588436363531719	-0.2296935246713011	-0.43371333328669	0.3641200954356877	0.08218151389187184	0.3601773584215238	0.1503055282996953	0.1045251278558936	-6.669098479184947e-05	-0.1361835637965211	0.113339231006242	0.1513105824577463	-0.1118742136848916	-0.2298877705850592	-0.4563598204134435	1.343980526122937	1.570796326969429	0	0	-1.150212133961312	-0.3813606912023911	-0.867017330154073	0.5154411285859059	1.570796326969429	0	0
0.1699796094921079	-0.2829843271295037	-0.06204228377450832	-0.1813190945604976	0.1394794670236669	0.906720875960325	0.3329201912019694	0.002392167553400326	-0.2363936477343649	0.2416607788837357	1.46830124909277	0.1021521049148762	1.47140933364008	-0.2132171825941239	0.09307567198674421	0	0.7671470677028851	-0.227424506176275	-0.4204932098263465	0.3907373889016462	0.08218151389187184	0.3866127354165955	0.1407816506856533	0.08182750004353068	-6.40174653000306e-05	-0.1333522867829063	0.112485447917874	0.1480164701075336	-0.1195114916776143	-0.2231582821104586	-0.4628016134578224	1.332108719005253	1.570796326969429	0	0	-1.145673191220832	-0.3881055422387005	-0.8627906269214973	0.5152613009638988	1.570796326969429	0	0
0.17400520557877	-0.2796470713240394	-0.0604768073290684	-0.1753799859679211	0.1454919755384914	0.9036759871135993	0.3320418152665724	0.006313253747334491	-0.2329734483533691	0.2545373202515643	1.49347043083964	0.1021521049148762	1.495222826156734	-0.2143597079994376	0.08780231914008692	0	0.7760894815571996	-0.2247899033925329	-0.4057807806619959	0.4198433362064743	0.08218151389187181	0.41563274786495	0.130727094050599	0.05691082107457869	-6.124544512906485e-05	-0.1310782468529068	0.1115901738508988	0.1442405475903614	-0.1277843010163447	-0.2157009408723343	-0.469683032260895	1.318792104765009	1.57079632696943	0	0	-1.139747593444116	-0.3957889192170889	-0.8578900539852631	0.515433172841342	1.57079632696943	0	0
0.1783419453248002	-0.2756496110201013	-0.05879948703389308	-0.1691610904085108	0.1517837149838227	0.9005894459844308	0.3310758133886066	0.01262599235666445	-0.2290366506283341	0.267461514462606	1.520387831459509	0.1021521049148762	1.520744809088759	-0.2153662130549616	0.08119175613965816	0	0.7852274769980643	-0.2218246465053201	-0.389946911602549	0.4505871381260373	0.0821815138918718	0.4464746993506788	0.1205239775314383	0.03042884193438363	-5.845129850328951e-05	-0.1297668096114302	0.1107281067161053	0.1400348626084614	-0.1364541419081502	-0.2076742732937887	-0.4767584619844727	1.304204207851794	1.570796326969429	0	0	-1.132252779001722	-0.4042708879938079	-0.8522923504285784	0.516107675373123	1.570796326969429	0	0
0.1829214354539589	-0.2708699106271898	-0.05709179102909491	-0.16286337445591	0.1582060493979849	0.8975972917423882	0.3300303360536502	0.02165530047425346	-0.2246324573642795	0.2799998437716556	1.548404093048735	0.1021521049148762	1.547406912735244	-0.2161742218051715	0.07319719601891737	0	0.7940237836829029	-0.21858568666713	-0.3734486286899319	0.4820301009155571	0.08218151389187185	0.4782477253116497	0.1105659650661261	0.003134485283252818	-5.570610922699339e-05	-0.1298355201626842	0.1099903185992997	0.1354755731555388	-0.145254889934833	-0.1992655334465833	-0.483758551220598	1.288557795367392	1.57079632696943	0	0	-1.123057328546327	-0.4133618023147217	-0.8459772180350446	0.5174405805916492	1.57079632696943	0	0
0.1876714545037473	-0.2651851408130128	-0.05544811819208456	-0.1566939489480524	0.1646148779212996	0.894829616038462	0.3289152194786428	0.03354760758369812	-0.2198377653063414	0.2917546605637378	1.576774681990998	0.1021521049148762	1.574543581982589	-0.2167440322708262	0.06386831341497598	0	0.8019276919519609	-0.2151492975908512	-0.3567984439534051	0.5132611693608325	0.08218151389187182	0.5099861512290746	0.1012210590041509	-0.02416967910315473	-5.306508912619061e-05	-0.1316706200333586	0.1094747525911542	0.1306599818836032	-0.1539084299958457	-0.1906804112967082	-0.4904099549546674	1.272103188871942	1.57079632696943	0	0	-1.112103125180913	-0.4228357737300298	-0.8389353358442017	0.5195796847797416	1.57079632696943	0	0
0.1925170917444269	-0.2585136219747936	-0.05396492275080115	-0.1508488687771892	0.1708742672296133	0.8924053467557608	0.3277426585668268	0.0482685481821738	-0.2147524748186422	0.3023858001067314	1.604687159713914	0.1021521049148762	1.601410605856262	-0.2170641154668526	0.05336223592962971	0	0.8083806231188905	-0.2116053604762032	-0.3405228858521966	0.5432578063767455	0.08218151389187181	0.540720537534444	0.092794408393685	-0.05069199106672367	-5.05691764311658e-05	-0.1355599646472965	0.1092734184197492	0.1257008908605372	-0.1621453869448709	-0.1821293558724272	-0.4964592494735227	1.255123461277259	1.570796326969429	0	0	-1.099425820988547	-0.432449811284696	-0.8311786286881985	0.5226486921578993	1.570796326969429	0	0
0.1973819285398158	-0.2508267502007748	-0.05272820710433269	-0.1454961702149356	0.1768643120723799	0.8904119431849489	0.3265277535037052	0.06555827035292888	-0.2094923466776129	0.311629326220369	1.631315233023205	0.1021521049148762	1.627225284414952	-0.2171491663866885	0.04193967405865836	0	0.8129394100605581	-0.2080495742309672	-0.3251168330704342	0.5712535280571162	0.08218151389187185	0.5695562775234899	0.08549622494874473	-0.07571375378145177	-4.824949609010453e-05	-0.141664902391752	0.10945851861395	0.1207191575273267	-0.1697262870018062	-0.1738127437538896	-0.5016972919646417	1.237926542983937	1.570796326969429	0	0	-1.085166652599804	-0.4419648150978276	-0.8227514599624337	0.5267292047570361	1.570796326969429	0	0
0.2021892435043931	-0.2421687628031093	-0.05180182192102755	-0.1407621218316454	0.1824877161349649	0.8888992119281505	0.3252887509461876	0.08493779649697614	-0.2041807755517626	0.3193117274247044	1.655872414681786	0.1021521049148762	1.651226286780344	-0.217035191639864	0.02994544310266303	0	0.8154191810569601	-0.2045750297898392	-0.3110010421006008	0.5969406211039575	0.08218151389187181	0.5957473909470778	0.07942387122986669	-0.09864303492512828	-4.612148153391334e-05	-0.1499628569696175	0.1100702474861675	0.115835559727301	-0.1764598128143964	-0.1659074513414087	-0.5059797140256094	1.220834663886345	1.57079632696943	0	0	-1.069571813599235	-0.4511642446737705	-0.8137407978867036	0.5318430492089906	1.57079632696943	0	0
0.2068632224455918	-0.2327141671415026	-0.05121895560969623	-0.1367229711115848	0.1876612215176217	0.887884568660342	0.3240469026441946	0.1058383277020608	-0.1989409070456857	0.3253580554885275	1.677697989740282	0.1021521049148762	1.672745087190658	-0.2167715071082978	0.01777623010678013	0	0.815595393996225	-0.2012647284627339	-0.2984893958086201	0.6193814371849241	0.08218151389187184	0.6187536905824766	0.07456812663265039	-0.1190523857404213	-4.419209191612586e-05	-0.1602449088281405	0.111108791566906	0.1111630523193293	-0.1822215686471726	-0.15855705102631	-0.5092397470848884	1.204172011216438	1.57079632696943	0	0	-1.052991988419614	-0.459867089150463	-0.8042831810754529	0.5379376879928687	1.57079632696943	0	0
0.2113301540101398	-0.2227165098059501	-0.05097848202873484	-0.1334032231194983	0.1923306212407373	0.88734804306037	0.3228259194014252	0.1275484369263528	-0.1938892190474287	0.3297929039327488	1.696292761853162	0.1021521049148762	1.691276161193945	-0.2164230655486584	0.005841507900562217	0	0.8134799611714842	-0.198186356318419	-0.2877702477952437	0.6382033233268894	0.08218151389187185	0.6382727486139442	0.07082766956821092	-0.1366960418393605	-4.24621813500514e-05	-0.1721088483342691	0.112532144909744	0.1068002946514454	-0.1869586364563471	-0.151866955729425	-0.5114911136398759	1.188251872423908	1.57079632696943	0	0	-1.03586269120652	-0.467933466078004	-0.794566621247899	0.5448774810291165	1.57079632696943	0	0
0.2155195921846577	-0.2124864257820714	-0.05104667234941746	-0.1307801057954388	0.1964641850954989	0.8872350655561172	0.3216510781485926	0.1492832337036105	-0.1891311473718334	0.3327337749006722	1.711398760366716	0.1021521049148762	1.706531643964048	-0.2160465631760314	-0.00547500152186136	0	0.8093697297777789	-0.1953900180103146	-0.2789034536390433	0.6534711191901218	0.08218151389187182	0.6542430281116478	0.06804192228188839	-0.1515060528895223	-4.092887064323018e-05	-0.1850230063495598	0.1142600132677295	0.1028270534584731	-0.1906872532853814	-0.1459046854409309	-0.5128208295728383	1.17336474299297	1.57079632696943	0	0	-1.018681418205252	-0.4752631807382888	-0.7848264036662859	0.5524429832919295	1.57079632696943	0	0
0.2193654673351004	-0.2023884922958246	-0.0513635327704859	-0.128792774775782	0.2000474405881413	0.8874598251849164	0.3205481302958873	0.1702759641489309	-0.1847587780251405	0.3343771993808863	1.723044499236515	0.1021521049148762	1.718468519829035	-0.2156928360653969	-0.01584640448958819	0	0.8037058476767578	-0.1929088702119392	-0.2718319845705904	0.6653394099000177	0.08218151389187182	0.666819799419786	0.06602596791549385	-0.1635701973609002	-3.958720963039261e-05	-0.1983761690932304	0.1161827432118202	0.09930181722196986	-0.1934840920908737	-0.1407043871513254	-0.5133737911629916	1.15976879096018	1.57079632696943	0	0	-1.001981544163691	-0.4817891927274864	-0.7753348728253079	0.560339363706623	1.57079632696943	0	0
0.2228071283122631	-0.1927952384713035	-0.05185209284486096	-0.127354243997658	0.2030829922390395	0.887918329735168	0.3195421424035459	0.1897948942934491	-0.1808502170549202	0.3349787904874735	1.731505066912676	0.1021521049148762	1.727281931583035	-0.215403000456447	-0.02502154763767061	0	0.7970756691251106	-0.1907619406791346	-0.2664049786384802	0.6742197998787427	0.08218151389187182	0.6763297141372363	0.06459850579208656	-0.1730968028294761	-3.843144869340705e-05	-0.2115222336734318	0.1181732788739076	0.09626171344628415	-0.1954708439095537	-0.1362740850752179	-0.5133323827640879	1.147683669148211	1.570796326969429	0	0	-0.9863033620891738	-0.4874687074108642	-0.7663864017580441	0.5682136532425686	1.570796326969429	0	0
0.2257902993364854	-0.1840754276979302	-0.05242859539368468	-0.1263640278352111	0.2055829461863577	0.8885039195514498	0.3186564216283782	0.2072057329014894	-0.1774700609125003	0.3348290593194403	1.737246359891286	0.1021521049148762	1.733365143754284	-0.2151987972835495	-0.03283014436568665	0	0.7901138853728595	-0.1889580506398036	-0.2624079771536673	0.6805328558893429	0.08218151389187185	0.6832122828579151	0.06360284054377953	-0.1803724728478285	-3.746007234461979e-05	-0.223815021921982	0.1200998504345516	0.09372458247498119	-0.1967973570963888	-0.1326039759596316	-0.5128947361276605	1.137288056376913	1.570796326969429	0	0	-0.9721679832664585	-0.4922744569964191	-0.7582795201214531	0.5756791887133746	1.570796326969429	0	0
0.2282679370955254	-0.1765571774103597	-0.05301176262333446	-0.1257198960040269	0.2075670542495829	0.889117250856343	0.3179116170154236	0.2219639294523172	-0.1746704021590686	0.3342271908169911	1.740834954758305	0.1021521049148762	1.73724301631734	-0.2150815892734466	-0.03917548390017019	0	0.7834796889680201	-0.1874997650126528	-0.2595959327181224	0.6848266361477322	0.08218151389187187	0.6879568926812304	0.06291646234515551	-0.1857183792324774	-3.667229170700786e-05	-0.2346503161022286	0.1218374248401828	0.09169282459934006	-0.1976199325862229	-0.1296743417148242	-0.5122547448372556	1.128720641145914	1.57079632696943	0	0	-0.9600521004742351	-0.4961879140270848	-0.7512984233964449	0.582344618212107	1.57079632696943	0	0
0.2302009768984097	-0.1705264791156292	-0.05352996187056251	-0.1253277479580283	0.2090564992012473	0.8896727021312834	0.3173250441495194	0.2336462900423251	-0.1724919378970257	0.3334550373265888	1.7428662091521	0.1021521049148762	1.739490033314626	-0.2150338075944365	-0.04401824641588698	0	0.777763713077965	-0.186386591361719	-0.257725139851525	0.6875522804530363	0.08218151389187182	0.6910427609303036	0.06245337679817745	-0.1894496243761489	-3.606753472051523e-05	-0.243492730460795	0.1232766876892706	0.09015842444011003	-0.1980869613593506	-0.1274621502722403	-0.5115858339463226	1.122083710545622	1.570796326969429	0	0	-0.9503678253963526	-0.4991951321473579	-0.7456958238425693	0.5878443463677521	1.570796326969429	0	0
0.2315589714577417	-0.1662040383449394	-0.05392589763244453	-0.1251092025916203	0.2100723897355825	0.8901019893368609	0.3169102272349766	0.2419284388092925	-0.1709649074961786	0.3327533879455585	1.743878672330781	0.1021521049148762	1.740645402304658	-0.2150273655886623	-0.04735598445229691	0	0.7734722025692182	-0.1856170813642859	-0.2565812150602083	0.6891636406185446	0.08218151389187181	0.6928871164343857	0.06215925463385387	-0.1918407167845176	-3.564695967819128e-05	-0.2499077955757363	0.1243301883428582	0.08910840122785949	-0.1983241863255008	-0.125945945898579	-0.5110292151163195	1.117448138224172	1.570796326969429	0	0	-0.9434452182918447	-0.501285023958792	-0.7416784683526478	0.5918673726460491	1.570796326969429	0	0
0.2323208116596206	-0.1637498247844275	-0.05415918988500402	-0.1250069177780851	0.2106310608586377	0.8903566562975209	0.3166765590716558	0.2466013800986439	-0.1701095309216373	0.3323021006000914	1.744295278804684	0.1021521049148762	1.741136921518609	-0.2150344022283962	-0.04920324219354568	0	0.7709628551440346	-0.1851897880600709	-0.2560011912775769	0.6899451541639277	0.08218151389187177	0.6938048646446342	0.06200391861096716	-0.1930991053701047	-3.541237576771657e-05	-0.2535795604912049	0.1249361233073151	0.08852975265986275	-0.1984246655863601	-0.1251088615725415	-0.5106862347349211	1.114857865826851	1.570796326969428	0	0	-0.939519153634931	-0.5024496283735628	-0.739395415855577	0.5941824787303307	1.570796326969428	0	0
0.2325	-0.1631691630797915	-0.05421520531157281	-0.1249849654499933	0.2107613435438553	0.890417979548727	0.3166215017666468	0.2477024460774097	-0.1699084812814264	0.3321899283164284	1.744377080423344	0.1021521049148762	1.741235958012737	-0.2150372072891391	-0.04963497738674424	0	0.7703630323995287	-0.1850897387477497	-0.255871218767992	0.6901206455430682	0.08218151389187177	0.6940085164711075	0.06196829252120098	-0.1933864277423942	-3.535733332245341e-05	-0.2544509579669479	0.1250801743252707	0.08839475904763347	-0.1984449038323941	-0.1249133745630001	-0.5106023955468262	1.114249729671752	1.570796326969428	0	0	-0.9385913098785141	-0.5027227543339698	-0.7388553809820065	0.5947331094741489	1.570796326969428	0	0
0.2329542507337262	-0.1616922829928684	-0.05435913511192382	-0.1249328910059977	0.2110895467031353	0.8905758595841791	0.3164817649030572	0.2504985889110152	-0.1693990518348484	0.3318952741183824	1.74455751495986	0.1021521049148762	1.741458523216789	-0.215046305231415	-0.05072463873916829	0	0.7688236803975004	-0.1848368717589355	-0.2555527475974747	0.6905402531167317	0.08218151389187178	0.6945039602675401	0.06187946265924743	-0.1941000463249791	-3.521801591110862e-05	-0.2566729347324473	0.1254479380987494	0.08805445337664439	-0.1984904452263079	-0.1244201806784934	-0.5103844934046773	1.112710000204044	1.570796326969429	0	0	-0.9362317295981626	-0.503413810557672	-0.7374811726599497	0.5961394386272979	1.570796326969429	0	0
0.234015784775164	-0.1582119906376105	-0.05470609623953378	-0.1248310742048906	0.2118454806193627	0.8909581768332873	0.3161543135709878	0.257054741025443	-0.1682099405368425	0.3311491005768767	1.744824412559029	0.1021521049148762	1.741817808921548	-0.2150799913495921	-0.05324338407942363	0	0.765128324402419	-0.1842501511412801	-0.2548701402495228	0.6914095627303163	0.0821815138918718	0.69554538414634	0.06167881445477563	-0.19568528539036	-3.489360628799884e-05	-0.2619373726582036	0.1263216437703368	0.08727000922072228	-0.198564749798515	-0.1232808304541694	-0.5098455607221909	1.109122804721947	1.570796326969429	0	0	-0.9306760762444737	-0.505021463304263	-0.7342408247584782	0.5994845601577159	1.570796326969429	0	0
0.2356644464118399	-0.1527298611515355	-0.05527351575769929	-0.1247274904801907	0.212989140005058	0.8915883285894735	0.3156433303753762	0.2672939228962301	-0.1663670512219496	0.3298300674014635	1.744802787331856	0.1021521049148762	1.741921769158911	-0.2151721947947989	-0.05707433878816697	0	0.759118669206335	-0.183350235112655	-0.2539811780063803	0.692447303527427	0.08218151389187181	0.6968401668136438	0.06138078560856992	-0.1979191378089635	-3.439268887189379e-05	-0.2703081291095867	0.1277172341637737	0.08608241870168144	-0.1985917259803177	-0.1215474495283659	-0.5089275644712931	1.103583211477861	1.570796326969429	0	0	-0.9219334081498388	-0.5074990211208966	-0.7291282428692999	0.6048439153213799	1.570796326969429	0	0
0.2378741041940474	-0.145244608349721	-0.05608560765622611	-0.1246907263372493	0.2144647797954887	0.8925002184840928	0.3149541081168377	0.2811125089182231	-0.1639048080332876	0.3277560931656185	1.743923687867522	0.1021521049148762	1.741173492393385	-0.2153854183978991	-0.06204278717401284	0	0.7505573694440566	-0.1821645314145653	-0.2531161915123971	0.693242362686799	0.08218151389187184	0.6979621461495108	0.06099220079016607	-0.2004801440556438	-3.372592013070883e-05	-0.2818851598516333	0.1296582536109316	0.08455140069907209	-0.198461665643866	-0.1192916328648249	-0.5075475158080855	1.096222435132362	1.57079632696943	0	0	-0.9100015392895714	-0.510785624897595	-0.7221248201445967	0.6123430487487372	1.57079632696943	0	0
0.2406098871668135	-0.1357781046946885	-0.05716626655781906	-0.1248026201832215	0.2162022341890589	0.8937318570970874	0.3140944138079522	0.2983446088278653	-0.1608689827538289	0.3247017064882148	1.741448646629831	0.1021521049148763	1.738795896892321	-0.2158166020965662	-0.06790660624029325	0	0.7391811308634042	-0.1807261172444547	-0.2525618630732027	0.693276760981318	0.08218151389187188	0.69838478377859	0.06049822398638398	-0.2029701380371077	-3.290534117242924e-05	-0.2967598883464319	0.1321661094110525	0.08275644639107828	-0.1980430530468941	-0.1166020090017092	-0.5056123702436081	1.08721734593705	1.57079632696943	0	0	-0.8948964258420794	-0.5148069220318968	-0.7132178372192814	0.6221353389210823	1.57079632696943	0	0
0.2438286436775879	-0.1243920661597621	-0.05853144861049864	-0.1251486854558567	0.2181217789217411	0.8953193964906182	0.3130749559713018	0.3187404054511441	-0.1573155699420387	0.320418034531482	1.736506376705679	0.1021521049148762	1.733874769147917	-0.2165963250056731	-0.07435812792193963	0	0.7247629404295712	-0.179070052590411	-0.252636503838255	0.6919798084715669	0.08218151389187187	0.697529765896756	0.05984919940735345	-0.2049489398740903	-3.194270526440528e-05	-0.314979080455787	0.1352511818330891	0.08079453715775051	-0.197198129992131	-0.1135769008774061	-0.5030356410411537	1.076787955154135	1.570796326969429	0	0	-0.8766677097213755	-0.5194813098310538	-0.7024122502989751	0.6343842800952525	1.570796326969429	0	0
0.2474796094921079	-0.1112069746509507	-0.06018109245731204	-0.1258076940320148	0.2201392921068962	0.8972913310838871	0.3119097937731029	0.3419539452251278	-0.153309048652362	0.3146562393910871	1.728148972489506	0.1021521049148762	1.725422084339207	-0.2178853067377084	-0.08103317012528782	0	0.7071781629929277	-0.1772291666329551	-0.2536602023218457	0.68877185617001	0.08218151389187187	0.6948247900138278	0.05895117981933506	-0.2059747966396	-3.084837174638744e-05	-0.3365054887249501	0.1389035349602457	0.07877647658616407	-0.195800808672985	-0.1103161082999655	-0.4997552007847321	1.065192356519356	1.57079632696943	0	0	-0.8554143617371975	-0.5247259878563872	-0.6897440362094052	0.6492412886457625	1.57079632696943	0	0
0.25150520557877	-0.09641551856689878	-0.06209199829088093	-0.1268417056089179	0.2221726567607757	0.8996634130929636	0.3106166093796721	0.3675424063631516	-0.1489202124047166	0.3071929519804624	1.715441228431928	0.1021521049148762	1.712460393954792	-0.2198733971170229	-0.08752910823595622	0	0.68645180272032	-0.1752300654741659	-0.2559221608466216	0.6831589818521631	0.08218151389187182	0.6897655611303996	0.05766481453606907	-0.2056468898243343	-2.963024817958166e-05	-0.3611787718941961	0.1430847741091571	0.07682167112587174	-0.1937547617517082	-0.106912925234696	-0.4957497118770056	1.052718844316791	1.57079632696943	0	0	-0.8312984775489701	-0.5304613234782194	-0.6752938186237496	0.6668197379712651	1.57079632696943	0	0
0.2558419453248002	-0.08029712005826442	-0.06421336311097986	-0.1282879029691318	0.2241467910723646	0.9024345621571127	0.309216742898169	0.3949824846029167	-0.1442238098233367	0.2978558439360318	1.697555831264546	0.1021521049148762	1.694124578729329	-0.2227651842223724	-0.09343220709677673	0	0.6627777178088957	-0.1730903035150388	-0.2596484847997534	0.674777749127752	0.08218151389187182	0.681975267904132	0.05581211830112343	-0.2036454309030245	-2.829316062946638e-05	-0.3886849974306371	0.1477228515439003	0.07505134992017914	-0.1910094372539032	-0.1034475823100934	-0.4910507738098653	1.03967514123447	1.57079632696943	0	0	-0.8045558817854631	-0.5366122930355653	-0.6591987769762511	0.6871670214482427	1.57079632696943	0	0
0.2604214354539589	-0.06321708076331839	-0.06646654602950104	-0.130153412580256	0.2259989216760136	0.9055837138535812	0.307734914711476	0.4236914422173322	-0.1392963043983337	0.2865472028143314	1.673877507450963	0.1021521049148762	1.669771624998281	-0.2267453220461191	-0.09835208795244638	0	0.6365195046568423	-0.1708176578460208	-0.2649743435709085	0.6634755682070813	0.08218151389187184	0.671253776444912	0.05319419095724437	-0.1997645875293512	-2.683993474476284e-05	-0.4185431475768492	0.1527114249556682	0.07358049839494057	-0.1875709378714227	-0.09998318492039679	-0.485748133390201	1.026375229742406	1.57079632696943	0	0	-0.7755014282813082	-0.5431064314456248	-0.6416605595790504	0.7102374213501113	1.57079632696943	0	0
0.2651714545037473	-0.04561685285250597	-0.06875000338200328	-0.1324138286568174	0.2276812433913974	0.9090678511392588	0.3061986063432986	0.4530630639128517	-0.134214044960541	0.2732633583851691	1.644098253987752	0.1021521049148762	1.639084209051162	-0.23194580770791	-0.1019589903015223	0	0.6081944909933007	-0.1684121195923195	-0.2719243709776463	0.6492859990238703	0.0821815138918718	0.6576092913849704	0.04961626273089902	-0.1939341167991867	-2.527209168842178e-05	-0.4501151881515409	0.1579146643517031	0.07250910720347972	-0.1835055257362784	-0.09656480314216169	-0.47998629737236	1.013124881185139	1.57079632696943	0	0	-0.7445292999439131	-0.5498687553859376	-0.622947186520962	0.7358692151382151	1.57079632696943	0	0
0.2700170917444269	-0.02797748406610054	-0.07094924300064526	-0.135015531226599	0.2291644196391177	0.9128219424876253	0.3046371234511849	0.4824851541019731	-0.1290520499727091	0.2581079549826285	1.608288762022055	0.1021521049148763	1.602150983342411	-0.238409485809826	-0.1040179818894477	0	0.5784544978413757	-0.1658705647753095	-0.280404423872036	0.632512872445351	0.0821815138918718	0.6412672532100483	0.04491971680139059	-0.1862269540996235	-2.359075584895928e-05	-0.4826412979822118	0.1631772895514782	0.07191363731989356	-0.1789342999814899	-0.09322172665850197	-0.4739524816445542	1.000207430776687	1.570796326969429	0	0	-0.7121068057743274	-0.5568152765699753	-0.6033877482094697	0.7637696347412397	1.570796326969429	0	0
0.2748819285398158	-0.01076873613553089	-0.07295037801791779	-0.1378812183701238	0.2304408603935559	0.9167608474903112	0.3030804320798946	0.5113474067006397	-0.1238834723786938	0.2412975448179644	1.566938423437927	0.1021521049148763	1.559507947381142	-0.2460797411096889	-0.1044142301413881	0	0.5480622926944165	-0.1631932866581138	-0.290206207189713	0.6137494358696997	0.0821815138918718	0.6226547690084869	0.03901306666280714	-0.1768520912871192	-2.180209793026098e-05	-0.5152874709080966	0.1683383802182674	0.07183976388514518	-0.1740197856092058	-0.08997220105876159	-0.4678576799266254	0.987871469479649	1.57079632696943	0	0	-0.6787634152674001	-0.5638474169144464	-0.5833600302773723	0.79351062090531	1.57079632696943	0	0
0.2796892435043931	0.005545085616967455	-0.07465481167371722	-0.1409175707600493	0.2315116548412807	0.9207838560791104	0.3015578948086167	0.5391486559551463	-0.1187796768051557	0.2231585663091177	1.520966156839078	0.1021521049148762	1.512130647509282	-0.2548035312445671	-0.1031647775587791	0	0.517803745521351	-0.1603909139947973	-0.3010243103701384	0.5934439114688437	0.08218151389187177	0.6023629405451704	0.03190046404850524	-0.1661341807722907	-1.991812627759786e-05	-0.5472172256759317	0.173246537719733	0.07229742466356912	-0.1689515007699	-0.086829424716325	-0.4619141836514767	0.9763218646585828	1.570796326969429	0	0	-0.6450831999599012	-0.5708496527883593	-0.5632725699315841	0.8245370050332768	1.570796326969429	0	0
0.2843632224455918	0.02057582046151363	-0.07599214536910269	-0.1440237318145628	0.2323910149105419	0.9247821796465437	0.300097080003794	0.5654583350957154	-0.1138107428259136	0.204115504218487	1.471666164055849	0.1021521049148762	1.461375504830582	-0.2643381569863128	-0.100414746618832	0	0.4884549115916568	-0.1574899921992968	-0.3124831925877647	0.5722423839856698	0.08218151389187182	0.5810930541573074	0.0236953606598979	-0.1544831202588842	-1.796099371433696e-05	-0.5776550846633326	0.177773625925576	0.0732589364470605	-0.1639221484055838	-0.08380737786395077	-0.4563136606356561	0.9657149643386739	1.570796326969429	0	0	-0.6116836767181298	-0.5776918602595762	-0.5435437221289213	0.8561869378583898	1.570796326969429	0	0
0.2888301540101398	0.03403863358125325	-0.07692878497175694	-0.1470992508940731	0.2331020652321505	0.9286467552317058	0.2987227677674933	0.5899291496869223	-0.1090460837075696	0.1846713840040609	1.4206286116322	0.1021521049148762	1.408880707291323	-0.2743812545062294	-0.09641944927074191	0	0.4607469700785639	-0.1545358604027179	-0.324169457743513	0.5508818907855083	0.08218151389187184	0.5595960984830751	0.0146255071786634	-0.1423586899038998	-1.595698511201267e-05	-0.6059364944915425	0.1818246658350313	0.07466047352641278	-0.159109466702859	-0.08092523782940145	-0.4512097338261136	0.9561581013454531	1.57079632696943	0	0	-0.5791991354992913	-0.5842361070565556	-0.5245809703511836	0.8877219251876509	1.57079632696943	0	0
0.2930195921846577	0.04575545037503109	-0.07747067552567168	-0.1500508186414412	0.2336696529783797	0.9322770515026216	0.2974562400440816	0.6123088913138459	-0.1045549348672013	0.1653806762278935	1.369612260999646	0.1021521049148762	1.356434897848368	-0.2845894736192901	-0.09151413551463528	0	0.4353002553670444	-0.1515919249906837	-0.3356664426537019	0.5300409248050792	0.08218151389187182	0.5386115132101416	0.005017893970816034	-0.1302330948388705	-1.394792576554899e-05	-0.6315496115007575	0.1853425665028698	0.07640686798332633	-0.1546614562032781	-0.07820959967224306	-0.4467074914221716	0.9477130530940624	1.570796326969429	0	0	-0.5482630174045784	-0.5903474003340605	-0.506762500458139	0.9183645318521301	1.570796326969429	0	0
0.2968654673351004	0.05566248690387138	-0.0776602903517591	-0.1527962405341464	0.2341190949385586	0.9355873377801014	0.2963150021082088	0.6324053126057807	-0.1004060760950676	0.146822314946646	1.320413504472806	0.1021521049148762	1.305859897398251	-0.2945934370545686	-0.08608279943944755	0	0.412603215719455	-0.1487362465214138	-0.3465800231699682	0.5103680899951046	0.08218151389187181	0.5188238374993378	-0.004730873196760688	-0.118562557969421	-1.198343113200177e-05	-0.6541450183816175	0.1883071341213995	0.07837873323105521	-0.1506888305758154	-0.07569440677683906	-0.4428617125768687	0.9404021966371859	1.570796326969429	0	0	-0.5194900627563904	-0.5959026545613213	-0.4904253570795479	0.9473335692483144	1.570796326969429	0	0
0.3003071283122631	0.06379301520039099	-0.07756840344688791	-0.155268020220421	0.2344719491207974	0.9385114244535266	0.295312657558127	0.6500699254021555	-0.09666735578299353	0.1295629721637826	1.274722380791688	0.1021521049148762	1.258861649661425	-0.3040253513595278	-0.08051621212520493	0	0.3929776321131505	-0.1460546739008262	-0.3565680687044982	0.4924031850692522	0.08218151389187184	0.5008157855400871	-0.01418984181904848	-0.1077544807720094	-1.011997028328413e-05	-0.6735339587100995	0.1907301026948049	0.08044204912113304	-0.1472608506621012	-0.07341888361892077	-0.439680974324572	0.9342172660339938	1.57079632696943	0	0	-0.493457493451442	-0.6008033814347478	-0.4758549337502085	0.9738868409283967	1.57079632696943	0	0
0.3032902993364854	0.07025460577725884	-0.0772836074056657	-0.1574124684582644	0.2347466000034032	0.9410028534658905	0.294459348687159	0.6651688747620508	-0.09340365016371194	0.1141360556379505	1.234034361285399	0.1021521049148762	1.216975888282404	-0.3125362456044539	-0.07519036122734039	0	0.3765964564806634	-0.1436348661400509	-0.365344197416425	0.4766362823993997	0.08218151389187182	0.4850657887076764	-0.02292776085990278	-0.09816077935278474	-8.419384124601544e-06	-0.6896524597357336	0.1926462287585353	0.08245748304350009	-0.1444109591291685	-0.07142444668060755	-0.4371391233841445	0.9291280397458614	1.570796326969429	0	0	-0.4706902672096693	-0.6049760369295981	-0.463285966797239	0.9973434204241749	1.570796326969429	0	0
0.3057679370955254	0.07519387092251861	-0.07690069906490929	-0.159188737161867	0.2349571772569261	0.943032738373359	0.2937622550841498	0.6775821154238761	-0.09067466690550148	0.1010185190994217	1.199602200063689	0.1021521049148762	1.181512147016344	-0.3198141038748332	-0.07044379966947088	0	0.3635085128298416	-0.1415597255522605	-0.3726812483029573	0.4634689040630466	0.08218151389187182	0.471946410672565	-0.03054225078676881	-0.09007088126043941	-6.943023942463222e-06	-0.7025207000619049	0.1941035577670571	0.08429013504215291	-0.1421461373194862	-0.06975124549305418	-0.4351882569029424	0.925091574323639	1.570796326969429	0	0	-0.4516494319529859	-0.6083721005482426	-0.4529044290215461	1.017106347348957	1.570796326969429	0	0
0.3077009768984096	0.07877561906622399	-0.07650941410273075	-0.1605691733912283	0.2351121992028334	0.9445880764035941	0.2932259616661505	0.687195309756568	-0.08853316571763882	0.09060242480282016	1.172393398168628	0.1021521049148762	1.15347249466516	-0.3256131856614047	-0.0665494145774651	0	0.3536487419185991	-0.139900504797138	-0.3784216825411345	0.4531642858478994	0.08218151389187185	0.4617107699243597	-0.03669928156421803	-0.08369718824006145	-5.749301873925779e-06	-0.7122260593538381	0.1951546492460322	0.0858193263470447	-0.1404487751927831	-0.06843495909583552	-0.433770100231647	0.922061611351137	1.570796326969429	0	0	-0.436714663688169	-0.6109711450281363	-0.4448467935176449	1.032690451177582	1.570796326969429	0	0
0.3090589714577417	0.08114882304625765	-0.07618597678280047	-0.1615356865069273	0.2352165373070748	0.9456648414319239	0.2928532241402436	0.6939149373948237	-0.08702209683497358	0.08319151416996935	1.153114283853572	0.1021521049148763	1.133589829918344	-0.3297484160694725	-0.06371567575281088	0	0.3469115275412795	-0.1387139898702717	-0.3824602589547414	0.4459053167149369	0.08218151389187182	0.4545245252959783	-0.04113665628648144	-0.07918979679315728	-4.888448484676956e-06	-0.7188693355091605	0.1958477764962767	0.08694556840144854	-0.1392936978908053	-0.06750449863949817	-0.4328288054698436	0.919995399417968	1.570796326969429	0	0	-0.426181904030645	-0.6127692704684392	-0.4392092279834924	1.043722898405492	1.570796326969429	0	0
0.3098208116596206	0.0824290283010517	-0.07598697898748791	-0.1620766891915003	0.2352736853847378	0.9462629351218617	0.2926455725771746	0.6976722807673129	-0.08617197542374998	0.0790003553863628	1.14224207285951	0.1021521049148763	1.122369768450163	-0.3320899444885128	-0.06209075504730859	0	0.3432019061506092	-0.1380408192353969	-0.3847278145622487	0.4418319848290231	0.08218151389187182	0.4504949785023476	-0.04366616843817811	-0.07665059247458232	-4.397446049993537e-06	-0.7225327848798826	0.1962202407063607	0.08759615997852986	-0.1386592937143963	-0.06698042635695031	-0.432320645504092	0.9188587818224682	1.570796326969429	0	0	-0.4202583068703281	-0.6137679006937531	-0.4360549492472713	1.049942445684363	1.570796326969429	0	0
0.31	0.0827247176943548	-0.07593834151443128	-0.1622038082382316	0.2352869627107099	0.9464029755317924	0.2925968840000001	0.6985549209354129	-0.08597177158354727	0.07801106817962802	1.139679170615838	0.1021521049148762	1.119723897	-0.3326429541526806	-0.06170489509079385	0	0.3423366495619378	-0.1378817002427934	-0.3852613497467102	0.4408725985130083	0.08218151389187182	0.44954742	-0.04426534128629378	-0.07605226208686205	-4.281118122216893e-06	-0.7233878682444992	0.1963061352089967	0.08775114131839347	-0.1385114939720872	-0.06685694486668702	-0.4322032032803703	0.9185937969127842	1.570796326969429	0	0	-0.4188635218358935	-0.6140017247163456	-0.4353139282153424	1.051408473572563	1.570796326969429	0	0
