DataType=double
version=3
OpenSimVersion=4.5
endheader
time	bflh_r	bfsh_r	gasmed_r	glmax2_r	iliacus_r	recfem_r	soleus_r	tibant_r	vasmed_r
0	0.4235248810608456	0.2293020357451977	0.4803588286781303	0.2505373823987674	0.2005834451156335	0.5066745381887997	0.3461541370561463	0.3222702052562623	0.2839004056082753
0.005	0.4226229321768947	0.2290999273555933	0.4791653189083593	0.2496337557051151	0.2011189487364624	0.5073343584622094	0.3451280034568154	0.323526696	0.2841696219830061
0.01	0.42159062	0.2287708787910677	0.4779383063336613	0.2487263781634091	0.201639309	0.5081694347602166	0.3441410262049604	0.3247389745315116	0.2845972828020828
0.015	0.420427946	0.2283169330179645	0.4766854569499503	0.2478136821686051	0.2021450082245654	0.509178909	0.3432001857174304	0.3258987011799502	0.2851791250541356
0.02	0.4191362685597573	0.2277414905664501	0.4754140552538029	0.2468940014267141	0.2026369091738672	0.5103596689964711	0.342311493	0.3269985753025398	0.2859086483992943
0.025	0.4177182991501016	0.2270492084115407	0.4741308907489307	0.2459657064519268	0.2031161989116018	0.511706412	0.3414798881122432	0.3280324461599934	0.2867772760945007
0.03	0.416178063	0.2262458739760553	0.472842165	0.245027348	0.203584327	0.5132117568427675	0.3407091733366882	0.3289953942541469	0.2877745630993621
0.035	0.4145208464005924	0.2253382571729292	0.4715534201126632	0.2440778061580727	0.2040429290437565	0.5148663923498484	0.340001968	0.329883784	0.2888884452693077
0.04	0.4127531236543894	0.2243339440360192	0.4702694856117591	0.2431164314481975	0.2044937467216321	0.5166592622216368	0.3393597018348931	0.3306952861180095	0.2901055223535323
0.045	0.4108824644265001	0.2232411560743461	0.4689944466056126	0.2421431863117188	0.2049385355449526	0.5185777800730935	0.3387826352254146	0.3314288707039742	0.2914113665783996
0.05	0.4089174279269362	0.2220685600042249	0.4677316279697351	0.2411587677980311	0.2053789734445514	0.5206080681266645	0.338269913	0.3320847699973677	0.2927908479447848
0.055	0.4068674442657282	0.2208250729445982	0.4664835957048364	0.2401647147033861	0.2058165664979544	0.5227352130729316	0.3378196440502433	0.3326644141280246	0.294228467
0.06	0.4047426871551182	0.219519668	0.4652521736053657	0.2391634918491507	0.2062525567059625	0.5249435320855338	0.3374290088622701	0.3331703411128831	0.2957086859833203
0.065	0.402553941	0.2181611891790467	0.4640384744709954	0.2381585480263799	0.2066878343405865	0.5272168419489144	0.3370943865299106	0.3336060844413375	0.2972162489246529
0.07	0.4003124689223986	0.2167581711878735	0.4628429451113023	0.2371543445672062	0.2071228576489594	0.5295387244325388	0.3368115007164186	0.333976042	0.2987364830360806
0.075	0.3980298769172222	0.2153186863676283	0.4616654244469151	0.2361563524505013	0.2075575825785573	0.5318927814341183	0.3365755773219329	0.3342853288952806	0.3002555730652664
0.08	0.3957179918942213	0.2138502071226315	0.4605052139830227	0.2351710168780056	0.2079914049916119	0.5342628739866239	0.3363815092770274	0.3345396231106619	0.3017608025003919
0.085	0.3933887427004125	0.2123594985394334	0.4593611598288624	0.2342056893282972	0.208423118	0.5366333399411861	0.3362240228534553	0.3347450010969172	0.3032407560968431
0.09	0.3910540554947982	0.2108525417510547	0.458231745	0.2332685281693638	0.208850883	0.5389891859607422	0.3360978400212942	0.3349077755265542	0.3046854796375124
0.095	0.3887257629529252	0.2093344915539739	0.4571151926535632	0.2323683699468372	0.209272227	0.5413162503528355	0.3359978316047478	0.3350343353126071	0.3060865941332689
0.1	0.3864155293766533	0.2078096702629968	0.4560095731457683	0.2315145744275537	0.209684044	0.543601334	0.335919156	0.3351309937956706	0.3074373629923257
0.105	0.3841347926609188	0.2062815986193221	0.4549129224783965	0.2307168473345538	0.2100826345081226	0.5458322992643041	0.3358573819374109	0.3352038489247239	0.3087327119857355
0.11	0.3818947233100951	0.2047530633074977	0.4538233606624269	0.2299850454328924	0.2104637471132293	0.547998132	0.3358085834547764	0.3352586589950123	0.3099692030850536
0.115	0.3797061999319497	0.2032262193318182	0.4527392131964878	0.2293289691949335	0.2108226504028078	0.5500889735742858	0.3357694181198621	0.335300737	0.3111449644209568
0.12	0.3775797999039657	0.2017027242012164	0.4516591310841161	0.2287581486751343	0.2111542172531488	0.552096119	0.3357371728807412	0.3353348653941269	0.3122595796802401
0.125	0.3755258032410247	0.2001838996255639	0.4505822067146765	0.2282816284505116	0.2114530262887988	0.5540119836467081	0.335709785	0.3353652344288005	0.3133139411953244
0.13	0.3735542071283328	0.1986709152872962	0.4495080824909259	0.2279077575333968	0.2117134767669019	0.5558300447957887	0.3356858348502618	0.3353954022884673	0.3143100717612403
0.135	0.371674748	0.1971649882695079	0.4484370489940543	0.2276439900429663	0.2119299143033696	0.5575447570237873	0.3356645136081325	0.3354282797073235	0.3152509208230571
0.14	0.3698969289372823	0.1956675909390221	0.4473701294819811	0.2274967021416074	0.2120967642967732	0.5591514484533826	0.3356455650579997	0.3354661368162066	0.3161401411037655
0.145	0.3682300459129184	0.1941806595366465	0.4463091476299457	0.2274710303155652	0.2122086695678804	0.5606462003953162	0.3356292069443575	0.3355106313425954	0.3169818519894746
0.15	0.3666832147087456	0.1927067954434596	0.4452567756507267	0.2275707355233988	0.2122606284843699	0.5620257152026489	0.3356160336976436	0.3355628560344557	0.3177803960643312
0.155	0.3652653902290192	0.1912494510867277	0.4442165602767453	0.2277980970691452	0.2122481296928389	0.563287177	0.3356069051120291	0.3356234026773384	0.3185400951074596
0.16	0.3639853785455627	0.1898130927247259	0.4431929245440543	0.2281538392990956	0.2121672795425802	0.5644281069716313	0.3356028253835298	0.3356924395944397	0.3192650116493018
0.165	0.3628518383709566	0.1884033328961555	0.4421911438794039	0.2286370933912162	0.2120149183635296	0.5654462251814121	0.3356048172885696	0.335769799	0.3199587218591408
0.17	0.36187327	0.1870270261147128	0.4412172956416395	0.2292453956236473	0.2117887219566316	0.5663393097804077	0.3356137964162155	0.3358550715245261	0.3206241051247394
0.175	0.361057994	0.1856923224008128	0.4402781819882876	0.2299747225921313	0.2114872849673382	0.56710507	0.3356304503360066	0.3359477009181245	0.3212631552135068
0.18	0.3604141076221108	0.1844086744335866	0.4393812267042499	0.2308195629140626	0.2111101832368393	0.5677410306248709	0.335655127	0.3360470803285859	0.3218768173940224
0.185	0.3599494424355413	0.1831867954390932	0.438534347	0.2317730240274458	0.2106580127518821	0.5682444271501174	0.3356877394413111	0.3361526412144482	0.3224648553638465
0.19	0.3596714950032144	0.1820385663680317	0.4377458053959796	0.2328269717849837	0.2101324034298318	0.5686121248835173	0.3357276824358805	0.3362639346007655	0.3230257512845636
0.195	0.3595873551263666	0.1809768924213449	0.4370240359034796	0.2339721996758901	0.2095360066646513	0.568840554	0.3357737779664199	0.3363807005796901	0.323556642
0.2	0.3597036218130287	0.1800155105184158	0.4363774627035848	0.2351986237005635	0.2088724563023386	0.5689256675450487	0.3358242383411401	0.3365029236466991	0.3240532913144024
0.205	0.3600263122777556	0.1791687508340051	0.4358143009976292	0.236495498	0.2081463034891467	0.5688629277803962	0.3358766567928179	0.3366308718958314	0.3245101068287264
0.21	0.3605607657122307	0.1784512570218947	0.4353423535078179	0.2378516472860736	0.2073629266188719	0.5686473139009431	0.335928024	0.3367651187507993	0.3249201907818613
0.215	0.3613115440136178	0.1778776711620715	0.4349688048357745	0.2392557061179716	0.2065284183717886	0.5682733617614983	0.335974768	0.3369065466109697	0.3252754366956079
0.22	0.3622823315979249	0.1774622907820605	0.4347000194678312	0.2406963656969826	0.205649453	0.5677352312972913	0.3360128244737099	0.3370563325165618	0.3255666644621788
0.225	0.3634758362978923	0.1772187064797039	0.4345413489144477	0.2421626149038022	0.2047331341712823	0.5670268041395694	0.3360377225509856	0.3372159166586098	0.3257837949287865
0.23	0.3648936931796927	0.1771594296812489	0.4344969534452823	0.2436439732563754	0.203786837	0.5661418112583193	0.3360446954119949	0.3373869552480633	0.3259160615513101
0.235	0.3665363729412551	0.1772955208696989	0.4345696437140428	0.2451307081118922	0.2028180298971324	0.5650739900120341	0.3360288057337045	0.3375712598867147	0.3259522561223681
0.24	0.3684030964054475	0.1776362291756209	0.4347607472592833	0.2466140303321192	0.2018341066581924	0.5638172691447857	0.3359850834432546	0.3377707261239854	0.3258810046507368
0.245	0.3704917565151087	0.1781886544947573	0.4350700044207438	0.2480862629424802	0.2008422072514736	0.5623659793129332	0.3359086711826956	0.3379872543142901	0.3256910685227297
0.25	0.3727988491861333	0.178957443	0.4354954976282702	0.2495409779973706	0.199849053	0.5607150856674488	0.3357949725269383	0.3382226661903077	0.3253716651303055
0.255	0.3753194143806157	0.1799445284225195	0.4360336173050826	0.250973098	0.1988607875140257	0.5588604378952892	0.3356397979330399	0.3384786207240172	0.3249128012285787
0.26	0.3780469888144904	0.1811489238928245	0.4366790667837926	0.2523789568625166	0.1978828395096637	0.5567990319806636	0.335439503	0.338756533	0.324305611
0.265	0.3809735717932662	0.1825665813993682	0.4374249076692416	0.2537563246991008	0.1969197977115981	0.5545292768452367	0.3351911175403447	0.3390574984951195	0.3235426933627116
0.27	0.3840896057482546	0.1841903173521617	0.4382626460081525	0.2551043855067958	0.1959753149492997	0.552051258	0.3348924514990819	0.3393822290054512	0.3226184307469436
0.275	0.3873839730932993	0.1860098141790029	0.4391823584589282	0.2564236785414674	0.1950520363100777	0.5493669898493947	0.3345421900838935	0.3397309977564725	0.3215292944805745
0.28	0.3908440110082519	0.188011699	0.4401728564202421	0.2577159990158377	0.1941515562281811	0.5464806467000709	0.3341399589721387	0.3401036010460199	0.3202741125549879
0.285	0.3944555456548131	0.1901796972914304	0.4412218848075505	0.2589842631627178	0.1932744054592106	0.5433987644663674	0.3336863670233077	0.3404993348678683	0.3188542990455119
0.29	0.3982029471257685	0.1924948647493814	0.4423163509042273	0.2602323414938458	0.1924200683771771	0.5401304026121221	0.3331830219196383	0.3409169884266982	0.3172740333019376
0.295	0.402069206	0.1949358810621303	0.443442578	0.2614648653948691	0.1915870301139131	0.5366872586176978	0.332632519	0.341354855	0.3155403812732525
0.3	0.4060360328676351	0.1974794075776247	0.4445865735054015	0.262687013	0.1907728521524555	0.533083727	0.3320384019606141	0.3418107566439129	0.3136633522139721
0.305	0.4100839784942111	0.2001004918979875	0.4457343140696314	0.2639042814298969	0.1899742741174023	0.5293368985932432	0.3314051020920354	0.3422820905563934	0.3116558856782575
0.31	0.414192578	0.2027730090423815	0.4468720220182538	0.2651222512938446	0.1891873387049747	0.5254664907696864	0.3307378492585252	0.3427658804141103	0.3095337656748364
