DataType=double
version=3
OpenSimVersion=4.5
endheader
time	bflh_r	bfsh_r	gasmed_r	glmax2_r	iliacus_r	recfem_r	soleus_r	tibant_r	vasmed_r
0	0.035090938	0.027791131	0.018644369	0	0	-0.046637545	0	0	-0.042023874
0.005	0.035150012	0.027899494	0.018748165	0	0	-0.046616872	0	0	-0.041953585
0.01	0.035239892	0.028089096	0.018912554	0	0	-0.046565955	0	0	-0.0418285
0.015	0.035359509	0.028359746	0.019136287	0	0	-0.046484282	0	0	-0.041649478
0.02	0.035507223	0.028710182	0.019417254	0	0	-0.046371365	0	0	-0.041417922
0.025	0.035680844	0.029138058	0.019752504	0	0	-0.046226702	0	0	-0.041135707
0.03	0.035877669	0.029639946	0.020138275	0	0	-0.046049756	0	0	-0.040805103
0.035	0.036094519	0.030211354	0.02057004	0	0	-0.045839926	0	0	-0.040428692
0.04	0.036327797	0.030846762	0.021042578	0	0	-0.045596535	0	0	-0.040009281
0.045	0.036573539	0.031539661	0.021550045	0	0	-0.045318809	0	0	-0.03954981
0.05	0.036827483	0.032282627	0.02208608	0	0	-0.045005877	0	0	-0.039053274
0.055	0.037085135	0.033067389	0.02264391	0	0	-0.044656768	0	0	-0.038522632
0.06	0.037341839	0.033884929	0.023216473	0	0	-0.044270416	0	0	-0.037960746
0.065	0.037592852	0.034725588	0.023796549	0	0	-0.043845682	0	0	-0.037370313
0.07	0.037833414	0.035579188	0.024376896	0	0	-0.043381378	0	0	-0.036753824
0.075	0.03805882	0.036435167	0.02495038	0	0	-0.042876306	0	0	-0.036113534
0.08	0.038264493	0.037282733	0.025510118	0	0	-0.042329306	0	0	-0.035451449
0.085	0.038446056	0.038111027	0.0260496	0	0	-0.041739317	0	0	-0.034769338
0.09	0.038599394	0.038909289	0.026562808	0	0	-0.041105451	0	0	-0.034068753
0.095	0.038720729	0.039667052	0.02704433	0	0	-0.040427066	0	0	-0.033351071
0.1	0.038806677	0.040374325	0.027489446	0	0	-0.039703853	0	0	-0.032617543
0.105	0.038854318	0.041021796	0.027894214	0	0	-0.038935917	0	0	-0.031869353
0.11	0.038861254	0.041601023	0.028255528	0	0	-0.038123865	0	0	-0.031107684
0.115	0.038825665	0.042104638	0.028571169	0	0	-0.037268882	0	0	-0.030333779
0.12	0.038746374	0.042526535	0.028839824	0	0	-0.036372809	0	0	-0.029549011
0.125	0.03862289	0.042862047	0.029061106	0	0	-0.035438211	0	0	-0.028754945
0.13	0.038455461	0.043108112	0.029235536	0	0	-0.034468435	0	0	-0.027953398
0.135	0.038245111	0.043263407	0.029364526	0	0	-0.033467662	0	0	-0.027146495
0.14	0.037993674	0.04332846	0.02945033	0	0	-0.032440944	0	0	-0.026336718
0.145	0.037703814	0.043305718	0.029495987	0	0	-0.031394229	0	0	-0.025526954
0.15	0.037379029	0.043199569	0.029505244	0	0	-0.030334371	0	0	-0.024720521
0.155	0.037023645	0.043016318	0.029482468	0	0	-0.029269118	0	0	-0.0239212
0.16	0.036642783	0.042764102	0.029432535	0	0	-0.028207084	0	0	-0.023133247
0.165	0.036242307	0.042452743	0.029360712	0	0	-0.027157692	0	0	-0.022361391
0.17	0.035828757	0.042093538	0.029272528	0	0	-0.026131097	0	0	-0.021610826
0.175	0.035409242	0.041698992	0.02917363	0	0	-0.025138079	0	0	-0.02088718
0.18	0.034991322	0.041282482	0.029069628	0	0	-0.024189909	0	0	-0.020196478
0.185	0.034582857	0.040857878	0.028965947	0	0	-0.023298191	0	0	-0.019545083
0.19	0.03419184	0.040439122	0.028867658	0	0	-0.022474675	0	0	-0.01893963
0.195	0.033826206	0.040039775	0.028779331	0	0	-0.02173105	0	0	-0.018386947
0.2	0.033493629	0.039672555	0.028704875	0	0	-0.021078722	0	0	-0.017893959
0.205	0.033201308	0.039348877	0.028647399	0	0	-0.020528573	0	0	-0.017467594
0.21	0.032955755	0.039078417	0.028609089	0	0	-0.020090717	0	0	-0.017114671
0.215	0.032762581	0.038868717	0.028591099	0	0	-0.01977426	0	0	-0.016841784
0.22	0.032626299	0.038724851	0.028593474	0	0	-0.019587053	0	0	-0.016655183
0.225	0.032550153	0.03864917	0.028615104	0	0	-0.019535472	0	0	-0.016560635
0.23	0.032535965	0.038641134	0.028653709	0	0	-0.019624207	0	0	-0.016563297
0.235	0.032584035	0.038697254	0.028705863	0	0	-0.019856079	0	0	-0.016667562
0.24	0.032693069	0.038811146	0.028767065	0	0	-0.020231894	0	0	-0.01687692
0.245	0.032860167	0.038973695	0.028831845	0	0	-0.020750326	0	0	-0.01719381
0.25	0.033080863	0.039173342	0.028893908	0	0	-0.021407852	0	0	-0.017619479
0.255	0.033349212	0.039396461	0.028946324	0	0	-0.022198739	0	0	-0.018153858
0.26	0.033657934	0.03962785	0.028981744	0	0	-0.023115079	0	0	-0.018795454
0.265	0.033998614	0.039851275	0.028992643	0	0	-0.02414689	0	0	-0.019541271
0.27	0.034361931	0.040050084	0.028971583	0	0	-0.025282274	0	0	-0.020386767
0.275	0.034737941	0.040207834	0.028911484	0	0	-0.026507639	0	0	-0.021325855
0.28	0.035116373	0.040308925	0.028805896	0	0	-0.027807964	0	0	-0.022350946
0.285	0.035486947	0.040339203	0.028649254	0	0	-0.029167121	0	0	-0.023453036
0.29	0.035839697	0.040286504	0.028437116	0	0	-0.030568227	0	0	-0.024621852
0.295	0.03616528	0.040141121	0.028166366	0	0	-0.031994024	0	0	-0.025846019
0.3	0.036455272	0.03989617	0.027835378	0	0	-0.033427267	0	0	-0.027113277
0.305	0.036702427	0.039547845	0.027444128	0	0	-0.034851112	0	0	-0.028410719
0.31	0.036900895	0.039095551	0.026994256	0	0	-0.036249482	0	0	-0.029725038
