DataType=double
version=3
OpenSimVersion=4.5
endheader
time	bflh_r	bfsh_r	gasmed_r	glmax2_r	iliacus_r	recfem_r	soleus_r	tibant_r	vasmed_r
0	-0.167421283	-0.027662489	-0.234826736	-0.180444817	0.1086267873251225	0.1144951617355006	-0.208633341	0.2551163576338074	0.037831221
0.005	-0.193403407	-0.053160334	-0.242312857	-0.181051092	0.105576965	0.1494803028436483	-0.20155876	0.2471710316726426	0.06979126
0.01	-0.219521339	-0.078390745	-0.248236195	-0.181952589	0.1025832261196575	0.1845215531988685	-0.192999043	0.2374620521738219	0.1011306016965353
0.015	-0.245503182	-0.103073875	-0.252660363	-0.183181806	0.099725518	0.2191642629622402	-0.183136467	0.2261849	0.1313890820857744
0.02	-0.271077198	-0.126947452	-0.255673689	-0.184745289	0.097074659	0.2529625274332387	-0.172175841	0.2135594515304496	0.1601336674475307
0.025	-0.295976201	-0.149772001	-0.25738515	-0.186621489	0.094689795	0.2854881164395073	-0.160339107	0.1998247322635444	0.1869684079039687
0.03	-0.319941839	-0.171335552	-0.257920206	-0.18875959	0.092616148	0.3163388375315728	-0.147859443	0.1852332420781434	0.2115433079635551
0.035	-0.342728647	-0.191457696	-0.25741669	-0.191079376	0.090883115	0.3451461031900681	-0.134975069	0.1700450239678388	0.2335618514136402
0.04	-0.364107768	-0.209992871	-0.256020894	-0.193472191	0.089502794	0.3715814998748371	-0.121922932	0.1545216312318792	0.2527869670074681
0.045	-0.383870219	-0.226832771	-0.253883884	-0.195802986	0.088468981	0.395362191	-0.108932496	0.1389201624057899	0.2690452751507928
0.05	-0.401829618	-0.241907771	-0.251158093	-0.197913409	0.08775669	0.4162550291130668	-0.09621982	0.1234875274656034	0.2822295152100639
0.055	-0.417824279	-0.255187306	-0.247994125	-0.199625863	0.087322225	0.4340792875838844	-0.083982141	0.108455102	0.292299116
0.06	-0.431718622	-0.26667914	-0.244537772	-0.200748415	0.087103803	0.4487079887385573	-0.072393115	0.094033915	0.2992789309255396
0.065	-0.443403839	-0.276427513	-0.240927182	-0.201080394	0.087022761	0.460067828	-0.061598891	0.080410495	0.3032562334400336
0.07	-0.452797825	-0.284510168	-0.237290167	-0.200418506	0.086985288	0.4681377619680336	-0.051715123	0.067743492	0.3043760957749176
0.075	-0.459844369	-0.291034318	-0.233741656	-0.198563274	0.086884691	0.4729463450537326	-0.042825028	0.056161141	0.3028353547954475
0.08	-0.464511661	-0.29613162	-0.230381302	-0.195325574	0.08660412	0.4745679624073634	-0.034978525	0.045759648	0.298875377
0.085	-0.466790175	-0.2999523	-0.227291258	-0.19053307	0.086019702	0.4731180973289616	-0.028192492	0.036602504	0.2927738728463961
0.09	-0.466690035	-0.302658568	-0.224534188	-0.184036323	0.085004011	0.468747816	-0.02245208	0.02872074	0.2848360197952585
0.095	-0.464237978	-0.304417537	-0.222151539	-0.17571438	0.083429772	0.4616376505213643	-0.017713065	0.022114087	0.2753851595023167
0.1	-0.459474053	-0.305393848	-0.22016214	-0.165479651	0.081173723	0.4519910694916962	-0.013905099	0.016752987	0.264753332
0.105	-0.452448202	-0.305742263	-0.218561199	-0.153281933	0.078120511	0.4400277318224878	-0.010935758	0.012581362	0.2532719001206309
0.11	-0.443216888	-0.305600478	-0.217319746	-0.139111428	0.074166526	0.4259767124840587	-0.008695222	0.009520048	0.2412625150200741
0.115	-0.431839899	-0.305082404	-0.216384595	-0.123000678	0.069223546	0.4100698867137622	-0.007061415	0.007470756	0.2290286347526393
0.12	-0.418377496	-0.304272207	-0.215678868	-0.10502534	0.063222097	0.3925356448818089	-0.005905418	0.00632043	0.2168478104733998
0.125	-0.402888006	-0.303219303	-0.215103129	-0.085303782	0.056114405	0.373593093	-0.005096967	0.005945845	0.2049649048290024
0.13	-0.385425977	-0.30193456	-0.214537158	-0.063995501	0.04787686	0.3534468709508555	-0.004509837	0.0062183	0.1935863844752804
0.135	-0.366040955	-0.300387868	-0.21384236	-0.041298414	0.038511874	0.3322826943690911	-0.004026932	0.007008244	0.1828757899692509
0.14	-0.344776935	-0.298507199	-0.212864818	-0.017445075	0.028049088	0.3102636974155107	-0.003544904	0.008189698	0.17295045
0.145	-0.321672488	-0.296179274	-0.211438937	0.007302065	0.016545848	0.287527626	-0.002978154	0.009644323	0.1638794735752443
0.15	-0.296761537	-0.293251829	-0.209391637	0.03265624	0.004086913	0.2641849007756453	-0.002262079	0.01126502	0.1556830136997241
0.155	-0.270074725	-0.289537483	-0.206546999	0.058312651	-0.009216608	0.2403175542608889	-0.00135546	0.012958954	0.1483327812595959
0.16	-0.24164129	-0.284819099	-0.202731278	0.083955286	-0.023229115	0.2159790073493287	-0.000241917	0.01464991	0.1417537452418243
0.165	-0.211491344	-0.278856529	-0.197778151	0.1092641089197304	-0.03779311	0.1911946577819779	0.001069604	0.016279929	0.1358269501836469
0.17	-0.179658417	-0.271394541	-0.191534061	0.1339224307884189	-0.052732507	0.1659632238752325	0.002545339	0.017810177	0.1303933600355049
0.175	-0.146182154	-0.262171715	-0.183863514	0.1576242865730043	-0.067856558	0.1402587902496531	0.004128167	0.019221047	0.1252586298327459
0.18	-0.111111023	-0.250930055	-0.174654176	0.1800816230530569	-0.082964315	0.1140334981909583	0.005739983	0.020511494	0.1201987003694369
0.185	-0.074504904	-0.237425032	-0.163821596	0.201031118	-0.097849508	0.087220825	0.007284898	0.021697661	0.1149661078624153
0.19	-0.036437463	-0.221435779	-0.151313416	0.2202404493496134	-0.112305711	0.059739403	0.008653137	0.022810844	0.1092968987285992
0.195	0.003001783	-0.202775105	-0.137112929	0.2375138513004997	-0.126131649	0.031497322	0.009725519	0.023894899	0.102918038
0.2	0.043705787	-0.181299048	-0.121241828	0.2526967950592586	-0.13913649	0.002396882	0.010378352	0.025003191	0.095555193
0.205	0.085548704	-0.15691565	-0.103762075	0.2656796664044933	-0.151144978	-0.027660267	0.010488565	0.02619521	0.086940781
0.21	0.1283850680688734	-0.129592658	-0.084776758	0.2764003214285784	-0.162002235	-0.058767648	0.009938907	0.027532993	0.076822132
0.215	0.1720493977129689	-0.099363889	-0.064429915	0.2848454345017363	-0.171578101	-0.091008202	0.00862302	0.029077491	0.064969647
0.22	0.2163562186334075	-0.066333997	-0.042905251	0.2910505803987398	-0.179770845	-0.124448355	0.006450205	0.030885035	0.051184781
0.225	0.26110047	-0.030681431	-0.020423764	0.2950990255796209	-0.186510161	-0.159132	0.003349713	0.033004032	0.0353077
0.23	0.3060582587152026	0.007340602	0.002759712	0.2971192387466652	-0.191759308	-0.195074525	-0.000725608	0.03547203	0.01722442
0.235	0.3509879341021698	0.04740531	0.026360996	0.2972811673109649	-0.195516343	-0.232257052	-0.00579642	0.038313276	-0.003126732
0.24	0.3956314475770577	0.089115696	0.050072005	0.2957913632022364	-0.197814376	-0.270621051	-0.011854905	0.041536844	-0.02574955
0.245	0.4397159906894192	0.1320101843640022	0.073567056	0.292887077	-0.198720831	-0.310063547	-0.018863703	0.045135439	-0.050585437
0.25	0.4829559015944692	0.1755704384962462	0.096509892	0.2888294758163936	-0.198335726	-0.350433131	-0.026755876	0.049084884	-0.077510161
0.255	0.5250548481542514	0.2192312428681342	0.1185612719892601	0.2838961610931459	-0.19678899	-0.391527005	-0.035435852	0.053344346	-0.106332036
0.26	0.5657083013654127	0.2623922503275277	0.1393869519835814	0.2783732072704955	-0.194236914	-0.433089281	-0.04478136	0.057857256	-0.136791715
0.265	0.6046063159017512	0.3044312961572361	0.1586658487240941	0.2725469383324082	-0.190857805	-0.474810767	-0.054646267	0.062552892	-0.168563727
0.27	0.6414366314584372	0.3447189045139576	0.1760981598517646	0.2666956916401126	-0.186846987	-0.516330389	-0.064864218	0.067348556	-0.201259861
0.275	0.6758880992370013	0.382633535	0.191413202	0.261081815	-0.182411278	-0.557238415	-0.075252967	0.072152233	-0.234434481
0.28	0.707654423	0.4175770538377396	0.2043767137017551	0.2559441414399888	-0.177763121	-0.597081528	-0.085619234	0.076865638	-0.267591755
0.285	0.7364381836162275	0.4489898815146932	0.2147973696741451	0.2514911824091072	-0.173114532	-0.635369769	-0.095763917	0.081387496	-0.300194745
0.29	0.7619550980467786	0.4763652412969723	0.2225322560136998	0.2478952468516706	-0.16867105	-0.671585257	-0.105487494	0.085616932	-0.331676212
0.295	0.7839384341963453	0.4992619721081498	0.2274910764639387	0.2452876841515172	-0.16462588	-0.705192511	-0.114595415	0.089456829	-0.361450916
0.3	0.8021434931146216	0.5173154093283455	0.2296388852786309	0.2437554	-0.161154402	-0.735650145	-0.122903325	0.09281701	-0.388929104
0.305	0.8163520472938512	0.5302459320793025	0.2289971839294777	0.2433387602423263	-0.158409206	-0.762423594	-0.130241927	0.095617134	-0.413530844
0.31	0.8263766186047588	0.5378648857311057	0.2256432698885445	0.2440309514774727	-0.156515824	-0.784998488	-0.136461362	0.097789196	-0.434700754
