DataType=double
version=3
OpenSimVersion=4.5
endheader
time	RightLeg_1	RightLeg_2	RightLeg_3	RightLeg_4
0	0.01776712479252215	0.1419520110634703	0.1631295330418575	0.1483027698347758
0.0004542507337261803	0.001837323509805533	0.1462258602144598	0.1695585089891437	0.1405817376252951
0.001515784775164009	0.0008966526164246644	0.1418198845649196	0.1741047437826727	0.1439461188965693
0.003164446411839883	0.000607987415154456	0.1345675263462125	0.1779266772244434	0.1499998820584367
0.005374104194047435	0.0003824020887363023	0.1239601465285108	0.1815221742116135	0.1609189091839444
0.008109887166813518	0.0002131391272851937	0.1104034436386044	0.183964120902551	0.1775185303857534
0.01132864367758793	0.0001615745718900192	0.09497152884571801	0.1853299277933385	0.1978858945240369
0.01497960949210789	0.0002373906219462991	0.07869668993754135	0.1853741791948564	0.2203809593574325
0.01900520557876997	0.0004766558049562166	0.06179483443129034	0.1823399813993115	0.2456061100174588
0.02334194532480019	0.00123653527916533	0.04512311985863003	0.1753488979894964	0.2720494973196741
0.02792143545395889	0.002245588417361915	0.02997085684754897	0.1637741590520955	0.2972286329461624
0.0326714545037473	0.002338736444314238	0.01748946433425516	0.1470254537522697	0.3186896150641199
0.03751709174442691	0.001553394230047222	0.008735960201571136	0.1255851938962681	0.3339237662796529
0.04238192853981579	0.0005962702325400455	0.003767856836819094	0.1012676019991937	0.3426547944002021
0.04718924350439309	0.0002497791667839836	0.002308335698442621	0.07641962744019723	0.3445339790740528
0.0518632224455918	0.0001884804583703261	0.003803039741587261	0.05321014409751806	0.3396501701227939
0.05633015401013977	0.0002323826772726288	0.008264307663828338	0.03332022255248353	0.3282462356452533
0.06051959218465776	0.0004245185981853956	0.01500440012403926	0.01771599750057761	0.311498146619703
0.06436546733510043	0.001027708171952119	0.02354380249226255	0.006785776639440648	0.2906974256480523
0.06780712831226307	0.00143505960407297	0.03339161802573826	0.001071052694798182	0.2679535240719041
0.07079029933648544	0.001653727826452931	0.0470590282487274	0.0001592371674202412	0.2451579458499223
0.07326793709552543	0.001927987366176867	0.05397382110389435	0.0002253896895118968	0.2215374987516694
0.07520097689840965	0.001643808607928023	0.06238404125224829	0.0003199251982060611	0.2019629691691546
0.0765589714577417	0.001647735512975484	0.06887760431330466	0.0006546199205668189	0.1869876762792186
0.07732081165962061	0.002661513906936901	0.07311970105173279	0.002571855925187833	0.1801462122771432
0.0775	0.005371931886464662	0.07176854039232937	0.01710402547088659	0.1995183903908381
0.07795425073372618	0.001788835099227958	0.07605771330906681	0.001402028587032315	0.169927984472662
0.07901578477516402	0.0008812509694560162	0.08012260747430576	0.001135507820126805	0.1572013219821691
0.08066444641183987	0.0004468233691099241	0.08794939835736568	0.002240681380776635	0.1359110316836938
0.08287410419404742	0.000201076969356221	0.09935820473325052	0.006321257149737646	0.1070200289954456
0.08560988716681352	0.0001294879988828621	0.1138829057874665	0.01490182325545287	0.0719495139917976
0.08882864367758794	0.0004815058823780577	0.1308730743010152	0.02888437640841711	0.03398670502453283
0.09247960949210787	0.01058604242133428	0.1475235270365836	0.04847838442755151	0.002546717439204597
0.09650520557876997	0.03932667535736127	0.1597950628874366	0.07544608831162455	2.583906418175854e-05
0.1008419453248002	0.07733101573578791	0.1715151649628112	0.1077062922979576	2.273019836822943e-05
0.1054214354539589	0.1211729963211862	0.1834089483983873	0.1447321768522125	4.437192982479669e-05
0.1101714545037473	0.1674148957841615	0.1969466155229187	0.1853819750234326	0.001151478357730644
0.1150170917444269	0.2130558784498165	0.212202247940206	0.2285819495437197	0.002384978748962772
0.1198819285398158	0.2572340596936359	0.2287201803482471	0.2731577908445553	0.0008164860953252779
0.1246892435043931	0.3013195540763123	0.2447103768113049	0.3183050855745579	0.0001422865189966486
0.1293632224455918	0.3452523283281226	0.2589957418814378	0.3628242791902268	0.0001002322675800233
0.1338301540101398	0.3880596307811213	0.271207213749795	0.4049567285991404	0.00011556879405442
0.1380195921846578	0.4287685472242908	0.2812111246479785	0.4431614010304313	0.0001609765565446712
0.1418654673351004	0.4664888508695833	0.2890014252107125	0.4763629458330191	0.0002236475592569084
0.1453071283122631	0.500385287522307	0.2946838767376379	0.504021358017942	0.0002779913723807009
0.1482902993364854	0.5297769387344933	0.2984843605182828	0.5260728090913169	0.0003327542829955796
0.1507679370955254	0.5541657796865713	0.3008513660350063	0.5427617509005642	0.0004134980566050754
0.1527009768984096	0.5732145939496031	0.3019351765550165	0.5546925934572944	0.0005601313999395504
0.1540589714577417	0.5866859969405421	0.3019919984512524	0.5624656464735009	0.0009232724019641986
0.1548208116596206	0.5945764694441854	0.3012873429057102	0.5668439130492702	0.002089905341138296
0.155	0.6038676227729792	0.2975596060029643	0.5733186978926461	0.01633651364788201
0.1554542507337262	0.6004345154743274	0.3018497595205517	0.5698698619701918	0.001304658562112447
0.156515784775164	0.6104681489895912	0.3027059931663652	0.5749955084703856	0.0006403585352606656
0.1581644464118399	0.6262369100067121	0.3030517057406744	0.5820839085383311	0.0004081983857512102
0.1603741041940474	0.6472706510595339	0.3024022813693703	0.5899402650101523	0.0002941707271631551
0.1631098871668135	0.6727241208132888	0.3003008357941526	0.5968859532196027	0.00023504112953726
0.1663286436775879	0.7017030491464985	0.2965503170147766	0.60009556647656	0.0002319904952505415
0.1699796094921079	0.7335237788089158	0.2904850116507403	0.5968084382742812	0.000250134283944144
0.17400520557877	0.7670257083024358	0.2813905728725895	0.5837981945399897	0.000291420998491488
0.1783419453248002	0.8009359809344858	0.2678246475595321	0.5595983419090476	0.0002796721281145707
0.1829214354539589	0.8336390584196159	0.2499474136529469	0.5233042440545985	0.0002323589949297118
0.1876714545037473	0.8636792452407309	0.2281930327012169	0.4751771171554889	0.0001559720073219843
0.1925170917444269	0.8905682245318025	0.202656810605539	0.4168065720344896	9.442764932313595e-05
0.1973819285398158	0.9146198237480038	0.1738545473467451	0.3507595180544887	6.748700767143792e-05
0.2021892435043931	0.9370930032616028	0.1427665507089341	0.2799128755491448	5.461175813159609e-05
0.2068632224455918	0.9585705565772806	0.1103910297058308	0.209401295926969	4.526936844486752e-05
0.2113301540101398	0.9777161898839983	0.08024421651502837	0.145391997658857	4.132561478321598e-05
0.2155195921846577	0.993380556492083	0.05503441618640005	0.09377302765405321	3.900571344353408e-05
0.2193654673351004	1.00517413965844	0.03632203103651356	0.05708248897970429	3.866796880195537e-05
0.2228071283122631	1.014969176792166	0.02367345650526028	0.0330938975056428	4.091793380832202e-05
0.2257902993364854	1.024494627161487	0.01549889245381185	0.01794922423926643	4.746036858263843e-05
0.2282679370955254	1.034405237589086	0.0103610313819508	0.00851476651241756	6.009978477514236e-05
0.2302009768984097	1.043963361526312	0.007590555605100151	0.003263487217839311	8.572896265581508e-05
0.2315589714577417	1.051838804041119	0.006967478373102059	0.001591170654258391	0.0001486364893769401
0.2323208116596206	1.057091110660481	0.007729019431115556	0.002072824057851641	0.0006929807741774985
0.2325	1.057303134486913	0.01752335729558207	0.01819504822247076	0.003075860991450115
0.2329542507337262	1.061050760898033	0.006728621308111428	0.0009439428602565272	0.0002764515442579914
0.234015784775164	1.068584621281424	0.005616962043365233	0.0002168806935389666	0.0001619179937796414
0.2356644464118399	1.081971611258657	0.005068677412941013	9.506734839589528e-05	0.0001504099299688889
0.2378741041940474	1.102559535286976	0.004548928632926402	6.831768228048435e-05	0.0001746734824765234
0.2406098871668135	1.131496628659874	0.004068598677680044	8.501257144617791e-05	0.0002223100383940333
0.2438286436775879	1.168523943606455	0.006146087599736403	0.003726348966108767	0.000287947894304097
0.2474796094921079	1.211159290460218	0.01984605562087484	0.02476461641853025	0.0006753312701611443
0.25150520557877	1.258087668527261	0.04521669403255286	0.06209308131511062	0.001263699023006399
0.2558419453248002	1.30860765129062	0.08394439588580292	0.1174913594025648	0.001985948468153586
0.2604214354539589	1.364593850305612	0.1343134124402477	0.1889730624886997	0.003106219357633643
0.2651714545037473	1.427752081792182	0.1936183801409586	0.2729751827936922	0.004935742984062235
0.2700170917444269	1.490867071651264	0.2598492850806365	0.3657214011032265	0.007299055895585271
0.2748819285398158	1.531919557512916	0.3346988476070117	0.4640849862039178	0.008878995153353964
0.2796892435043931	1.528485439593425	0.4188673030224345	0.5650339619368987	0.00815643776208747
0.2843632224455918	1.469839037077154	0.5101243763054819	0.6643351734732433	0.005773547823451827
0.2888301540101398	1.367868036269262	0.6015025878489761	0.7551063523827469	0.002562305461647079
0.2930195921846577	1.238828091452449	0.6863824132638627	0.8319477120920655	0.001326110052824794
0.2968654673351004	1.097900555267984	0.7601354141556403	0.8917511453686798	0.000233358996564466
0.3003071283122631	0.9569999820411498	0.8199323312076953	0.9337708073445388	0.0006869705980470643
0.3032902993364854	0.8266677507896365	0.8650882773596287	0.9597709315692846	0.004520415587434904
0.3057679370955254	0.7151485966268265	0.8967794611582728	0.9728039760976108	0.006286819626470477
0.3077009768984096	0.6270369497997071	0.9174014200150047	0.977071174972264	0.00406653870853692
0.3090589714577417	0.5651049745071722	0.9297199107052647	0.9771165271658598	0.0007978991590160835
0.3098208116596206	0.5313389541296871	0.9360857038231039	0.9769710755355181	0.0003124793132461147
0.31	0.5234933570514204	0.9375288073884419	0.9769247636990919	0.0003556218082143563
