DataType=double
version=3
OpenSimVersion=4.5
endheader
time	ground_force_1_vx	ground_force_1_vy	ground_force_1_vz	ground_moment_1_mx	ground_moment_1_my	ground_moment_1_mz	ground_force_1_px	ground_force_1_py	ground_force_1_pz
0	5.490000000004807e-12	-8.070000000009051e-12	-1.290000000000235e-12	-2.07740392377243e-12	-1.178031932705551e-12	-1.283821584942301e-12	-7.000000000000919e-14	0	-5.999999999999813e-14
0.0004542507337261803	1.83437729636705e-10	-2.05362690032043e-10	-4.972900718403222e-11	-5.278546750724667e-11	-3.829978454742301e-11	-3.187943110491519e-11	-1.350057137059051e-12	0	-1.537433560815759e-12
0.001515784775164009	4.483612551451852e-10	-4.989467918055191e-10	-1.219744137040703e-10	-1.284266739242712e-10	-9.44105859296117e-11	-7.459204639468649e-11	-3.253007027512381e-12	0	-3.732849548225993e-12
0.003164446411839883	4.577129688030196e-10	-5.087713508509236e-10	-1.250693686811594e-10	-1.312535964233991e-10	-9.771029992185875e-11	-7.154846170749098e-11	-3.307833343378809e-12	0	-3.792517976537523e-12
0.005374104194047435	-1.001322902604912e-10	1.103652370627967e-10	2.558111207753782e-11	2.85722564127806e-11	2.18808391813404e-11	1.420248376885989e-11	7.428132769300394e-13	0	8.85481290194817e-13
0.008109887166813518	-5.958207683505677e-10	6.566180928384534e-10	1.594393979988199e-10	1.706119900397903e-10	1.327210747966222e-10	7.481859862706878e-11	4.419704891187023e-12	0	5.094684740080626e-12
0.01132864367758793	7.362465504566549e-10	-8.374977617910173e-10	-2.00638837367212e-10	-2.18629451709521e-10	-1.684467162853738e-10	-8.106112845762212e-11	-4.905690285137837e-12	0	-5.830880910627365e-12
0.01497960949210789	-1.54308546130001e-10	1.247166126646869e-10	5.357740657856909e-11	3.256397927701065e-11	3.568132480715884e-11	9.325057873050191e-12	1.68303190256899e-12	0	1.516895648967829e-12
0.01900520557876997	-2.509224204279428e-09	2.741293634492093e-09	7.261202811680025e-10	7.224541242837078e-10	6.081076198769307e-10	1.516678707901588e-10	1.766558271148353e-11	0	1.989811352093936e-11
0.02334194532480019	6.184245367758528e-09	-6.708474372767203e-09	-1.613744804987886e-09	-1.777588686152349e-09	-1.542584158341176e-09	-2.158990165290482e-10	-4.937736068316587e-11	0	-5.601416136534152e-11
0.02792143545395889	-1.270656054148769e-08	1.494639103676722e-08	3.3258158787309e-09	3.978154712529051e-09	3.273600762491917e-09	1.269807001410055e-10	7.847174244467789e-11	0	9.830586566597536e-11
0.0326714545037473	4.455410020873176e-08	-4.840316357078139e-08	-1.300842867852898e-08	-1.290376989894071e-08	-1.186964240188078e-08	8.0888271734659e-10	-3.171732296346579e-10	0	-3.537293539813776e-10
0.03751709174442691	-7.657247632349085e-08	8.120433263316742e-08	1.931014486337324e-08	2.168937118284668e-08	2.064778777425623e-08	-3.384993708169735e-09	6.669401203919394e-10	0	7.444120473953604e-10
0.04238192853981579	1.117286673051891e-07	-1.449160002602223e-07	-2.677959550257687e-08	-3.872960791545563e-08	-3.083786210627094e-08	9.415655380488344e-09	-5.010996266513575e-10	0	-7.701026406475137e-10
0.04718924350439309	-6.276963498472499e-07	6.736258837629059e-07	1.934187035984729e-07	1.791066053313204e-07	1.816688939724589e-07	-6.037825859437912e-08	4.343366016716322e-09	0	4.725550983699547e-09
0.0518632224455918	7.761683535458896e-07	-7.603273142308595e-07	-1.770356567221632e-07	-2.015660584747335e-07	-2.177605512411053e-07	8.559943708078075e-08	-8.456764146818883e-09	0	-9.052957184355925e-09
0.05633015401013977	8.105766458675641e-08	3.648368512184666e-07	-9.595881821907625e-08	9.73767315997567e-08	-3.419754166108584e-08	-4.565204348476639e-08	-7.393030318881185e-09	0	-4.451488498354143e-09
0.06051959218465776	5.899966470481996e-06	-5.930971851631422e-06	-2.037306954057688e-06	-1.54897107017548e-06	-1.837920670487469e-06	9.025683575520024e-07	-4.296057962742028e-08	0	-4.254566274122436e-08
0.06436546733510043	7.710125945395742e-06	-9.338080337532135e-06	-2.917010278451642e-06	-2.423938053334276e-06	-2.505029410957535e-06	1.568803031372273e-06	-1.851208324801636e-08	0	-2.442075035660586e-08
0.06780712831226307	-2.075403925210964e-05	1.798611098854758e-05	5.315276083363664e-06	4.639225319199122e-06	6.142394511465134e-06	-3.326550210446153e-06	2.567855806278966e-07	0	2.5516586307431e-07
0.07079029933648544	-2.89718575172089e-05	2.098436124629515e-05	1.000636603739247e-05	5.35369809863734e-06	9.24905538172709e-06	-4.175000462061214e-06	3.699613726404471e-07	0	3.245077820420815e-07
0.07326793709552543	-5.247672196917337e-05	4.321726783996386e-05	2.083314369180851e-05	1.096521402401848e-05	1.763199098975608e-05	-8.990130760397217e-06	4.954708256154e-07	0	4.189579538640535e-07
0.07520097689840965	-0.0001219933922142096	0.0001224195338508667	4.468043834663082e-05	3.102299606928405e-05	4.039289577731462e-05	-2.624358555773341e-05	8.232549270427727e-07	0	7.936635746936574e-07
0.0765589714577417	-0.0001785748915059406	0.0001923590802748486	6.376189263246506e-05	4.864221943920795e-05	5.899717914818345e-05	-4.218986784565163e-05	9.923340305102414e-07	0	1.033131653289985e-06
0.07732081165962061	-0.0001956044235576454	0.0002183621833351326	7.023391928634383e-05	5.513806947813534e-05	6.492530410410696e-05	-4.850271965969754e-05	9.273494244836243e-07	0	1.01014108908437e-06
0.0775	-0.0001967592997682693	0.0002217041044823793	7.092966451952316e-05	5.596204344628169e-05	6.543570765456933e-05	-4.938908912973183e-05	8.853572038080915e-07	0	9.774306313483522e-07
0.07795425073372618	-0.0001935188796437875	0.0002240627245872769	7.089346678602138e-05	5.650529033672587e-05	6.480692251500394e-05	-5.027846255473758e-05	7.235707044169649e-07	0	8.373850468477201e-07
0.07901578477516402	-0.0001442054561093963	0.0001877737136223038	5.848724096136192e-05	4.72478026837311e-05	5.024002619243274e-05	-4.279349304549483e-05	-1.685787283997414e-08	0	1.345104376099542e-07
0.08066444641183987	6.497047239864681e-05	-1.322324893664677e-06	-1.383516283535607e-06	-3.250579345770679e-07	-1.465040424305624e-05	7.342555012755555e-07	-2.279847551775537e-06	0	-2.099811209615835e-06
0.08287410419404742	0.0005153327500823884	-0.0004139165849159097	-0.0001438549634472224	-0.000103166124448808	-0.0001595193543842847	0.0001017480060309107	-6.685458389769243e-06	0	-6.360870756547326e-06
0.08560988716681352	0.001057125823057689	-0.0008820922066105135	-0.0003593729616157253	-0.0002182093064939243	-0.0003491752100962386	0.0002255387416140605	-1.136202570371842e-05	0	-1.034925798798001e-05
0.08882864367758794	0.002185619575755578	-0.00209790241782051	-0.0008276885905826205	-0.0005156855135276698	-0.0007569224148266747	0.0005587193901167286	-1.589057510719253e-05	0	-1.4615587823634e-05
0.09247960949210787	0.003506318516656777	-0.004245802361050513	-0.001387111976467557	-0.001038132148732818	-0.001252742217781203	0.00117920448920798	-6.772413024456314e-06	0	-9.018398918586807e-06
0.09650520557876997	-0.007226880637341519	0.0048917088797158	0.001896911665229979	0.001185083122866125	0.002235735067813251	-0.001446189813841505	0.0001145607264091445	0	0.0001063543198648408
0.1008419453248002	-0.03511906461562447	0.03129433659481756	0.01226024466018403	0.007525122500056119	0.01211014453097128	-0.009616325328340341	0.0003294887723150479	0	0.0003045864425130884
0.1054214354539589	-0.07160188688982708	0.07928097027603402	0.02834190281373575	0.01897980404265426	0.02636517803497788	-0.02539239148855372	0.0002817462693643821	0	0.0002869828941231447
0.1101714545037473	0.09580564724347924	-0.04444704957533203	-0.02187436363784183	-0.01065220623925251	-0.02911334409741129	0.01534126301058099	-0.002002691195759499	0	-0.00181004212884745
0.1150170917444269	0.8611707102292261	-0.7778757177019416	-0.2979214026429251	-0.1909535855960834	-0.3154639922776331	0.2784871696838956	-0.007947759003205053	0	-0.007417882989966074
0.1198819285398158	1.575876746906893	-1.790347468591242	-0.6420587747918159	-0.4354072527014475	-0.6234424145618268	0.6563124467995323	-0.004830551171652734	0	-0.005037792246822472
0.1246892435043931	-2.940776214030083	1.635162009866586	0.7540910639580678	0.30895614576041	0.7664943066342029	-0.5332817875348382	0.05402573895919446	0	0.04888299649787595
0.1293632224455918	-21.07709994916804	19.23207035616681	7.327751573641788	1.179156899837182	2.67017792589621	-3.776127307792667	0.1904058619094361	0	0.1777400371643005
0.1338301540101398	-46.3622763137038	51.3455019400391	18.01341321029284	-1.178560209836073	1.018211570893576	-5.844279164515299	0.281723552152355	0	0.2631392044530311
0.1380195921846578	-66.71012979123724	102.287159314775	28.22584288943855	-4.230164445342893	0.1930632237970794	-10.02665127182556	0.3046857369847065	0	0.2831023309424799
0.1418654673351004	-73.01317083982684	181.8106226477276	33.63619804410856	-7.073687718912603	0.7998142016028511	-18.80304252463049	0.3051880965205825	0	0.282346970686098
0.1453071283122631	-65.34405542705476	291.6614447637766	30.86026229319291	-10.4076171902696	0.887916216442986	-31.98277554435871	0.3040928091090672	0	0.2806795078569118
0.1482902993364854	-52.42219594880881	420.039453058375	19.43120088091042	-14.71199929414013	-0.3258631719955667	-47.5380800533735	0.3050473485964225	0	0.2813244203414308
0.1507679370955254	-42.8096046061904	546.3745247628035	2.970231079435862	-19.52900808450445	-2.390993187214169	-62.73364141487677	0.3071123549378719	0	0.2830626403422637
0.1527009768984096	-38.9891317081325	650.8471521201183	-13.22579295444052	-23.85885840026702	-4.515841184306243	-75.20337058149683	0.3092393920212629	0	0.284722751269112
0.1540589714577417	-39.02314935057134	723.0366345275584	-25.39847524025331	-26.9779381645696	-6.138729577939168	-83.76553944153692	0.3109057467431721	0	0.2858691352029882
0.1548208116596206	-40.10366453110056	761.856337991079	-32.19927964929006	-28.68062742487433	-7.050803386550334	-88.34936420075883	0.3118825017613401	0	0.2864674345828587
0.155	-40.46787527000002	770.7382736000001	-33.77585212000001	-29.07142975404867	-7.262598601765948	-89.39600480870946	0.3121154890000001	0	0.2866016299999999
0.1554542507337262	-41.57416401022094	792.7572714634993	-37.71217157243937	-30.04072764914789	-7.791797171845934	-91.98719308077865	0.3127104969626256	0	0.2869290650598334
0.156515784775164	-45.12555854856333	840.9706447157737	-46.43167392300128	-32.15447779716644	-8.964766199126505	-97.64347607280257	0.3141173069235533	0	0.287613820153819
0.1581644464118399	-52.88681755587746	904.7547563964213	-57.9555902093232	-34.87154461327544	-10.50873835062668	-105.0949759763183	0.3163051778097198	0	0.2884200624001558
0.1603741041940474	-65.83432336075431	964.8400915012941	-67.96798084322489	-37.14013470933711	-11.80886686630507	-112.1255094746387	0.3191227285744248	0	0.2889699888821979
0.1631098871668135	-81.84610552135962	997.8490393815589	-70.68240945516897	-37.70547665212074	-12.00125536833472	-116.1918635249078	0.3222195393725206	0	0.2888940603470043
0.1663286436775879	-95.07161710162757	992.8607403759482	-63.46830587991847	-36.1503814986456	-10.59958989266995	-116.2565054353333	0.3251386402847205	0	0.2881128155612847
0.1699796094921079	-100.1400902643704	964.8349859158258	-50.08648656553877	-33.37882857638677	-7.990528604140419	-113.9084538945774	0.3277522435496016	0	0.2868021690361632
0.17400520557877	-97.57317141972753	944.2333065984917	-37.26938384532148	-30.72535322294233	-5.156485312822596	-112.1111560966658	0.3304758260085981	0	0.2851184801239401
0.1783419453248002	-91.41140929344058	949.2733261476237	-27.34886565460736	-28.91422952770167	-2.896996985756667	-112.6374070962234	0.333626398408201	0	0.2832270882107003
0.1829214354539589	-84.93356900147657	983.4169888587735	-14.37894835819991	-27.65386788029903	-1.050635885960869	-115.4106242349171	0.33759666941909	0	0.2808159134339789
0.1876714545037473	-82.61596173101537	1048.059384267545	13.64825650952514	-25.83020481411113	1.365866360938645	-119.1523087663981	0.343507617508152	0	0.2769295562668282
0.1925170917444269	-93.9349877759204	1134.385610790513	63.10406496104036	-22.37908973960392	4.862922423712448	-121.1418160857508	0.3522691084350018	0	0.2712725342252213
0.1973819285398158	-128.4041090173635	1212.52564092877	110.2619039982218	-18.06295830713481	8.567956912213081	-118.6388610166567	0.3627784308662511	0	0.2655771882442073
0.2021892435043931	-172.4833834863879	1271.201339603984	119.6223201415198	-15.35420790999113	11.30419986707787	-112.3086208179045	0.3735103232055174	0	0.262009462212643
0.2068632224455918	-207.0129536352629	1336.033074578786	97.2541362073142	-15.14978777837359	12.43154609613271	-105.6931343884148	0.3836137237983303	0	0.2606667006809674
0.2113301540101398	-235.2838319218895	1416.268016161258	81.21000542144751	-15.93338730375474	12.13496757220127	-100.4969532689094	0.3923464753334608	0	0.2599906134323361
0.2155195921846577	-258.7658834749868	1486.94041622183	81.22611164165465	-16.10631631437262	11.45531633350378	-95.05704099939642	0.3997742623453125	0	0.2590084352022043
0.2193654673351004	-273.2158752241934	1529.439418441486	78.08166450117854	-15.64869763640875	11.41458501311966	-88.32811673802053	0.4062148733368413	0	0.2579848517032962
0.2228071283122631	-283.5935609075374	1551.535657635733	68.10838396381672	-15.07265985191677	11.80478699104845	-81.38493400949247	0.4117027859040256	0	0.2572054836439926
0.2257902993364854	-295.0754963828663	1566.828234105399	60.07476353244402	-14.48170598222463	12.18406605675975	-75.21651313324359	0.4163062053128287	0	0.2565813145125589
0.2282679370955254	-307.5557301569178	1579.707940149689	56.98084989948595	-13.85224691904917	12.42938673164817	-70.07047060763567	0.4200852967984901	0	0.2560264447742261
0.2302009768984097	-318.5751457407218	1588.951201794413	56.10926811807636	-13.2535736452456	12.60800705846574	-65.97260733064326	0.4230261524913813	0	0.2555687672653776
0.2315589714577417	-326.5495147952294	1594.29974744976	55.68652981177116	-12.77694504122648	12.75018668033086	-63.021024478474	0.4250908682047171	0	0.2552412540480038
0.2323208116596206	-330.9996424632716	1596.741153442275	55.40753789684539	-12.49033521106684	12.83908331838589	-61.33604712621729	0.4262485031371532	0	0.2550570617439936
0.2325	-332.0384001054097	1597.251367202274	55.33388119138405	-12.42100438602843	12.86098277535287	-60.93674373830809	0.4265206683736843	0	0.2550137727739187
0.2329542507337262	-334.6532967264149	1598.431901339497	55.13132659596167	-12.24208255916534	12.91815939976974	-59.91958804307757	0.4272103534976604	0	0.2549041643722371
0.234015784775164	-340.6338746989182	1600.548720613324	54.56373416462041	-11.80712148849953	13.0606299150567	-57.51735287514663	0.4288199809812441	0	0.2546491987874905
0.2356644464118399	-349.4675190070759	1602.102512530704	53.44050628463419	-11.09009065716929	13.30415660699398	-53.73299432895293	0.4313099933856946	0	0.254258508032515
0.2378741041940474	-360.4063637987126	1601.514227233057	51.69802415565697	-10.06872009896858	13.6736748690757	-48.63015893159307	0.4346116478710386	0	0.2537500803613816
0.2406098871668135	-372.8174944553937	1598.756383524063	49.86317570349223	-8.745313701297771	14.22624180415514	-42.44467226903016	0.4385931200945826	0	0.2531505510818887
0.2438286436775879	-385.5260005734027	1595.69342346801	49.16849840159562	-7.120451617319267	15.07034834432295	-35.63455798454211	0.4430134057049607	0	0.2524750350803466
0.2474796094921079	-395.4826901813524	1592.877378677048	50.82980796743686	-5.129740978293355	16.29483867295854	-28.70599290238804	0.4475626612466787	0	0.2516966417484082
0.25150520557877	-401.5211359773147	1586.678950308297	55.19483199932144	-2.707349999227354	17.73827681806389	-21.7121198348381	0.4521850171169394	0	0.2507813920437864
0.2558419453248002	-406.8764090767203	1570.509164150634	59.2656390871695	0.06294848635072081	18.89513295440568	-14.2464387449404	0.4571598531830329	0	0.2497654135652602
0.2604214354539589	-413.5378857020589	1540.289683159785	57.58192511253213	2.864165972965136	19.42583672016069	-6.220017124379915	0.4626535466986763	0	0.2487907690666709
0.2651714545037473	-417.665768711475	1498.183313200951	50.64809420567162	5.433048761243461	19.65064667326754	1.716487789098375	0.4683820789703043	0	0.2479204490600467
0.2700170917444269	-414.762818457586	1448.561936208363	45.60439463448967	7.875463959344872	20.03144046435796	8.702415288885012	0.4738436604693767	0	0.246951872842849
0.2748819285398158	-404.6981806737348	1391.673140149976	46.04011819453589	10.15180430417204	20.59173991216002	14.52607026214154	0.4789151066069682	0	0.2457831244946287
0.2796892435043931	-388.4331259221846	1324.522823923288	48.53825522950509	12.09320391245744	20.89030463564279	19.33411209593523	0.4837468351843973	0	0.2444279821321782
0.2843632224455918	-367.283376673137	1249.231616935074	49.19769666745564	13.41830829470538	20.69419474760381	23.24186691692924	0.4884390030842596	0	0.2430609423146817
0.2888301540101398	-343.7698168371821	1171.570781247967	47.45109540619368	13.97099106897124	20.07036871671342	26.09487198091968	0.4927826106920314	0	0.2418744666575056
0.2930195921846577	-319.2334463548946	1097.371202555898	45.52662056593357	13.92999871126515	19.14981491778248	27.62604815020495	0.4963227501941625	0	0.2408629988388818
0.2968654673351004	-294.0794484065962	1029.710761824729	44.54746696516164	13.54802252363072	18.08909492970207	28.0886687435314	0.499002077078649	0	0.239956068627887
0.3003071283122631	-270.0334813861001	969.2471561902939	44.09926731589339	12.99592973441394	16.90618561588885	27.86842086831888	0.5009797528895895	0	0.2391258390737407
0.3032902993364854	-249.0422834642794	916.8211134355968	43.93031658895318	12.38977812405579	15.68081851782383	27.23546074336508	0.5023624511220525	0	0.238380781403005
0.3057679370955254	-231.8287945606512	873.8769751797788	44.17726888925023	11.8165960263493	14.64115241818704	26.44085762434322	0.5032624865746168	0	0.237745374264891
0.3077009768984096	-218.5747376446842	841.112519850818	44.76144576728313	11.33576994418427	13.88933382673502	25.67978461394477	0.5038029596383297	0	0.2372410331346477
0.3090589714577417	-209.3588539665375	818.5546259219207	45.4063387622408	10.98384711064089	13.40732973463667	25.08138224339239	0.5040969341354949	0	0.2368826109205442
0.3098208116596206	-204.2233926081341	806.0712779769387	45.85515154306942	10.78205759964091	13.15499596040838	24.72491785920639	0.5042308071308736	0	0.2366800790279169
0.31	-203.0191329	803.1531378000001	45.96983013000001	10.73418109513955	13.09756566416189	24.6390341201813	0.504259052	0	0.236632291
