DataType=double
version=3
OpenSimVersion=4.5
endheader
time	pelvis_tilt	pelvis_tx	pelvis_ty	hip_flexion_r	knee_angle_r	ankle_angle_r	hip_flexion_l	knee_angle_l	ankle_angle_l	lumbar_extension	arm_flex_r	arm_flex_l
0	43.17703223694001	4.821891251807315	-9.96771610894978	11.75382310495832	188.5118562097679	50.05364553945938	-84.50246313466702	-0.6685044552285859	-0.2970149782558451	-34.46260646457954	-5.07399728234301	32.59883659907217
0.0004542507337261803	43.74688739852799	4.926169677432945	-9.978145338129689	12.74409376200084	192.5253049085634	49.57521932957766	-85.16476428717958	2.476599280061745	-0.2789325318264462	-34.58764471819364	-5.089105366830925	32.57390336202572
0.001515784775164009	43.7821465367828	4.964997291887835	-9.981456097055558	12.61689802810734	192.601771176497	49.54829266081683	-85.06551714777034	2.776980701810038	-0.1664106537755146	-34.44986033328336	-5.123589070085586	32.40601580719073
0.003164446411839883	43.60133430400925	5.00416203636807	-10.01091617577352	11.8559113206044	190.8746802442726	50.20005309643444	-84.17490538855169	3.604661703752742	0.156579347033114	-34.02673502444169	-5.202235270966954	31.8955308864878
0.005374104194047435	43.2156021059966	5.044655601899597	-10.08861995792129	10.55737793268179	188.2276121179803	52.00249487154287	-82.20116477607817	5.407721930560111	0.799670636551383	-33.24091868100361	-5.346970356645935	30.86179683992059
0.008109887166813518	42.63013032519913	5.088470975773607	-10.30901795461963	8.559116465336274	184.6216864565444	58.06497870863799	-77.00777715105015	14.33320427052813	2.954474654526541	-31.89088401692417	-5.855124684370374	27.31438192045295
0.01132864367758793	41.81848385078128	5.102039357411559	-10.566202032674	6.068580687113645	179.6697490454994	64.77055346474754	-70.38364116100227	25.29758846932178	5.288241759965096	-30.30385700216425	-6.498662242527498	23.15234780251084
0.01497960949210789	40.62570793987663	5.049418904969269	-10.79941160644766	3.410876653584239	173.179074166963	69.94831835838103	-63.64114351582447	34.04212216167575	7.095899549669738	-28.58030562609698	-7.142852532712361	19.46252792165663
0.01900520557876997	39.13407153296627	4.958645394991258	-11.08537979222417	0.1298771767636779	164.6840881492481	75.24667624454747	-54.61492242478854	47.41007296288309	8.861253629011964	-26.49786646053204	-7.944063327134431	15.26770011735849
0.02334194532480019	37.16456043634479	4.792873047686284	-11.36350496561671	-3.471780642708886	153.9277642378064	79.12234732658138	-44.79017406020495	59.99903036563562	10.06365242290772	-24.11068889236011	-8.850422997903507	11.19807856887446
0.02792143545395889	34.80425431324004	4.584916238451273	-11.63632083164367	-7.522403735187247	140.6654691978311	81.61313416319049	-34.11418054318642	73.21071963424019	10.41181363432583	-21.36028123419778	-9.872805446661676	7.293230628893223
0.0326714545037473	31.85527276567934	4.266441761933496	-11.8936814373562	-11.4071852738186	125.5718265662147	82.27617085268299	-22.35823339323306	86.12572195721299	10.11769912334321	-18.28493952108938	-10.99875487188278	3.726236925922706
0.03751709174442691	28.69488229085215	4.032204662003997	-12.15042673806882	-15.97574821749357	108.1085554728441	81.18347403851236	-10.31673306820459	101.0020328346908	8.708158550477178	-14.42944166938484	-12.21972783517927	0.6440872297811886
0.04238192853981579	25.19660642912575	3.707945344337987	-12.34795068129032	-20.13871391906709	89.8429449047984	78.24208816135079	1.605019435865415	113.7427397811797	6.298300902330427	-10.53490803144265	-13.51162517044244	-1.89122687029483
0.04718924350439309	21.47124500742722	3.350897165322157	-12.49349906288853	-23.83739725323952	71.33668136386925	73.25618402654121	12.36609953306051	122.7772258916159	2.969876612567328	-6.523680940062327	-14.853557809024	-3.844136351062623
0.0518632224455918	17.95444744578557	3.011674439493055	-12.58764480393294	-27.37619076623264	53.16460082789956	66.18110593193887	22.90887793105173	133.4334658370489	-1.091090144658451	-2.638223483834553	-16.20097759930113	-5.237367324217644
0.05633015401013977	14.43357076925499	2.678324271228976	-12.64879763941901	-30.14072955318862	36.41579772471322	59.0319300141427	32.41842203188968	142.4887940537512	-5.655063460503142	1.289528229705939	-17.52567791210856	-6.086191710588551
0.06051959218465776	11.10579983198024	2.361247546281274	-12.66958314830439	-32.20853523111651	21.35504693328561	51.72326363316879	40.62650630392267	150.1439807201069	-10.44171258517583	5.028144333619402	-18.79199167360447	-6.445490575401351
0.06436546733510043	7.936508562582219	2.077616192879563	-12.67686550212047	-33.46985130635821	8.374927501901162	45.51604955250293	47.50832881147932	156.1201793862131	-15.1631838206345	8.664911026835064	-19.96826712385174	-6.442859667560121
0.06780712831226307	5.080063142554454	1.838606478561121	-12.6685004583649	-33.84482763663416	-1.866649021821601	40.5065529653588	52.82751022556454	160.7978226631544	-19.56866163328175	12.08690377013351	-21.02678397955014	-6.201471184040045
0.07079029933648544	-35.99084498198107	2.029874709499066	-16.52527164906585	10.26386987332457	3.040135225878561	35.3113978863993	85.53582880382272	135.9153254689697	-23.48430693276829	72.92157852304874	-22.15980099017879	-5.290256394898755
0.07326793709552543	-0.2919717931561436	1.533616585008361	-12.73533504881712	-32.46884359495103	-15.81954014682735	34.06877442593617	60.38707170136507	164.8742846166565	-26.71567991399923	18.84995878939287	-22.71707647396734	-5.192359593778953
0.07520097689840965	-2.584063716441942	1.442372500827192	-12.77822246931855	-31.43265860734093	-20.78953105019736	31.81047328018047	62.68185522962141	165.3292475962651	-29.24719981295783	21.92270648556575	-23.32975366528729	-4.66951603134698
0.0765589714577417	-4.378558162843809	1.394173481351854	-12.82487919574495	-30.49439141110673	-24.31395021273028	30.46341840305286	64.20500697803145	165.0083862446091	-31.02540888256288	24.36089382264092	-23.7877337246013	-4.234656211856894
0.07732081165962061	-5.574255361537498	1.398377688089933	-12.87293422174255	-29.49449057421982	-25.65827199496076	29.91117880090515	64.74005916225221	164.319956406167	-32.04076674581854	26.1805025385449	-24.09657269343339	-3.936069051601457
0.0775	-5.346824558040717	1.496569525825201	-12.92109600117266	-27.46065602492276	-18.11060295644334	29.95362362501137	63.53169096266035	164.6776156627383	-32.2972353873885	26.75085082722442	-24.21742409672478	-3.834903901135931
0.07795425073372618	-5.998773801852411	1.301400544229197	-12.83485998044109	-29.60781425141815	-28.12324492298292	28.58412243410275	65.78551941065102	165.1651469487592	-32.80281851615516	26.33634171630465	-24.18744699167161	-3.78097844620639
0.07901578477516402	-6.511826105733046	1.146605289821909	-12.77056542543631	-29.64705231605198	-30.85922891009377	26.52101294554642	67.45281228375178	167.0749741705473	-34.06226969611307	26.44184927726633	-24.31801105997278	-3.512977144275837
0.08066444641183987	-7.614261635820625	0.9438903545019652	-12.69342666945961	-29.21752459014481	-35.13359632197378	24.11083580822572	69.59168206094427	169.0620834030974	-36.01530336825375	27.18315091823955	-24.58086946691739	-3.016276005501972
0.08287410419404742	-9.430888155251154	0.584966397147233	-12.60786798759444	-27.44037201592688	-39.40878619821937	21.57603055456548	72.73520913727666	170.6814448984388	-38.60072083115745	28.23221547068887	-24.95339512275952	-2.249906346390755
0.08560988716681352	-11.27945773930527	0.4291941823201562	-12.51166241998636	-25.84846031907573	-44.30486202285702	18.33303001145941	74.41088932383431	172.9418804355054	-41.66440597375758	30.3801372525413	-25.4256014498037	-1.113372748900506
0.08882864367758794	-13.64537007751733	0.1240362045640424	-12.4073385790909	-22.526883615138	-47.44558427425999	14.85299896118617	76.62919230481987	174.2517168207476	-45.03410185441197	32.57791809793364	-25.93900517970501	0.3863366643661372
0.09247960949210787	-16.28381887090135	-0.223062926512561	-12.27390311014536	-18.12003932711673	-50.39920912220447	10.80809468388225	78.44262412176302	174.6318249141227	-48.41366383180024	34.88401470006956	-26.43900818696086	2.288889384415004
0.09650520557876997	-18.94599603548011	-0.5962739576260692	-12.12633454317785	-12.25352601441124	-50.59015621862737	6.655285473920712	79.55096766156612	173.9240057833143	-51.50564932310727	37.09333057724604	-26.86503908879688	4.634150845070319
0.1008419453248002	-21.58367804324209	-1.031507339647847	-11.91181120629856	-5.171604753778674	-50.788460596212	1.378762856649411	79.81216329442705	171.8650991429622	-53.96686656174535	38.71943240948009	-27.12305828524547	7.374409971583315
0.1054214354539589	-23.88996281429161	-1.509269518088621	-11.61575150139718	3.058336139365494	-50.1678187122005	-3.760680965817087	78.80697966072535	168.2384986178614	-55.43584034649064	39.38576636054061	-27.19974960406413	10.48995031718088
0.1101714545037473	-25.77327023443265	-2.0237573191306	-11.26129734535741	12.63885020578311	-47.07614619532491	-6.873613218781561	76.58924042316708	163.0936301057491	-55.74653195651075	39.06202752952263	-26.94163515813155	13.96763144353172
0.1150170917444269	-27.02292298131212	-2.552023969495526	-10.84579687062139	23.18900705925266	-41.30730482404354	-7.724116232045422	72.95902346667515	156.3401720612987	-54.55616167323706	37.57214880134488	-26.3235346239045	17.74802497814208
0.1198819285398158	-27.58528475258987	-3.121432180934046	-10.35405239685884	34.34330397656627	-34.03221924368865	-7.307344703717142	68.13839591276488	148.0820252180745	-51.88681786287929	34.67389167850213	-25.30162175866358	21.72128790208366
0.1246892435043931	-27.27669889001497	-3.652280182004614	-9.751715341288879	45.37257954953126	-25.98832525877613	-6.162169277693348	61.68713235114495	138.8612249988442	-47.8199554523186	30.58664410679841	-23.87252354361564	25.78184989671302
0.1293632224455918	-26.28230561967482	-4.257849596186912	-8.79173098876552	56.47326388574032	-18.1288895293493	-5.028266448494485	53.9381413831873	129.2779617100582	-42.57159411255054	25.32799665160479	-22.06623364167145	29.75196440360716
0.1338301540101398	-24.619610776462	-4.855037087560046	-7.649399851484908	66.90889478833792	-11.00739074513929	-3.463278126992051	45.2125080938884	119.4930777525874	-36.48060529222928	19.26860993555054	-19.94450887067551	33.55129092133199
0.1380195921846578	-22.35889920442679	-5.42334186912217	-6.495309025659935	76.19003053260748	-4.781487737054608	-1.531758957335246	36.16837883125421	109.6995793373055	-29.94703879123712	12.54693217957196	-17.60084563553864	37.0951204095263
0.1418654673351004	-19.73337610469251	-5.958637523378539	-5.390980593239808	84.18387285172021	0.3837071426722076	0.4472474639237092	27.29335149741561	100.083394306492	-23.36825785401124	5.547343387154203	-15.15107186010396	40.30247810477019
0.1453071283122631	-16.98264122400104	-6.453958349920446	-4.378353528370268	90.84388062319644	4.41079070590817	2.113226894297656	18.9858514908447	90.84260716047869	-17.1031668588115	-1.327070981092039	-12.72345978867268	43.11294453547038
0.1482902993364854	-14.41217716427078	-6.894347780588706	-3.354102970330513	96.37607193786695	7.094333944891488	3.169690210545925	11.28645364662248	82.40625618421352	-11.44480735210247	-7.413796892312432	-10.4501630884219	45.47533623874631
0.1507679370955254	-12.31152715714929	-7.330899184201339	-2.177640500037623	101.2684865525376	8.528781533724583	3.781211465290053	4.479969445189351	75.09783610065449	-6.642999106610549	-12.38284639556847	-8.46040787437839	47.34361419503826
0.1527009768984096	-10.83274039788422	-7.705181518897037	-1.188099082418367	105.3227390439686	9.331214956316323	3.837620256786197	-1.862028224351654	64.97204816469366	-2.833853604949972	-16.17094490076541	-6.843373591684646	48.74737553163236
0.1540589714577417	-9.602163509109602	-7.927279702199225	-0.4590266133725751	107.7797780304626	9.518413624029634	3.473418756123637	-4.763125246279152	63.73720420326946	-0.1270200003403943	-18.68510076638103	-5.657566476765194	49.71542889463218
0.1548208116596206	-9.089077443714229	-8.068946768748617	-0.02346372276914011	109.4554808885483	9.763376705068289	2.707253512669149	-6.894338386289439	60.33014290255776	1.418126005231002	-19.90926016833679	-4.986599234869928	50.23454657851432
0.155	-9.184773977029986	-7.441446932629249	0.01913528036357137	108.8445019285406	9.918509890309267	2.120980335722846	-11.33360732929393	58.42894040114953	1.798962544001929	-16.59089668812311	-4.895499488260629	50.33716158840947
0.1554542507337262	-8.406906707773373	-8.168178613073188	0.3774621263464151	110.3956231781279	9.455106502277118	3.53078537263136	-8.748460712580272	58.14274013282087	2.64696746355261	-21.17024948175562	-4.422983313573138	50.67128302086645
0.156515784775164	-7.087233366873908	-8.322074405155959	1.06023178914665	111.7599806585723	8.994764280954314	5.01099872436704	-11.76863738300225	54.2636248611888	4.703256708881346	-23.40378703388733	-3.474888776335776	51.39889004301355
0.1581644464118399	-4.771688828574186	-8.585172856944421	2.058043978147754	113.5364815662901	8.437682561823237	6.652148799582719	-14.60093679139491	45.91540106803123	7.915495413037231	-27.16324154577272	-1.97389681591582	52.50604903390794
0.1603741041940474	-0.4021931031912018	-8.793384415735243	3.152929151835827	113.653890235311	7.226451413438852	8.345793824377029	-11.99667976323035	28.37252523160368	12.19063825333452	-32.56114297018372	0.1052702012787448	53.97801792186392
0.1631098871668135	7.615680714199105	-8.693682411662699	4.38335542719063	109.3057351458127	4.128734425402545	9.949988313388484	-6.665983775131679	6.349483553816075	17.30752628530349	-40.69176474983895	2.773073872370363	55.73259446348789
0.1663286436775879	11.49211639194914	-9.171761298301799	5.652191386103622	112.0645844144748	2.289089935667679	11.16103058745461	-6.452247387286381	-12.17423867693579	22.90048889443893	-46.93560552305317	5.920620478805112	57.67950074232481
0.1699796094921079	17.11883268597153	-9.549810926166053	7.775402911118604	112.8622652123669	-3.022369500874404	12.02804020035477	-12.48763024581302	-11.87570102973252	28.75590104202823	-54.72424228119342	9.481840059307608	59.57962155881626
0.17400520557877	21.94361806745295	-10.24398445229674	10.68361555299403	115.5386325273721	-10.51257624394655	12.38103649186997	-27.41791942048813	-35.60526504278764	34.60147722743067	-62.52890454392036	13.27198833402757	61.26335922225014
0.1783419453248002	27.37165034953669	-10.82977136885946	13.08628551869057	115.7468089096477	-19.76818856944113	12.52548527207164	-41.37422822952189	-48.58246058080013	39.98293895687454	-71.09647230659388	17.29867867061699	62.76354165584529
0.1829214354539589	32.71161808194223	-11.41906431440886	15.13133215807087	114.342615054533	-30.68545575120407	12.1632152426119	-55.22218328476575	-63.39699034707228	44.47941713834376	-79.64825178187878	21.40159334491628	63.94265009729209
0.1876714545037473	37.68475549396587	-11.94965538421167	17.2118474602641	111.3138261540872	-44.20384127924061	11.26034436721386	-68.76092256641982	-78.40798137607453	47.70225219791322	-86.78158694399279	25.41781104118559	64.68625313584076
0.1925170917444269	41.6843773291311	-12.51955142396598	18.69490018072879	106.9304787883494	-58.73967329084994	10.04235021252506	-82.78743037135189	-94.81158658094785	49.35438471610269	-93.33799891538936	29.16960934490432	64.85368614764511
0.1973819285398158	46.1852685250006	-12.64062296498302	19.65485500362035	97.9855767934617	-75.72670811625707	8.494166204743902	-85.32871835076743	-77.40654487721326	49.12469052954767	-97.58379673880918	32.6640115923454	64.77437649300759
0.2021892435043931	46.62600145332719	-13.35508518440591	20.62841292983364	93.50718617602678	-92.35588973098506	6.976827806410014	-102.0067255859957	-119.9162565990655	47.43199476721718	-100.1769190388338	35.48831878132391	63.98132958742664
0.2068632224455918	47.32214655286691	-13.43416464160248	21.23871357208149	84.66545381767361	-111.2949166342381	4.639042154283723	-111.9775347250908	-126.8559512295118	44.12592343963607	-99.89156102200974	37.76154633981615	62.90679607483843
0.2113301540101398	47.01164972777944	-13.58409016810537	21.57976483132051	75.81710265043826	-129.0900795143144	2.752701604162384	-117.7207340668604	-133.3235128387658	39.81375880608155	-98.51651115590363	39.45625214786528	61.53334130872054
0.2155195921846577	45.88087303575121	-13.6621107909659	21.28413823390922	66.88400279445661	-144.4039936404222	0.5041904518564291	-122.2790725936202	-137.5873725103576	34.938818095399	-96.97234345889952	40.57101728032337	60.00911344598944
0.2193654673351004	44.21290182309971	-13.66806090809056	20.51164541622699	58.37626140862096	-156.7907569051112	-2.195484771844232	-125.060912369231	-140.7249358733913	29.88187911858031	-95.29511524335135	41.21910384384879	58.43877529282989
0.2228071283122631	42.31502317563651	-13.66127989991273	19.59686826127638	50.71160913657313	-166.752825995916	-5.003820274114378	-126.4534729915497	-142.4866712115778	25.00724328424274	-93.69825404635218	41.27629219476172	56.89985048173783
0.2257902993364854	40.49120447278319	-13.66593289431167	18.72301174613365	44.04665782122033	-174.6989237686169	-7.896430860329005	-126.6062780096041	-143.1266878516437	20.54053514593249	-92.32372280031932	41.28760100886399	55.48033725047766
0.2282679370955254	38.89540682455038	-13.68124073025651	17.98828756773714	38.47721746488941	-180.978783281019	-10.44384297810549	-125.842290791865	-142.7461340794833	16.6962419337838	-91.21639232963342	40.97008832436763	54.23544171401786
0.2302009768984097	37.76502409930242	-13.71965314381833	17.43474774531945	34.0305775824032	-185.6261120597849	-12.32602843631466	-124.6399863518975	-141.5488475196734	13.67750448236637	-90.63516989828477	40.62778900171759	53.23591909480092
0.2315589714577417	37.18554106652599	-13.77679143981508	17.07022754813131	30.79113268054802	-188.6158152004392	-13.37057238147671	-123.3885524280376	-139.9169720419135	11.63644128579419	-90.62456248035954	40.34933392667958	52.51743825817633
0.2323208116596206	37.16225487455236	-13.85478758468413	16.88265647855252	28.76464246425758	-189.8730030483617	-13.58802726849103	-122.4071636272847	-138.2844182570746	10.67634905862626	-91.19483586185301	40.17587977923835	52.10324096511053
0.2325	37.57887545975314	-13.89194626408306	16.84035189575373	28.7461558451382	-187.4755652462763	-13.46142379655193	-122.6320475247305	-137.0029373208968	10.61396620461194	-91.784443696816	40.13470487166945	51.9993469698427
0.2329542507337262	36.30307010823726	-13.76814709768136	16.68410501501315	27.60895580034143	-191.7772000786533	-14.95752804434563	-122.0547373914288	-138.5971919737762	9.122302237156468	-89.90714202574026	39.99038988244223	51.77600288849047
0.234015784775164	34.70639194230107	-13.60591480947854	16.34060085299402	25.75620936206106	-194.7368069779506	-17.47276314710203	-121.2606763899907	-139.396333019615	6.511393880117174	-87.43734754010129	39.64715753723422	51.22931198467456
0.2356644464118399	32.51659379907028	-13.43647118079449	15.84379782040237	22.76148523881521	-198.9506316830542	-20.73115391591809	-119.2687563849953	-140.091710252864	2.909486052182272	-84.31301466650289	39.07395845340647	50.36992278534653
0.2378741041940474	29.66484696254914	-13.24061895711465	15.21426799040942	18.54114408343193	-204.5385745205971	-24.50962865732111	-115.2781892747962	-140.1814060371549	-1.577458479733708	-80.30018499150499	38.16658350315743	49.20615162852427
0.2406098871668135	26.11731276342445	-13.02832179633149	14.48703227101453	13.07070650014064	-211.4633742133914	-28.28509832837237	-108.4818495254654	-139.9449772821435	-6.804888727867291	-75.3318880424747	36.87534621632716	47.76578954353385
0.2438286436775879	21.78064599614459	-12.75065080282769	13.68351627220724	6.478491997204394	-219.2889867183148	-32.06324719725315	-98.59371730552255	-138.5031894927357	-12.67204725093344	-68.97626472446109	35.10939593107732	46.07930580647813
0.2474796094921079	16.60745921512587	-12.39818722594407	12.82785506637284	-0.2503338408552409	-225.9894197080775	-36.54250119832395	-86.92526604990756	-134.9367332963554	-18.99040600219974	-61.08942429585267	32.81600891713421	44.1797627733831
0.25150520557877	10.37299385342184	-11.94050297083121	11.91993170357298	-6.939165686687353	-231.4727171602813	-41.34476664315215	-74.43265829788052	-128.7674553222267	-25.6128555303068	-51.37554652288181	29.94956030552694	42.11591895040559
0.2558419453248002	3.050435873193207	-11.41577342651102	10.94143352877299	-12.99712453076823	-234.8796108372786	-45.41001545130793	-61.86885116975446	-120.662497034969	-32.32814889051664	-40.08902575790054	26.51654555105453	39.94676798974008
0.2604214354539589	-5.058820818768983	-10.77277804035945	9.84750034689802	-18.45860999423614	-235.8003933288898	-48.50600661672868	-49.22516584495619	-111.0179273949516	-38.89834934341077	-27.33103436910745	22.58685074492966	37.74186719560976
0.2651714545037473	-13.70320492600358	-10.08352513464469	8.616148334668063	-22.96952811346171	-233.8451577089602	-49.94356203059797	-36.58195690896569	-100.5458674079885	-45.04935131986054	-13.858058349688	18.26747552789006	35.55275047505422
0.2700170917444269	-20.9591119731852	-8.946505436604912	7.211506084248087	-29.14663403063145	-228.9330994294513	-50.05762929397351	-22.47021154837513	-78.9443663024353	-50.51918240637314	0.4109421186194844	13.79678181191968	33.57571588730418
0.2748819285398158	-29.94247680261443	-8.229973814127831	5.625723997600134	-30.83476507982293	-220.0504803593085	-49.32089299655574	-9.715955473378585	-77.49418236403001	-54.98523792071633	14.2907643014519	9.081438737118216	31.41395392478647
0.2796892435043931	-37.56504081179564	-7.281363658297169	3.918978734341616	-32.72629299930257	-207.9696402676002	-47.48987585649919	3.220960125415449	-65.14157682000864	-58.33621125037598	27.54335010553756	4.539999116871687	29.47629064684671
0.2843632224455918	-44.35906303796927	-6.328730920212326	2.103154510624481	-33.07630758174113	-192.0793768772861	-45.59501941332269	16.89109500573183	-54.01475498594701	-60.30737491046777	39.83288110798421	0.2183569068827369	27.61923853627855
0.2888301540101398	-50.31347469007664	-5.448454641089379	0.288205652691365	-31.60346396746614	-173.5953199528854	-43.51311257369334	29.97452805547241	-43.81918547753889	-60.8063126254555	50.56763326669397	-3.711919154043521	25.87049975336825
0.2930195921846577	-55.17286150720807	-4.619541112670155	-1.493179052593653	-28.93966937697022	-152.6414998038987	-40.92606931727753	43.27657935116077	-35.21756541292094	-60.20763087505788	59.69939011097675	-7.278144715107205	24.14214862659675
0.2968654673351004	-58.76517679923171	-3.893802326523932	-3.111850570877857	-25.4553624166014	-131.9773628491053	-38.15526405583423	55.14204678756364	-27.79805407118898	-58.5607323301228	66.67133101949233	-10.25964783514043	22.57125257074821
0.3003071283122631	-61.28994142229577	-3.263050295447794	-4.549174133425621	-21.94437910071854	-112.4038159356331	-35.03186021271203	65.9682890619336	-21.48513121027653	-56.33010969319474	71.82005545996883	-12.73184032637555	21.13123313945907
0.3032902993364854	-63.29811101836687	-2.500345918214609	-5.923018243161385	-18.66135764745868	-93.19405783621883	-30.52306116608976	77.53621189217999	-8.002071280810981	-52.44366289443749	77.31574332616388	-15.33330561776414	19.31909301556706
0.3057679370955254	-63.91364494424685	-2.18302667140336	-6.714677223286708	-16.44176972036148	-79.76387013889574	-28.19985331360324	82.74426202128194	-9.136525980415104	-50.6026050613329	78.46728789129303	-16.42461765159774	18.50963350081814
0.3077009768984096	-63.88193689211715	-1.981770785915014	-7.15829478326088	-15.23958983668243	-72.87251797911246	-27.28231007556668	85.15649291280954	-6.635397510457153	-49.98239621362454	78.33895325288216	-16.7586098457922	18.24258890384088
0.3090589714577417	-63.595819395517	-1.773579215109878	-7.43295404436863	-14.80772378563163	-69.62172894201933	-26.82667965420061	86.63917605516374	-4.611276514351591	-49.75463232954373	78.43062485714599	-16.84131662764295	18.15536471028114
0.3098208116596206	-63.26756561568192	-1.59736398104077	-7.580301864836606	-14.77423965987058	-66.89350576698632	-26.61045342362393	87.08766270923032	-2.819866788991604	-49.74537754270879	78.62026740785919	-16.80078134910474	18.16230455173004
0.31	-63.17593370188417	-1.550509939646946	-7.61429339421373	-14.77691414594439	-66.16936998983397	-26.56356634551226	87.15180262025869	-2.339324152171937	-49.74606340491462	78.67558187125353	-16.78280535199419	18.16844346146906
