DataType=double
version=3
OpenSimVersion=4.5
endheader
time	bflh_r	bfsh_r	gasmed_r	glmax2_r	iliacus_r	recfem_r	soleus_r	tibant_r	vasmed_r
0	0.06558078057413261	0.0447070289663648	0.02161729301863307	9.514480992090306e-05	0.1331012981012667	0.007804854311535021	0.0001402055122647978	0.07795844540383796	0.0002856117839435226
0.0004542507337261803	0.0621679127812314	0.04523530470384569	0.02144362242699599	9.800864063113022e-05	0.1339269149941446	0.0008507525079708063	0.0001456303731900529	0.07701207265865948	0.0002709054133062411
0.001515784775164009	0.06365558361260036	0.04438248708593204	0.02198788221877201	0.0001005835224967965	0.1344496524735764	0.000441117474726256	0.0001493218322612221	0.0766726414532887	0.000276429682488268
0.003164446411839883	0.06633209922678651	0.04301324565224184	0.02268924313401235	0.0001028152795757069	0.1338023053992277	0.0003159672347980383	0.0001523475080051705	0.07612275371350674	0.0002818018942786435
0.005374104194047435	0.07115943470988273	0.04114904413634742	0.02374395255782279	0.0001049937733026068	0.1319172398002945	0.0002182924860983861	0.0001551169127108373	0.07567524785487739	0.0002868924773957487
0.008109887166813518	0.07849797171520864	0.03894387736626045	0.02515452502399644	0.0001066084394961247	0.128472861020006	0.000144925463152187	0.0001568699256873228	0.07557148048188499	0.0002902713020590404
0.01132864367758793	0.0875020778025651	0.0365323754022276	0.02678129324321575	0.0001076769842783549	0.1238873248220659	0.0001226843809464462	0.0001576915147198917	0.07570802558496363	0.0002921588043490356
0.01497960949210789	0.09744669907934729	0.03405722171353819	0.02848462507110403	0.0001080370121999464	0.1183927585112533	0.0001557355289928032	0.0001573972422552625	0.07601084090325178	0.0002921964206662578
0.01900520557876997	0.1085980006320058	0.03161163640976502	0.03019801276818079	0.00010670811997865	0.1112033584431814	0.0002593919005935547	0.0001545293655268427	0.07659035149266416	0.0002877263685008558
0.02334194532480019	0.1202875459391345	0.02930401455794139	0.03175114176209263	0.0001031867272984931	0.1022619679973995	0.0005893839712196043	0.000148371873324734	0.07734073642459521	0.0002779440476267804
0.02792143545395889	0.1314178113939018	0.0272834279877989	0.03291636988864307	9.70711227990353e-05	0.09163261285182728	0.001027022977911469	0.0001384254182376049	0.07805039300265165	0.0002614605383629302
0.0326714545037473	0.1409039072328293	0.02566709690990776	0.0334705393179351	8.794411529985308e-05	0.07913706483488452	0.001063420201227782	0.000124216669110727	0.07843461938982514	0.0002355549069745323
0.03751709174442691	0.1476368237414436	0.02454550426719099	0.03325476736861222	7.604180357042075e-05	0.06538199495297459	0.0007150264623277088	0.0001061658091457499	0.07827647474726913	0.0002010318650520905
0.04238192853981579	0.1514945738516933	0.02391425740516366	0.0323638744323954	6.241238288290707e-05	0.05145186532129569	0.0002908870077818842	8.578731893824284e-05	0.07764711956131297	0.0001617998700907008
0.04718924350439309	0.1523231897073657	0.02368227151142458	0.03092117840231292	4.840633510392724e-05	0.03859866216866176	0.0001332319241134767	6.503138737445858e-05	0.07653828093066081	0.0001227023408704017
0.0518632224455918	0.1501621244796035	0.02371985171461403	0.02907171721491093	3.523505395117218e-05	0.0276275109440474	0.0001005010178258976	4.56929677731617e-05	0.07489686975854544	8.658679859951609e-05
0.05633015401013977	0.145118892306861	0.02404636043432179	0.02694106712737488	2.384342621387873e-05	0.01933003321619602	0.0001145343986149464	2.917519476346597e-05	0.07284243044486968	5.578485001209485e-05
0.06051959218465776	0.1377134527093099	0.02457235303762844	0.02467974498619878	1.479579205610952e-05	0.01395987076889056	0.0001943695301222106	1.627076334938096e-05	0.0704794232927073	3.185808607724724e-05
0.06436546733510043	0.1285168056989426	0.02526710002460554	0.02241015305952896	8.341352007330306e-06	0.01160853002822409	0.0004548722920101508	7.296340054952468e-06	0.06797869863881398	1.581876567781746e-05
0.06780712831226307	0.1184615617073463	0.02615195293796837	0.02032629910923578	4.792847730742899e-06	0.01223167114462978	0.0006311992162941946	2.698017515990799e-06	0.06564499353533891	7.576849760868995e-06
0.07079029933648544	0.1083839596051288	0.02796858072202987	0.01854489280359059	3.948696649503603e-06	0.01648124348697026	0.0007264503369366976	2.201962042669696e-06	0.06454382075725833	6.584125939674774e-06
0.07326793709552543	0.09794163542889957	0.02807674293083049	0.01676343557960091	3.640735693775602e-06	0.01893068785950572	0.0008460633566482481	2.347901333647467e-06	0.06147259329767193	7.023535176870175e-06
0.07520097689840965	0.08928801910768158	0.02882244574609978	0.01528967915143976	3.389182358869353e-06	0.02176945156857601	0.0007219290937614484	2.569185830904305e-06	0.05963549911515572	6.72066550318489e-06
0.0765589714577417	0.08266768357492603	0.02940749360163703	0.01417893117493113	3.353824785522771e-06	0.02414387355217355	0.0007236756279140484	2.959069921627529e-06	0.05826843671663412	7.240564790754268e-06
0.07732081165962061	0.07964336464651181	0.02998710620949179	0.0137840238954044	4.375319661130863e-06	0.02677556396047697	0.001166835499492414	4.642200201427693e-06	0.05811800634751173	1.181470989299047e-05
0.0775	0.08820893084741455	0.03095647416823326	0.01617541016888678	1.298061444979903e-05	0.03414193224351449	0.002354280184971394	1.680143164859749e-05	0.06259649245036597	3.873655344692784e-05
0.07795425073372618	0.07512589657364158	0.03002079085880097	0.01293692808150003	3.525514977939007e-06	0.02698837015308692	0.0007854117042519261	3.703260945303889e-06	0.05667446981158877	8.607400576908055e-06
0.07901578477516402	0.06949956322068081	0.0301620901730528	0.01195781229088072	3.146397596397995e-06	0.02802224881123914	0.0003889693270200501	3.537253908190775e-06	0.05504807034241026	6.747267382176569e-06
0.08066444641183987	0.06008749259291567	0.03064987687559062	0.01041879265885277	3.432212478617216e-06	0.03112592105183999	0.0001994515102442762	4.580431887631839e-06	0.05272763387951408	7.746684428564681e-06
0.08287410419404742	0.04731551678908057	0.03150475910377967	0.008494946170515334	5.290823915648419e-06	0.03696248571702897	9.306102045420568e-05	8.168997014342175e-06	0.04992345336634023	1.365839168544281e-05
0.08560988716681352	0.03181206183442997	0.03270801651535813	0.006390948325422783	9.603244176458176e-06	0.04612307411194859	6.385427214031365e-05	1.556786090682414e-05	0.04687379081565673	2.682901033098469e-05
0.08882864367758794	0.01503045445835788	0.03432098417293839	0.004412839326781963	1.693839668372637e-05	0.05889165095773371	0.0002210129291797135	2.752494934777559e-05	0.04414497329208766	4.906433345760669e-05
0.09247960949210787	0.001133073373086705	0.03628870357330899	0.003285758119978283	2.793630843025921e-05	0.07664522932234712	0.004638116741022855	4.418820221451281e-05	0.04341342972504238	9.518764864233221e-05
0.09650520557876997	2.130877229493094e-05	0.03912505801060205	0.004815260102143239	4.429285432069707e-05	0.1010020315074743	0.01719483244152256	6.70154110552722e-05	0.04879891872815995	0.0001818507699568306
0.1008419453248002	2.31248675334785e-05	0.04199561584738367	0.00687265739191593	6.405079007906836e-05	0.1299975096840254	0.03379791467481351	9.426251784602439e-05	0.05524305973539644	0.0002911009587820514
0.1054214354539589	3.632408500492911e-05	0.04491057715581102	0.009235878089844572	8.673576903867636e-05	0.1627999744947406	0.05295122161363698	0.0001254956747923569	0.06223035713362625	0.0004167994951678563
0.1101714545037473	0.0005297570506976461	0.04830095428738924	0.01191230455523209	0.000111581017053984	0.1985246350465235	0.07315342935810946	0.0001597996608960634	0.07016930154656997	0.0005518918558136293
0.1150170917444269	0.001079318393670146	0.05212046585262464	0.01476094675377214	0.0001378439126274932	0.2359497860593878	0.09309393919206639	0.0001962739478545673	0.07868632725424388	0.0006900511160830009
0.1198819285398158	0.0003902700744328352	0.0560610441436	0.01748551431103055	0.0001647815967412002	0.2741345589021104	0.1123960603884057	0.0002339160886244682	0.08694746709994679	0.0008280767809782232
0.1246892435043931	9.662173055542741e-05	0.05993243785417908	0.02031413286371009	0.0001920512198020423	0.3124000190063627	0.1316578560873748	0.0002720246137440477	0.09527354702184979	0.0009668421645655459
0.1293632224455918	8.235239785404675e-05	0.06342884998520061	0.02315046766561817	0.0002189686054951415	0.349738971089756	0.1508527763186024	0.000309568208725181	0.1032327866924479	0.001104362266766295
0.1338301540101398	9.320319269695137e-05	0.06642130166580512	0.02583889954693929	0.0002444928095368846	0.3849249197130524	0.1695556041546325	0.0003450675257619502	0.1104794511651322	0.00123638569535393
0.1380195921846578	0.000116956659332193	0.06887517649897276	0.02827907712967971	0.0002677142272236563	0.4169188858378484	0.1873411198651359	0.000377232635335419	0.1168568183888556	0.001359009930847903
0.1418654673351004	0.0001478537247090973	0.07078808983687304	0.03040144761047849	0.0002879896859705451	0.4449750674389779	0.2038203312320091	0.0004051654003046988	0.1222704433553282	0.001469186272158128
0.1453071283122631	0.0001745326951982246	0.07218418931247267	0.03216963611662855	0.0003049801918981633	0.468663257447657	0.2186283889781879	0.0004284170525011219	0.1266798173595035	0.00156478425712112
0.1482902993364854	0.0002008559633331338	0.07311934994942558	0.03358023447035584	0.0003186223191409827	0.4878661669423149	0.2314679593157982	0.0004469393313366	0.130112753886872	0.001644654644056507
0.1507679370955254	0.0002381517781503951	0.07370508489242547	0.0346507694699982	0.0003290344538803045	0.5027381628170088	0.2421216528665115	0.0004609470063041206	0.1326836699745789	0.001708415514401731
0.1527009768984096	0.0003041167369732075	0.07398087685955747	0.03542280733266478	0.0003365446119916139	0.5135483997880931	0.2504423826821844	0.0004709477714732591	0.1344522027680045	0.001756485655190042
0.1540589714577417	0.0004653937297191194	0.07401956911416652	0.03594602363321931	0.0003414843379323438	0.5206238680792531	0.2563266561240427	0.000477449089049418	0.1355348290148305	0.001789436018192233
0.1548208116596206	0.0009815560504543757	0.07392556689568741	0.03631346042105275	0.000344293182411619	0.5244309329587831	0.2597731453269743	0.0004810961811654424	0.1361608601692067	0.001808457463645072
0.155	0.007280429760477445	0.07396908395991399	0.03780344744672268	0.0003485399485115012	0.5285801274971911	0.2638318831226573	0.0004864638301977567	0.1388759013443145	0.001832971206208914
0.1554542507337262	0.0006347025457403697	0.07401074482720833	0.03644709404182044	0.0003462273676995438	0.5275156095498437	0.2623318334020486	0.0004836381064367153	0.1365641896969556	0.00182223929634821
0.156515784775164	0.0003415255790523266	0.0741760888373417	0.03672379239895052	0.000349518309860828	0.5327343782055619	0.2667143342571835	0.000487943932927585	0.1373666182486476	0.001845760810328169
0.1581644464118399	0.0002395817032696301	0.07424557888707879	0.037158342206818	0.0003541563795545605	0.5401184149811568	0.2736015712550409	0.0004938819609362001	0.1384834857914682	0.00188121163155747
0.1603741041940474	0.0001899354318165019	0.07407946387004323	0.03765079747843393	0.000359443129310015	0.5488004563363698	0.2827879343217725	0.0005004417144183349	0.1396414100138232	0.001925994346068891
0.1631098871668135	0.0001644738522181816	0.07356158665723155	0.03808931343190165	0.0003643957203481992	0.5575941162284769	0.2939039047638881	0.0005062103392337862	0.1405880652449716	0.001976182780039869
0.1663286436775879	0.0001634683988384562	0.07264368822792756	0.03829377819856377	0.0003673834743986681	0.5648231959763815	0.3065582733623738	0.0005088252151340361	0.1411029090488876	0.002026002745604293
0.1699796094921079	0.000171243314661718	0.07116035854032265	0.03808547817134105	0.0003668199001459597	0.5687343773502689	0.3204518004710485	0.0005059659730730764	0.140842964208097	0.002070095384662113
0.17400520557877	0.0001883632583003196	0.06893673192060519	0.03725878162493941	0.0003608368563594442	0.567213880602281	0.3350768693634715	0.0004949221676471234	0.1394163148775975	0.002101639145888555
0.1783419453248002	0.0001809890040369348	0.06561452379513597	0.03571438495531174	0.0003485528227870738	0.5587428641508624	0.349877279729548	0.0004744324216763822	0.136287777116992	0.002116350114657244
0.1829214354539589	0.0001567621915332965	0.06123407126982463	0.03339591316174937	0.0003293920098802527	0.5425432073245607	0.3641473802757889	0.0004437444840656499	0.1313871257747432	0.002110324151722069
0.1876714545037473	0.0001185761271847396	0.05590208751655888	0.03032051936551242	0.0003034429706199025	0.5185440275796437	0.3772516189885259	0.0004030855967179312	0.1247753966259674	0.002081719947078863
0.1925170917444269	8.598183054289943e-05	0.04964489202283399	0.02659290615154428	0.0002715834530855057	0.4874463642246321	0.3889771816883431	0.0003537836487058955	0.1165339912920539	0.002032249027574617
0.1973819285398158	6.794759446331723e-05	0.04259016796867246	0.02237828461111135	0.000235275223831063	0.4507685395116577	0.3994617689707766	0.0002979931354486982	0.1069354745786259	0.001966392507076795
0.2021892435043931	5.566619320380967e-05	0.03497663651282257	0.01785859618260286	0.0001961931824342377	0.4105656478503023	0.409255862273548	0.0002381398006718671	0.09642981455681528	0.001890588538987115
0.2068632224455918	4.494447609768183e-05	0.02704813056847034	0.01336053159458086	0.000157258712895495	0.3698526772174879	0.4186152728820629	0.0001785322554230192	0.08554036576858304	0.001813729744337374
0.2113301540101398	3.720030306781569e-05	0.01966577369906445	0.009277595289488603	0.0001218997963931941	0.33255280904928	0.4269581642029921	0.0001244019412864247	0.0754326616793865	0.001743395648149838
0.2155195921846577	3.131857410868143e-05	0.01349251109391431	0.005985053014269793	9.339380109632802e-05	0.3022211935232612	0.4337842404746713	8.072719862143339e-05	0.06704744085751646	0.001687003094338511
0.2193654673351004	2.770482584422465e-05	0.008910449908833159	0.003644820758766843	7.315811678335166e-05	0.2805492451207125	0.438924103209801	4.966405972616327e-05	0.06090293460943529	0.00164792288074988
0.2228071283122631	2.64364270689424e-05	0.005813436587253083	0.002114941631759443	6.001242446633242e-05	0.2667367091230021	0.4431946848885547	2.934659004909304e-05	0.05687365950426007	0.001625593618989617
0.2257902993364854	2.791279853397437e-05	0.003812284490951545	0.001149474535856111	5.18491527881706e-05	0.2587499812835396	0.4473499127256367	1.651859996891338e-05	0.05444052229892313	0.001616673064556858
0.2282679370955254	3.263730787838534e-05	0.002555153175939358	0.0005486823001754373	4.692579220235357e-05	0.254708629578565	0.4516748482867632	8.530696941092223e-06	0.05310599777993919	0.001617280708402346
0.2302009768984097	4.350914491457315e-05	0.001878589079947472	0.0002156879366221018	4.435032254202139e-05	0.2534545949839989	0.4558469933770148	4.091461846752777e-06	0.05258641794197452	0.001623888017879534
0.2315589714577417	7.120332931315449e-05	0.001730328842912934	0.0001137887918310607	4.372788333461532e-05	0.254296996326804	0.4592853600972223	2.689948872794979e-06	0.05273623201041287	0.001633490239915719
0.2323208116596206	0.0003119376553644631	0.001953374181871498	0.0001856729158679099	4.422239802762811e-05	0.2560479791019267	0.4615789240979356	3.118823386348597e-06	0.05333304148604362	0.001642405156504804
0.2325	0.001366976736686245	0.004511545102367012	0.001394154283470351	5.337150242898987e-05	0.2673934458695592	0.4616758765382717	1.6822676368922e-05	0.05722367821075641	0.001668004550833698
0.2329542507337262	0.0001276950350021213	0.001680535903389897	8.217957681024981e-05	4.373951796764829e-05	0.2560955409820346	0.4633075865371591	2.154906781427063e-06	0.05311393853057542	0.001646764801038785
0.234015784775164	7.701298126822553e-05	0.00140078141136824	2.71471125792352e-05	4.363340307374813e-05	0.257157148570498	0.4665970299824737	1.528437087649654e-06	0.05311809542437332	0.001657290084324952
0.2356644464118399	7.197020236832735e-05	0.001265961577635462	1.851582125728125e-05	4.41090849192729e-05	0.2601068460828319	0.4724424077263527	1.428016988321626e-06	0.0536064832010365	0.001677844056782502
0.2378741041940474	8.278628746519587e-05	0.001140630192355452	1.865902644650559e-05	4.493213748428798e-05	0.2648325326312013	0.4814320945069777	1.415857255175857e-06	0.05446168717633133	0.001709711458023068
0.2406098871668135	0.0001039813645125788	0.00102663411355548	2.334841465781404e-05	4.61200019464765e-05	0.2715865684146801	0.4940674534727863	1.450428764286707e-06	0.05573718578506814	0.001754592655148568
0.2438286436775879	0.0001335371575127623	0.001540263000627056	0.0002606020821924535	4.968456603271539e-05	0.2829326016967741	0.5102363870202651	4.582155492051032e-06	0.05826336276676188	0.001817701948619414
0.2474796094921079	0.0003070885422272197	0.004921453284484543	0.001631832478436077	6.33069684583364e-05	0.308163837819826	0.5288587761499612	2.25259107364883e-05	0.06506102591476703	0.001916776130273601
0.25150520557877	0.0005711472460963575	0.01117384993055786	0.004057323939774585	8.63074249233512e-05	0.3464359966804121	0.549360143123604	5.43578884209925e-05	0.07600593009035726	0.002048059353222386
0.2558419453248002	0.0008962306382498779	0.02070585185746487	0.007645518453425353	0.0001196617410507947	0.3990341971861467	0.5714347022526631	0.0001016040718025142	0.09158816140477576	0.002213264500606868
0.2604214354539589	0.001398917858424948	0.03311510271249025	0.01228968366429723	0.0001623282051842893	0.4648413151808745	0.5959004588838925	0.0001625672965490234	0.111398634306381	0.002412178348920838
0.2651714545037473	0.002216450999210142	0.04776008176837878	0.01778608463223454	0.000212368637406971	0.5415845683632684	0.6235012894098907	0.0002342103054993435	0.1346909544264029	0.002641856955834317
0.2700170917444269	0.003270858568337994	0.0641367193820037	0.02388058492393377	0.0002673543919352249	0.6249922401201053	0.651085635936923	0.0003133237129259788	0.1603662657869026	0.002885204986302068
0.2748819285398158	0.003979486925305646	0.08257065545852865	0.03027418336663898	0.000324606006402301	0.7088380618376262	0.6690380215270901	0.0003973128413176911	0.1874097542327925	0.003103258182508478
0.2796892435043931	0.003670383094424104	0.1031310004657952	0.03665864402813837	0.0003814771378546546	0.7865083763934626	0.6675661965600035	0.000483635760459056	0.2144779849533286	0.003256545560981577
0.2843632224455918	0.002626983247054551	0.1253145537691386	0.04281250291521449	0.0004351508248096933	0.8525927489981332	0.6419856752611276	0.0005686954385312518	0.2403948246845003	0.003321823831113136
0.2888301540101398	0.001216429657032573	0.1474713357184647	0.04835966937458711	0.0004822353154572885	0.9041603691809703	0.5974853046224875	0.0006465915909890655	0.2637064840670156	0.003306690010800368
0.2930195921846577	0.0006775740511939931	0.1681689196119644	0.05316765189523493	0.0005203835906777461	0.9401740052120847	0.541161615255827	0.0007126812282847792	0.2837448885344774	0.003227842868834269
0.2968654673351004	0.0002003903945497745	0.1861514202476157	0.05689972185741179	0.0005484284386558352	0.9611490139699616	0.479642613407982	0.0007642653999857336	0.2994578135149987	0.00310386834980142
0.3003071283122631	0.0004050392837440875	0.2008204518911041	0.05961435877706051	0.0005664534084923857	0.9685995671377747	0.4181305468940205	0.0008006688847717223	0.3109108901015435	0.002952029856423083
0.3032902993364854	0.002102277819325528	0.2121315490589424	0.06156269857056187	0.000575910621452925	0.9656811518044205	0.3612287627241911	0.0008233643213136144	0.3188891794951171	0.002791411642738033
0.3057679370955254	0.00288439889789151	0.2200074403741988	0.06252764762586686	0.0005787754582357842	0.9562700694959014	0.3125380539260977	0.0008349172925750031	0.3230981656126991	0.002639501676502485
0.3077009768984096	0.001903169656839766	0.2249059932698764	0.0626320504051588	0.0005775778151176363	0.9443532487938451	0.274065677880004	0.0008388909045163763	0.3241929383274295	0.002509977563881434
0.3090589714577417	0.0004580671996687799	0.2277016185818352	0.0623878835592195	0.0005750414901291295	0.9337778194469739	0.2470233610267835	0.0008391588436154567	0.3238796066994188	0.002414284497937665
0.3098208116596206	0.000243414222847624	0.2292270338541262	0.06234193505724013	0.00057358223021701	0.9278087681879277	0.2322795468598301	0.0008391587572769409	0.323878764286665	0.00236185311298327
0.31	0.0002624735157928723	0.2295831145031699	0.06234224885792516	0.0005732384674165692	0.9264034247536763	0.2288537925266062	0.0008391479448420381	0.3239010326016621	0.002349651984412313
