DataType=double
version=3
OpenSimVersion=4.5
endheader
time	pelvis_tilt	pelvis_tx	pelvis_ty	hip_flexion_r	knee_angle_r	ankle_angle_r	hip_flexion_l	knee_angle_l	ankle_angle_l	lumbar_extension	arm_flex_r	arm_flex_l	pelvis_tilt_u	pelvis_tx_u	pelvis_ty_u	hip_flexion_r_u	knee_angle_r_u	ankle_angle_r_u	hip_flexion_l_u	knee_angle_l_u	ankle_angle_l_u	lumbar_extension_u	arm_flex_r_u	arm_flex_l_u
0	-0.5456190260719423	-0.1612104709425795	0.9317585430648719	0.4368848513772771	0.3619758109326253	0.04890921368853288	0.9003558221243777	0.7811369651968494	0.2527789215018486	-0.1378472601007629	-0.000143223555975111	-1.032896986428165	0.4191220580874706	1.587342209570569	0.817318419212205	-2.278620915600551	0.9095871667776803	-5.532517638198028	-1.404995861920205	-11.21872699160709	0.3899624514023183	0.06328762935259835	0.6198510809609648	-1.478728990041742
0.0004542507337261803	-0.5454241064845449	-0.1604889182489396	0.9321287869501379	0.4358509876121203	0.3624086113523128	0.04640120853447388	0.8997088152284941	0.7760409658676459	0.2529560339468025	-0.137822153141574	0.0001378202710766163	-1.033565339826414	0.4389088492164341	1.589560321013069	0.8127891602171314	-2.273023959855192	0.9963207727850012	-5.509902264989921	-1.443572822666787	-11.21813578165421	0.3898349764840661	0.04757046376852214	0.6175419691060609	-1.463931165892306
0.001515784775164009	-0.5449336999348002	-0.158798754681468	0.9329859476813921	0.4334455391629137	0.3635750378959346	0.04058013050646908	0.8981285351094781	0.7641339813374086	0.2533697047012314	-0.1377908266683361	0.0007904893858737966	-1.035101008337458	0.4853675974097533	1.59482031900688	0.8021899595043439	-2.259381387640239	1.201192860645125	-5.457390041736184	-1.533989363902143	-11.21516901927031	0.3895740801504324	0.01099324853473282	0.6121250460337648	-1.429405685719895
0.003164446411839883	-0.5440736600960098	-0.1561626806255283	0.9342949543375183	0.4297369114628846	0.365816168895004	0.03165039078919937	0.8954839829375486	0.7456482594978916	0.254011925049378	-0.1378199883736719	0.00179267612483526	-1.03741383302742	0.5575046355733677	1.603031702044666	0.7857240783048021	-2.239345424862835	1.51716722591536	-5.375144925765169	-1.673590548294253	-11.20998459757113	0.3895892497325868	-0.04564760241138677	0.6036090845679776	-1.376428402418067
0.005374104194047435	-0.5427363020377355	-0.1526082599001644	0.9360065741674986	0.4248175031305494	0.3696328152917343	0.01989665595325596	0.8915822048775589	0.7208873840792177	0.2548734996352099	-0.1380022435699331	0.003113661207332155	-1.040377955205572	0.6532842200504732	1.614144680963817	0.7635124448944349	-2.214287391201021	1.936247001100919	-5.262721240610663	-1.857607495542142	-11.20058320164386	0.390473391611464	-0.1197347122555188	0.5919888423936535	-1.306825513379183
0.008109887166813518	-0.5407869846102719	-0.148173400760832	0.9380574952341875	0.4187955885150887	0.3756295427372006	0.005700238323188195	0.8861974761192641	0.6902747755692957	0.255947132506291	-0.138454284977766	0.004712667727010789	-1.043841510305456	0.7709747806736189	1.627996495907806	0.7356621763103027	-2.188382372461189	2.446167919107498	-5.112786313230393	-2.076123417004906	-11.1750421362223	0.3954009881439595	-0.2093104084586144	0.5767300234384587	-1.226851406611457
0.01132864367758793	-0.5380873844540606	-0.1429068295695835	0.9403713678173372	0.4117934050953964	0.3844519072133341	-0.01044288156924666	0.8791291600946127	0.6543998291990897	0.2572396062076591	-0.1392880124371434	0.006537504738998418	-1.047656752430353	0.9065921663411052	1.644428588526054	0.7020018814603912	-2.164458832171782	3.032871772708693	-4.914260414869556	-2.312696028681147	-11.10981493185882	0.408951770833176	-0.3087667602416118	0.5568039569962246	-1.14602762167689
0.01497960949210789	-0.5344992461051035	-0.1368692131031095	0.9428636302588734	0.4039233416138993	0.3967076820479445	-0.02794105210726823	0.8702296048669719	0.6140267050551275	0.2587721579028726	-0.1406166807966138	0.008525667855828228	-1.051694851777367	1.057626590939181	1.662955473166997	0.6630551452598128	-2.147676077415258	3.677059640436588	-4.668130676145938	-2.557948374106059	-11.00184391890842	0.4316586957213393	-0.4170676780361537	0.5319198144930981	-1.06825871692712
0.01900520557876997	-0.5299189780585332	-0.1301340651219481	0.9454442771724378	0.3952995783461826	0.4128921761437505	-0.04615135732558444	0.859442059494581	0.5700466854783516	0.260572285573215	-0.1425175918018518	0.01060695682114281	-1.055848875265631	1.217635154307188	1.683136632308054	0.6189404103480787	-2.139750269386451	4.357860812075368	-4.375539500461398	-2.795944404977096	-10.83876508665015	0.4638867513793916	-0.5269866978996114	0.5015720642186876	-0.9983878509235016
0.02334194532480019	-0.5242730201132987	-0.1227886649609374	0.9480236579348533	0.3860063760499441	0.4333063351572169	-0.06440563270535188	0.8468320084669626	0.5235312998277789	0.2626719317996618	-0.1450499686990556	0.01270465062899263	-1.060048274661409	1.38398174699905	1.7042742543619	0.5703329824595422	-2.147841383261273	5.049072382662867	-4.040113305389155	-3.011874609508883	-10.60450451908308	0.5052768633851497	-0.6380458792529278	0.4651759700037046	-0.9411952894461564
0.02792143545395889	-0.5175573836273155	-0.1149342819096968	0.9505149491538324	0.3761243341979488	0.4579989153210614	-0.08206762483294409	0.8326088663563593	0.4756399565694738	0.2650931703371264	-0.1482089696718794	0.01473858135301802	-1.064254934216386	1.547924994115742	1.725801941301457	0.5175590044304299	-2.171906282813032	5.724579711003985	-3.671489716645652	-3.192230845478773	-10.30039037047905	0.552422656208323	-0.7406696522191787	0.4223252882844086	-0.8989772205079012
0.0326714545037473	-0.5098178443057138	-0.1066862166148695	0.9528416079141161	0.3657026869642184	0.486720792734164	-0.09858213013659683	0.8171013854707944	0.4275916215925644	0.2678343162267848	-0.1519645453509662	0.01662911058250949	-1.068456833922628	1.707641264975782	1.746808299260263	0.4617956774773051	-2.218280776224284	6.35707098704755	-3.281447228597526	-3.3272745425626	-9.920838712076435	0.6015011565975432	-0.8369370027986285	0.3727887587917654	-0.8730437744257094
0.03751709174442691	-0.5011874140890153	-0.09817264747815346	0.9549380544847657	0.354809122752665	0.5189345180605588	-0.1135196136356709	0.8007672910801782	0.3805815561501158	0.2708634004379404	-0.1562112986738924	0.01830164296216806	-1.072656047427835	1.852832859947178	1.766905979038961	0.4033770061057516	-2.282627584022952	6.924550920035223	-2.884758625592319	-3.405426700871391	-9.469499782268079	0.6476035681082164	-0.9140778864903933	0.3165541080638491	-0.8626566151610877
0.04238192853981579	-0.4918405385520486	-0.08953042058968996	0.956756475984312	0.343490223062572	0.5538263404443122	-0.1266024452122055	0.7841211988749062	0.3357703927992603	0.2741083031580867	-0.1608237411221385	0.01969203410017303	-1.076855771677606	1.986035083584298	1.785778282550587	0.3439474670817528	-2.373090417737318	7.405364263030998	-2.496160551656437	-3.427634635315224	-8.943254334804319	0.684449129566155	-0.9776100926328934	0.2540027784513668	-0.8659437031892807
0.04718924350439309	-0.482024314358287	-0.08090411732023839	0.9582658545146819	0.3318443583367818	0.5903965097770945	-0.1377151662661469	0.7677099779843902	0.2941203242608937	0.2774595608586599	-0.1656178731236545	0.02075182069151309	-1.08104841571438	2.095805548652903	1.802745214993287	0.2839842449117593	-2.475975731924557	7.793957237358372	-2.131070091472099	-3.39208886353173	-8.376744390016883	0.7071339004363759	-1.015148945288963	0.1858319605439797	-0.8799170190549681
0.0518632224455918	-0.4719974481148594	-0.07244282146750337	0.959457278242871	0.3199873638187149	0.6275348745422169	-0.1468997367151409	0.7520217744054047	0.2563532833186344	0.2807830108213169	-0.1704337803920353	0.02145332683695587	-1.085208772934622	2.190968101692875	1.817601960250262	0.225652693651605	-2.599325263978906	8.083651760092719	-1.804570627129709	-3.311938074155035	-7.776121614971874	0.7117889150509331	-1.041043046920487	0.1132889481653662	-0.9013688351949822
0.05633015401013977	-0.4620540363355364	-0.06429468110566534	0.9603383391077606	0.3081060821969547	0.6641217822911014	-0.1543243861165457	0.7374968119738549	0.2229728372979431	0.2839370000975174	-0.1750810093498711	0.02179331277458628	-1.089290457238256	2.259436409286039	1.83033924593494	0.1688865221893434	-2.723497836267793	8.28486822609992	-1.525005113064883	-3.185065075649304	-7.162031998105293	0.6969838413761322	-1.038305390941547	0.03795286966318601	-0.9267961773235722
0.06051959218465776	-0.4524580415418217	-0.05660412978050842	0.9609361203764508	0.2964100857533363	0.699101372545227	-0.1602157499691403	0.7244521543470006	0.1942506927835107	0.2867936521448505	-0.1794285653152584	0.02179489377273804	-1.093228148848102	2.318283035813851	1.8408545372997	0.1163729109938415	-2.860431395937312	8.403777276846057	-1.292602840910212	-3.035866080931182	-6.544996679115201	0.6633889870252894	-1.033046355211689	-0.03808694468777574	-0.9532507221639506
0.06436546733510043	-0.443484632370883	-0.04950752100428021	0.9612882755706853	0.2851865905491364	0.7315520021304984	-0.1648210376301096	0.7131070758011905	0.1701932388212565	0.289256261192951	-0.1833303791378172	0.02150645850073026	-1.096941853655123	2.347055890099913	1.849452900817193	0.0668442199122761	-2.977937888290759	8.463273321728453	-1.106307636750006	-2.860220469878683	-5.961371143746595	0.6142583769218768	-0.995030360846064	-0.112660587379111	-0.9780343522658637
0.06780712831226307	-0.4353412914297385	-0.04313073973818327	0.9614456845126705	0.2747106340644149	0.7607003820038849	-0.1683680859742325	0.7035374060426115	0.1506277735793248	0.2912719129684649	-0.1867331983265823	0.02099850048983692	-1.100346021498638	2.383354603860656	1.856060066170043	0.02461476755112584	-3.109889041636971	8.469334364449567	-0.9577693120916846	-2.697688306974622	-5.405805520457315	0.5545116616411594	-0.9801543014126419	-0.183128305955622	-1.000026730726745
0.07079029933648544	-0.4282751811979475	-0.03758528765059521	0.9614564727044339	0.2653542953265266	0.7859663536606512	-0.1710533082200811	0.6957776331784077	0.1351765204016311	0.2928332350268101	-0.1895048437377255	0.02035692657876101	-1.103355529189752	2.333163092136797	1.861854775631563	-0.01933518300742568	-3.140418102159491	8.472380390167874	-0.845129930972305	-2.488128262142929	-4.965817110291125	0.4903240686046015	-0.8472540603129861	-0.2475671723500414	-1.017185412390874
0.07326793709552543	-0.4225858257157027	-0.03296640045903518	0.9613599737160161	0.2575811328800839	0.8069537659701692	-0.1730407746577633	0.6898628384972018	0.1233072696115978	0.293972702480837	-0.1914094455169367	0.01967486203687115	-1.105891723227028	2.273584446884618	1.866414836464179	-0.05705437413558218	-3.15133488869798	8.461332197545204	-0.7596609166157582	-2.29638956604141	-4.60369635700823	0.4281091235297028	-0.7116358143676793	-0.3032410349752921	-1.03002058653917
0.07520097689840965	-0.4181806452715493	-0.02935585233911174	0.9612270852048789	0.2514154864511595	0.8232731106017088	-0.1744464985590005	0.6855290705772759	0.1147254302701113	0.2947487476425287	-0.192766240754444	0.01904593242897774	-1.107892314829187	2.285416284215712	1.869143790715188	-0.0802516182351744	-3.229690906371934	8.421242410180733	-0.695483501450179	-2.188212173222222	-4.273890050941102	0.3740420694316586	-0.6941529829269366	-0.3476625848380944	-1.039742909680341
0.0765589714577417	-0.4150836634132468	-0.02681622191855093	0.9611059418299828	0.2470051148885495	0.8346901631118625	-0.1753622439080851	0.6826184983281816	0.1090712119234276	0.2952292015536636	-0.1936824633251683	0.01855213811764508	-1.109308425778956	2.272436835181686	1.871150486440358	-0.0984629292360733	-3.262389924832585	8.393258426212583	-0.6535205204443546	-2.095906078433214	-4.055496186013944	0.3331010045857519	-0.6503482612905804	-0.3796950522996664	-1.045696487537621
0.07732081165962061	-0.413353345593532	-0.02539029995920307	0.9610272481594191	0.2445103446996485	0.8410770258796556	-0.1758512902280897	0.6810401046862863	0.106029769495784	0.2954738504863694	-0.1941713709055131	0.0182559433455631	-1.110106277119792	2.273782830950319	1.872158725572436	-0.1077363162317981	-3.291095558500666	8.372501992341491	-0.6303678412997837	-2.05054314056096	-3.926302737498117	0.3090919826284177	-0.6388288275911886	-0.3979021012636083	-1.048876071518755
0.0775	-0.4129455974624031	-0.02505481464767973	0.9610077774216972	0.2439197105021412	0.8425767768728183	-0.1759637655988416	0.6806734122757081	0.1053291395346456	0.295528729758585	-0.1942860335841488	0.0181842584706059	-1.110294295038684	2.27084269250111	1.872429826730045	-0.1102362506947505	-3.294179852147856	8.368509415281906	-0.625078543186532	-2.037525359051095	-3.898266634273859	0.3033239589008423	-0.6312169184903542	-0.4022381659636411	-1.049550497130941
0.07795425073372618	-0.4119146449255335	-0.02420411521105613	0.9609563733712702	0.242420387368205	0.8463758360210232	-0.1762446728955211	0.6797545122125138	0.1035753552714604	0.2956631656174301	-0.1945700214849325	0.0179990450815231	-1.110771448578924	2.268243541441916	1.873060794279377	-0.1160829545524427	-3.307263397186655	8.357518183650084	-0.6118083799456584	-2.008088289644174	-3.823367671040063	0.2885398539434605	-0.6191742409913674	-0.4132280271977286	-1.051282827980343
0.07901578477516402	-0.4095103255597549	-0.02221510601153494	0.9608259303621066	0.2388928419176883	0.8552308921022168	-0.1768784353465908	0.677660356875778	0.09961011327120961	0.2959507441706625	-0.1952124887040627	0.0175467424793936	-1.111889505986803	2.26156683513146	1.874338726443596	-0.1296679812604211	-3.338871096731833	8.325522752445057	-0.5826173955509057	-1.937163192122977	-3.647043529103177	0.2530529394870786	-0.5912492683538941	-0.4389628568382155	-1.055163278788687
0.08066444641183987	-0.4057910304701788	-0.01912346468110679	0.9605948325335665	0.2333480127839365	0.8689132552401828	-0.1778041347645077	0.674559103103801	0.09382555144928972	0.2963207624563433	-0.1961509643961049	0.01678987437903547	-1.113633667627252	2.250024445511586	1.876090699515025	-0.1506585521471507	-3.387455962756496	8.271505012312456	-0.5409966304705089	-1.824392919113172	-3.369724124365033	0.1952827747505523	-0.5470184070891855	-0.4792712263513077	-1.060551338971259
0.08287410419404742	-0.4008393708371892	-0.01497597325536575	0.9602310110474506	0.2257929334344054	0.8871007384485506	-0.1789427463247783	0.6707006155171298	0.08679358540284288	0.2966622330485471	-0.1972926056205648	0.01567054073282929	-1.115983892467477	2.231133967474786	1.877742499762133	-0.1786091081730408	-3.450133135988971	8.18864420296048	-0.4905269606372094	-1.666816994511574	-2.994415887727005	0.1128341582949131	-0.4859168956654116	-0.5339931590420962	-1.066396921685617
0.08560988716681352	-0.3947731203175728	-0.009836924254572589	0.95969532033925	0.2162534836387421	0.9093493471968388	-0.1802081003931187	0.6664152065030128	0.07924325176174635	0.2968225884897733	-0.198513757783914	0.01411567958751843	-1.118908379531376	2.202778254704594	1.879103432985423	-0.212967310399126	-3.522969185343945	8.074118633541042	-0.43597597948756	-1.465310782850924	-2.524257181152834	0.002998655445464848	-0.4058194280211946	-0.6029087445847081	-1.071035851148539
0.08882864367758794	-0.3877453048831347	-0.003786766889723521	0.9589451901428855	0.2047849325646665	0.9351020068859001	-0.1815224436517519	0.6620877707164019	0.07201700292363922	0.2966104757024255	-0.1996585721678609	0.01204243437036641	-1.122359023523682	2.16273468030081	1.88004456477004	-0.2530736684943992	-3.601341921729458	7.925709526401084	-0.3825843020710904	-1.222365077445914	-1.965101475097844	-0.1366073136652808	-0.3043427463726229	-0.6855924773536799	-1.07224556739091
0.09247960949210787	-0.3799462105670463	0.003077199348845976	0.9579388341751838	0.1914962185004735	0.9637153263991708	-0.1828293540949945	0.658140509505592	0.06600521997576264	0.2958037687277295	-0.2005474947881811	0.009365330545075976	-1.126267085570234	2.10800674501235	1.879825818092671	-0.2981298052869248	-3.675503374011233	7.746997142978431	-0.3357868113360678	-0.9388480532716387	-1.327963718671133	-0.3073622114559473	-0.181209056872965	-0.7812319738104088	-1.067433446835262
0.09650520557876997	-0.3715994447932398	0.01064186343611352	0.9566396124801549	0.1765680882219565	0.9944905574143977	-0.1841046559405971	0.6549999257582928	0.06207320082525475	0.2941653752886498	-0.2009879060247366	0.006004905323192894	-1.130539410420767	2.037053588582751	1.878208747014079	-0.3472491430675956	-3.737207451530344	7.54252854174441	-0.3006036259966733	-0.6207163335478294	-0.6259767712381956	-0.5087033356679137	-0.03610398021410344	-0.8885819471152083	-1.053572811446028
0.1008419453248002	-0.3629520073246155	0.01878017204084925	0.9550202737167557	0.1602676817741898	1.02672549866273	-0.1853615873170761	0.6530580746289341	0.06098872125041216	0.2914663929866191	-0.2007899381135865	0.001897780437233279	-1.135056475663891	1.949028193149874	1.874666177962283	-0.3993993908766152	-3.774974020108844	7.323487177354311	-0.2828661231362881	-0.2746244322071603	0.1243054901052627	-0.737781733480252	0.1285726777313161	-1.00571284633667	-1.027607397464769
0.1054214354539589	-0.3542612451445547	0.02735276136831881	0.9530672938401956	0.14295358471317	1.059730476849575	-0.1866618420434167	0.6526346342458632	0.06334856493148089	0.2875157351076268	-0.1997917876865741	-0.002992765855359528	-1.139674374785079	1.844726180330458	1.868877450438151	-0.4532950179923769	-3.78039225021679	7.091004278959526	-0.2889745025272066	0.0889206146111623	0.9035886931269212	-0.9887100345729736	0.3078636607381915	-1.130193240360031	-0.9867900533337473
0.1101714545037473	-0.3457759106769029	0.03621096549789566	0.9507844063060281	0.1250665932426641	1.092856646777354	-0.1880910051353584	0.6539391317133239	0.0695206988587489	0.2821915198061677	-0.1978854933604123	-0.008667433399994956	-1.144230468052179	1.726540045291163	1.86046703260908	-0.5076403779602847	-3.743285526939413	6.859488834910575	-0.3152021880329774	0.4585916837327741	1.691067517262755	-1.253304572884667	0.4945190035404812	-1.258928425790173	-0.928802895010147
0.1150170917444269	-0.3377178527034969	0.04520035461554762	0.948193887276676	0.1071166965817497	1.125562432399408	-0.189704204424797	0.6570472904010967	0.07960463029349596	0.2754671310333123	-0.1950350653985578	-0.01508196757187584	-1.148552528613128	1.598352026850976	1.849412823015796	-0.5612374056710066	-3.656948570799393	6.643994512144172	-0.3513416143328167	0.8213342289349548	2.465603029074138	-1.52117462799348	0.6807853107141173	-1.388120814614541	-0.8520417474227475
0.1198819285398158	-0.330264885967546	0.05416497232023773	0.945337125214565	0.08964459300539349	1.157423687273513	-0.1915041205308192	0.6618887785533073	0.09341842326770061	0.2674304037136607	-0.1912887444915729	-0.02214284076668618	-1.15247205113994	1.465205229261346	1.835595144905285	-0.612821363186275	-3.516935827469617	6.460781219171132	-0.3882441179035108	1.165175075984552	3.206669401022837	-1.780665870008308	0.8570118596202754	-1.513873997743853	-0.7561040064176243
0.1246892435043931	-0.3235395775703084	0.06295116596587907	0.9422735256766539	0.07317668590659959	1.188119537983176	-0.1934509342228062	0.6682542165763117	0.1105099491087448	0.2582849133877216	-0.186782640005797	-0.02970776654754145	-1.155840328016126	1.332990689383666	1.819329656899929	-0.6612542742327524	-3.325507574701057	6.315851716534373	-0.4208079197877916	1.4778759701763	3.896634953222541	-2.020899858650529	1.014416232761794	-1.6322341485576	-0.6419549044079997
0.1293632224455918	-0.3176040948176849	0.07141266288588347	0.939079459191943	0.05816907989143472	1.217384964821945	-0.1954809535171363	0.6758087295678183	0.1302055093831345	0.2483349407496779	-0.1817252399707283	-0.03759136759321615	-1.158544734815288	1.207583993863009	1.800875465547352	-0.7047442201463635	-3.087515402352898	6.213303154566516	-0.4469174810309413	1.748677630389555	4.523580789007836	-2.232609829800979	1.145536169200638	-1.739762755912269	-0.5121695032974176
0.1338301540101398	-0.312467258265501	0.07941256477109934	0.9358474079666711	0.0449759322298306	1.244982427439535	-0.1975229075669727	0.6841299770230218	0.1516694137648945	0.2379567268793015	-0.1763748163625445	-0.04557618001960881	-1.160523104726408	1.093588815592834	1.780517387537381	-0.7414994319075467	-2.81183362779482	6.147992534173275	-0.4662239894898974	1.97052539781274	5.079342027538009	-2.409542623964185	1.245539963835697	-1.833731009865333	-0.3707876402596253
0.1380195921846578	-0.3080956281233158	0.08682768772661813	0.932677137387836	0.03381056748638162	1.270661037539129	-0.1995010344557022	0.6927562785567304	0.1739699152380584	0.2275605389276574	-0.1710065075864665	-0.05342690681324871	-1.161771663582094	0.9949715070019857	1.758994349151435	-0.7711592684248549	-2.511829422091727	6.115467564504643	-0.4767062487518441	2.141283238974473	5.559802224676073	-2.548936747969453	1.312532363638431	-1.91250276836719	-0.2227867612801551
0.1418654673351004	-0.3044283102500815	0.09355113276282034	0.9296660226917525	0.02473397737228156	1.294158237383434	-0.2013409459541424	0.7012371872291741	0.196139657252017	0.217552082525902	-0.1658826842350571	-0.06090645281985149	-1.162346202369295	0.9138506676894509	1.737112050253854	-0.7940189827030995	-2.203322312690202	6.106869945661687	-0.4789091431676704	2.263410340052404	5.963217211122408	-2.651623356697992	1.347578366459719	-1.975568224478668	-0.07394057375120688
0.1453071283122631	-0.3013947307003492	0.09949342987801495	0.9269033362551575	0.01766274329714129	1.315186338048782	-0.2029830812358045	0.7091726299055539	0.2172384826520538	0.2082999062371198	-0.1612252430371588	-0.06779073562233245	-1.162356406075465	0.8505916168569909	1.71575521956865	-0.810846437723263	-1.901939648759415	6.115624047557386	-0.4743297993649533	2.343240327000076	6.292239987284496	-2.721354443675466	1.354964317417742	-2.023602366449967	0.0696252340882535
0.1482902993364854	-0.2989290763828584	0.1045824528682644	0.9244663649247628	0.012401485277998	1.333454584722304	-0.2043869597004321	0.7162360544407892	0.2364003501606162	0.2001138650554219	-0.1571981380806521	-0.07388078788608317	-1.161953326303486	0.8037248607791729	1.695853259268427	-0.8224525942717433	-1.622736910396587	6.132765170415064	-0.4664219657416648	2.388432776331806	6.55028087220823	-2.763983402718486	1.341907990421446	-2.058200540057761	0.2017836966521767
0.1507679370955254	-0.296979769997745	0.108762588248132	0.9224194620325029	0.008681485892477359	1.348672385708817	-0.205532188480568	0.7221816885729873	0.252876188828368	0.1932354793303743	-0.1539012128489154	-0.07901032085411892	-1.161311863669235	0.7706715622301672	1.678251490238443	-0.8293705659447761	-1.377960489600222	6.152486793444817	-0.4576885483763773	2.408220760662315	6.746312516523885	-2.786402701072557	1.317365114090146	-2.081647928142057	0.3167917681585997
0.1527009768984096	-0.2955121086933383	0.1119927749505482	0.9208128047869184	0.006209703527673749	1.360582267021217	-0.2064096854796273	0.7268413354417572	0.2660511962396974	0.1878392055387736	-0.1513802290376748	-0.08304904345956375	-1.160610159801535	0.7482949270762427	1.663713828412275	-0.8326115915181282	-1.178296427265534	6.169589048287579	-0.4502842237107916	2.410757127708974	6.88183851949259	-2.79557581284599	1.289747537795487	-2.096447795875751	0.4096684763524405
0.1540589714577417	-0.2945055600939079	0.114244919137055	0.9196812485744845	0.004707373243945601	1.368968837453226	-0.2070177592018262	0.7301123295276484	0.2754556087853364	0.1840410432589147	-0.1496444404846911	-0.08590195308690425	-1.160008585278534	0.7343978929302357	1.653095734755755	-0.8337473282952641	-1.03352287993485	6.182608046607362	-0.4452228556527436	2.405989258059949	6.968182760400834	-2.79758581154505	1.266053671504193	-2.104943025884639	0.4765288240171155
0.1548208116596206	-0.293948787408521	0.11550199679461	0.9190459710734052	0.00395150465881261	1.373682101600029	-0.207355943785541	0.7319437924253243	0.2807826377241627	0.1819098442276551	-0.1486854705880867	-0.08750716344815941	-1.159631066864673	0.7273111441966946	1.647005984181339	-0.8339245784276236	-0.9508581531406883	6.189784481749117	-0.4428399458985917	2.401742123720109	7.016311442053562	-2.797099185856991	1.251337575876949	-2.108994917133426	0.5146027677028937
0.155	-0.2938186091090008	0.1157969929724404	0.9188965440715108	0.003782842515940854	1.374791248537242	-0.2074352769350426	0.7323740381369236	0.2820408620547183	0.1814086600626788	-0.1484615606835644	-0.08788514836035574	-1.159538049544616	0.7256838750511376	1.645556154395476	-0.8339223962722833	-0.9311823459206852	6.191602658831421	-0.4423745583001542	2.400400567773892	7.026777627147904	-2.796810818204501	1.247747669150997	-2.10987534122872	0.5236150942135311
0.1554542507337262	-0.2934898608085562	0.1165436907183866	0.9185177494060377	0.003371106748992492	1.377604777147271	-0.2076359503122188	0.733463437379234	0.2852390476553891	0.1801384205153685	-0.1478966955979951	-0.08884404835763625	-1.159294991070572	0.7217316814972186	1.641979939434409	-0.833827924232896	-0.8813866881084396	6.195971720266154	-0.4410540934079301	2.396073709689817	7.053505816828682	-2.795802771046704	1.238960310392242	-2.111987692882441	0.546558047188531
0.156515784775164	-0.2927283183293994	0.1182820249170587	0.9176329558762333	0.00249819396957085	1.384187311093583	-0.2081018208426605	0.7360014582439187	0.2927576922014616	0.1771724583256989	-0.1465939743550992	-0.09108830788158373	-1.158686116318905	0.7134037799883433	1.633154648327027	-0.8330621558624796	-0.7631975849292614	6.205801250512845	-0.4364252624552964	2.385408293774896	7.112660672312604	-2.791904596851227	1.215060441194571	-2.116176223261071	0.600735441289507
0.1581644464118399	-0.2915604759766833	0.1209632036083234	0.9162614278971771	0.001392113476294088	1.394430353866002	-0.2088137613241943	0.739916700190932	0.3045568376028533	0.1725773954780069	-0.144624171163766	-0.09458121279697566	-1.157625344543571	0.7038138911566088	1.619298773308479	-0.8304691255859258	-0.5778634435070906	6.220028316919864	-0.4267786718790836	2.363085945830915	7.197117938527402	-2.781502874105859	1.173513011161846	-2.120674403632449	0.6863903589414875
0.1603741041940474	-0.2900145253255942	0.1245199629039476	0.9144323268487548	0.0003945137781137809	1.408194745442641	-0.2097390592837763	0.7451029532908631	0.3205543288665867	0.1664540492491989	-0.1421015383766037	-0.09927032642485342	-1.155979282770978	0.6972006646026119	1.5999349577505	-0.8246829219479734	-0.3252877317640825	6.237820989376701	-0.41010756891554	2.332466106148922	7.277767279469469	-2.759275316837539	1.107745229387033	-2.122756433477501	0.8040385804627972
0.1631098871668135	-0.2880974652278745	0.128864462740253	0.9121895569607854	-7.738058165235318e-05	1.425282693270912	-0.2108276569719117	0.7514478361472158	0.3405501983619094	0.1589573490596057	-0.1392032448004715	-0.1050740133414539	-1.153575373181659	0.7078517782408882	1.576148722506071	-0.8143338336826538	-0.02152133269636236	6.253020633749996	-0.3849767928671701	2.308037686165289	7.328191220451343	-2.718863034153789	1.007350284835119	-2.118826642733193	0.9541365160189121
0.1663286436775879	-0.2857718981811349	0.1338918258677196	0.9095932992790732	0.0004233734969228409	1.445428194719619	-0.2120128679419571	0.7588436363531719	0.3641200954356877	0.1503055282996953	-0.1361835637965211	-0.1118742136848916	-1.150212133961312	0.7392996630819511	1.547403666713467	-0.7982030207782115	0.3340093778648979	6.26350578514616	-0.3508234339784653	2.287952701786235	7.309184717004193	-2.654021838394619	0.8656117073259426	-2.104840744667523	1.136693779661469
0.1699796094921079	-0.2829843271295037	0.1394794670236669	0.906720875960325	0.002392167553400326	1.46830124909277	-0.2132171825941239	0.7671470677028851	0.3907373889016462	0.1407816506856533	-0.1333522867829063	-0.1195114916776143	-1.145673191220832	0.791032317121205	1.513255828827075	-0.7740142265409935	0.7452086361295701	6.263218990006431	-0.3083653372405206	2.256526557683163	7.270362224643545	-2.559590698453466	0.6806511594601887	-2.076696511377067	1.350887244046874
0.17400520557877	-0.2796470713240394	0.1454919755384914	0.9036759871135993	0.006313253747334491	1.49347043083964	-0.2143597079994376	0.7760894815571996	0.4198433362064743	0.130727094050599	-0.1310782468529068	-0.1277843010163447	-1.139747593444116	0.8703875855009078	1.473442331307686	-0.7367818696276663	1.204396498430425	6.236183793097416	-0.2590416775957678	2.176602529348894	7.175882449208078	-2.431805555146909	0.4438515206328701	-2.030863130276619	1.594210467347687
0.1783419453248002	-0.2756496110201013	0.1517837149838227	0.9005894459844308	0.01262599235666445	1.520387831459509	-0.2153662130549616	0.7852274769980643	0.4505871381260373	0.1205239775314383	-0.1297668096114302	-0.1364541419081502	-1.132252779001722	0.9768616430684974	1.427701524719254	-0.6849253623596971	1.707388091597033	6.170935457680478	-0.2050186982118221	2.02701861138373	6.990806334907884	-2.269727238160955	0.1548351292977279	-1.964550441374584	1.863292624968884
0.1829214354539589	-0.2708699106271898	0.1582060493979849	0.8975972917423882	0.02165530047425346	1.548404093048735	-0.2161742218051715	0.7940237836829029	0.4820301009155571	0.1105659650661261	-0.1298355201626842	-0.145254889934833	-1.123057328546327	1.114891924157805	1.376709736015347	-0.6202871968945226	2.234494976365446	6.056122147350084	-0.1481454883447451	1.804602762240797	6.732611077735305	-2.075808055980655	-0.1914919598336668	-1.875862858087577	2.153545741952991
0.1876714545037473	-0.2651851408130128	0.1646148779212996	0.894829616038462	0.03354760758369812	1.576774681990998	-0.2167440322708262	0.8019276919519609	0.5132611693608325	0.1012210590041509	-0.1316706200333586	-0.1539084299958457	-1.112103125180913	1.282378173124016	1.321277719175232	-0.5433839017759745	2.770801260415167	5.878781069349731	-0.09248879635500984	1.5120739058529	6.402676256091882	-1.856312938394446	-0.5866844513186762	-1.7645408399294	2.459312371688329
0.1925170917444269	-0.2585136219747936	0.1708742672296133	0.8924053467557608	0.0482685481821738	1.604687159713914	-0.2170641154668526	0.8083806231188905	0.5432578063767455	0.092794408393685	-0.1355599646472965	-0.1621453869448709	-1.099425820988547	1.474700810840542	1.261806170254543	-0.4560217020425732	3.301234066180504	5.629998749040839	-0.04060698980011157	1.140331401735858	5.966985692852537	-1.620391858940667	-1.024069683131534	-1.632169434096221	2.77328679195806
0.1973819285398158	-0.2508267502007748	0.1768643120723799	0.8904119431849489	0.06555827035292888	1.631315233023205	-0.2171491663866885	0.8129394100605581	0.5712535280571162	0.08549622494874473	-0.141664902391752	-0.1697262870018062	-1.085166652599804	1.688933716515427	1.20066509507363	-0.3627243786151393	3.799847798177778	5.303525725548754	0.004377807987508309	0.7316877487902462	5.555546150653819	-1.380176597786947	-1.489036655570364	-1.481604444692883	3.088784661736723
0.2021892435043931	-0.2421687628031093	0.1824877161349649	0.8888992119281505	0.08493779649697614	1.655872414681786	-0.217035191639864	0.8154191810569601	0.5969406211039575	0.07942387122986669	-0.1499628569696175	-0.1764598128143964	-1.069571813599235	1.913647666794895	1.138301773621462	-0.2658334435051539	4.258741428287913	4.89959435057097	0.04184459409405861	0.286901149897913	5.098368659261661	-1.147478885466735	-1.965435872065063	-1.317497689295955	3.398546261265862
0.2068632224455918	-0.2327141671415026	0.1876612215176217	0.887884568660342	0.1058383277020608	1.677697989740282	-0.2167715071082978	0.815595393996225	0.6193814371849241	0.07456812663265039	-0.1602449088281405	-0.1822215686471726	-1.052991988419614	2.132213080696913	1.075348046630951	-0.1678604815685108	4.67822352927487	4.425015489426633	0.06913993926253514	-0.2200131664204523	4.495742581567503	-0.9328712706664929	-2.433861333775128	-1.14619740019505	3.695127435646104
0.2113301540101398	-0.2227165098059501	0.1923306212407373	0.88734804306037	0.1275484369263528	1.696292761853162	-0.2164230655486584	0.8134799611714842	0.6382033233268894	0.07082766956821092	-0.1721088483342691	-0.1869586364563471	-1.03586269120652	2.344230741359695	1.015246942134891	-0.07210092789948583	5.034918932826269	3.886985721425903	0.08547867703010947	-0.7304333860160699	3.930791510349695	-0.7450855002958578	-2.87716035796441	-0.9734817119711334	3.973245033358027
0.2155195921846577	-0.2124864257820714	0.1964641850954989	0.8872350655561172	0.1492832337036105	1.711398760366716	-0.2160465631760314	0.8093697297777789	0.6534711191901218	0.06804192228188839	-0.1850230063495598	-0.1906872532853814	-1.018681418205252	2.538310151445405	0.9579590824064939	0.01796209544873274	5.335556590966966	3.314071015606056	0.09269884043327714	-1.236001908805639	3.350199730904423	-0.5881969007522222	-3.286698903265141	-0.8057582805618202	4.227856312290863
0.2193654673351004	-0.2023884922958246	0.2000474405881413	0.8874598251849164	0.1702759641489309	1.723044499236515	-0.2156928360653969	0.8037058476767578	0.6653394099000177	0.06602596791549385	-0.1983761690932304	-0.1934840920908737	-1.001981544163691	2.712382440037868	0.9055382495637667	0.09841971262442249	5.57520678042125	2.733899312533095	0.08951030877895816	-1.710061897427571	2.824993810096393	-0.463433694723038	-3.656551651379528	-0.6482730105222019	4.455721741542964
0.2228071283122631	-0.1927952384713035	0.2030829922390395	0.887918329735168	0.1897948942934491	1.731505066912676	-0.215403000456447	0.7970756691251106	0.6742197998787427	0.06459850579208656	-0.2115222336734318	-0.1954708439095537	-0.9863033620891738	2.86080819710393	0.8583898043380083	0.1675028450535878	5.764003118247793	2.177296953350401	0.07732037628274036	-2.144892757707916	2.328741535367001	-0.3688652025210144	-3.981708051329756	-0.5062425308491767	4.654195373133389
0.2257902993364854	-0.1840754276979302	0.2055829461863577	0.8885039195514498	0.2072057329014894	1.737246359891286	-0.2151987972835495	0.7901138853728595	0.6805328558893429	0.06360284054377953	-0.223815021921982	-0.1967973570963888	-0.9721679832664585	2.984838442383995	0.8177343146941252	0.2246526239468327	5.904429845464699	1.667490554101144	0.0581306181189909	-2.521166945617769	1.909779992338061	-0.3008957795804268	-4.259247524908896	-0.3830668279342549	4.821871536542911
0.2282679370955254	-0.1765571774103597	0.2075670542495829	0.889117250856343	0.2219639294523172	1.740834954758305	-0.2150815892734466	0.7834796889680201	0.6848266361477322	0.06291646234515551	-0.2346503161022286	-0.1976199325862229	-0.9600521004742351	3.082767564256846	0.7837729676493461	0.2701430765168424	6.007465538369957	1.227134842551373	0.03544139361160292	-2.835335576170112	1.549221422242458	-0.2547302803826534	-4.486523590298839	-0.2810769076211556	4.957774803863883
0.2302009768984097	-0.1705264791156292	0.2090564992012473	0.8896727021312834	0.2336462900423251	1.7428662091521	-0.2150338075944365	0.777763713077965	0.6875522804530363	0.06245337679817745	-0.243492730460795	-0.1980869613593506	-0.9503678253963526	3.157179749348625	0.7573682047263233	0.3043638449820251	6.076900614441191	0.8724866857704185	0.01337224897987843	-3.076460893169535	1.279486903297284	-0.2253933800123145	-4.662277554176749	-0.2022281556128731	5.061672734245989
0.2315589714577417	-0.1662040383449394	0.2100723897355825	0.8901019893368609	0.2419284388092925	1.743878672330781	-0.2150273655886623	0.7734722025692182	0.6891636406185446	0.06215925463385387	-0.2499077955757363	-0.1983241863255008	-0.9434452182918447	3.207747010276503	0.7386441602334055	0.3277986132385171	6.12147579156627	0.6185483670178336	-0.004105369373788026	-3.245783447479227	1.08406163557007	-0.2082126537478932	-4.785235294945264	-0.1472240827124152	5.133463805656941
0.2323208116596206	-0.1637498247844275	0.2106310608586377	0.8903566562975209	0.2466013800986439	1.744295278804684	-0.2150344022283962	0.7709628551440346	0.6899451541639277	0.06200391861096716	-0.2535795604912049	-0.1984246655863601	-0.939519153634931	3.236250038990753	0.728166114039817	0.3407242394749592	6.143788458796956	0.4741754141284491	-0.01442031359108897	-3.338803249605659	0.9810870047986882	-0.1997398085056481	-4.854477502565536	-0.1165600513853109	5.173329253600183
0.2325	-0.1631691630797915	0.2107613435438553	0.890417979548727	0.2477024460774097	1.744377080423344	-0.2150372072891391	0.7703630323995287	0.6901206455430682	0.06196829252120098	-0.2544509579669479	-0.1984449038323941	-0.9385913098785141	3.24283202451812	0.7256637042466838	0.3437483100442432	6.149051181840229	0.4401990938863389	-0.01684634038939681	-3.360961385519822	0.9551449606577438	-0.197839013062457	-4.870829106321413	-0.1093609098627461	5.182651656180289
0.2329542507337262	-0.1616922829928684	0.2110895467031353	0.8905758595841791	0.2504985889110152	1.74455751495986	-0.215046305231415	0.7688236803975004	0.6905402531167317	0.06187946265924743	-0.2566729347324473	-0.1984904452263079	-0.9362317295981626	3.259580700053292	0.7193825349881361	0.3513623862643418	6.161838763075009	0.3539066886696971	-0.02331868711566942	-3.416522848393137	0.8924501812161423	-0.1933731724003027	-4.912060820685351	-0.09116231483277781	5.206221895837681
0.234015784775164	-0.1582119906376105	0.2118454806193627	0.8909581768332873	0.257054741025443	1.744824412559029	-0.2150799913495921	0.765128324402419	0.6914095627303163	0.06167881445477563	-0.2619373726582036	-0.198564749798515	-0.9306760762444737	3.29721385770427	0.7048658848269941	0.3688882425257183	6.190112573514362	0.1484605993288968	-0.04059628852697861	-3.545658743530266	0.7448990946684182	-0.1851272872050198	-5.006073247431921	-0.04889286201773624	5.260896006313645
0.2356644464118399	-0.1527298611515355	0.212989140005058	0.8915883285894735	0.2672939228962301	1.744802787331856	-0.2151721947947989	0.759118669206335	0.692447303527427	0.06138078560856992	-0.2703081291095867	-0.1985917259803177	-0.9219334081498388	3.352619879026092	0.6825708162469195	0.3954151125443798	6.23020153610562	-0.1758683615536216	-0.07214184886493547	-3.744105735335518	0.5142424549691018	-0.1773926496779343	-5.147658678891106	0.01601042806287079	5.344646279733576
0.2378741041940474	-0.145244608349721	0.2144647797954887	0.8925002184840928	0.2811125089182231	1.743923687867522	-0.2153854183978991	0.7505573694440566	0.693242362686799	0.06099220079016607	-0.2818851598516333	-0.198461665643866	-0.9100015392895714	3.421322163623877	0.6531156144940009	0.4297212771221529	6.275765833170912	-0.6218667661726243	-0.1222525276884401	-4.003441825424412	0.204831020584646	-0.1759848412899125	-5.329460181514165	0.1013751492800384	5.454666027740814
0.2406098871668135	-0.1357781046946885	0.2162022341890589	0.8937318570970874	0.2983446088278653	1.741448646629831	-0.2158166020965662	0.7391811308634042	0.693276760981318	0.06049822398638398	-0.2967598883464319	-0.1980430530468941	-0.8948964258420794	3.497616825057998	0.6171651271969518	0.4703385471176637	6.319216816098411	-1.190682143390508	-0.1946715981057401	-4.310040190954679	-0.1789933597413356	-0.1875075639725345	-5.542455957733472	0.204063664779169	5.587305729863679
0.2438286436775879	-0.1243920661597621	0.2181217789217411	0.8953193964906182	0.3187404054511441	1.736506376705679	-0.2165963250056731	0.7247629404295712	0.6919798084715669	0.05984919940735345	-0.314979080455787	-0.197198129992131	-0.8766677097213755	3.57480938040811	0.5756922324617935	0.5156615713453849	6.350421507011925	-1.884449841493467	-0.2918447688643462	-4.643536823952608	-0.6267571914302079	-0.2189308102705558	-5.774799942149453	0.3199886194224515	5.738344237339424
0.2474796094921079	-0.1112069746509507	0.2201392921068962	0.8972913310838871	0.3419539452251278	1.728148972489506	-0.2178853067377084	0.7071781629929277	0.68877185617001	0.05895117981933506	-0.3365054887249501	-0.195800808672985	-0.8554143617371975	3.644899155253885	0.529733476636095	0.5640434034396478	6.361771511745141	-2.697802983959503	-0.4169762211239054	-4.982257216840747	-1.127686070869416	-0.2768326927803211	-6.012547812065724	0.4440683176108828	5.903092665179047
0.25150520557877	-0.09641551856689878	0.2221726567607757	0.8996634130929636	0.3675424063631516	1.715441228431928	-0.2198733971170229	0.68645180272032	0.6831589818521631	0.05766481453606907	-0.3611787718941961	-0.1937547617517082	-0.8312984775489701	3.699560614980825	0.4807739885817955	0.6138486192553348	6.346721412158645	-3.619354887766878	-0.5739982527930692	-5.306690517296257	-1.657501232745167	-0.3667209050068307	-6.23915995210457	0.5705272992380679	6.076792538215241
0.2558419453248002	-0.08029712005826442	0.2241467910723646	0.9024345621571127	0.3949824846029167	1.697555831264546	-0.2227651842223724	0.6627777178088957	0.674777749127752	0.05581211830112343	-0.3886849974306371	-0.1910094372539032	-0.8045558817854631	3.728622035965742	0.4300463263579156	0.6634310480388633	6.303502123606646	-4.631417773493595	-0.7625409211659937	-5.602104240284817	-2.201082738389283	-0.4925339517366834	-6.437861817950845	0.6930670500719101	6.254684345415295
0.2604214354539589	-0.06321708076331839	0.2259989216760136	0.9055837138535812	0.4236914422173322	1.673877507450963	-0.2267453220461191	0.6365195046568423	0.6634755682070813	0.05319419095724437	-0.4185431475768492	-0.1875709378714227	-0.7755014282813082	3.724492135449182	0.3793084630558171	0.71106399593799	6.230485462104351	-5.710319054956775	-0.9780951465996193	-5.856037936320136	-2.728304475964573	-0.6558286060820243	-6.592366283950001	0.8056294730833593	6.432576879709508
0.2651714545037473	-0.04561685285250597	0.2276812433913974	0.9090678511392588	0.4530630639128517	1.644098253987752	-0.23194580770791	0.6081944909933007	0.6492859990238703	0.04961626273089902	-0.4501151881515409	-0.1835055257362784	-0.7445292999439131	3.679278630853402	0.329590058246918	0.754959810005864	6.132849459557534	-6.826706997387516	-1.212684764719153	-6.06021232519046	-3.237410965999542	-0.855511272913599	-6.69037997840215	0.9026912171856971	6.606532860553569
0.2700170917444269	-0.02797748406610054	0.2291644196391177	0.9128219424876253	0.4824851541019731	1.608288762022055	-0.238409485809826	0.5784544978413757	0.632512872445351	0.04491971680139059	-0.4826412979822118	-0.1789342999814899	-0.7121068057743274	3.595385572766997	0.2834963291675974	0.7933804526742584	6.005887306017571	-7.949447485626699	-1.455250792429075	-6.203344900284576	-3.668260189964895	-1.087395421222036	-6.723019282893505	0.9804434291783264	6.774015613375418
0.2748819285398158	-0.01076873613553089	0.2304408603935559	0.9167608474903112	0.5113474067006397	1.566938423437927	-0.2460797411096889	0.5480622926944165	0.6137494358696997	0.03901306666280714	-0.5152874709080966	-0.1740197856092058	-0.6787634152674001	3.472083830069113	0.2418535853897453	0.8246682942466234	5.858390042200106	-9.043009182911614	-1.697487985156027	-6.280934719537756	-4.044278275678153	-1.344505873055206	-6.686971066387356	1.036147356177377	6.932143462969439
0.2796892435043931	0.005545085616967455	0.2315116548412807	0.9207838560791104	0.5391486559551463	1.520966156839078	-0.2548035312445671	0.517803745521351	0.5934439114688437	0.03190046404850524	-0.5472172256759317	-0.1689515007699	-0.6450831999599012	3.308829829606663	0.2043723453105295	0.8476697141102659	5.706419890822052	-10.07330440182323	-1.93042673552219	-6.297327598976	-4.394267202508845	-1.61728212646389	-6.58627366376745	1.068789460972157	7.078373616318453
0.2843632224455918	0.02057582046151363	0.2323910149105419	0.9247821796465437	0.5654583350957154	1.471666164055849	-0.2643381569863128	0.4884549115916568	0.5722423839856698	0.0236953606598979	-0.5776550846633326	-0.1639221484055838	-0.6116836767181298	3.117635626086187	0.1726777267574382	0.861798987357723	5.551075528561038	-11.00980989789622	-2.147955969355479	-6.250312887348638	-4.668150078740718	-1.895204339198698	-6.428485313519779	1.079904842295717	7.211871648569367
0.2888301540101398	0.03403863358125325	0.2331020652321505	0.9286467552317058	0.5899291496869223	1.4206286116322	-0.2743812545062294	0.4607469700785639	0.5508818907855083	0.0146255071786634	-0.6059364944915425	-0.159109466702859	-0.5791991354992913	2.90558991989418	0.1463071484270713	0.8671565124984211	5.406645345871788	-11.8277309170499	-2.34716662557538	-6.145863676572234	-4.889318341949385	-2.166074982485699	-6.226141900639131	1.071975682260494	7.33127635879957
0.2930195921846577	0.04575545037503109	0.2336696529783797	0.9322770515026216	0.6123088913138459	1.369612260999646	-0.2845894736192901	0.4353002553670444	0.5300409248050792	0.005017893970816034	-0.6315496115007575	-0.1546614562032781	-0.5482630174045784	2.684632919117818	0.1252679070909154	0.8646673551780192	5.278894349983906	-12.51235587690463	-2.524311419118623	-5.992766863337957	-5.05261975682239	-2.420075288644716	-5.994891909948192	1.048971950155587	7.436147504899261
0.2968654673351004	0.05566248690387138	0.2341190949385586	0.9355873377801014	0.6324053126057807	1.320413504472806	-0.2945934370545686	0.412603215719455	0.5103680899951046	-0.004730873196760688	-0.6541450183816175	-0.1506888305758154	-0.5194900627563904	2.464967527883148	0.1088875594620619	0.8557695826638334	5.174468192635667	-13.05959516712046	-2.67637526145902	-5.80303581687987	-5.174679104576192	-2.648612683738454	-5.751148876538517	1.015028340437799	7.525854719840594
0.3003071283122631	0.06379301520039099	0.2344719491207974	0.9385114244535266	0.6500699254021555	1.274722380791688	-0.3040253513595278	0.3929776321131505	0.4924031850692522	-0.01418984181904848	-0.6735339587100995	-0.1472608506621012	-0.493457493451442	2.258503368609928	0.09655859222136087	0.8426380497093137	5.092465170338931	-13.48100678315612	-2.802859435584542	-5.59542334878299	-5.259946550192735	-2.84685552874531	-5.513082831987441	0.9756196946775662	7.601252737037133
0.3032902993364854	0.07025460577725884	0.2347466000034032	0.9410028534658905	0.6651688747620508	1.234034361285399	-0.3125362456044539	0.3765964564806634	0.4766362823993997	-0.02292776085990278	-0.6896524597357336	-0.1444109591291685	-0.4706902672096693	2.072357118474843	0.08791631866060878	0.8269965230322881	5.032198921930569	-13.78774537488848	-2.900827144753827	-5.381233757180478	-5.30541221282504	-3.009346397079645	-5.29047192262699	0.9337092779951035	7.661593090570436
0.3057679370955254	0.07519387092251861	0.2349571772569261	0.943032738373359	0.6775821154238761	1.199602200063689	-0.3198141038748332	0.3635085128298416	0.4634689040630466	-0.03054225078676881	-0.7025207000619049	-0.1421461373194862	-0.4516494319529859	1.914640067351282	0.08224640885485246	0.8112396854239813	4.988638499229499	-14.00104070388193	-2.973012891007027	-5.181360151237373	-5.322143503728865	-3.13642489288157	-5.096496313684595	0.8940537876738355	7.708238607742502
0.3077009768984096	0.07877561906622399	0.2351121992028334	0.9445880764035941	0.687195309756568	1.172393398168628	-0.3256131856614047	0.3536487419185991	0.4531642858478994	-0.03669928156421803	-0.7122260593538381	-0.1404487751927831	-0.436714663688169	1.790992908480769	0.07814907112136105	0.7978362531085824	4.958292027359907	-14.14804638971211	-3.026705002910021	-5.019342364132574	-5.341010086335457	-3.233742468784404	-4.945204400251122	0.8620008565761614	7.743771341971133
0.3090589714577417	0.08114882304625765	0.2352165373070748	0.9456648414319239	0.6939149373948237	1.153114283853572	-0.3297484160694725	0.3469115275412795	0.4459053167149369	-0.04113665628648144	-0.7188693355091605	-0.1392936978908053	-0.426181904030645	1.704467227585388	0.07563597830377	0.7879134202763287	4.937785515135207	-14.24474313986233	-3.063332776895817	-4.902420910022721	-5.346308688685067	-3.301324838995771	-4.838601520714217	0.8391277289718284	7.768448224296828
0.3098208116596206	0.0824290283010517	0.2352736853847378	0.9462629351218617	0.6976722807673129	1.14224207285951	-0.3320899444885128	0.3432019061506092	0.4418319848290231	-0.04366616843817811	-0.7225327848798826	-0.1386592937143963	-0.4202583068703281	1.656082683579683	0.07431483932905181	0.7822030867563746	4.926640291513865	-14.29688385607111	-3.083754538672207	-4.836366601006008	-5.350815566837981	-3.339297629595204	-4.778911380205998	0.8263348597577012	7.782295727338708
0.31	0.0827247176943548	0.2352869627107099	0.9464029755317924	0.6985549209354129	1.139679170615838	-0.3326429541526806	0.3423366495619378	0.4408725985130083	-0.04426534128629378	-0.7233878682444992	-0.1385114939720872	-0.4188635218358935	1.644774957939864	0.07404610933739542	0.7808383895884403	4.92394671258697	-14.30877489872825	-3.088492365869951	-4.820700183080741	-5.350645966717089	-3.348182508510018	-4.7647695415996	0.8233159217966379	7.785544760989629
