DataType=double
version=3
OpenSimVersion=4.5
endheader
time	bflh_r	bfsh_r	gasmed_r	glmax2_r	iliacus_r	recfem_r	soleus_r	tibant_r	vasmed_r
1	4.958015713974408e-06	1.383569069060824e-05	9.561882079037142e-07	4.071199468426002e-05	0.2387642070057671	0.4366494121577421	1.127532281526105e-06	0.04823420422816829	0.001550477997400923
2	2.016527596567349e-05	0.2448168977060114	9.242385361042759e-06	7.734099564233689e-07	0.340086698008501	2.237205941263315e-05	2.529788742768624e-05	0.2727741230850759	2.402699467422192e-05
3	8.573233528268532e-05	2.98065125755129e-05	0.06377788759364697	0.0005642148585936374	0.4939693258105446	0.0002556458136731224	0.0008340856423964339	0.04385421526814532	0.001551252743524607
4	0.4420945379522931	0.06709024964834018	0.0756014674956666	1.531718737942343e-05	1.462187586212545e-05	1.328750714041968e-05	3.576412642662372e-06	0.210560526389541	1.077816673643304e-05
