DataType=double
version=3
OpenSimVersion=4.5
endheader
time	RightLeg_1	RightLeg_2	RightLeg_3	RightLeg_4
0	1.205683735140883e-17	0.04987252920344461	0.0849754564094802	0.0596048686796961
0.005	-0.0006179650938364488	0.04230270911720061	0.08974208472225458	0.0695646490793434
0.01	-0.0005570455887034715	0.03453230919915372	0.09215737968413779	0.08213433086515014
0.015	-6.364079650093404e-05	0.02688337927902241	0.0921903991731436	0.09616792782090908
0.02	0.0006158499708712841	0.01967796918652515	0.08981020106728586	0.110519453730413
0.025	0.001235027401513306	0.0132381287513804	0.08498584324457832	0.1240429223774548
0.03	0.001547492183525251	0.007885907803306615	0.07768638358303483	0.1355923475458271
0.035	0.001353007541876494	0.003909379134214503	0.0679608446765369	0.1441273178044188
0.04	0.000792506700585718	0.001345503990966679	0.05644923834717637	0.1493876853682196
0.045	0.0001598362870510025	0.0001186946826875181	0.04405645953835689	0.1514630189278497
0.05	-0.0002669576132529081	0.0001558706634237704	0.03168749976182663	0.1504231272440669
0.055	-0.000380393945640618	0.001415314903155319	0.0202354486363667	0.1461167952684449
0.06	-0.0001736158715574727	0.003873813163385435	0.0105863743025295	0.1382624157646486
0.065	0.0003360791749707436	0.00751799663870628	0.003598670628718857	0.126565372668782
0.07000000000000001	0.0007894343903750897	0.01247823504609405	-0.0002819997143087973	0.1105616163746335
0.075	0.0005639519712650351	0.01899554830168692	-0.000927695349035478	0.08965666699960485
0.08	-0.0008821396543192573	0.0272770425383753	0.00178408321045631	0.06340132154127576
0.08500000000000001	-0.002078164864154748	0.03668434180475146	0.008038648528340266	0.0347649129932624
0.09	0.0004589991581645059	0.04573358806510931	0.01808412624704626	0.0101353103452178
0.095	0.01022188711287204	0.05293461643867024	0.03215585124352376	-0.004083817417554518
0.1	0.02766744743730968	0.05798113196537604	0.04988574962940159	-0.006652645472137621
0.105	0.04930929464531999	0.06210472858539701	0.07012189818772471	-0.003039365206560471
0.11	0.07141886376720284	0.06663083971726097	0.0916656934935788	0.0008732821699254011
0.115	0.09192023331274152	0.07219319023137205	0.1137599890427846	0.001814439333861348
0.12	0.1115388272014141	0.07825301099674352	0.136395938453865	0.0009405734422066506
0.125	0.1312697820084271	0.08415879677641287	0.159636016887677	-0.000165674410595644
0.13	0.151760451237228	0.08943667038707935	0.183296192737404	-0.0004898533138055043
0.135	0.172882238424556	0.09400906629347042	0.2066424452400512	-0.000285219700510816
0.14	0.1944015614082811	0.09785202359955313	0.2288663516024265	2.353065188740145e-05
0.145	0.2160920265622013	0.1009164690886988	0.2491795363037805	0.0001308237677891202
0.15	0.2377486000168332	0.1030787116994346	0.266853191566575	8.503990256742424e-05
0.155	0.2591701969928905	0.1042012646794705	0.2811695227719838	1.110321471356816e-17
0.16	0.2801455067927167	0.1041456540980018	0.2913369494642297	-3.452819175864204e-05
0.165	0.300422315045175	0.1027694573101648	0.2962687478397305	-2.498970704693842e-05
0.17	0.3197381814607581	0.09992926449258113	0.2948044082579527	-1.882775826501551e-06
0.175	0.337823560661012	0.0955159367705482	0.2860144872228965	8.992801973742262e-06
0.18	0.3543704774105302	0.08960569926199619	0.2702193269832734	7.249996821196646e-06
0.185	0.3690580230678256	0.08233716055384405	0.248159879902741	1.054339750328541e-06
0.19	0.3816572322708675	0.07383989799400978	0.2206131392891432	-2.30638733602252e-06
0.195	0.392618729988972	0.06417639498970985	0.1886201209975843	-2.079150042858272e-06
0.2	0.4026977355894376	0.05337906324535176	0.1533401765703137	-4.398071499422157e-07
0.205	0.4125670184088677	0.04155503192266495	0.1160875102727907	5.806843051585321e-07
0.21	0.4220333327774622	0.02958424883913092	0.07976920378155401	5.89903362008707e-07
0.215	0.4303925306395476	0.01880258335187123	0.0482320509764023	1.620774264900202e-07
0.22	0.4370736039062799	0.01048072261274204	0.02510865184633807	-1.428538538925719e-07
0.225	0.4435965183212444	0.004825862374530964	0.01064489645332539	-1.656819946646683e-07
0.23	0.4530908754247732	0.001226520605099514	0.002479578851138832	-5.5682154179828e-08
0.235	0.4686024236381542	-0.0009024919049791909	-0.001698596810304641	3.408796696410214e-08
0.24	0.4902959649289009	-0.001057267023386728	-0.001510532222845008	4.608341931703137e-08
0.245	0.5154553548107523	0.0023552007239405	0.006113265079920579	1.827200457663002e-08
0.25	0.5412854554919445	0.01094322121369483	0.02429456373419077	-7.795264274133246e-09
0.255	0.5667896902288765	0.02506925170691874	0.05364001748124864	-1.270734861753822e-08
0.26	0.5933078766942091	0.04347734285139836	0.09148905685483298	-5.813819622232783e-09
0.265	0.6222811303600193	0.06481272212559286	0.1349724138996408	1.677702247543306e-09
0.27	0.6509070052153174	0.08844307589269347	0.181967873149983	3.516767637754654e-09
0.275	0.6691899239846164	0.1149607084722518	0.231619524963877	1.855676309364978e-09
0.28	0.6664582916600944	0.1450724357177226	0.2831904357947673	-3.440832028138857e-10
0.285	0.636438883611735	0.178613447697171	0.3351624545731983	-1.127169110277948e-09
0.29	0.5826718204392468	0.2134742222310743	0.3842744307564548	-7.830859028423334e-10
0.295	0.5100250326677138	0.2472821048273388	0.4270293745496256	9.491951569811493e-11
0.3	0.4233664508222189	0.2776644409938716	0.4599302961577995	9.136002415485573e-10
0.305	0.3275640054278472	0.3022485762385785	0.4794802057860645	1.079709370914131e-09
0.31	0.2274856270096818	0.3186618560693665	0.4821821136395096	5.929309708386756e-25
