DataType=double
version=3
OpenSimVersion=4.5
endheader
time	bflh_r	bfsh_r	gasmed_r	glmax2_r	iliacus_r	recfem_r	soleus_r	tibant_r	vasmed_r
1	1.459239028912866e-19	4.088176760956196e-15	4.08813508085408e-15	4.087812754289992e-15	0.5474539565644658	1	4.087691145306628e-15	0.1095831227461712	4.087848263290815e-15
2	6.222928601320495e-15	0.7202237654527447	6.223012472320712e-15	6.220907723618583e-15	1	6.222841850006915e-15	6.221491421156166e-15	0.8021633743503067	3.21798953968643e-19
3	1.512449191702888e-18	1.181145821432847e-19	0.1296188385049832	1.694373431029091e-21	1	5.000550318539819e-19	3.006318190053129e-15	0.08929610511982111	3.006567011083975e-15
4	1	0.1519731848369723	0.1712722582313946	2.520993904114552e-20	4.43943030254994e-15	6.497986698543675e-19	4.434442652198394e-15	0.4765949598045318	4.440135005712261e-15
