drive_kick1_grf.mot																		
version=1																		
nRows=340																		
nColumns=19																		
inDegrees=yes																		
endheader																		
time	ground_force_2_vx	ground_force_2_vy	ground_force_2_vz	ground_force_2_px	ground_force_2_py	ground_force_2_pz	ground_force_1_vx	ground_force_1_vy	ground_force_1_vz	ground_force_1_px	ground_force_1_py	ground_force_1_pz	ground_moment_2_mx	ground_moment_2_my	ground_moment_2_mz	ground_moment_1_mx	ground_moment_1_my	ground_moment_1_mz
0	0	0	0	0	0	0	5.49E-12	-8.07E-12	-1.29E-12	-7.00E-14	0	-6.00E-14	0	0	0	0	3.00E-14	0
0.005	0	0	0	0	0	0	1.86E-11	-2.13E-11	-6.52E-12	-1.20E-13	0	-1.10E-13	0	0	0	0	0	0
0.01	0	0	0	0	0	0	-2.51E-12	-9.49E-12	-1.31E-12	2.90E-13	0	2.50E-13	0	0	0	0	-2.80E-13	0
0.015	0	0	0	0	0	0	-1.79E-10	1.52E-10	6.04E-11	1.86E-12	0	1.72E-12	0	0	0	0	-7.50E-13	0
0.02	0	0	0	0	0	0	-4.60E-10	4.84E-10	1.79E-10	2.31E-12	0	2.26E-12	0	0	0	0	5.10E-13	0
0.025	0	0	0	0	0	0	4.13E-10	-1.06E-10	-7.20E-11	-1.09E-11	0	-9.81E-12	0	0	0	0	8.23E-12	0
0.03	0	0	0	0	0	0	5.35E-09	-4.79E-09	-1.84E-09	-5.07E-11	0	-4.72E-11	0	0	0	0	1.74E-11	0
0.035	0	0	0	0	0	0	1.06E-08	-1.19E-08	-4.27E-09	-3.56E-11	0	-3.66E-11	0	0	0	0	-2.91E-11	0
0.04	0	0	0	0	0	0	-2.09E-08	1.21E-08	5.44E-09	3.72E-10	0	3.37E-10	0	0	0	0	-2.39E-10	0
0.045	0	0	0	0	0	0	-1.54E-07	1.42E-07	5.41E-08	1.33E-09	0	1.24E-09	0	0	0	0	-3.74E-10	0
0.05	0	0	0	0	0	0	-2.21E-07	2.71E-07	9.52E-08	1.45E-10	0	2.41E-10	0	0	0	0	1.19E-09	0
0.055	0	0	0	0	0	0	8.22E-07	-5.82E-07	-2.42E-07	-1.18E-08	0	-1.08E-08	0	0	0	0	6.67E-09	0
0.06	0	0	0	0	0	0	4.25E-06	-4.07E-06	-1.53E-06	-3.32E-08	0	-3.13E-08	0	0	0	0	6.92E-09	0
0.065	0	0	0	0	0	0	3.85E-06	-5.58E-06	-1.88E-06	1.99E-08	0	1.55E-08	0	0	0	0	-4.29E-08	0
0.07	0	0	0	0	0	0	-2.88E-05	2.25E-05	9.04E-06	3.60E-07	0	3.31E-07	0	0	0	0	-1.79E-07	0
0.075	0	0	0	0	0	0	-0.00011306	0.000111927	4.17E-05	7.85E-07	0	7.47E-07	0	0	0	0	-8.67E-08	0
0.08	0	0	0	0	0	0	-3.84E-05	9.38E-05	2.88E-05	-1.21E-06	0	-1.04E-06	0	0	0	0	1.42E-06	0
0.085	0	0	0	0	0	0	0.000939195	-0.000779796	-0.000306887	-1.05E-05	0	-9.68E-06	0	0	0	0	4.61E-06	0
0.09	0	0	0	0	0	0	0.002880727	-0.002962387	-0.001090849	-1.71E-05	0	-1.65E-05	0	0	0	0	-6.61E-07	0
0.095	0	0	0	0	0	0	-0.000909834	-0.000779607	-0.00010506	5.07E-05	0	4.50E-05	0	0	0	0	-4.43E-05	0
0.1	0	0	0	0	0	0	-0.029009766	0.025217565	0.009775631	0.000293839	0	0.000272824	0	0	0	0	-0.00011317	0
0.105	0	0	0	0	0	0	-0.069656543	0.075031937	0.027268362	0.000322915	0	0.000319149	0	0	0	0	0.000104307	0
0.11	0	0	0	0	0	0	0.080088373	-0.030660466	-0.016776311	-0.001840626	0	-0.001656986	0	0	0	0	0.001324111	0
0.115	0	0	0	0	0	0	0.857738536	-0.77432563	-0.296564229	-0.007929349	0	-0.007400579	0	0	0	0	0.002600516	0
0.12	0	0	0	0	0	0	1.569134765	-1.800481395	-0.643167184	-0.004360877	0	-0.004631586	0	0	0	0	-0.005212851	0
0.125	0	0	0	0	0	0	-3.687372477	2.295857952	1.004168079	0.061381114	0	0.055777248	0	0	0	0	-0.038002576	0
0.13	0	0	0	0	0	0	-24.46499042	22.86253274	8.660919763	0.208362289	0	0.194703072	0	0	0	0	-0.056683362	0
0.135	0	0	0	0	0	0	-52.85585718	62.91676979	21.0389568	0.292540886	0	0.272880191	0	0	0	0	0.076483132	0
0.14	0	0	0	0	0	0	-71.9076303	138.2687695	31.78715361	0.305830187	0	0.283485492	0	0	0	0	0.208980396	0
0.145	0	0	0	0	0	0	-66.46188863	280.1877114	31.52017042	0.304106905	0	0.280731515	0	0	0	0	-0.121959625	0
0.15	0	0	0	0	0	0	-45.3666024	505.8051785	8.689178793	0.306377124	0	0.282450341	0	0	0	0	-1.043505731	0
0.155	0	0	0	0	0	0	-40.46787527	770.7382736	-33.77585212	0.312115489	0	0.28660163	0	0	0	0	-1.818616675	0
0.16	0	0	0	0	0	0	-63.54791685	956.8376303	-66.76844503	0.318661264	0	0.288919059	0	0	0	0	-1.452643051	0
0.165	0	0	0	0	0	0	-90.6132462	999.0145145	-67.40283045	0.324027246	0	0.288496047	0	0	0	0	-0.113777679	0
0.17	0	0	0	0	0	0	-100.1435676	964.6805483	-50.01181205	0.327765943	0	0.286794081	0	0	0	0	1.392947927	0
0.175	0	0	0	0	0	0	-96.29872581	942.8624885	-34.75695914	0.331171849	0	0.28469047	0	0	0	0	2.655075436	0
0.18	0	0	0	0	0	0	-88.91496506	958.3724667	-23.50173507	0.334947736	0	0.282444648	0	0	0	0	3.2057171	0
0.185	0	0	0	0	0	0	-82.96444686	1008.203386	-4.617663849	0.339881002	0	0.279338923	0	0	0	0	2.642817699	0
0.19	0	0	0	0	0	0	-85.59968923	1088.453673	35.3458853	0.347388848	0	0.274365909	0	0	0	0	0.947553387	0
0.195	0	0	0	0	0	0	-108.6793697	1177.137839	90.14482454	0.357537718	0	0.268206142	0	0	0	0	-0.56124864	0
0.2	0	0	0	0	0	0	-152.8935356	1245.466598	120.9508598	0.368617113	0	0.263314347	0	0	0	0	1.014138028	0
0.205	0	0	0	0	0	0	-194.3493753	1307.560108	107.6719015	0.37967945	0	0.261027176	0	0	0	0	5.496819055	0
0.21	0	0	0	0	0	0	-226.9573511	1391.457825	83.7918175	0.389850848	0	0.260216245	0	0	0	0	8.752428564	0
0.215	0	0	0	0	0	0	-256.2621028	1479.356569	81.05788015	0.398879695	0	0.259146998	0	0	0	0	9.05853083	0
0.22	0	0	0	0	0	0	-275.123645	1534.343705	76.61640977	0.407245867	0	0.257829602	0	0	0	0	9.906654477	0
0.225	0	0	0	0	0	0	-291.6530206	1562.769686	61.78035868	0.41509497	0	0.256749387	0	0	0	0	11.78823085	0
0.23	0	0	0	0	0	0	-317.40182	1588.065187	56.17368176	0.422720501	0	0.255616975	0	0	0	0	12.90193091	0
0.235	0	0	0	0	0	0	-345.9790543	1601.717807	53.92369604	0.430308367	0	0.254415013	0	0	0	0	13.80150706	0
0.24	0	0	0	0	0	0	-370.1479323	1599.425283	50.1973328	0.437719539	0	0.2532814	0	0	0	0	14.8101345	0
0.245	0	0	0	0	0	0	-389.3102644	1594.810421	49.41442029	0.444527121	0	0.252229407	0	0	0	0	15.99110402	0
0.25	0	0	0	0	0	0	-399.6263107	1589.73011	53.3690417	0.450478683	0	0.251130429	0	0	0	0	17.313621	0
0.255	0	0	0	0	0	0	-405.743199	1574.609916	58.80282618	0.456177886	0	0.249960178	0	0	0	0	18.25910155	0
0.26	0	0	0	0	0	0	-412.9528448	1543.574032	58.02494376	0.462140372	0	0.248872962	0	0	0	0	18.43614264	0
0.265	0	0	0	0	0	0	-417.6255072	1499.833819	50.90749752	0.468180141	0	0.24795192	0	0	0	0	18.20288816	0
0.27	0	0	0	0	0	0	-414.7862702	1448.747131	45.61211321	0.473825221	0	0.246955606	0	0	0	0	18.0504827	0
0.275	0	0	0	0	0	0	-404.3727614	1390.165226	46.09698468	0.479034902	0	0.245751992	0	0	0	0	18.12172783	0
0.28	0	0	0	0	0	0	-387.1746055	1319.790163	48.66415745	0.484058253	0	0.24433621	0	0	0	0	18.03658177	0
0.285	0	0	0	0	0	0	-364.0943036	1238.40194	49.06311524	0.489075695	0	0.242882608	0	0	0	0	17.58839324	0
0.29	0	0	0	0	0	0	-337.1845831	1150.852461	46.85224007	0.493837782	0	0.24158558	0	0	0	0	16.82349035	0
0.295	0	0	0	0	0	0	-306.5968252	1062.469058	44.92996989	0.497765935	0	0.24039673	0	0	0	0	15.8382332	0
0.3	0	0	0	0	0	0	-272.2007307	974.6520656	44.13087623	0.500819528	0	0.239201157	0	0	0	0	14.64192692	0
0.305	0	0	0	0	0	0	-237.1377032	887.0888134	44.04673961	0.503008225	0	0.237943726	0	0	0	0	13.07582073	0
0.31	0	0	0	0	0	0	-203.0191329	803.1531378	45.96983013	0.504259052	0	0.236632291	0	0	0	0	11.79446184	0
