DataType=double
version=3
OpenSimVersion=4.5
endheader
time	ground_force_1_vx	ground_force_1_vy	ground_force_1_vz	ground_force_1_px	ground_force_1_py	ground_force_1_pz	ground_moment_1_mx	ground_moment_1_my	ground_moment_1_mz
1.5	0.04290677938588638	0.08974332971723697	-0.03603818245007773	0.7434283706476623	0.006637299061187014	0.4090961113748556	0	-0.001458164768878556	0
1.505	0.04000365598921274	0.1422065126378129	-0.03754666262713613	0.7540166809086315	0.006637299061187014	0.4084574045055351	0	-0.001354115440966697	0
1.51	0.03641562254355613	0.1984694944188163	-0.03880195774404882	0.7650892779572802	0.006637299061187014	0.407781460651633	0	-0.00124690049606252	0
1.515	0.03204291302060103	0.2575331315853759	-0.03964111084117761	0.7765823822996206	0.006637299061187014	0.407071052481783	0	-0.001136400327790776	0
1.52	0.02678579333752795	0.3179905784425614	-0.03985568995245359	0.7884339876151057	0.006637299061187014	0.4063294163370412	0	-0.001021275333414784	0
1.525	0.02054785266651749	0.3779612028854444	-0.0391884655232495	0.8005844675584081	0.006637299061187014	0.4055603374267203	0	-0.0008988663191386581	0
1.53	0.01323965734310661	0.4350249875445229	-0.03733218629127677	0.8129768829808665	0.006637299061187014	0.404768194641535	0	-0.0007652325960205153	0
1.535	0.004783277120927298	0.4861590043664705	-0.03393028755354166	0.8255570570691696	0.006637299061187014	0.4039579675988517	0	-0.0006152782074917429	0
1.54	-0.004881944970021479	0.527678347280812	-0.02857958024821627	0.8382734789445055	0.006637299061187014	0.4031352093027359	0	-0.0004429363751209392	0
1.545	-0.01579209513309232	0.5551848167473281	-0.02083513622247679	0.8510770887303973	0.006637299061187014	0.4023059884790911	0	-0.0002413948996182746	0
1.55	-0.02794965497998003	0.5635276466749133	-0.01021771877935151	0.863920989268364	0.006637299061187014	0.4014768062461218	0	-3.353927397531375e-06	0
1.555	-0.04131260092721645	0.546781625200822	0.003775779728911743	0.8767601217758824	0.006637299061187014	0.4006544923021743	0	0.0002786856475187616	0
1.56	-0.05578159351729584	0.4982490587062216	0.02165833365553738	0.8895509350020054	0.006637299061187014	0.3998460862426859	0	0.0006120987040712511	0
1.565	-0.07118530819543123	0.4104931210502514	0.04393457721827687	0.9022510700157752	0.006637299061187014	0.3990587099292782	0	0.001003767771320829	0
1.57	-0.0872640573470016	0.2754111680781648	0.07107772077247176	0.9148190758146495	0.006637299061187014	0.3982994369919072	0	0.001459657926055569	0
1.575	-0.1036519565466127	0.0843575438947255	0.1035009244241074	0.9272141646040071	0.006637299061187014	0.3975751655107456	0	0.001984322398188687	0
1.58	-0.1198580037636345	-0.1716737706213394	0.1415225146346479	0.9393960100035079	0.006637299061187014	0.3968924996625537	0	0.002580328487579053	0
1.585	-0.1352465758819639	-0.5017956625742386	0.1853245199679101	0.9513245867017194	0.006637299061187014	0.396257645601627	0	0.003247596238121986	0
1.59	-0.1490180057509951	-0.9148921281648086	0.2349041354569401	0.9629600463182562	0.006637299061187014	0.3956763260702817	0	0.003982645771092752	0
1.595	-0.1601900862179124	-1.419188752448861	0.2900179093348427	0.9742626215426018	0.006637299061187014	0.3951537172133086	0	0.004777753298617071	0
1.6	-0.1675815551158624	-2.021718285877341	0.3501186902851572	0.9851925490843676	0.006637299061187014	0.3946944098453593	0	0.005620020741268772	0
1.605	-0.1697988456900528	-2.727671087775207	0.414285687433015	0.9957100016544183	0.006637299061187014	0.3943023960547786	0	0.006490369696086962	0
1.61	-0.1652276374505202	-3.539621809419714	0.4811483885857797	1.00577502013804	0.006637299061187014	0.3939810806066599	0	0.007362477372048759	0
1.615	-0.1520310078621958	-4.456626130784912	0.5488055640387799	1.015347439326919	0.006637299061187014	0.3937333152281237	0	0.008201680130706046	0
1.62	-0.1281562588880325	-5.473184803214338	0.6147411616576122	1.02438680401799	0.006637299061187014	0.3935614526169759	0	0.008963879511470041	0
1.625	-0.0913527663301843	-6.578076846524993	0.6757395796106991	1.032852276897793	0.006637299061187014	0.3934674159968229	0	0.00959449614672031	0
1.63	-0.03920346397947583	-7.753069666259762	0.7278035891053705	1.040702545304378	0.006637299061187014	0.3934527793108302	0	0.0100275288293516	0
1.635	0.03082718534418305	-8.971521257887389	0.7660790711827445	1.04789574054868	0.006637299061187014	0.3935188527346177	0	0.01018478916388221	0
1.64	0.1213256816795756	-10.19689870357837	0.7847917256001509	1.054389390798054	0.006637299061187014	0.3936667680919033	0	0.009975396583573826	0
1.645	0.2348392576167386	-11.38124797588057	0.7772019970131119	1.060140436353119	0.006637299061187014	0.3938975589333458	0	0.009295633812836157	0
1.65	0.3737596934541274	-12.46366273970131	0.73558562807359	1.065105344226621	0.006637299061187014	0.3942122304166152	0	0.008029278748423962	0
1.655	0.5401780144059201	-13.36881444149634	0.6512484665896068	1.069240366966099	0.006637299061187014	0.3946118146083302	0	0.006048544748918694	0
1.66	0.7357071238609281	-14.00562248194586	0.5145853909226155	1.072501998324048	0.006637299061187014	0.3950974073100051	0	0.003215776836593798	0
1.665	0.9612698277141083	-14.26616159042925	0.3151944295865441	1.074847685307915	0.006637299061187014	0.3956701828876982	0	-0.0006139344606466146	0
1.67	1.216850325092329	-14.02492344913099	0.04205828002456613	1.076236861937858	0.006637299061187014	0.3963313837724354	0	-0.005589047947495707	0
1.675	1.501208119433524	-13.13857082028284	-0.3161935938716773	1.07663237426095	0.006637299061187014	0.397082281237533	0	-0.01185659312006937	0
1.68	1.811554491643482	-11.44634446131738	-0.7709283724382949	1.076002368328421	0.006637299061187014	0.3979241037277663	0	-0.01955573230548263	0
1.685	2.14319323447907	-8.771305370184564	-1.333044496575468	1.074322712396155	0.006637299061187014	0.3988579284326703	0	-0.02880968078495943	0
1.69	2.489129329510451	-4.922616565917735	-2.012383262587942	1.071580020957307	0.006637299061187014	0.3998845310218345	0	-0.03971581336931601	0
1.695	2.839651697560681	0.3009114092898812	-2.817003848053403	1.067775340696545	0.006637299061187014	0.4010041875911798	0	-0.052333807485481	0
1.7	3.181899104032245	7.105770140666777	-3.75230966279544	1.062928546341976	0.006637299061187014	0.4022164220346572	0	-0.06667170697811586	0
1.705	3.499421757279794	15.69694483163352	-4.820016298650053	1.057083476896318	0.006637299061187014	0.4035196914078947	0	-0.08266984015303391	0
1.71	3.771754736425133	26.26909008929874	-6.016954895200545	1.050313819016192	0.006637299061187014	0.4049110015561755	0	-0.1001825962077557	0
1.715	3.97401600268251	38.99546208449124	-7.3337104988452	1.042729713509204	0.006637299061187014	0.4063854455121593	0	-0.1189582378840175	0
1.72	4.076430721099932	54.01478658174818	-8.753119748409713	1.034485022158998	0.006637299061187014	0.4079356581009101	0	-0.1386187107452191	0
1.725	4.043250123593372	71.4179078432237	-10.24876889304329	1.025777828640838	0.006637299061187014	0.4095511717476085	0	-0.1586411976736382	0
1.73	3.830350803498868	91.23788313233396	-11.78385536040084	1.016829212012306	0.006637299061187014	0.4112176145655647	0	-0.1783365779039795	0
1.735	3.382268701778472	113.4453594575108	-13.31082719412641	1.007846880123473	0.006637299061187014	0.4129156621110864	0	-0.1968206380929171	0
1.74	2.631549417304742	137.9467795152745	-14.77186862378429	0.9990023179184899	0.006637299061187014	0.4146199067344345	0	-0.2129849598993276	0
1.745	1.502848569123121	164.5835870547703	-16.10005725933057	0.9904289466273434	0.006637299061187014	0.4162986715025044	0	-0.2254785293207709	0
1.75	-0.07858469466799178	193.1360161302428	-17.22136649823887	0.9822272095459668	0.006637299061187014	0.4179162908234906	0	-0.2327098618653775	0
1.755	-2.176318986799209	223.3349808656897	-18.05787842262539	0.9744693732358667	0.006637299061187014	0.4194377017434388	0	-0.2328744216759576	0
1.76	-4.832580448706056	254.878813456796	-18.53208085731908	0.9672038154196835	0.006637299061187014	0.4208329368000623	0	-0.2239997405626762	0
1.765	-8.060725191969105	287.4494440925675	-18.57183021737358	0.9604588672622322	0.006637299061187014	0.4220794958892451	0	-0.2039967807861562	0
1.77	-11.84184571655543	320.7261895033502	-18.11565096505584	0.95424646316714	0.006637299061187014	0.4231625458935521	0	-0.1707165151017368	0
1.775	-16.12597563010541	354.3960785726198	-17.11779863811432	0.9485654472325459	0.006637299061187014	0.4240739319029686	0	-0.1220200419944771	0
1.78	-20.83729948549444	388.1594537070628	-15.55230955135113	0.9434042329219504	0.006637299061187014	0.4248109940906823	0	-0.0558696785701896	0
1.785	-25.88197117653945	421.7326842134465	-13.41559343904878	0.9387429333298567	0.006637299061187014	0.4253757678416544	0	0.0295585342310371	0
1.79	-31.15682982550688	454.8510954919583	-10.72743156954898	0.9345552618719966	0.006637299061187014	0.4257745813286394	0	0.1357483671293809	0
1.795	-36.5575360049593	487.2727870495106	-7.530257885029283	0.9308103056843823	0.006637299061187014	0.4260176598641705	0	0.2637150984920439	0
1.8	-41.9851950225392	518.7822107581381	-3.886710506432244	0.9274741090242706	0.006637299061187014	0.4261183934270093	0	0.4138857905994403	0
1.805	-47.35101242162926	549.1919366942498	0.1243175592152568	0.9245108796288424	0.006637299061187014	0.4260923279230781	0	0.5859946205621599	0
1.81	-52.57889029710042	578.3415304791309	4.412722176512208	0.9218836640091974	0.006637299061187014	0.4259561773218534	0	0.7789981049238368	0
1.815	-57.60620650859707	606.0941128101787	8.882830779939811	0.9195545981652096	0.006637299061187014	0.4257269953641205	0	0.991016270707202	0
1.82	-62.38319131702993	632.3320284404558	13.43912749208273	0.9174849851962924	0.006637299061187014	0.4254213979156395	0	1.219309144439486	0
1.825	-66.87133030271841	656.9524634646008	17.99156628736657	0.9156353584764361	0.006637299061187014	0.4250547128836497	0	1.46029790968525	0
1.83	-71.0412287005078	679.8634073578071	22.46001588440685	0.9139655948378372	0.006637299061187014	0.4246401287855632	0	1.709636202355794	0
1.835	-74.87040044494913	700.9809366264296	26.77741888445442	0.9124352211160358	0.006637299061187014	0.4241880561330224	0	1.962341900763138	0
1.84	-78.3414017830567	720.2293979408221	30.89133244454701	0.9110041575196618	0.006637299061187014	0.4237058608194553	0	2.213009366269785	0
1.845	-81.44052337186601	737.5450051331925	34.76378825065085	0.909633955922619	0.006637299061187014	0.4231979817904244	0	2.456103152217956	0
1.85	-84.15698625619065	752.8811223424719	38.3698319266113	0.9082892109019669	0.006637299061187014	0.4226663550757087	0	2.686284990391079	0
1.855	-86.48244817879896	766.2123443501262	41.69536721861213	0.9069386566573506	0.006637299061187014	0.4221110366978859	0	2.898697503951285	0
1.86	-88.41066256856605	777.5353600018186	44.73484963659109	0.9055556592904079	0.006637299061187014	0.4215309103282763	0	3.089152925666707	0
1.865	-89.93726663053295	786.8666933829429	47.48909011407306	0.9041181780064749	0.006637299061187014	0.4209243938798699	0	3.254229651332256	0
1.87	-91.05979868937254	794.2391785593936	49.96321574091019	0.9026085040073655	0.006637299061187014	0.4202900922589739	0	3.391314579303426	0
1.875	-91.77806292673037	799.6991578908644	52.16483578028826	0.9010130216651822	0.006637299061187014	0.419627335195286	0	3.498618317130782	0
1.88	-92.09485174500408	803.3051927787453	54.10256323995874	0.8993220091717488	0.006637299061187014	0.4189365330111742	0	3.575159612229444	0
1.885	-92.01687153005624	805.1278509232462	55.785048162631	0.8975293567757496	0.006637299061187014	0.4182193315613018	0	3.620705762578229	0
1.89	-91.55560898534088	805.2496949840942	57.22055683513874	0.8956321003045143	0.006637299061187014	0.4174786107102336	0	3.635670971110136	0
1.895	-90.72789072358491	803.7649047605919	58.41698552520609	0.8936297653818783	0.006637299061187014	0.416718390409769	0	3.620992974629858	0
1.9	-89.55600177942077	800.7785349730144	59.3821211305773	0.8915236083465473	0.006637299061187014	0.4159436905623327	0	3.578014830897388	0
1.905	-88.06735757598092	796.4057277843982	60.12397893849271	0.8893158726673489	0.006637299061187014	0.4151603696355401	0	3.508391320657516	0
1.91	-86.29379816215166	790.7710644902809	60.65111787398823	0.8870091455815416	0.006637299061187014	0.4143749553379114	0	3.414024828415126	0
1.915	-84.27058407196921	784.0078857795273	60.9728934500779	0.8846058393361884	0.006637299061187014	0.413594473541807	0	3.297023738336268	0
1.92	-82.03516896634311	776.2572407035241	61.09963232975954	0.8821077902476493	0.006637299061187014	0.4128262734021072	0	3.159672563267274	0
1.925	-79.62584186308688	767.666295399417	61.04271563447794	0.8795159805764653	0.006637299061187014	0.412077838179136	0	3.004405514692223	0
1.93	-77.0803549183285	758.3863307551472	60.81456353116324	0.8768304077167193	0.006637299061187014	0.4113565692365052	0	2.833779328619996	0
1.935	-74.43464979183186	748.5706018559802	60.42852904745175	0.8740501149282787	0.006637299061187014	0.4106695408876329	0	2.650443744759094	0
1.94	-71.72176413562984	738.3722578384089	59.89872748727859	0.8711733571596503	0.006637299061187014	0.4100232431206199	0	2.457108917908731	0
1.945	-68.97096486626013	727.9423658690559	59.23983525216026	0.868197837544385	0.006637299061187014	0.4094233449404259	0	2.25650934571117	0
1.95	-66.20713565915622	717.427976478655	58.46687910065188	0.865120947566491	0.006637299061187014	0.4088745114267902	0	2.051364044895071	0
1.955	-63.4504340857258	706.9701288015792	57.59501251830578	0.8619399775807368	0.006637299061187014	0.4083802931290254	0	1.844332732248021	0
1.96	-60.7162123506949	696.7017140031843	56.63926370999832	0.8586523044172081	0.006637299061187014	0.4079430882517082	0	1.637968416457132	0
1.965	-58.01516982086363	686.7452090109664	55.61425403622468	0.8552555774352386	0.006637299061187014	0.407564166652534	0	1.434668623743674	0
1.97	-55.35369404531998	677.2104427876885	54.53391502094676	0.8517479067981508	0.006637299061187014	0.4072437417235085	0	1.23662958758756	0
1.975	-52.734351232538	668.1926746686615	53.41125168768708	0.8481280288756141	0.006637299061187014	0.4069810771939514	0	1.045808589876506	0
1.98	-50.15649125605697	659.7712484506392	52.25819329651536	0.8443954136245371	0.006637299061187014	0.4067746168352994	0	0.8638983635031627	0
1.985	-47.61692705501439	652.0089281126729	51.08554311894559	0.8405503002245102	0.006637299061187014	0.4066221254908375	0	0.692314553055162	0
1.99	-45.11064002302833	644.95183682632	49.90300860363458	0.8365936816334186	0.006637299061187014	0.4065208308100848	0	0.5321944536798529	0
1.995	-42.63146153005719	638.6298483415585	48.71928284021929	0.8325272744097018	0.006637299061187014	0.4064675568322196	0	0.3844041814414852	0
2	-40.17268754592441	633.057343909495	47.5421576299935	0.8283534955162257	0.006637299061187014	0.4064588427597877	0	0.2495519901093191	0
2.005	-37.72759208843638	628.2343505747051	46.37866126607447	0.8240754400902478	0.006637299061187014	0.4064910428396822	0	0.1280063773142108	0
2.01	-35.2898124690067	624.1481060542922	45.23521681825845	0.8196968382585264	0.006637299061187014	0.4065604065038772	0	0.01991795594125234	0
2.015	-32.85358970507338	620.775024467172	44.11780948030492	0.8152219750434462	0.006637299061187014	0.4066631414694212	0	-0.07475622767761381	0
2.02	-30.41386422514286	618.0829287297734	43.03214345961256	0.81065557612983	0.006637299061187014	0.4067954650727087	0	-0.1562276077571035	0
2.025	-27.96624394833137	616.0333480523145	41.98376731095077	0.8060026779001961	0.006637299061187014	0.406953649663197	0	-0.2248518347484271	0
2.03	-25.50687200866665	614.5836800387401	40.97815184291348	0.8012685044544051	0.006637299061187014	0.4071340666470176	0	-0.2811063735047938	0
2.035	-23.03222547452411	613.6890653812936	40.0207128476749	0.7964583693663452	0.006637299061187014	0.4073332318095923	0	-0.3255703714600928	0
2.04	-20.53887794352799	613.3038891525729	39.11677854695709	0.7915776112257645	0.006637299061187014	0.4075478526776943	0	-0.358906780064675	0
2.045	-18.02325912475498	613.3828890098325	38.27150755151949	0.7866315630845685	0.006637299061187014	0.4077748771345989	0	-0.3818465423020517	0
2.05	-15.48144333672819	613.8819103248397	37.48976732414106	0.7816255480184425	0.006637299061187014	0.4080115411904017	0	-0.3951746726578164	0
2.055	-12.90899620415805	614.7583960616117	36.77598596833082	0.7765648868541822	0.006637299061187014	0.4082554127039684	0	-0.3997181648999554	0
2.06	-10.30090471599391	615.9717267809617	36.13399190582258	0.7714549009733617	0.006637299061187014	0.4085044271747039	0	-0.3963357696828215	0
2.065	-7.651608842787114	617.4835240591609	35.56685659005477	0.7663008945218507	0.006637299061187014	0.4087569118578564	0	-0.3859097008283079	0
2.07	-4.955139698999753	619.2579960816054	35.0767543118455	0.7611081067350031	0.006637299061187014	0.4090115956410669	0	-0.3693392265748113	0
2.075	-2.205349636227486	621.2623476806112	34.66485026939915	0.755881634519862	0.006637299061187014	0.4092676041352128	0	-0.3475359091308831	0
2.08	0.6037982892446041	623.467219745542	34.33122465412096	0.7506263343951723	0.006637299061187014	0.4095244416180068	0	-0.321420014670812	0
2.085	3.477921724134852	625.8470849584395	34.07483801385337	0.7453467183409501	0.006637299061187014	0.4097819630677408	0	-0.2919173881450947	0
2.09	6.421929441919133	628.380516773204	33.89354149205113	0.7400468589636024	0.006637299061187014	0.4100403401117885	0	-0.2599559620286259	0
2.095	9.439782743006761	631.0502616618232	33.78413359442112	0.7347303165117836	0.006637299061187014	0.4103000243635995	0	-0.2264610899738239	0
2.1	12.53433290432619	633.8430693197085	33.74246226435758	0.7294000955511248	0.006637299061187014	0.4105617107163155	0	-0.1923490250964282	0
2.105	15.70725258272337	636.7492613654573	33.7635672778767	0.724058634222949	0.006637299061187014	0.4108263020860808	0	-0.1585180279593649	0
2.11	18.95907135005008	639.7620406085011	33.84185355469727	0.7187078248940356	0.006637299061187014	0.4110948760760954	0	-0.1258367453890377	0
2.115	22.28931701702446	642.8765590530045	33.97128123955296	0.7133490618684528	0.006637299061187014	0.4113686531305751	0	-0.09512963509127442	0
2.12	25.69675412131427	646.0887746957584	34.1455537582438	0.7079833095552363	0.006637299061187014	0.4116489649697554	0	-0.06715935855231303	0
2.125	29.17969641441952	649.3941368001315	34.35828152604708	0.7026111829951379	0.006637299061187014	0.4119372215139655	0	-0.04260634273037806	0
2.13	32.73635114287286	652.7861476854295	34.60309880649153	0.6972330321355678	0.006637299061187014	0.4122348743060646	0	-0.02204621372727916	0
2.135	36.36513679824237	656.2548552401499	34.87371651449574	0.6918490218788202	0.006637299061187014	0.4125433747412571	0	-0.005926394532200785	0
2.14	40.06491251259103	659.7853328535512	35.16390390287937	0.6864592014550669	0.006637299061187014	0.4128641260519238	0	0.005456455015922013	0
2.145	43.83506736089532	663.356202204751	35.4674038220079	0.6810635585904712	0.006637299061187014	0.4131984287139042	0	0.0119763919091736	0
2.15	47.67543479846019	666.9382506058322	35.77779669153538	0.6756620559749789	0.006637299061187014	0.4135474196466306	0	0.01369384244679578	0
2.155	51.58601596729914	670.4931898249446	36.08833634173408	0.6702546496118916	0.006637299061187014	0.413912006309446	0	0.01086533794295325	0
2.16	55.5665143546366	673.972598971202	36.3917864205111	0.6648412906584269	0.006637299061187014	0.4142927975815459	0	0.003945767565572855	0
2.165	59.61570372608853	677.3170916500289	36.68028946319414	0.6594219141942849	0.006637299061187014	0.4146900341536451	0	-0.006418384836930968	0
2.17	63.73067222981677	680.4557486045671	36.94530249459942	0.6539964198350534	0.006637299061187014	0.4151035220333219	0	-0.0194063064247092	0
2.175	67.90600726503442	683.3058620377599	37.17763262700316	0.648564650108886	0.006637299061187014	0.4155325736135652	0	-0.0340519436025345	0
2.18	72.13299898835039	685.7730437773573	37.36759812661217	0.6431263729092167	0.006637299061187014	0.4159759614619422	0	-0.0492855621723442	0
2.185	76.39892798122091	687.7517464136738	37.50531575707509	0.6376812739974533	0.006637299061187014	0.4164318904454954	0	-0.06398672027976632	0
2.19	80.68646300357022	689.1262247389221	37.58107590910744	0.6322289643253355	0.006637299061187014	0.4168979939810047	0	-0.0770450866813791	0
2.195	84.97315708180469	689.7719315940594	37.58573319033422	0.6267690045808166	0.006637299061187014	0.4173713599639257	0	-0.08742357753541258	0
2.2	89.23102364152709	689.5573208397693	37.51102899476565	0.6213009453316449	0.006637299061187014	0.4178485908144667	0	-0.09421798545875071	0
2.205	93.42619765360112	688.3460362455949	37.34977191266824	0.6158243754048748	0.006637299061187014	0.418325899541669	0	-0.09670848391983089	0
2.21	97.51872098873864	685.9994906934519	37.09582266897826	0.6103389654682874	0.006637299061187014	0.4187992398759481	0	-0.09440029017981938	0
2.215	101.4625201518272	682.37985604143	36.74386139778201	0.6048444924955475	0.006637299061187014	0.4192644645327768	0	-0.08705249586248692	0
2.22	105.2056571743928	677.3534579318307	36.28896099014568	0.5993408386594926	0.006637299061187014	0.4197175031090084	0	-0.07469480675086665	0
2.225	108.6909256528395	670.7944911194948	35.72605212776926	0.59382797530606	0.006637299061187014	0.4201545508741275	0	-0.05763136360526955	0
2.23	111.8568341745805	662.5888459027937	35.04943407181484	0.5883059616933324	0.006637299061187014	0.420572262943365	0	-0.03642968399037383	0
2.235	114.6389659538513	652.6376649720273	34.25253218553922	0.5827749992227989	0.006637299061187014	0.4209679578530217	0	-0.01189259900878192	0
2.24	116.9716273746095	640.8600798706282	33.32808040616418	0.577235579995133	0.006637299061187014	0.4213398496675668	0	0.0149868380336286	0
2.245	118.7896433928696	627.1946364074574	32.26879255550511	0.5716887517685674	0.006637299061187014	0.4216873302425468	0	0.04308337825070663	0
2.25	120.0302157707534	611.5996179730147	31.0684423352154	0.5661364798106261	0.006637299061187014	0.4220112710655954	0	0.07120325297728292	0
2.255	120.634929136865	594.0537281634099	29.72318911320794	0.5605820222023082	0.006637299061187014	0.4223142011976955	0	0.09814794660830917	0
2.26	120.5520548722667	574.5590217561208	28.2329734133657	0.5550302115031834	0.006637299061187014	0.4226001658953056	0	0.1227780917770392	0
2.265	119.7391132036747	553.1464712742699	26.60280702341374	0.5494876115688478	0.006637299061187014	0.4228741987377979	0	0.1440794896307988	0
2.27	118.1654331345825	529.8825826892535	24.84377881482339	0.5439626258723879	0.006637299061187014	0.4231415280468486	0	0.1612286916515724	0
2.275	115.8144548205558	504.8750594029977	22.97360684799913	0.5384656651733839	0.006637299061187014	0.4234066872671892	0	0.1736505700375648	0
2.28	112.685651996397	478.2762853164668	21.01659047258691	0.5330094504771125	0.006637299061187014	0.4236726296637081	0	0.1810592842528462	0
2.285	108.7960100712501	450.2839892716056	19.00284252505959	0.5276095035750797	0.006637299061187014	0.4239398882290004	0	0.1834752953070711	0
2.29	104.1809330478495	421.1385558890049	16.96673037664865	0.5222848835528626	0.006637299061187014	0.4242058061377825	0	0.1812129384778486	0
2.295	98.8942950468842	391.1163507506166	14.94458173773591	0.5170592539187773	0.006637299061187014	0.4244638695024653	0	0.1748363928540425	0
2.3	93.0072334973209	360.5186042476857	12.97193862511911	0.511962374447851	0.006637299061187014	0.4247032163304909	0	0.1650873488305114	0
2.305	86.60562633308977	329.6570374385836	11.0808863549107	0.5070319386543913	0.006637299061187014	0.4249085232949708	0	0.1527943703322891	0
2.31	79.78716402585891	298.8407988304557	9.298097408680853	0.5023151696422121	0.006637299061187014	0.4250605090816402	0	0.1387818243922481	0
2.315	72.65936639278952	268.3702147880799	7.644030608432182	0.4978692076226353	0.006637299061187014	0.4251369913652929	0	0.123800777141348	0
2.32	65.33866017302572	238.5373571397984	6.133188615031242	0.4937597935960442	0.006637299061187014	0.4251142386999361	0	0.1084938962911099	0
2.325	57.94909429135249	209.6270761813902	4.774883407668383	0.4900586093614829	0.006637299061187014	0.4249687228497659	0	0.09338686541131269	0
2.33	50.61950518174844	181.9130103813916	3.573990012399136	0.4868398304082814	0.006637299061187014	0.424679662698663	0	0.07889177309458417	0
2.335	43.47950793494527	155.6492822918243	2.531500185870575	0.4841761401059899	0.006637299061187014	0.4242322809704656	0	0.06531459001771855	0
2.34	36.65535499072099	131.0623618617324	1.644911038516632	0.4821343036531981	0.006637299061187014	0.4236210064921748	0	0.05286530123413696	0
2.345	30.26450112769028	108.3453183180026	0.9084025540804106	0.4807704034145825	0.006637299061187014	0.4228520046356031	0	0.04167076131008979	0
2.35	24.40561870174158	87.6525744707811	0.3127762909884488	0.4801248109755368	0.006637299061187014	0.4219452245963596	0	0.0317891180244928	0
2.355	19.14619934128927	69.09271075946407	-0.1543553936333915	0.4802169656498809	0.006637299061187014	0.4209364670488489	0	0.0232239647826486	0
2.36	14.51710117092646	52.71952367560618	-0.5075847363728414	0.4810423955785195	0.006637299061187014	0.4198770415852258	0	0.01593696105756398	0
2.365	10.51799274463706	38.52547622002521	-0.7622847975143543	0.4825771023976403	0.006637299061187014	0.4188256916941369	0	0.009858430352457481	0
2.37	7.12696637200172	26.44329539255318	-0.93351250598635	0.4847880890554309	0.006637299061187014	0.4178353503944719	0	0.00489646900174634	0
2.375	4.307888542643813	16.35647708435516	-1.035441443834745	0.4876413731859537	0.006637299061187014	0.4169452249616449	0	0.000945196906095902	0
2.38	2.015179665179132	8.113388195901791	-1.081097258186588	0.4911043427552257	0.006637299061187014	0.4161807609613598	0	-0.002108263534885912	0
2.385	0.1974534901769736	1.540217829465234	-1.082218556658585	0.495145989259417	0.006637299061187014	0.4155561041096751	0	-0.004378468848910355	0
2.39	-1.199517078248484	-3.548396214393506	-1.049190883372603	0.4997370083961916	0.006637299061187014	0.4150763555315355	0	-0.005977664825487061	0
2.395	-2.230439033649503	-7.340866908011208	-0.9910384362186591	0.5048498053031096	0.006637299061187014	0.4147395877072025	0	-0.007012801931348733	0
2.4	-2.948675563350653	-10.02205161177659	-0.9154602753392993	0.510458434299299	0.006637299061187014	0.4145386041759744	0	-0.007583415435549634	0
2.405	-3.404891021252879	-11.7683028829357	-0.8288994873918192	0.5165384961046362	0.006637299061187014	0.4144624393150619	0	-0.007780236028020693	0
2.41	-3.64609740355363	-12.74394308600938	-0.7366354427424504	0.523067008942728	0.006637299061187014	0.4144976052934226	0	-0.007684405238938485	0
2.415	-3.715038291039417	-13.09893954394988	-0.6428908686791743	0.5300222639097041	0.006637299061187014	0.4146291017148352	0	-0.007367180011261243	0
2.42	-3.649850604752859	-12.96757179014048	-0.5509469319583644	0.5373836696221717	0.006637299061187014	0.4148412096460279	0	-0.006890021830378124	0
2.425	-3.483949746071149	-12.46790035247659	-0.4632608624489869	0.5451315865292984	0.006637299061187014	0.4151180958445325	0	-0.006304977624333019	0
2.43	-3.246089409607235	-11.70186610932279	-0.3815818469514625	0.5532471474505309	0.006637299061187014	0.4154442552616422	0	-0.005655271798897632	0
2.435	-2.960553268742857	-10.75586960003818	-0.3070619733084001	0.5617120579327737	0.006637299061187014	0.4158048205328515	0	-0.004976040682882377	0
2.44	-2.647441602001448	-9.701699964869192	-0.2403599099039297	0.5705083679508272	0.006637299061187014	0.416185766438543	0	-0.004295151876388237	0
2.445	-2.323021578593166	-8.597702814388072	-0.1817357699296096	0.5796182053368489	0.006637299061187014	0.4165740354917763	0	-0.003634061273255829	0
2.45	-2.000115228093984	-7.490094829222869	-0.1311362422109497	0.5890234611460751	0.006637299061187014	0.4169576081601708	0	-0.003008669755326931	0
2.455	-1.688503997838585	-6.414349948945357	-0.08826958197851198	0.5987054179680878	0.006637299061187014	0.4173255380177043	0	-0.002430149706646512	0
2.46	-1.395333203995648	-5.396597416391785	-0.05267045883293875	0.6086443139895662	0.006637299061187014	0.4176679685915012	0	-0.001905718690574432	0
2.465	-1.125503595800196	-4.454985561770911	-0.0237549715518206	0.6188188384120641	0.006637299061187014	0.4179761450297029	0	-0.001439344287288702	0
2.47	-0.8820406873864304	-3.600976973860043	-0.0008663780092419415	0.6292055576262179	0.006637299061187014	0.4182424301431137	0	-0.001032370740351063	0
2.475	-0.6664354710482989	-2.840550686740187	0.01668773505798882	0.639778276334619	0.006637299061187014	0.4184603309976784	0	-0.0006840646167069475	0
2.48	-0.4789525996073873	-2.175295411162722	0.02960600049520323	0.6505073435838482	0.006637299061187014	0.4186245391468759	0	-0.0003920822332106888	0
2.485	-0.3189041262086696	-1.603384847964264	0.03857063404370109	0.6613589203865455	0.006637299061187014	0.4187309848425927	0	-0.0001528654270791518	0
2.49	-0.1848884663097219	-1.120431843150527	0.04423069333167717	0.6722942332498958	0.006637299061187014	0.418776903164359	0	3.802553664594699e-05	0
2.495	-0.07499545799122798	-0.720222674571005	0.04719033104094805	0.6832688464240571	0.006637299061187014	0.41876090794558	0	0.0001856320895440855	0
2.5	0.01302070666149913	-0.3953362287178379	0.04800118300666512	0.6942319949658737	0.006637299061187014	0.4186830676162662	0	0.0002953605490684241	0
2.505	0.081598280047261	-0.1376553787637249	0.04715809218270195	0.7051260306709819	0.006637299061187014	0.418544975576628	0	0.0003727789825945238	0
2.51	0.1332516898204243	0.06122034903199847	0.04509744178655239	0.7158860434098026	0.006637299061187014	0.4183498064119067	0	0.0004234394317281232	0
2.515	0.1704791951056017	0.2096505997475901	0.04219745137919162	0.7264397312024952	0.006637299061187014	0.4181023481059807	0	0.0004527186140976802	0
2.52	0.1956914166329398	0.3157076363023634	0.03877988004062161	0.7367076032068555	0.006637299061187014	0.4178089993693114	0	0.0004656724160262971	0
2.525	0.2111577953251338	0.3869962121321464	0.03511268959756819	0.7466036103086029	0.006637299061187014	0.4174777202410129	0	0.0004669034262680949	0
2.53	0.2189682462004603	0.430528633523295	0.03141334483383318	0.7560363077326572	0.006637299061187014	0.4171179232512441	0	0.0004604461372666457	0
2.535	0.2210075040515891	0.4526441583663541	0.02785253921592457	0.7649106624589384	0.006637299061187014	0.4167402916594995	0	0.0004496785444543794	0
2.54	0.2189398423172291	0.4589627490003068	0.02455820842083156	0.7731306245203678	0.006637299061187014	0.4163565106652967	0	0.0004372693447926568	0
2.545	0.2142019972692686	0.4543643951433296	0.02161973275307361	0.7806025846387656	0.006637299061187014	0.4159788970985507	0	0.0004251672485833802	0
2.55	0.2080022737818932	0.4429865529436938	0.01909224886422223	0.7872398401259842	0.006637299061187014	0.4156199130462383	0	0.0004146347321429822	0
2.555	0.2013239389906016	0.4282336589684519	0.017000995766562	0.7929681854042708	0.006637299061187014	0.4152915492982582	0	0.0004063236658123359	0
2.56	0.1949310898137213	0.4127942560505744	0.01534560215160852	0.7977327315969125	0.006637299061187014	0.4150045655648517	0	0.0004003848201487581	0
