DataType=double
version=3
OpenSimVersion=4.5
endheader
time	ground_force_1_vx	ground_force_1_vy	ground_force_1_vz	ground_force_1_px	ground_force_1_py	ground_force_1_pz	ground_moment_1_mx	ground_moment_1_my	ground_moment_1_mz
1.5	0.04290677938588638	0.08974332971723697	-0.03603818245007773	0.7435565599815739	0.006637299061187014	0.4090857956867301	-0.002889221359104965	-0.003813311775982098	-0.01159427980187089
1.505	0.04000365598921274	0.1422065126378129	-0.03754666262713613	0.754155722002241	0.006637299061187014	0.4084454369064305	-0.00351386327053449	-0.003999934131202587	-0.01716336566125976
1.51	0.03641562254355613	0.1984694944188163	-0.03880195774404882	0.7652368078009616	0.006637299061187014	0.407767825241156	-0.004179940867305998	-0.004164137569077464	-0.02306422150989795
1.515	0.03204291302060103	0.2575331315853759	-0.03964111084117761	0.7767349694023286	0.006637299061187014	0.40705579660957	-0.004873214253068081	-0.004288837436133397	-0.02917334809058603
1.52	0.02678579333752795	0.3179905784425614	-0.03985568995245359	0.7885869457426595	0.006637299061187014	0.4063126679902769	-0.005574128895434516	-0.004352025760677114	-0.03532291940529775
1.525	0.02054785266651749	0.3779612028854444	-0.0391884655232495	0.800731663813074	0.006637299061187014	0.4055423246361162	-0.006256961390530336	-0.004326384416330931	-0.04129410121793775
1.53	0.01323965734310661	0.4350249875445229	-0.03733218629127677	0.8131105463309753	0.006637299061187014	0.4047492667298866	-0.00688894251174732	-0.004179111191553564	-0.04681048217910688
1.535	0.004783277120927298	0.4861590043664705	-0.03393028755354166	0.8256675952851705	0.006637299061187014	0.4039386179673162	-0.007429401080886855	-0.003871940840677157	-0.05153183712959941
1.54	-0.004881944970021479	0.527678347280812	-0.02857958024821627	0.8383493139850321	0.006637299061187014	0.4031160992940555	-0.007828978109789109	-0.003361368137744181	-0.0550485272663106
1.545	-0.01579209513309232	0.5551848167473281	-0.02083513622247679	0.8511045229365168	0.006637299061187014	0.4022879716722546	-0.008028967621364291	-0.002599098015654888	-0.05687693477351297
1.55	-0.02794965497998003	0.5635276466749133	-0.01021771877935151	0.8638841172411654	0.006637299061187014	0.4014609523221536	-0.007960848997880632	-0.001532761880964462	-0.05645642874909651
1.555	-0.04131260092721645	0.546781625200822	0.003775779728911743	0.876640805490962	0.006637299061187014	0.4006421093754526	-0.007546085664250413	-0.0001069510711127486	-0.05314846317469035
1.56	-0.05578159351729584	0.4982490587062216	0.02165833365553738	0.8893288624941681	0.006637299061187014	0.3998387402771261	-0.006696276179162908	0.001735371009163933	-0.04623851406751567
1.565	-0.07118530819543123	0.4104931210502514	0.04393457721827687	0.9019039207658319	0.006637299061187014	0.3990582395560054	-0.005313756011713799	0.004051008002398604	-0.03494166820627242
1.57	-0.0872640573470016	0.2754111680781648	0.07107772077247176	0.9143228186790138	0.006637299061187014	0.3983079617186062	-0.003292760833395914	0.006894146143760549	-0.01841277527399732
1.575	-0.1036519565466127	0.0843575438947255	0.1035009244241074	0.9265435166088503	0.006637299061187014	0.3975950849687904	-0.0005212741591860137	0.01031337140717759	0.004237835660624301
1.58	-0.1198580037636345	-0.1716737706213394	0.1415225146346479	0.9385250864076257	0.006637299061187014	0.3969264811849583	0.00311630740702773	0.01434801784791012	0.03392200037408566
1.585	-0.1352465758819639	-0.5017956625742386	0.1853245199679101	0.9502277742091775	0.006637299061187014	0.3963085970744809	0.007735550242047307	0.01902378530599563	0.07154359666506682
1.59	-0.1490180057509951	-0.9148921281648086	0.2349041354569401	0.9616131319480515	0.006637299061187014	0.3957473506677809	0.01344725582919581	0.0243475777835675	0.1179595032844738
1.595	-0.1601900862179124	-1.419188752448861	0.2900179093348427	0.9726442091525453	0.006637299061187014	0.3952480463307841	0.02035148434506651	0.03030153240200795	0.1739305052765192
1.6	-0.1675815551158624	-2.021718285877341	0.3501186902851572	0.9832857935739217	0.006637299061187014	0.3948153103091681	0.02853019199355744	0.03683623387328094	0.2400610768925961
1.605	-0.1697988456900528	-2.727671087775207	0.414285687433015	0.9935046870701145	0.006637299061187014	0.3944530475405655	0.0380383590331026	0.04386314192298524	0.3167271031863939
1.61	-0.1652276374505202	-3.539621809419714	0.4811483885857797	1.003270001871991	0.006637299061187014	0.394164419171265	0.04889350960572392	0.05124630012296738	0.4039908088555069
1.615	-0.1520310078621958	-4.456626130784912	0.5488055640387799	1.012553461898378	0.006637299061187014	0.393951838993381	0.06106356001281688	0.05879344511714046	0.501502462958954
1.62	-0.1281562588880325	-5.473184803214338	0.6147411616576122	1.021329694100361	0.006637299061187014	0.3938169859790162	0.07445298101022546	0.06624669614328388	0.6083888367563421
1.625	-0.0913527663301843	-6.578076846524993	0.6757395796106991	1.029576495826766	0.006637299061187014	0.3937608293203995	0.08888732415470502	0.07327307682041673	0.7231289257405724
1.63	-0.03920346397947583	-7.753069666259762	0.7278035891053705	1.037275065807429	0.006637299061187014	0.3937836619572303	0.1040962443756741	0.07945520493365538	0.8434181228191197
1.635	0.03082718534418305	-8.971521257887389	0.7660790711827445	1.04441018842536	0.006637299061187014	0.3938851385201969	0.1196952528020248	0.0842825816151348	0.9660228635903177
1.64	0.1213256816795756	-10.19689870357837	0.7847917256001509	1.050970363355369	0.006637299061187014	0.3940643139410093	0.1351665572785552	0.08714401862935672	1.086628771027725
1.645	0.2348392576167386	-11.38124797588057	0.7772019970131119	1.056947875241036	0.006637299061187014	0.3943196796340682	0.1498394944994001	0.08732186058617114	1.199686517174374
1.65	0.3737596934541274	-12.46366273970131	0.73558562807359	1.062338800721205	0.006637299061187014	0.3946491950688424	0.1628712283420888	0.08398878628951792	1.298261001276571
1.655	0.5401780144059201	-13.36881444149634	0.6512484665896068	1.067142952667953	0.006637299061187014	0.395050313625364	0.1732285842117172	0.07620810770579697	1.373891019295966
1.66	0.7357071238609281	-14.00562248194586	0.5145853909226155	1.071363763843595	0.006637299061187014	0.3955200027443265	0.179672108512527	0.06293862281764045	1.416468363830003
1.665	0.9612698277141083	-14.26616159042925	0.3151944295865441	1.075008114230859	0.006637299061187014	0.3960547594335166	0.1807436841130734	0.04304521535854411	1.414147232062374
1.67	1.216850325092329	-14.02492344913099	0.04205828002456613	1.078086107969683	0.006637299061187014	0.3966506230707498	0.1747592937610127	0.01531652419103291	1.353296907649344
1.675	1.501208119433524	-13.13857082028284	-0.3161935938716773	1.080610807106801	0.006637299061187014	0.3973031880693748	0.1598087989796784	-0.02150887954903635	1.218512881662446
1.68	1.811554491643482	-11.44634446131738	-0.7709283724382949	1.082597930219309	0.006637299061187014	0.3980076192944842	0.1337648852197719	-0.06870627759898734	0.9927038301397624
1.685	2.14319323447907	-8.771305370184564	-1.333044496575468	1.084065524425268	0.006637299061187014	0.3987586731180741	0.09430360591134113	-0.1275169647033955	0.6572740919592344
1.69	2.489129329510451	-4.922616565917735	-2.012383262587942	1.085033619377984	0.006637299061187014	0.3995507266938765	0.03893922688375095	-0.1990871863296148	0.1924233898909991
1.695	2.839651697560681	0.3009114092898812	-2.817003848053403	1.08552387160699	0.006637299061187014	0.4003778174603457	-0.03492368641553201	-0.2843923084793568	-0.4224126134818758
1.7	3.181899104032245	7.105770140666777	-3.75230966279544	1.085559207078886	0.006637299061187014	0.4012336941079196	-0.1299178016698068	-0.3841448048412015	-1.207955885428385
1.705	3.499421757279794	15.69694483163352	-4.820016298650053	1.085163469168665	0.006637299061187014	0.4021118793523873	-0.24861690868367	-0.4986848749849998	-2.18428781927268
1.71	3.771754736425133	26.26909008929874	-6.016954895200545	1.084361078418107	0.006637299061187014	0.4030057439228937	-0.3934128701000281	-0.6278528575009109	-3.369833407487646
1.715	3.97401600268251	38.99546208449124	-7.3337104988452	1.083176709568164	0.006637299061187014	0.4039085902803234	-0.5663624513719967	-0.7708431749755444	-4.780105201835376
1.72	4.076430721099932	54.01478658174818	-8.753119748409713	1.081634990433443	0.006637299061187014	0.4048137437988021	-0.7690012324307709	-0.9260418695474832	-6.426221641591869
1.725	4.043250123593372	71.4179078432237	-10.24876889304329	1.079760226274761	0.006637299061187014	0.4057146485239378	-1.002121997104743	-1.090860450930744	-8.313367678562699
1.73	3.830350803498868	91.23788313233396	-11.78385536040084	1.077576152447557	0.006637299061187014	0.4066049642022173	-1.265513210154772	-1.26159945284012	-10.43954456266284
1.735	3.382268701778472	113.4453594575108	-13.31082719412641	1.075105717278666	0.006637299061187014	0.4074786610739713	-1.557650412450835	-1.433382138327215	-12.79481457811996
1.74	2.631549417304742	137.9467795152745	-14.77186862378429	1.072370896363411	0.006637299061187014	0.4083301089372795	-1.87534827066244	-1.600171596039233	-15.36086822960148
1.745	1.502848569123121	164.5835870547703	-16.10005725933057	1.06939253878757	0.006637299061187014	0.4091541572069282	-2.213476598965768	-1.754860607568623	-18.11078987668065
1.75	-0.07858469466799178	193.1360161302428	-17.22136649823887	1.066190245169991	0.006637299061187014	0.4099462030845243	-2.564984545418229	-1.889440403289749	-21.00939425405771
1.755	-2.176318986799209	223.3349808656897	-18.05787842262539	1.06278227689454	0.006637299061187014	0.4107022454889434	-2.921398123775881	-1.995264814025003	-24.0145106656854
1.76	-4.832580448706056	254.878813456796	-18.53208085731908	1.059185495455319	0.006637299061187014	0.4114189230321115	-3.273622851318269	-2.06340883461688	-27.07893186806914
1.765	-8.060725191969105	287.4494440925675	-18.57183021737358	1.055415330474627	0.006637299061187014	0.412093535023955	-3.612701596075381	-2.085128124917314	-30.15245657346434
1.77	-11.84184571655543	320.7261895033502	-18.11565096505584	1.051485774663618	0.006637299061187014	0.4127240452130955	-3.930312570332134	-2.052430826147813	-33.18375979066276
1.775	-16.12597563010541	354.3960785726198	-17.11779863811432	1.047409403771484	0.006637299061187014	0.4133090686795283	-4.219005184933518	-1.958717186568764	-36.12198341901288
1.78	-20.83729948549444	388.1594537070628	-15.55230955135113	1.043197419397165	0.006637299061187014	0.4138478429583907	-4.47231342422376	-1.799389912946646	-38.9179633742523
1.785	-25.88197117653945	421.7326842134465	-13.41559343904878	1.038859712402369	0.006637299061187014	0.41434018506068	-4.684926349843471	-1.572351180960942	-41.52522371748694
1.79	-31.15682982550688	454.8510954919583	-10.72743156954898	1.034404944549523	0.006637299061187014	0.4147864365435138	-4.852973095544653	-1.278329994954888	-43.90094406402931
1.795	-36.5575360049593	487.2727870495106	-7.530257885029283	1.029840645878174	0.006637299061187014	0.4151873991517128	-4.974280610040178	-0.9209910435522204	-46.00690660240276
1.8	-41.9851950225392	518.7822107581381	-3.886710506432244	1.02517332521751	0.006637299061187014	0.4155442637937404	-5.04842598702913	-0.506800341916723	-47.81031088065804
1.805	-47.35101242162926	549.1919366942498	0.1243175592152568	1.020408591106705	0.006637299061187014	0.4158585357253757	-5.076566315148976	-0.04467135470042272	-49.28438743405254
1.81	-52.57889029710042	578.3415304791309	4.412722176512208	1.015551280260936	0.006637299061187014	0.4161319587981154	-5.061162084682346	0.4545490977147995	-50.40880070285377
1.815	-57.60620650859707	606.0941128101787	8.882830779939811	1.010605590588547	0.006637299061187014	0.4163664414964862	-5.005672685298542	0.9786916722520483	-51.16987229225654
1.82	-62.38319131702993	632.3320284404558	13.43912749208273	1.005575215649539	0.006637299061187014	0.4165639872541256	-4.914187669139691	1.514921262291941	-51.56065375685396
1.825	-66.87133030271841	656.9524634646008	17.99156628736657	1.000463477367979	0.006637299061187014	0.4167266312202695	-4.790938426928745	2.050392980811329	-51.58085373680458
1.83	-71.0412287005078	679.8634073578071	22.46001588440685	0.9952734537931049	0.006637299061187014	0.416856385264653	-4.639743616518311	2.572852417270388	-51.2366201944231
1.835	-74.87040044494913	700.9809366264296	26.77741888445442	0.9900080987660604	0.006637299061187014	0.4169551925777105	-4.463540923782217	3.071127489907436	-50.5401602245901
1.84	-78.3414017830567	720.2293979408221	30.89133244454701	0.9846703505082911	0.006637299061187014	0.4170248927611092	-4.264136785855701	3.535484046552468	-49.5091422518508
1.845	-81.44052337186601	737.5450051331925	34.76378825065085	0.9792632264150385	0.006637299061187014	0.4170671978267759	-4.042208887737886	3.957845092397377	-48.16584772441977
1.85	-84.15698625619065	752.8811223424719	38.3698319266113	0.9737899017170407	0.006637299061187014	0.4170836790459586	-3.797521884751686	4.331884369135098	-46.53614329978185
1.855	-86.48244817879896	766.2123443501262	41.69536721861213	0.9682537701609613	0.006637299061187014	0.4170757641291548	-3.529282751466361	4.653007022812894	-44.64843341898691
1.86	-88.41066256856605	777.5353600018186	44.73484963659109	0.9626584854421419	0.006637299061187014	0.4170447437895055	-3.236551937452251	4.91823791459136	-42.53273408235894
1.865	-89.93726663053295	786.8666933829429	47.48909011407306	0.9570079827824151	0.006637299061187014	0.4169917863639706	-2.918649810493568	5.126049630322285	-40.21989459071003
1.87	-91.05979868937254	794.2391785593936	49.96321574091019	0.9513064807546444	0.006637299061187014	0.416917958855864	-2.57552618045315	5.276165811262361	-37.7408989569461
1.875	-91.77806292673037	799.6991578908644	52.16483578028826	0.945558464182838	0.006637299061187014	0.4168242525354769	-2.208051972126872	5.369365277453813	-35.12619823503788
1.88	-92.09485174500408	803.3051927787453	54.10256323995874	0.9397686496566477	0.006637299061187014	0.4167116111059241	-1.818180423635623	5.4072966822045	-32.40511151445188
1.885	-92.01687153005624	805.1278509232462	55.785048162631	0.9339419358548634	0.006637299061187014	0.4165809594176313	-1.408958212279743	5.392305055549611	-29.6053750302475
1.89	-91.55560898534088	805.2496949840942	57.22055683513874	0.9280833414380489	0.006637299061187014	0.4164332307994661	-0.9844174950331601	5.327273131642477	-26.75288883947563
1.895	-90.72789072358491	803.7649047605919	58.41698552520609	0.9221979337129859	0.006637299061187014	0.4162693912625603	-0.5493996490371302	5.21548506469107	-23.87165132984081
1.9	-89.55600177942077	800.7785349730144	59.3821211305773	0.9162907515642851	0.006637299061187014	0.4160904591122143	-0.1093507417823751	5.060520783652803	-20.9838211065085
1.905	-88.06735757598092	796.4057277843982	60.12397893849271	0.9103667262732107	0.006637299061187014	0.4158975188550711	0.3298874112815788	4.866183368497695	-18.1098265324108
1.91	-86.29379816215166	790.7710644902809	60.65111787398823	0.9044306037927263	0.006637299061187014	0.4156917286889539	0.7622771022259709	4.636453437925869	-15.26846302818397
1.915	-84.27058407196921	784.0078857795273	60.9728934500779	0.8984868718246148	0.006637299061187014	0.415474321284104	1.181768707006101	4.375459463190187	-12.47695649852681
1.92	-82.03516896634311	776.2572407035241	61.09963232975954	0.8925396946637331	0.006637299061187014	0.415246597978963	1.582468817957041	4.08745298863422	-9.750993992460495
1.925	-79.62584186308688	767.666295399417	61.04271563447794	0.8865928582615912	0.006637299061187014	0.415009916894807	1.958799365307246	3.776780876809701	-7.104718850870475
1.93	-77.0803549183285	758.3863307551472	60.81456353116324	0.8806497273504593	0.006637299061187014	0.4147656757992487	2.305656767755516	3.447850338549257	-4.550677563686125
1.935	-74.43464979183186	748.5706018559802	60.42852904745175	0.8747132157987273	0.006637299061187014	0.4145152908022902	2.61857321184823	3.105085437812572	-2.099713591241925
1.94	-71.72176413562984	738.3722578384089	59.89872748727859	0.868785770679799	0.006637299061187014	0.4142601721403937	2.893868332010354	2.75287597363297	0.2391694208101525
1.945	-68.97096486626013	727.9423658690559	59.23983525216026	0.862869369871444	0.006637299061187014	0.4140016983910502	3.128768791674502	2.395521162070036	2.458928684958884
1.95	-66.20713565915622	717.427976478655	58.46687910065188	0.8569655323971535	0.006637299061187014	0.4137411904660065	3.321474342073861	2.037170760444956	4.554543058276256
1.955	-63.4504340857258	706.9701288015792	57.59501251830578	0.8510753402063038	0.006637299061187014	0.4134798866642537	3.471160863048665	1.681765220667315	6.522996118865676
1.96	-60.7162123506949	696.7017140031843	56.63926370999832	0.8451994696885908	0.006637299061187014	0.4132189199384265	3.577924914889695	1.332975786756386	8.363194032718278
1.965	-58.01516982086363	686.7452090109664	55.61425403622468	0.8393382309439431	0.006637299061187014	0.4129592983549154	3.642682970748809	0.9941466770162386	10.0758418293084
1.97	-55.35369404531998	677.2104427876885	54.53391502094676	0.833491612686359	0.006637299061187014	0.4127018895239539	3.667040806439058	0.6682439761699484	11.66329136148675
1.975	-52.734351232538	668.1926746686615	53.41125168768708	0.8276593306443493	0.006637299061187014	0.4124474095558009	3.653147584362759	0.3578173708668126	13.12935768302017
1.98	-50.15649125605697	659.7712484506392	52.25819329651536	0.8218408774196799	0.006637299061187014	0.4121964168758731	3.603547285061228	0.06497947146510052	14.47909608249273
1.985	-47.61692705501439	652.0089281126729	51.08554311894559	0.8160355719613609	0.006637299061187014	0.4119493110159435	3.521037669701313	-0.208596652003515	15.71854500512354
1.99	-45.11064002302833	644.95183682632	49.90300860363458	0.8102426070803702	0.006637299061187014	0.4117063362983694	3.408544064583711	-0.4616652959691692	16.85445821145131
1.995	-42.63146153005719	638.6298483415585	48.71928284021929	0.8044610937470418	0.006637299061187014	0.4114675901511969	3.269012712805956	-0.6933864108932029	17.89405533880631
2	-40.17268754592441	633.057343909495	47.5421576299935	0.7986901012515297	0.006637299061187014	0.4112330356371446	3.105326649646463	-0.9032980991322783	18.84480903368791
2.005	-37.72759208843638	628.2343505747051	46.37866126607447	0.7929286926438774	0.006637299061187014	0.4110025176503065	2.920245441126379	-1.091284906003257	19.7142696258041
2.01	-35.2898124690067	624.1481060542922	45.23521681825845	0.7871759551826126	0.006637299061187014	0.410775782131053	2.716367866855023	-1.257542410436976	20.50991786528597
2.015	-32.85358970507338	620.775024467172	44.11780948030492	0.781431025792432	0.006637299061187014	0.4105524975713192	2.496113861546148	-1.402538963626961	21.23903689747139
2.02	-30.41386422514286	618.0829287297734	43.03214345961256	0.7756931117505159	0.006637299061187014	0.4103322780280901	2.261719920089615	-1.526976253809031	21.9086015808163
2.025	-27.96624394833137	616.0333480523145	41.98376731095077	0.7699615069809642	0.006637299061187014	0.4101147068311918	2.015241712573775	-1.631750653435462	22.52518903885397
2.03	-25.50687200866665	614.5836800387401	40.97815184291348	0.7642356044367804	0.006637299061187014	0.4098993601614295	1.758558715090984	-1.717916795413532	23.09491537449526
2.035	-23.03222547452411	613.6890653812936	40.0207128476749	0.7585149050923903	0.006637299061187014	0.4096858296857982	1.493377382828689	-1.786653999186993	23.62340089216076
2.04	-20.53887794352799	613.3038891525729	39.11677854695709	0.752799024064408	0.006637299061187014	0.4094737434673026	1.221231074302004	-1.839235504240183	24.11576254051113
2.045	-18.02325912475498	613.3828890098325	38.27150755151949	0.7470876943346562	0.006637299061187014	0.4092627844173382	0.9434763373551798	-1.877000119906176	24.57662909230538
2.05	-15.48144333672819	613.8819103248397	37.48976732414106	0.7413807684793067	0.006637299061187014	0.409052705627918	0.6612863053715734	-1.901325822603753	25.01017218278942
2.055	-12.90899620415805	614.7583960616117	36.77598596833082	0.7356782187238156	0.006637299061187014	0.4088433420082603	0.3756428366073394	-1.913604945146331	25.42014482842129
2.06	-10.30090471599391	615.9717267809617	36.13399190582258	0.7299801355568325	0.006637299061187014	0.4086346177539958	0.08732954018494477	-1.915220834530424	25.80991874918316
2.065	-7.651608842787114	617.4835240591609	35.56685659005477	0.7242867250576908	0.006637299061187014	0.408426549295776	-0.2030722218831507	-1.90752613091723	26.18251314573232
2.07	-4.955139698999753	619.2579960816054	35.0767543118455	0.718598305029588	0.006637299061187014	0.4082192435053396	-0.4951829574268354	-1.891823053224834	26.54061055809372
2.075	-2.205349636227486	621.2623476806112	34.66485026939915	0.7129152999900403	0.006637299061187014	0.4080128910788658	-0.7888200170155262	-1.869346169439753	26.88655926184327
2.08	0.6037982892446041	623.467219745542	34.33122465412096	0.7072382350548709	0.006637299061187014	0.4078077551671671	-1.083988771582359	-1.841248031625409	27.22236506922773
2.085	3.477921724134852	625.8470849584395	34.07483801385337	0.7015677287627078	0.006637299061187014	0.4076041554770968	-1.380871550701653	-1.808587813465562	27.54967742328932
2.09	6.421929441919133	628.380516773204	33.89354149205113	0.6959044849226456	0.006637299061187014	0.4074024482253316	-1.679815971300787	-1.772322805280816	27.8697750265828
2.095	9.439782743006761	631.0502616618232	33.78413359442112	0.6902492836253771	0.006637299061187014	0.4072030024809795	-1.981323829943364	-1.733302368987205	28.18355526707182
2.1	12.53433290432619	633.8430693197085	33.74246226435758	0.6846029716331388	0.006637299061187014	0.4070061735835608	-2.286041002805161	-1.692263747568665	28.49153003812166
2.105	15.70725258272337	636.7492613654573	33.7635672778767	0.6789664524504292	0.006637299061187014	0.4068122744638845	-2.594748031208058	-1.649828948731879	28.79382879456468
2.11	18.95907135005008	639.7620406085011	33.84185355469727	0.6733406764687814	0.006637299061187014	0.4066215458231142	-2.908350392801246	-1.606501769986461	29.09020817998426
2.115	22.28931701702446	642.8765590530045	33.97128123955296	0.6677266316677244	0.006637299061187014	0.4064341262356815	-3.227866900951372	-1.562663903897639	29.38006639656297
2.12	25.69675412131427	646.0887746957584	34.1455537582438	0.6621253354333241	0.006637299061187014	0.4062500233303685	-3.55441423697657	-1.518569009169453	29.66245965598962
2.125	29.17969641441952	649.3941368001315	34.35828152604708	0.6565378281183784	0.006637299061187014	0.4060690872665559	-3.889185350766632	-1.474333830055196	29.93611759944061
2.13	32.73635114287286	652.7861476854295	34.60309880649153	0.6509651690082202	0.006637299061187014	0.4058909877551583	-4.233419490697227	-1.429926100070197	30.19945468162836
2.135	36.36513679824237	656.2548552401499	34.87371651449574	0.6454084353678753	0.006637299061187014	0.4057151958722994	-4.588362013172938	-1.385150001090948	30.45057525364787
2.14	40.06491251259103	659.7853328535512	35.16390390287937	0.6398687252259242	0.006637299061187014	0.4055409718749976	-4.955212763551756	-1.339630973729533	30.68727121764018
2.145	43.83506736089532	663.356202204751	35.4674038220079	0.6343471644954356	0.006637299061187014	0.405367360149461	-5.335062541585346	-1.292802395553695	30.90701233550334
2.15	47.67543479846019	666.9382506058322	35.77779669153538	0.6288449189421272	0.006637299061187014	0.405193192302396	-5.728817907776961	-1.243897072314672	31.10693042733336
2.155	51.58601596729914	670.4931898249446	36.08833634173408	0.6233632113858507	0.006637299061187014	0.4050170992435019	-6.137115382571939	-1.191946725657298	31.28379981103987
2.16	55.5665143546366	673.972598971202	36.3917864205111	0.6179033443671842	0.006637299061187014	0.4048375329038211	-6.560226968807426	-1.135792738180559	31.43401741913607
2.165	59.61570372608853	677.3170916500289	36.68028946319414	0.6124667283318891	0.006637299061187014	0.4046527979918501	-6.997959903635011	-1.074111317923159	31.55358705684179
2.17	63.73067222981677	680.4557486045671	36.94530249459942	0.6070549151895894	0.006637299061187014	0.4044610939105361	-7.44955461897836	-1.005455942576787	31.63811320177965
2.175	67.90600726503442	683.3058620377599	37.17763262700316	0.6016696368984443	0.006637299061187014	0.4042605666477474	-7.913586026893335	-0.9283193051353411	31.68281052085121
2.18	72.13299898835039	685.7730437773573	37.36759812661217	0.5963128485252851	0.006637299061187014	0.4040493701155584	-8.387874337511512	-0.8412154660405919	31.682535650936
2.185	76.39892798122091	687.7517464136738	37.50531575707509	0.5909867750420849	0.006637299061187014	0.4038257360554386	-8.869412459684716	-0.7427797824939977	31.63184718365373
2.19	80.68646300357022	689.1262247389221	37.58107590910744	0.585693960956406	0.006637299061187014	0.4035880512534308	-9.354317440672688	-0.6318798634175445	31.5250976447708
2.195	84.97315708180469	689.7719315940594	37.58573319033422	0.5804373217470785	0.006637299061187014	0.4033349404284695	-9.83781328051862	-0.5077273296376928	31.35655768976744
2.2	89.23102364152709	689.5573208397693	37.51102899476565	0.575220195997045	0.006637299061187014	0.4030653527760807	-10.31425169267217	-0.3699791446019202	31.12056846962038
2.205	93.42619765360112	688.3460362455949	37.34977191266824	0.5700463970908328	0.006637299061187014	0.4027786497785636	-10.77717578745356	-0.2188184637456472	30.8117138337488
2.21	97.51872098873864	685.9994906934519	37.09582266897826	0.5649202633790869	0.006637299061187014	0.4024746915431542	-11.21942924857838	-0.0550073336378627	30.4250005834433
2.215	101.4625201518272	682.37985604143	36.74386139778201	0.5598467058072849	0.006637299061187014	0.4021539186161254	-11.63331079439278	0.1200934923049047	29.95603406534682
2.22	105.2056571743928	677.3534579318307	36.28896099014568	0.5548312521549577	0.006637299061187014	0.4018174259611504	-12.01077111587504	0.3045392794020557	29.4011799250994
2.225	108.6909256528395	670.7944911194948	35.72605212776926	0.5498800872245692	0.006637299061187014	0.4014670256058002	-12.34364735008853	0.4958493256195607	28.75771054143599
2.23	111.8568341745805	662.5888459027937	35.04943407181484	0.5450000885384612	0.006637299061187014	0.4011052943748225	-12.62392910123155	0.6910844059371796	28.0239418379417
2.235	114.6389659538513	652.6376649720273	34.25253218553922	0.5401988573250748	0.006637299061187014	0.4007356031687044	-12.84405164049627	0.8869478163453927	27.19936600357279
2.24	116.9716273746095	640.8600798706282	33.32808040616418	0.5354847447755929	0.006637299061187014	0.4003621244368099	-12.99721618128481	1.079903588267837	26.2847767977128
2.245	118.7896433928696	627.1946364074574	32.26879255550511	0.5308668737004241	0.006637299061187014	0.3999898148597527	-13.07773657620999	1.266305938012379	25.28237516041838
2.25	120.0302157707534	611.5996179730147	31.0684423352154	0.5263551557829522	0.006637299061187014	0.3996243708142477	-13.08139012846781	1.442532738990722	24.19584474647217
2.255	120.634929136865	594.0537281634099	29.72318911320794	0.5219603045914414	0.006637299061187014	0.399272154956125	-13.00570749579591	1.605111753269376	23.03039803086855
2.26	120.5520548722667	574.5590217561208	28.2329734133657	0.517693844352471	0.006637299061187014	0.3989400932229115	-12.85012180548529	1.750828281800977	21.79279714321815
2.265	119.7391132036747	553.1464712742699	26.60280702341374	0.5135681142056778	0.006637299061187014	0.3986355427116826	-12.61595191150309	1.876811986289097	20.49134220811353
2.27	118.1654331345825	529.8825826892535	24.84377881482339	0.5095962672593514	0.006637299061187014	0.3983661321994388	-12.30626673692873	1.980610257987784	19.13581074243931
2.275	115.8144548205558	504.8750594029977	22.97360684799913	0.5057922632754681	0.006637299061187014	0.3981395784928643	-11.92569122329167	2.060255460873995	17.73733867928518
2.28	112.685651996397	478.2762853164668	21.01659047258691	0.5021708532736475	0.006637299061187014	0.3979634832549091	-11.4801822678512	2.114326850349761	16.30824783497657
2.285	108.7960100712501	450.2839892716056	19.00284252505959	0.4987475538146883	0.006637299061187014	0.3978451163742372	-10.97677568313932	2.142002350116079	14.86183440650785
2.29	104.1809330478495	421.1385558890049	16.96673037664865	0.4955386082754298	0.006637299061187014	0.3977911932251025	-10.42329454533315	2.14309157986792	13.41213838761603
2.295	98.8942950468842	391.1163507506166	14.94458173773591	0.4925609321316154	0.006637299061187014	0.3978076542082359	-9.828006328685314	2.118037497839153	11.97371772315668
2.3	93.0072334973209	360.5186042476857	12.97193862511911	0.4898320391959544	0.006637299061187014	0.3978994556674718	-9.199232355369613	2.067874898369813	10.56145026855462
2.305	86.60562633308977	329.6570374385836	11.0808863549107	0.4873699459748382	0.006637299061187014	0.3980703815515058	-8.544988436534126	1.994156271099842	9.190361346678705
2.31	79.78716402585891	298.8407988304557	9.298097408680853	0.4851930518478807	0.006637299061187014	0.3983228849638089	-7.872816205732511	1.898888215925683	7.875407101008768
2.315	72.65936639278952	268.3702147880799	7.644030608432182	0.4833199936495245	0.006637299061187014	0.3986579679728724	-7.189880952106651	1.784511978823527	6.631090674222581
2.32	65.33866017302572	238.5373571397984	6.133188615031242	0.4817694744166999	0.006637299061187014	0.3990751067320214	-6.503217604617429	1.653912674962864	5.47084669131531
2.325	57.94909429135249	209.6270761813902	4.774883407668383	0.4805600675003618	0.006637299061187014	0.3995722271166405	-5.819956413211387	1.510421868550312	4.406264936930818
2.33	50.61950518174844	181.9130103813916	3.573990012399136	0.4797099988279449	0.006637299061187014	0.4001457338038075	-5.147448238792313	1.357794727172484	3.44631103042974
2.335	43.47950793494527	155.6492822918243	2.531500185870575	0.4792369117282678	0.006637299061187014	0.4007905931136313	-4.493263718669008	1.200151908280488	2.596710575430504
2.34	36.65535499072099	131.0623618617324	1.644911038516632	0.4791576202556894	0.006637299061187014	0.4015004671570276	-3.86504888546095	1.041867410970019	1.859616069186383
2.345	30.26450112769028	108.3453183180026	0.9084025540804106	0.4794878582412431	0.006637299061187014	0.4022678940703652	-3.270241135032085	0.8873404435528143	1.233592563280105
2.35	24.40561870174158	87.6525744707811	0.3127762909884488	0.4802420322336574	0.006637299061187014	0.4030845065539013	-2.715677587346267	0.7405711125718146	0.7139032753044057
2.355	19.14619934128927	69.09271075946407	-0.1543553936333915	0.4814329869790842	0.006637299061187014	0.4039412787539752	-2.207132538736684	0.6046557447069847	0.2930784736497032
2.36	14.51710117092646	52.71952367560618	-0.5075847363728414	0.483071792067738	0.006637299061187014	0.4048287899032189	-1.748835413788443	0.4815400522698913	-0.03826449500021534
2.365	10.51799274463706	38.52547622002521	-0.7622847975143543	0.4851675578319881	0.006637299061187014	0.4057374921869813	-1.343107883086075	0.3721607485965283	-0.2904937673429508
2.37	7.12696637200172	26.44329539255318	-0.93351250598635	0.4877272875401418	0.006637299061187014	0.406657970117242	-0.9903049150286873	0.276736736424428	-0.4741767467674876
2.375	4.307888542643813	16.35647708435516	-1.035441443834745	0.4907557714552905	0.006637299061187014	0.407581179290701	-0.6890785101678751	0.1949876258380592	-0.599580401230263
2.38	2.015179665179132	8.113388195901791	-1.081097258186588	0.4942555265061518	0.006637299061187014	0.4084986537499441	-0.436783023551413	0.126270694345161	-0.6763943328166138
2.385	0.1974534901769736	1.540217829465234	-1.082218556658585	0.4982267832497977	0.006637299061187014	0.4094026731641165	-0.2298610745176117	0.06968592217183167	-0.7135625689581759
2.39	-1.199517078248484	-3.548396214393506	-1.049190883372603	0.5026675196012695	0.006637299061187014	0.4102863835590134	-0.064168107634623	0.02416436157176993	-0.719178335620507
2.395	-2.230439033649503	-7.340866908011208	-0.9910384362186591	0.5075735385622355	0.006637299061187014	0.4111438681808385	0.06476061668961242	-0.01145888657177202	-0.7004299961491276
2.4	-2.948675563350653	-10.02205161177659	-0.9154602753392993	0.512938584988524	0.006637299061187014	0.4119701680766831	0.1614954782833631	-0.0383857711005422	-0.663587895963335
2.405	-3.404891021252879	-11.7683028829357	-0.8288994873918192	0.5187544943694674	0.006637299061187014	0.4127612549161761	0.2305448351134154	-0.05780901452760906	-0.6140229837556863
2.41	-3.64609740355363	-12.74394308600938	-0.7366354427424504	0.5250113647121535	0.006637299061187014	0.4135139612711956	0.2762285150781079	-0.07087695733780985	-0.5562492254424358
2.415	-3.715038291039417	-13.09893954394988	-0.6428908686791743	0.5316977409823236	0.006637299061187014	0.4142258758472381	0.3025867881903892	-0.07866802127218625	-0.4939829445708648
2.42	-3.649850604752859	-12.96757179014048	-0.5509469319583644	0.5388008001970859	0.006637299061187014	0.4148952128908324	0.3133193645530836	-0.0821733398907909	-0.4302132863938379
2.425	-3.483949746071149	-12.46790035247659	-0.4632608624489869	0.5463065242387648	0.006637299061187014	0.4155206660970084	0.3117493013409405	-0.08228618823410883	-0.3672789993581624
2.43	-3.246089409607235	-11.70186610932279	-0.3815818469514625	0.5541998468119004	0.006637299061187014	0.4161012577732964	0.3008071204268421	-0.07979695038650447	-0.306947645714218
2.435	-2.960553268742857	-10.75586960003818	-0.3070619733084001	0.5624647607479678	0.006637299061187014	0.4166361937950082	0.2830309055520126	-0.07539248523161751	-0.2504941803103249
2.44	-2.647441602001448	-9.701699964869192	-0.2403599099039297	0.5710843721303542	0.006637299061187014	0.4171247340677547	0.2605786381014523	-0.06965887935103099	-0.1987765664398891
2.445	-2.323021578593166	-8.597702814388072	-0.1817357699296096	0.580040888523212	0.006637299061187014	0.4175660868903339	0.2352495229589984	-0.06308670609754663	-0.1523067292595122
2.45	-2.000115228093984	-7.490094829222869	-0.1311362422109497	0.5893155299996216	0.006637299061187014	0.4179593339023578	0.2085115346668007	-0.05607803696482982	-0.1113156841426137
2.455	-1.688503997838585	-6.414349948945357	-0.08826958197851198	0.598888353732375	0.006637299061187014	0.4183033903370139	0.1815328674093584	-0.04895457222384625	-0.07581212510754587
2.46	-1.395333203995648	-5.396597416391785	-0.05267045883293875	0.6087379856850565	0.006637299061187014	0.4185970032113261	0.1552153919110975	-0.0419663702128214	-0.04563412532822331
2.465	-1.125503595800196	-4.454985561770911	-0.0237549715518206	0.618841256465241	0.006637299061187014	0.418838787994724	0.1302286028862603	-0.03530075753124856	-0.02049389952436953
2.47	-0.8820406873864304	-3.600976973860043	-0.0008663780092419415	0.6291727427109574	0.006637299061187014	0.4190273023026183	0.1070428794596334	-0.02909109534310234	-1.58195098776126e-05
2.475	-0.6664354710482989	-2.840550686740187	0.01668773505798882	0.6397042205032166	0.006637299061187014	0.41916115334043	0.08596117733860575	-0.02342515957358104	0.0162319356528775
2.48	-0.4789525996073873	-2.175295411162722	0.02960600049520323	0.6504040432478536	0.006637299061187014	0.4192391342223258	0.06714852635257618	-0.01835296411126597	0.02871157811897396
2.485	-0.3189041262086696	-1.603384847964264	0.03857063404370109	0.6612364632530072	0.006637299061187014	0.4192603829269793	0.05065892222403612	-0.01389391583387944	0.03789516056339104
2.49	-0.1848884663097219	-1.120431843150527	0.04423069333167717	0.6721609238333739	0.006637299061187014	0.4192245565240377	0.03645937981926339	-0.01004323905248755	0.04424864149411123
2.495	-0.07499545799122798	-0.720222674571005	0.04719033104094805	0.6831313571682888	0.006637299061187014	0.4191320123833672	0.02445105989863183	-0.006777645979239688	0.04821992647264173
2.5	0.01302070666149913	-0.3953362287178379	0.04800118300666512	0.69409553227045	0.006637299061187014	0.4189839873242244	0.01448749602464394	-0.004060260171942498	0.0502302632454652
2.505	0.081598280047261	-0.1376553787637249	0.04715809218270195	0.7049945071936736	0.006637299061187014	0.4187827650255611	0.00639003627386403	-0.001844822659888945	0.05066840435545084
2.51	0.1332516898204243	0.06122034903199847	0.04509744178655239	0.7157622498838739	0.006637299061187014	0.4185318214533679	-3.932089012392836e-05	-7.922670846183255e-05	0.04988699868933644
2.515	0.1704791951056017	0.2096505997475901	0.04219745137919162	0.7263255026612696	0.006637299061187014	0.4182359375238568	-0.005007472587688522	0.001291562060586615	0.04820072971810729
2.52	0.1956914166329398	0.3157076363023634	0.03877988004062161	0.7366039759445077	0.006637299061187014	0.4179012676816855	-0.00872188777848093	0.002323137801323427	0.04588578319598025
2.525	0.2111577953251338	0.3869962121321464	0.03511268959756819	0.74651096713287	0.006637299061187014	0.4175353525165272	-0.01138414910161822	0.003069776065604324	0.04318030435873776
2.53	0.2189682462004603	0.430528633523295	0.03141334483383318	0.7559545100929442	0.006637299061187014	0.4171470629766003	-0.01318509463314932	0.003582986099227969	0.04028558763168588
2.535	0.2210075040515891	0.4526441583663541	0.02785253921592457	0.7648391688764314	0.006637299061187014	0.4167464631966495	-0.01430130269685748	0.003910439942283128	0.03736780864905631
2.54	0.2189398423172291	0.4589627490003068	0.02455820842083156	0.7730685954214992	0.006637299061187014	0.4163445785002131	-0.01489267850234999	0.004095227518551847	0.03456014437012422
2.545	0.2142019972692686	0.4543643951433296	0.02161973275307361	0.7805489742167528	0.006637299061187014	0.41595305485083	-0.01510092114006811	0.004175388089203758	0.03196514041195342
2.55	0.2080022737818932	0.4429865529436938	0.01909224886422223	0.787193476244238	0.006637299061187014	0.4155836960327011	-0.01504867169143509	0.004183669057064798	0.02965719007963319
2.555	0.2013239389906016	0.4282336589684519	0.017000995766562	0.7929278388265402	0.006637299061187014	0.4152478652856303	-0.0148391671399315	0.004147463629771808	0.02768499154138948
2.56	0.1949310898137213	0.4127942560505744	0.01534560215160852	0.7976971759972301	0.006637299061187014	0.4149557391758965	-0.01455624980572079	0.004088879214195651	0.02607384466324802
