DataType=double
version=3
OpenSimVersion=4.5
endheader
time	pelvis_tilt	pelvis_list	pelvis_rotation	pelvis_tx	pelvis_ty	pelvis_tz	hip_flexion_r	hip_adduction_r	hip_rotation_r	knee_angle_r	knee_adduction_r	knee_angle_r_beta	ankle_angle_r	subtalar_angle_r	mtp_angle_r	hip_flexion_l	hip_adduction_l	hip_rotation_l	knee_angle_l	knee_adduction_l	knee_angle_l_beta	ankle_angle_l	subtalar_angle_l	mtp_angle_l	lumbar_extension	lumbar_bending	lumbar_rotation	arm_flex_r	arm_add_r	arm_rot_r	elbow_flex_r	pro_sup_r	wrist_flex_r	wrist_dev_r	arm_flex_l	arm_add_l	arm_rot_l	elbow_flex_l	pro_sup_l	wrist_flex_l	wrist_dev_l
0	47.1594481060573	-18.61320213096557	-13.15755703619003	5.427337981316342	-7.765400658912888	-0.9322359104386485	7.68306587861381	-8.860792041714083	49.72927005341469	184.7657135277236	5.445209508034076e-12	189.800554496079	50.451617427349	-79.79450893937523	0	-70.22408417092366	-14.77051989635776	-52.57604077106333	-8.420812274312116	9.009967353946498e-11	-8.420795191267015	-0.1406064807247812	71.0093576862438	-0.03615224441029361	-27.71485122723624	18.61074991850973	9.40012382555485	-5.142366000868063	-1.337560194590939	4.694196428375492	-20.26102266094392	3.074356945483482e-10	0	0	32.53628845926161	9.494972060096567	28.62800310776872	-5.105929867769818	3.074356945483482e-10	0	0
0.0004542507337261803	47.15937539434438	-18.61327911861298	-13.15724768550831	5.427312159824748	-7.765587010254517	-0.9322180510260416	5.858246123066344	-8.860537834044612	49.73158621176871	181.4762444804155	7.681670917485956e-12	189.799852327235	50.4232566125203	-79.79364495903388	0	-70.22275418663799	-14.7706269594121	-52.57597874070072	-8.417605596850965	8.845157420732218e-11	-8.417588522979834	-0.1399239476831319	71.00872814461572	-0.03615236879396973	-27.71457407332483	18.61096684879947	9.399945896292017	-5.142537188350289	-1.337617515575505	4.694120143978474	-20.26103281810794	4.082147503069881e-10	0	0	32.53516032203753	9.494191753587994	28.62731379598149	-5.105934750765383	4.082147503069881e-10	0	0
0.001515784775164009	47.15694210939975	-18.61601702272367	-13.14647177333561	5.426413186184132	-7.772129537153287	-0.9315918687942508	5.596145615938703	-8.851649238213035	49.81279110601285	181.8988133453799	3.158209443393944e-11	189.7758287846542	50.68136986977167	-79.76384349856318	0	-70.17633328121772	-14.77440574466125	-52.57390374138733	-8.305316677872643	5.389934430145273e-11	-8.305299900906464	-0.1159812132079362	70.9869217109421	-0.0361559735612621	-27.70496646383829	18.6185953852226	9.393737058511217	-5.148514973872203	-1.339651321354778	4.691500311831848	-20.26136948264707	1.388405871790821e-09	0	0	32.49562256252708	9.46687911177497	28.60312460271785	-5.106147208722991	1.388405871790821e-09	0	0
0.003164446411839883	47.13731712882612	-18.63870367053562	-13.05797849003405	5.419032505396459	-7.826040877017554	-0.9264352811356004	5.019736529350297	-8.778536547549114	50.4815513999851	182.0043022998792	-1.545297149715752e-11	189.5800984388468	51.51800555880561	-79.52014809282991	0	-69.79478475769797	-14.80561593906762	-52.55718602715726	-7.381076505277738	-2.565843148630153e-11	-7.381062095269236	0.08125178226210429	70.80829668284611	-0.03618318324548907	-27.62623556902616	18.68150258860326	9.342710991860647	-5.197657504319729	-1.356488807844521	4.670120778181015	-20.26407185391074	-1.233049594668913e-09	0	0	32.170068146962	9.242116270280672	28.40384195216935	-5.108040951786391	-1.233049594668913e-09	0	0
0.005374104194047435	47.05050101668921	-18.73720695888536	-12.67131006405801	5.386776478842429	-8.061069706816866	-0.9039399881477668	4.018620526822765	-8.459383669560646	53.39776995240587	180.928722431842	1.074864360511945e-11	188.7204398351389	53.2753205039995	-78.45261096425253	0	-68.12866057798882	-14.94143543326302	-52.48288891064553	-3.34888070817372	4.36494713153326e-12	-3.348876691136494	0.9410155834227774	70.02623852927	-0.03630480285568279	-27.28171843447469	18.95555546787664	9.119853256540969	-5.412238071986566	-1.429607570101223	4.576293939659935	-20.27608134361021	8.677781853030735e-10	0	0	30.75018816192504	8.261327473519934	27.534971859484	-5.115933584929375	8.677781853030735e-10	0	0
0.008109887166813518	46.79782736049621	-18.9672777881906	-11.69017937981738	5.304695653944151	-8.641612013973047	-0.8477070143440886	2.505361801932949	-7.657314838995299	60.60728758699703	179.0009348984082	7.03160417343168e-12	186.4132330700692	59.29557324905472	-75.67636804058553	0	-63.93445025512513	-15.26842335631753	-52.2447585509153	6.694378608499578	-1.630942495401294e-12	6.694362090783138	3.051915191480825	67.98575324906895	-0.03651229252147185	-26.39202246237881	19.62440325221039	8.556779710703156	-5.952647561901432	-1.599464859560634	4.325455298286253	-20.31331242236095	-4.058815934118832e-10	0	0	27.22867994160498	5.808767599934722	25.38725466689908	-5.126848474276342	-4.058815934118832e-10	0	0
0.01132864367758793	46.24298626272793	-19.14411015237688	-10.37306602141747	5.192962933518465	-9.31548784725255	-0.7779393453983658	0.4689910835902822	-6.632726285189001	69.02347877634718	175.6938190901578	-5.149926446344493e-12	182.4747979913203	65.91455835897656	-71.49517169891658	0	-58.52578815230689	-15.59021058424554	-51.59857062714324	18.92447427981578	4.141713447994934e-12	18.92446331249383	5.418033939520335	64.87583926387515	-0.0362380066103566	-25.09437418724652	20.346175182164	7.817092638049987	-6.650920852301795	-1.72375837066224	3.903839953677968	-20.40808282695003	-4.135044312897811e-11	0	0	23.0419509551819	2.757804569498308	22.8834054750557	-5.080013365046916	-4.135044312897811e-11	0	0
0.01497960949210789	45.25900129360167	-19.09718480207692	-8.949607469991358	5.069411211764812	-9.857186629746561	-0.7119802426163808	-2.020538074094965	-5.613074078079688	75.83656738806317	170.2646773535351	-1.329826986066864e-11	176.7457692048219	71.04661688167587	-66.21422589884591	0	-53.08150583753567	-15.72644406183778	-50.28190562426619	29.91493971123074	-8.645979588096825e-12	29.91495890609507	7.11452955138337	60.82725842486216	-0.03542613480421587	-23.50736142413404	20.80708454549961	7.044680408537214	-7.358272725689007	-1.667149219460645	3.295918380862341	-20.5922671459565	6.995148018783673e-11	0	0	19.4861867823056	-0.1203004095053413	20.85208881111138	-4.927612000929551	6.995148018783673e-11	0	0
0.01900520557876997	43.77827933029874	-18.91088195392291	-7.0784767617004	4.905441791120221	-10.48253605969111	-0.6275100696354184	-4.968224213039463	-4.299593731526914	83.57751234462468	162.8165699690504	1.028191901732438e-11	168.5814137577988	76.2628108465629	-59.05206535711845	0	-46.13877949194831	-15.79372976481266	-48.13779223482246	43.28970792535181	2.986914829432687e-12	43.28968164157235	8.841475198019575	55.08841452620484	-0.03546804288265482	-21.33002788229597	21.24085752400104	6.036319003127404	-8.268558310739692	-1.480983589481567	2.419642869632214	-20.87965105418104	2.71247588292374e-11	0	0	15.30062939688386	-3.732885383875376	18.50564905581422	-4.70155332817222	2.71247588292374e-11	0	0
0.02334194532480019	41.72130347211491	-18.48113975495346	-4.875654709097531	4.709252079129324	-11.07305491362528	-0.5314572188865438	-8.267480874522001	-2.799656054854415	90.64690369252757	152.8423194085412	-6.952522048909941e-12	157.9225060104515	80.13353175337193	-50.28212457516025	0	-38.32801634978978	-15.68304667848229	-44.91624759232706	57.22540776889161	4.712826751933018e-12	57.2254305635385	10.02838340775033	47.63520557857599	-0.03349651433943403	-18.61543893313295	21.46017694880104	4.858728807837879	-9.307204111360734	-1.073571658902174	1.258922861177727	-21.29138000122746	-7.133110221075023e-11	0	0	11.19195861087426	-7.696948068595677	16.28172717851189	-4.392282046212317	-7.133110221075023e-11	0	0
0.02792143545395889	39.05764363774314	-17.77108111064218	-2.353242567321523	4.481323342963299	-11.60937569638235	-0.4228344968622619	-11.7804043248782	-1.115698286801882	96.62577823081945	140.3356447439299	7.688255921095323e-12	144.7933345612197	82.81408709778054	-40.10362067047427	0	-29.76456841589272	-15.35643908956168	-40.43107642582778	71.39352975043732	-7.9791012884524e-12	71.39349699403982	10.47356403327506	38.34422092027498	-0.03371744030688624	-15.35997597883464	21.40399161550767	3.510030981456	-10.46732041144147	-0.4029002575725192	-0.1999436488232651	-21.8348225844959	4.908385812379635e-11	0	0	7.307889076123856	-11.97861315851942	14.25241112391081	-4.017437899703199	4.908385812379635e-11	0	0
0.0326714545037473	35.80480351478761	-16.7689853773458	0.4702181588215855	4.222333411412534	-12.09044624187579	-0.3000879126386318	-15.32952800295002	0.7534782852318331	101.3235260792742	125.769659275676	-3.521202063103188e-12	129.4295929028773	84.20055466024347	-28.85554811758131	0	-20.54398008729209	-14.79628037439723	-34.57200087456262	85.66155734007583	9.814448559463657e-12	85.66157193414688	10.06587680654667	27.19426651033327	-0.0328452922648499	-11.58961851355175	21.04219423407518	1.986711859608198	-11.74502212214456	0.5516153749148559	-1.951181195660144	-22.50369467287597	1.98057641608186e-11	0	0	3.701676410986527	-16.57704028880068	12.41713819542424	-3.606000312778211	1.98057641608186e-11	0	0
0.03751709174442691	32.02554690186196	-15.46544686056313	3.509367009856796	3.938449193905067	-12.48867792646268	-0.1653110474551958	-19.09933114689482	2.755453446011601	104.2603220246955	108.4225794817058	2.345261864387911e-13	112.3277513650095	83.13196530430473	-17.10015028626919	0	-11.0109623673855	-13.97819776823706	-27.3241958567183	99.37416789594251	-8.234325652020553e-12	99.37420211871937	8.639662894578219	14.38364677599762	-0.03167675834535779	-7.405885203000834	20.32470709916604	0.3219988025009852	-13.10343760119351	1.802818587481242	-3.960558664008225	-23.27827957921466	4.80847929699116e-12	0	0	0.589720949048625	-21.34644739532416	10.86863100477147	-3.186152144228791	4.80847929699116e-12	0	0
0.04238192853981579	27.8303689989237	-13.88891712921578	6.691845715631941	3.63503459703928	-12.80809641993495	-0.02012062644218791	-22.48793731079846	4.854347213891837	105.41576431292	90.18130960626293	1.234145593358085e-12	94.12457473377054	80.1857743999788	-5.397613519206046	0	-1.385458895113223	-12.9138693881168	-18.80660032899291	112.3194348205198	5.982426981131269e-12	112.3193938017528	6.215101881263491	0.2165863323373746	-0.03088296463842134	-2.923424510195196	19.26002351437726	-1.459361278340935	-14.51939021323691	3.327053466110803	-6.17596583091813	-24.12509423759309	-6.362587623089706e-12	0	0	-1.997704315203302	-26.21982493952665	9.579261498903971	-2.789208235176543	-6.362587623089706e-12	0	0
0.04718924350439309	23.36237874223579	-12.08143625844319	9.911842529986203	3.319922663774543	-13.04354329411471	0.1312166646137812	-25.45653556499916	6.985716238109908	104.7497357162637	71.59013169697475	-2.121908851629773e-12	75.57497740248019	74.4012376448123	5.668009507797596	0	8.016894769678558	-11.62501761280391	-9.262339012324823	124.1051471414476	-4.456091573268919e-12	124.1051620235433	2.85550661781774	-14.83587470851151	-0.03093625733925263	1.701665999809332	17.86708581752435	-3.30985669916004	-15.95326296824838	5.081261907487232	-8.524795446875633	-25.00247075651087	-4.881797011940597e-11	0	0	-3.985447096278002	-31.05935323769043	8.553678004682572	-2.438218627602142	-4.881797011940597e-11	0	0
0.0518632224455918	18.78543363908486	-10.10900169151705	13.07035298710053	3.000688237864042	-13.20338657146446	0.2842396419245956	-27.90843672718798	9.090574367676398	102.4856465334788	53.42636983375115	3.619750545969103e-12	57.43252199546349	66.35778994691296	15.62978070769527	0	16.95496624616219	-10.15839241042318	0.9540379431908519	134.5637680945005	1.38051015531008e-12	134.5637743610069	-1.250272707045601	-30.22784054834084	-0.03023856495253177	6.309957950296134	16.20424633040997	-5.180684537413146	-17.36974232898615	6.996377149470698	-10.924182209855	-25.8656383686378	6.322112312158463e-11	0	0	-5.39283648374014	-35.75541162297373	7.748180319160136	-2.148639817826131	6.322112312158463e-11	0	0
0.05633015401013977	14.2660802835862	-8.048185848517704	16.06726684927979	2.685375566327703	-13.29502873243267	0.4336505145368211	-29.65721559654268	11.10596323831521	98.91704314417629	36.63650553222746	-4.769447721964283e-12	40.38012017174378	58.25912024187991	24.15631955898684	0	25.2023222380255	-8.573237952402323	11.41968013844295	143.5494316790396	-1.648384622043317e-12	143.5494288806412	-5.860344600758044	-45.37176836575274	-0.02790603186380683	10.74198219430043	14.34771262215264	-7.015362079441408	-18.729872265797	8.990459316374862	-13.28671242327043	-26.67383007427384	-1.383033406539352e-10	0	0	-6.251936210374214	-40.18550482791069	7.127439118714819	-1.925306512915635	-1.383033406539352e-10	0	0
0.06051959218465776	9.959172853386541	-5.982978349294978	18.81952565259216	2.381300160320796	-13.3306908655853	0.5744272658049822	-30.51813366302686	12.97893856293891	94.44585719111396	22.08708859362257	7.238995078542103e-12	24.95450987204192	50.1028247672925	31.09327325669552	0	32.60227110433948	-6.940128057461682	21.69198163612403	151.0476043176595	7.863179566415748e-12	151.047615030812	-10.68778329528933	-59.7164136386809	-0.02914999383799312	14.85960867807184	12.39211733413821	-8.760135892966508	-19.99907723579189	10.97493400839295	-15.5298173151362	-27.39479654654049	3.158234631229158e-10	0	0	-6.640025356730891	-44.25037153111688	6.646883761224409	-1.76470708353953	3.158234631229158e-10	0	0
0.06436546733510043	5.996206387890658	-3.995326591396053	21.26275775280199	2.095396812519605	-13.32199803832878	0.701749617099518	-30.48448970417986	14.66621736660873	89.48797656104502	10.20535696101172	-1.414903460290792e-11	11.51365301561579	43.46319427178741	36.44543469051068	0	39.05029972412105	-5.331693560596461	31.35938368599667	157.1057484281693	-1.211594024384736e-11	157.1057369979079	-15.45075326250607	-72.79462250385895	-0.0270681225865677	18.55300374713289	10.43623098703663	-10.36585540078851	-21.14692120128166	12.8657518091647	-17.58261131520216	-28.00841430767982	-4.800809712289674e-10	0	0	-6.64876164000351	-47.86818325479301	6.271793194018943	-1.65718320347244	-4.800809712289674e-10	0	0
0.06780712831226307	2.47840532073686	-2.159665720799047	23.35679357339991	1.834291527211057	-13.28237730851183	0.8129944268732046	-29.61746218225866	16.13788822960612	84.45030763781118	1.013136098207873	1.788625608039319e-11	0.2309060614420799	38.67374998197914	40.34971021816492	0	44.50157639524954	-3.817588654562471	40.08004363384644	161.843049200421	1.181327729092039e-11	161.8430504728589	-19.89777855557429	-84.26262409727437	-0.0267995675649613	21.74823607747317	8.575534986185339	-11.79299376859101	-22.15049579831132	14.59046802317916	-19.3911119091626	-28.50685147789665	3.634917413179462e-10	0	0	-6.384510481161398	-50.98560442157867	5.974221485594614	-1.590206983424013	3.634917413179462e-10	0	0
0.07079029933648544	-0.5243108455349232	-0.5380195102739028	25.08407820343323	1.603731722223472	-13.22398503766386	0.905973215032807	-28.38005846575057	17.37611039674809	79.68971485222571	-6.123855778593093	-8.577669203508102e-12	-8.879770622084887	35.23099616802345	43.02945142216171	0	48.95717760959113	-2.458573648394775	47.60281054923369	165.4167943623363	-5.616523791995284e-12	165.4168137140053	-23.83107450374331	-93.90940932473779	-0.02747180898950203	24.40628832504528	6.89376972731475	-13.01289139640375	-22.99488959391854	16.09322419740047	-20.92012683276458	-28.89309963717652	1.09815619593591e-11	0	0	-5.954297762951798	-53.57560212052273	5.736256435380804	-1.551263310833011	1.09815619593591e-11	0	0
0.07326793709552543	-2.970575694775618	0.8219605244157078	26.44628715174179	1.40904218703159	-13.15850653131607	0.9798712428539657	-27.35545185519484	18.37334670436559	75.49911532428142	-12.20062136192744	-1.423564542432824e-11	-15.91982481959206	32.59073971084489	44.74769850567273	0	52.45272878812713	-1.303903926893942	53.76919100922564	168.0044009555728	-1.344860521194395e-11	168.0044144772257	-27.11300137588735	-101.6448976541739	-0.02755901718520628	26.51836015722299	5.458645206052304	-14.00789184312521	-23.67327109286343	17.33588254420766	-22.15228783088233	-29.1777398060912	-3.765909515161289e-10	0	0	-5.459564481606035	-55.63491093794894	5.547687861013998	-1.529941649503616	-3.765909515161289e-10	0	0
0.07520097689840965	-4.841599222483167	1.886661332748118	27.45813533732483	1.255102334417527	-13.09678843034705	1.035160975775294	-26.45768766600808	19.12937621839079	72.10238297293044	-16.88151712080347	4.923414262255922e-11	-21.05590684432372	30.73223541670357	45.76688394894956	0	55.04337617250097	-0.3906232307252769	58.49906612707378	169.781306583629	2.846692921931374e-11	169.781297772305	-29.66110401685263	-107.4700023427891	-0.02678654280784917	28.09718828909461	4.320627466230635	-14.76946234662936	-24.18528657829177	18.29606261181369	-23.08423037639922	-29.37533174538771	1.070341948974863e-09	0	0	-4.989529617322887	-57.17698971143722	5.404129783279612	-1.518715351384829	1.070341948974863e-09	0	0
0.0765589714577417	-6.133284685519945	2.634624331934595	28.14011233429607	1.145860543357525	-13.04787019242909	1.072643494276572	-25.38472347973448	19.64801298382874	69.658431981307	-19.59290238025123	-9.081958185171713e-11	-24.46768719490984	29.61838523917694	46.31421481648416	0	56.78881045001995	0.2558375936234847	61.76722879544769	170.9020163064412	2.525270417187906e-11	170.9019836499514	-31.43558221614118	-111.437596188788	-0.02572551918789477	29.16658942581549	3.513974365783754	-15.29541942647953	-24.53476555121613	18.96327811750453	-23.72123082136553	-29.50065514615389	2.892974482873751e-10	0	0	-4.616347168672131	-58.22372184936878	5.304311582018562	-1.513002970914128	2.892974482873751e-10	0	0
0.07732081165962061	-6.848947802742106	3.053722805236478	28.51174019549253	1.084158193076739	-13.0183993821534	1.09313683391852	-23.03387921021378	19.93423082791065	68.26876215598701	-19.95259159008447	1.258007741471665e-10	-26.30882244176357	29.32561673181741	46.56066197666945	0	57.74034115112867	0.6198269282416276	63.57788677497918	171.4844338468177	-3.107014112910324e-11	171.4843889155866	-32.42308600067692	-113.6148457442908	-0.02507874461678087	29.75125957203909	3.059503841585359	-15.58686584163617	-24.72680517522869	19.33431411535896	-24.07159653179366	-29.5659595688773	-2.941433675193626e-09	0	0	-4.391739822958475	-58.79701020932514	5.248537130276421	-1.510388580840373	-2.941433675193626e-09	0	0
0.0775	-7.01629276330261	3.152213024380528	28.59797263578045	1.069600386508533	-13.01125460422528	1.097898204560641	-20.08541549381168	20.00104248034625	67.94009610503682	-21.18601279480549	1.396370672000537e-10	-26.73414546702624	29.55792643113669	46.61232170333889	0	57.96121446752613	0.7055511270102528	64.00120237518657	171.616575983571	-3.30548861498604e-11	171.6165285376479	-32.65437865820711	-114.1216634397926	-0.02493093389103818	29.8871292298078	2.952447452724894	-15.65501740378479	-24.77153472701226	19.42120448402737	-24.15323855907384	-29.58078971680534	-2.866571391262359e-09	0	0	-4.337335744929039	-58.93035420022721	5.235433239415372	-1.509823575283022	-2.866571391262359e-09	0	0
0.07795425073372618	-7.438796914003836	3.401715953918859	28.81453562721177	1.032616955488931	-12.99277734060598	1.109865090442954	-24.1519135077298	20.16953213299123	67.10396371252237	-22.51598928526187	-4.872264164574181e-11	-27.79906841522003	27.98340796404784	46.73254568851117	0	58.51609214056444	0.9230304770695731	65.0697695287012	171.9432819601107	-4.58879708085791e-11	171.9432292880238	-33.23890994530109	-115.3972368619996	-0.02458017829529816	30.22869819540952	2.680817651291656	-15.8270841765276	-24.88415667272493	19.64078983810154	-24.35886124334644	-29.61747325015428	-2.693510090334478e-09	0	0	-4.196747354817417	-59.26579026916767	5.202230319847738	-1.508464063160566	-2.693510090334478e-09	0	0
0.07901578477516402	-8.416198004428558	3.983586279575357	29.30899714065352	0.9457403440820562	-12.94754432758141	1.13723368687297	-24.92604698859753	20.55825757183034	65.13443522629549	-27.08441942046237	2.179260349583302e-11	-30.21270467183832	25.79048075153476	46.95369463144339	0	59.78426386377963	1.43199057739727	67.54017955752121	172.6603771261908	2.384200286038164e-12	172.6603193428455	-34.59382592553737	-118.3250741492478	-0.02393213016390589	31.01050381549413	2.045005371995841	-16.2251266049756	-25.14289686334992	20.14984293017822	-24.83161834023098	-29.69805764188391	2.742534850553103e-09	0	0	-3.853389039004368	-60.03485679636836	5.12468166646423	-1.505607426124249	2.742534850553103e-09	0	0
0.08066444641183987	-9.904933511658006	4.88287296822748	30.04351122734024	0.8095049305376052	-12.87154150169274	1.177974582776671	-24.73176332106752	21.14756736162862	62.037186606334	-32.45801840280797	-8.406491544587349e-12	-33.7490439323617	23.06621776463632	47.1319184422165	0	61.67310479996382	2.223548128984474	71.29616200327175	173.6448956864554	2.204107843239681e-12	173.6448618924812	-36.66229064615062	-122.7173159811306	-0.02382748458764294	32.17721863302432	1.05606678438866	-16.83130659551083	-25.53169193067475	20.92771957847244	-25.54300693079584	-29.80866417414549	-7.887024899861211e-10	0	0	-3.279578391386566	-61.18663279088302	5.00403989301224	-1.501630321981702	-7.887024899861211e-10	0	0
0.08287410419404742	-11.83974055887828	6.076379129884847	30.9609637649602	0.6242926693465386	-12.75847308176019	1.228959637329508	-23.81145228016756	21.90855248603443	57.82660012106714	-38.40126168355778	-1.353082247391852e-12	-38.07506872375059	20.0457655298313	47.06005706035671	0	64.0460838885229	3.283626538945859	76.15737705847482	174.7167232366133	2.336658119711284e-12	174.7167637479017	-39.35127496218908	-128.28729828959	-0.02511241029536006	33.64460450604136	-0.2677531092981792	-17.61865845673235	-26.02563185378794	21.94200876758968	-26.44907665750526	-29.9285996476626	6.105893073863771e-11	0	0	-2.435035777769941	-62.64452355850568	4.841428485230395	-1.495791750498081	6.105893073863771e-11	0	0
0.08560988716681352	-14.12948407754531	7.528092847236996	31.98393742485496	0.3906442073063383	-12.60012472604361	1.285898016251593	-21.87224540597806	22.80220100719541	52.54799537996696	-43.89440740920706	-1.840751871431659e-12	-42.76004907094955	16.47624748681365	46.49009937900351	0	66.72297201460927	4.58845058698859	81.86289372730261	175.6482119396864	-1.508048622051198e-11	175.6482901563505	-42.51658839242634	-134.6372966000719	-0.02592058062051027	35.29647277674121	-1.894579032087922	-18.54908070369241	-26.58914702552218	23.14446392065321	-27.48766791073414	-30.03129400112442	-2.812175744752071e-10	0	0	-1.273717270235932	-64.30407833059652	4.637960839792338	-1.484684328767054	-2.812175744752071e-10	0	0
0.08882864367758794	-16.65700236604647	9.186462902647978	33.0164912425568	0.1091620623488679	-12.38672516097766	1.343349191516457	-18.51791997446963	23.78029519042599	46.29323326746289	-47.42693849342215	5.815848275866257e-12	-47.30378786646671	12.51666754648829	45.16353565552897	0	69.48610864030495	6.10157487283749	88.06693850267078	176.1793467755886	1.500966221620377e-11	176.1793224056396	-45.9542577717591	-141.2630993352961	-0.02367924457305336	36.9855584703905	-3.774272716295812	-19.57304321301022	-27.17516719966607	24.46908241691118	-28.57780675134338	-30.08622185896557	3.051719525456588e-10	0	0	0.2492087304487415	-66.03466201799718	4.395248723644442	-1.460500861158368	3.051719525456588e-10	0	0
0.09247960949210787	-19.281366690145	10.98263383714595	33.94814939319032	-0.2197241248774312	-12.10742340146886	1.394783564704392	-13.8310862344234	24.78730330382854	39.21029796541956	-48.59448969696463	-9.039512385526194e-12	-51.18161767466209	8.54528209006082	42.8485835446596	0	72.08962181644137	7.771700377341107	94.34553693589456	176.035454234108	-2.281251715521223e-12	176.035427173282	-49.39854356556868	-147.5735177980427	-0.02293017022229399	38.53725106146594	-5.83483450400374	-20.63042413399801	-27.72482662511273	25.83192095614596	-29.62075910838471	-30.06186731086712	-5.788513111856643e-11	0	0	2.170056948971968	-67.68373700610675	4.117155449665229	-1.409347174459944	-5.788513111856643e-11	0	0
0.09650520557876997	-21.84339007222265	12.83077715921987	34.66078484809876	-0.5954797275984459	-11.7501082914376	1.433216660448546	-8.066451130530758	25.76321140014591	31.50344264900723	-48.52506301777694	6.812471905194031e-12	-53.89991242934914	4.317875028326531	39.37642892312467	0	74.27160746649302	9.532170002438464	100.2183805251678	174.9464190479283	-4.973312615905792e-13	174.9464222249864	-52.53149431767542	-152.9282406660292	-0.02311181329400257	39.75730782807787	-7.981556883111939	-21.65301509083449	-28.16859803462749	27.13383803895312	-30.50407584581502	-29.92938925880711	8.576068598896589e-12	0	0	4.509882042777445	-69.08486242856723	3.812267623079297	-1.310529524975975	8.576068598896589e-12	0	0
0.1008419453248002	-24.17464045719488	14.63122859746883	35.03808978473982	-1.017064753037922	-11.30216547911745	1.451558420719128	-1.477545563700502	26.64753665834414	23.42173866920079	-49.58339347231576	-2.187731007622627e-13	-55.05958333997852	-0.2104608330882805	34.67242850812561	0	75.76945873920864	11.30303855600886	105.1874324758671	172.666636474331	2.397436186354603e-13	172.6665947383191	-55.00611105490893	-156.694336396966	-0.02189259564682513	40.44388285124554	-10.10000958658408	-22.56892467879716	-28.42934202066147	28.26655505998735	-31.10867356983457	-29.66636398361071	-1.163587592258161e-10	0	0	7.26903307371626	-70.06949485424448	3.496601915947075	-1.136781204662097	-1.163587592258161e-10	0	0
0.1054214354539589	-26.10962669101942	16.27697012974884	34.97725664947386	-1.482620329804372	-10.75183482610873	1.443472953530901	6.268795631536811	27.38392940826948	15.2372439845993	-49.72372882043894	-5.21690965618547e-12	-54.4146810017664	-4.261650103468448	28.77507759672294	0	76.33802603559694	12.99622779598109	108.7892233692467	168.9952015834628	-2.537601403136133e-12	168.9952444783767	-56.48320094627682	-158.3165451936431	-0.02155676195234529	40.40402967574985	-12.06370879574625	-23.30877032833405	-28.42785019505775	29.12222712295929	-31.31906771192997	-29.25988451492874	5.243953950512314e-11	0	0	10.42367838799963	-70.48249329741017	3.195336080339207	-0.8560336574998204	5.243953950512314e-11	0	0
0.1101714545037473	-27.500318386373	17.66320031670299	34.40153894374439	-1.989232845039166	-10.08924760302189	1.404632399480798	15.30342067270471	27.92473336768039	7.217321797715374	-47.54884461906852	7.3548430380377e-12	-51.91292636691004	-6.768165032217066	21.8389614733759	0	75.77024683542395	14.52336924334155	110.6523595254317	163.7959710082947	2.796588607057794e-12	163.796019507067	-56.67700515545577	-157.3903477645143	-0.02048256123741187	39.47379889167262	-13.74607307775027	-23.81293101530122	-28.09086069403147	29.60558361520884	-31.03611285660243	-28.7085124881826	1.043327281699069e-10	0	0	13.9246853631616	-70.19976206146968	2.942560367672435	-0.4349526754788418	1.043327281699069e-10	0	0
0.1150170917444269	-28.23156365257938	18.69895933930188	33.2710669930396	-2.531957764914829	-9.308516100303359	1.332344434833027	25.38221812629619	28.23548978880987	-0.4029483759668709	-42.63251342599462	-6.684019805783859e-12	-47.71014513454343	-7.576998508456811	14.12045393578929	0	73.91939517748234	15.80533411177861	110.5490850248478	157.0165172105738	1.320988987498561e-12	157.0164309847451	-55.40059547644121	-153.7223441886774	-0.01992979764837973	37.53918914353303	-15.03523125721685	-24.03868591471137	-27.3608315144305	29.64620536476218	-30.19040447713691	-28.02236332403604	-4.734846220832243e-11	0	0	17.69888280079575	-69.14485693521841	2.778332645458205	0.156628170743546	-4.734846220832243e-11	0	0
0.1198819285398158	-28.23483320380365	19.31888004933221	31.59074060388176	-3.103186756750076	-8.410206053365144	1.2277668353408	36.04734730148714	28.29772927121581	-7.441906332574638	-36.04661065509234	5.37421010381965e-12	-42.14864088848168	-7.189440793650135	5.948627502315158	0	70.71994939557939	16.78194174095553	108.42811378787	148.7040853410795	-2.201922351485162e-12	148.7041160531824	-52.60114074333578	-147.3644384756473	-0.01915725167690211	34.5552639025325	-15.8490861297784	-23.96585925525536	-26.20584494130802	29.20906134217336	-28.7538479014001	-27.22164100945454	-2.484960189188987e-12	0	0	21.65280583581723	-67.30234513321007	2.743001170349998	0.9405777388099681	-2.484960189188987e-12	0	0
0.1246892435043931	-27.49815344109353	19.49268508776158	29.41200940720804	-3.693229563037526	-7.403583563369809	1.094170529666915	46.93254611201831	28.11088078996236	-13.78190186354879	-28.4752822399272	2.069289367703838e-12	-35.70443169813869	-6.029406017636216	-2.313624738782867	0	66.20443090488573	17.41968276705889	104.4217493828405	139.0152081291469	3.624909971399923e-12	139.015222786514	-48.37576570726814	-138.6123558738987	-0.01830633207353386	30.55947763090234	-16.14740428603408	-23.59966415462657	-24.62759079354453	28.30120100405572	-26.74714788755226	-26.33374175064086	-9.742092498642609e-12	0	0	25.67881877821688	-64.72344840740344	2.869684429863939	1.925458261386864	-9.742092498642609e-12	0	0
0.1293632224455918	-26.06994021815481	19.23012643212703	26.82889267606957	-4.289538664470228	-6.307312095797988	0.9377838003524974	57.62896078481023	27.69236802276741	-19.36826148721577	-20.77250759116462	-2.076601600590834e-14	-28.914790615401	-4.547767065876023	-10.31150199072211	0	60.51050469839397	17.71569593342743	98.82467357497666	128.2154269134193	-6.444765000661757e-12	128.2154240152228	-42.96181292882372	-127.9669287396902	-0.01771569720066008	25.67551659976591	-15.9380165947252	-22.97013186049528	-22.66530900711249	26.97164982667697	-24.24102023596864	-25.39031895507563	-8.011954158707115e-11	0	0	29.66276653393028	-61.52329794481003	3.17738533411106	3.103060582701953	-8.011954158707115e-11	0	0
0.1338301540101398	-24.05529571471834	18.57996737470805	23.96806620069812	-4.878252563596393	-5.149591627806408	0.766638178857762	67.70615673035053	27.07623878025347	-24.19887197424529	-13.57992206493063	-1.582710965269295e-11	-22.29652569928298	-2.766453136063983	-17.73639587452507	0	53.87655727242171	17.69705285684735	92.05122006666991	116.6666354583549	2.078090013699893e-12	116.6666357381047	-36.70475919747321	-116.0678653367758	-0.01695151709219551	20.10593757445027	-15.27559332307006	-22.1281773506358	-20.39452131347418	25.30620136574762	-21.35062668219732	-24.42411558652168	9.49159737415691e-11	0	0	33.49272241142145	-57.86909832009911	3.665434054442543	4.446204332501767	9.49159737415691e-11	0	0
0.1380195921846578	-21.60504867263494	17.62320388202355	20.97524339055585	-5.444759572513719	-3.967379252776546	0.5898448651039889	76.81540900984297	26.31038132479513	-28.3084872117858	-7.319046415600788	1.61617422119488e-11	-16.27847922663437	-0.8519417683924573	-24.35418455105587	0	46.62313761359427	17.41581461774812	84.58036566507337	104.8018109908878	1.439392146037227e-13	104.801788835238	-30.00966959966945	-103.6138041549197	-0.01625572309134866	14.11425817311064	-14.25322486922073	-21.1392409006475	-17.9204966745946	23.41659272490113	-18.22382975021063	-23.46714863036863	4.102498587071744e-11	0	0	37.06740718248311	-53.961441773477	4.311993446207638	5.909743509533043	4.102498587071744e-11	0	0
0.1418654673351004	-18.89975172828823	16.46212639623296	18.00020999876449	-5.974595694308485	-2.80257923188671	0.4161218170053577	84.72452690539497	25.45241132878138	-31.75229625482302	-2.251561272760618	-1.159171033174472e-11	-11.1545507657961	0.9537077507439697	-30.0199159394473	0	39.12427976843382	16.94106433821381	76.90125510909222	93.09112966082901	5.486893932327549e-13	93.09111756941508	-23.28880925978888	-91.28629491976524	-0.01573407982650943	7.999412334851145	-12.98909586834525	-20.07579504861517	-15.36781383824445	21.42731301887835	-15.02596475198592	-22.54930696090485	-2.399990319955228e-10	0	0	40.30282306004482	-50.0129756865029	5.075878146846113	7.433228639946372	-2.399990319955228e-10	0	0
0.1453071283122631	-16.13126701201025	15.20781557851986	15.18360702011547	-6.454596102095823	-1.698962218694938	0.253538286848674	91.33216556207319	24.56443584674104	-34.59199084735032	1.516091982033341	1.392065338325765e-11	-7.065985518509176	2.425887245533961	-34.67813442868643	0	31.77302532423162	16.34968199696843	69.46844566932072	82.004641069394	-4.156590525489241e-12	82.0046681675727	-16.91683006389575	-79.69086824913848	-0.0151907469079125	2.067951642051004	-11.61136777446187	-19.01017071133936	-12.86822666249375	19.46271974101866	-11.92380162954754	-21.69782459224719	4.134549102965826e-10	0	0	43.1365536878769	-46.22801670869882	5.901745851154513	8.945780977636135	4.134549102965826e-10	0	0
0.1482902993364854	-13.48525521879547	13.96848030018466	12.64707794733519	-6.873572273170463	-0.6988843271657239	0.1089153229417558	96.65184063499666	23.70779405184454	-36.88601710764996	4.018074388374838	-1.218678282952768e-11	-4.013213880301302	3.384316612041351	-38.35029821610666	0	24.94771205143136	15.71788377013424	62.67215927624129	71.97835738418672	2.12773426603149e-11	71.97839305834916	-11.20089167369967	-69.32274000391131	-0.01460382251948886	-3.391516013061398	-10.24425979313403	-18.00877799401181	-10.5489636185058	17.63633292362656	-9.071619966571443	-20.93735069039355	-3.456263986442845e-10	0	0	45.52876565069987	-42.7867638363557	6.72710580249743	10.37203352169943	-3.456263986442845e-10	0	0
0.1507679370955254	-11.12775448490837	12.84077513781486	10.48799072681486	-7.222546820152401	0.1598970596003768	-0.01294004905601803	100.7344634235499	22.93869675990146	-38.6840677230221	5.476734767945516	1.616513247210872e-11	-1.888242419250571	3.850492824668024	-41.11373999763571	0	18.98581583345034	15.11489144457529	56.82444676109253	63.38993346840083	-2.121330363349966e-11	63.38994782242801	-6.368910414914484	-60.55660499231585	-0.01423373626792667	-8.12705377907594	-8.997927371272594	-17.12836437286987	-8.523684273603774	16.04396481102672	-6.601751712879141	-20.28990573825462	8.954953069419015e-11	0	0	47.45987715962482	-39.83636276867282	7.489137097599105	11.63798092320866	8.954953069419015e-11	0	0
0.1527009768984096	-9.195781963682849	11.90410217994307	8.778444799278191	-7.494883501911351	0.8461467079951069	-0.1086099048175968	103.6371556423779	22.30456108390744	-40.02499446840879	6.423368343711829	-4.178045878044919e-11	-0.5204803926621901	3.774595700479653	-43.07537979241019	0	14.16523813042237	14.59847887202659	52.15844068102263	56.54330758389549	5.948577932388172e-12	56.54329159969356	-2.573093652081737	-53.65526326795471	-0.01406111436324132	-11.93516104082098	-7.962049232794437	-16.41410168017932	-6.886235122639216	14.76049660494054	-4.619122031377042	-19.77463312751505	-5.197149013845369e-11	0	0	48.92588368091538	-37.48776499286983	8.131060558621769	12.6767695503252	-5.197149013845369e-11	0	0
0.1540589714577417	-7.793718088181291	11.21863322748684	7.567730261583259	-7.686019246373663	1.33600835172637	-0.1758813840496369	105.4909325739486	21.84225685062349	-40.9368186709731	7.418792284551792	1.643191168141008e-10	0.276738750552731	3.299319730159377	-44.3465218450067	0	10.69735753447634	14.21311180643113	48.8360185787144	51.6653025543874	5.458907265271732e-11	51.66526936320469	0.09574030556762855	-48.78849926752849	-0.0139327658160036	-14.6637948954304	-7.203948716861865	-15.89938651070913	-5.708211588607456	13.84010309476013	-3.200703533027911	-19.40717029925177	1.958632252446439e-09	0	0	49.93221771266971	-35.8182709757878	8.606256112003601	13.43311487633788	1.958632252446439e-09	0	0
0.1548208116596206	-6.991911454469335	10.82476530496983	6.885861888827662	-7.793123930728514	1.613435716221573	-0.2135783319891096	106.8009677074908	21.57709477039084	-41.43801395410495	9.4039547197332	-1.643878161497522e-10	0.6619002604100456	2.450156866569921	-45.01970839742668	0	8.724327274645303	13.98914496322208	46.95856303112701	48.90623349496579	-1.978800241492243e-10	48.90619483133608	1.590870419794671	-46.05513603922656	-0.01384083262502812	-16.21230550559255	-6.768411930373545	-15.60631482999255	-5.037932186770102	13.3177039620171	-2.396629537704383	-19.19900344374809	-5.168464659955963e-09	0	0	50.48768699157029	-34.87585908606211	8.881445532849574	13.86697894108218	-5.168464659955963e-09	0	0
0.155	-6.801789382360417	10.73118932361261	6.725257891487101	-7.818299282572144	1.678949003447384	-0.2224364155901543	107.4155642246984	21.5141375036497	-41.55485118602897	12.77214265035103	-2.767350781065905e-10	0.7458407314558223	1.820781163112962	-45.17380232045348	0	8.257500011674967	13.93567850639505	46.51570856913495	48.25506875740813	-2.221944148352875e-10	48.25502944938356	1.942141123907377	-45.41212362676433	-0.0138157786344131	-16.57827996275475	-6.664947383504484	-15.53695399379945	-4.879334263064213	13.19424409774204	-2.206692385242881	-19.14982809007434	-5.406539587375545e-09	0	0	50.61735302381457	-34.65366680305409	8.947059425043021	13.97001938719274	-5.406539587375545e-09	0	0
0.1554542507337262	-6.317264810239424	10.49240928049635	6.317787312470417	-7.882088601179696	1.845461723436076	-0.2448741072405669	107.3955758732422	21.35354851377364	-41.8492874382631	8.186547608761536	-1.616566405727217e-10	0.947113473984452	3.360417205468472	-45.55712350271161	0	7.069476988408127	13.79881709449867	45.39103834307576	46.6006826182091	-8.470732252896391e-11	46.60064285829914	2.831787380778913	-43.78207784152881	-0.01374604645889982	-17.50894379917603	-6.400957976981539	-15.36041072530422	-4.475706390926081	12.8803061856679	-1.723858621306256	-19.02479917790151	-1.878900651117422e-09	0	0	50.94435069893612	-34.08956673994139	9.114898431772708	14.23292314999397	-1.878900651117422e-09	0	0
0.156515784775164	-5.171149381193462	9.925960086191738	5.364088743864372	-8.030950422757947	2.236917467749019	-0.2971874528769801	108.7189264044345	20.972874143979	-42.52777831674055	7.276347612487861	1.012445133356317e-10	1.352022994517934	5.044683488414456	-46.41156434640121	0	4.268414859666414	13.47177575842015	42.75255650519249	42.71512892205065	1.384337747460522e-10	42.71509373839405	4.904889548096046	-39.97434216619482	-0.01355392022622334	-19.69929513819111	-5.774869672535312	-14.94403043582513	-3.523955883064207	12.14160870608379	-0.5884893314741878	-18.73054132066445	2.530188637143897e-09	0	0	51.69870138557031	-32.76721983014178	9.515432793938022	14.85671593920268	2.530188637143897e-09	0	0
0.1581644464118399	-3.355157616097886	9.024229687987638	3.880695464634545	-8.261406732187366	2.850880999494641	-0.3779961520239854	110.8250945982385	20.36740323878886	-43.55604600009976	6.963192922364549	-3.826941377644499e-11	1.794242275277278	6.824114168126796	-47.62169326537848	0	-0.1458811308589739	12.94475914408149	38.63139023305734	36.63175552463078	-6.593057528273937e-11	36.63173871983528	8.10212640166805	-34.07169210406035	-0.01320555584284545	-23.14024964725943	-4.778817783416438	-14.28753640698883	-2.023686807447367	10.98193740603083	1.19217871998116	-18.26761327626963	-7.699207861959076e-10	0	0	52.84185727486626	-30.70491249179085	10.16001409163391	15.85141753993037	-7.699207861959076e-10	0	0
0.1603741041940474	-0.8597679346516541	7.778055334647782	1.894015837390697	-8.568380886402224	3.683790278161594	-0.4851561147417849	113.2913850587827	19.53086316038161	-44.88888096222408	6.675702297936148	2.255828838545264e-11	2.015662209534854	8.704115771115456	-49.01405198988251	0	-6.170196547910123	12.20473917709817	33.07866223603864	28.40073775815135	3.515741409954079e-11	28.40075216100024	12.32616218999897	-26.20271263569229	-0.01274066847752373	-27.81534907092421	-3.40395395479248	-13.39127233764975	0.02477253699091339	9.408861823184484	3.605315186903904	-17.63545721699061	2.550998013028137e-10	0	0	54.31620496572655	-27.93287803855326	11.06526720981545	17.23329082603261	2.550998013028137e-10	0	0
0.1631098871668135	2.311318554409121	6.184987951319293	-0.5513204655451693	-8.944482655097596	4.727658996077391	-0.6152996896235283	115.8354323021672	18.46022367412216	-46.47374656220543	5.498652531213907	-7.62698877929776e-12	1.672221776004702	10.52396019263125	-50.36155670780289	0	-13.76863775639665	11.24107844983938	26.18891244965404	18.12037706683198	-1.31150847683329e-11	18.12041359479913	17.42111064966671	-16.5692767296217	-0.01229419117791311	-33.67876745394847	-1.649997390076459	-12.26051678832279	2.610756598321462	7.441836827709272	6.620881008524484	-16.83317578633101	-2.404808759332857e-11	0	0	56.04253745907111	-24.50602815214347	12.24769032977728	19.01964625600012	-2.404808759332857e-11	0	0
0.1663286436775879	6.127832192249546	4.257002012194341	-3.386962207609303	-9.380050738219408	5.967232832096613	-0.7633509370140181	118.1331653341503	17.16021114362196	-48.256447412002	2.864637423028899	7.529566311358628e-12	0.3523897596152127	12.20068738275498	-51.39652827033804	0	-22.8473422464843	10.05096687365883	18.11447702610273	5.959844303973732	5.08192126534657e-12	5.959842268031307	23.16023271123678	-5.45838000091607	-0.01191698065135406	-40.63700547955651	0.4658814918665667	-10.90870992778411	5.705100663891869	5.118611945617202	10.18218076484299	-15.8592756802211	-5.623000924618055e-11	0	0	57.92094018273836	-20.51309233393746	13.71791881564269	21.22424686728788	-5.623000924618055e-11	0	0
0.1699796094921079	10.5203830321398	2.027392586311996	-6.51755369129098	-9.86265757453832	7.37793334949488	-0.9227552135799342	119.7953130546476	15.64765331210285	-50.1857587840929	-1.471560881286344	-1.331858192141424e-11	-2.391293115388861	13.52281351678841	-51.83026104534159	0	-33.23115139303973	8.644469434621028	9.073636992168563	-7.822010291166251	-8.933906880136272e-12	-7.822068969921348	29.24190915850264	6.756192905699399	-0.01145061597324024	-48.53263722543722	2.901376260219629	-9.359771812302286	9.252667401736304	2.50014163557059	14.19792275755004	-14.71176053900239	1.550220539714554e-10	0	0	59.83389226097199	-16.08275631786127	15.47464841034564	23.85223732371995	1.550220539714554e-10	0	0
0.17400520557877	15.37052173674613	-0.4442729533051131	-9.821206890096272	-10.37694016513309	8.924207003398816	-1.085833446587722	120.4450043127598	13.95493978544047	-52.21564651630725	-7.748865490095113	1.002176979483619e-11	-6.993651660877898	14.46353112286358	-51.38048638506671	0	-44.64590337876711	7.048376324199652	-0.6518290316616782	-22.86566622211596	5.118398019723257e-12	-22.865616719018	35.29857105296031	19.62802953631781	-0.01054589377849212	-57.132801822715	5.58398140578112	-7.64875308092844	13.16666687980142	-0.3273541268408204	18.53742286605211	-13.3884318223798	-2.278993976076352e-10	0	0	61.65240879958386	-11.38459907892525	17.49856624467932	26.89465727111308	-2.278993976076352e-10	0	0
0.1783419453248002	20.50725791960744	-3.071018041890558	-13.15535157241205	-10.90548757552458	10.55790040592908	-1.243444323102714	119.8233931912331	12.13104171924305	-54.30482503834932	-16.20233537056201	-3.772394101556803e-12	-13.8167769436394	14.88742113947822	-49.80398198298399	0	-56.71433924595418	5.307609525750193	-10.73116327831465	-38.71457029061294	6.927789707070687e-12	-38.71459038745331	40.92098618396327	32.66714468830305	-0.01011338135468849	-66.12775472500127	8.410780978877543	-5.820129439298211	17.32704813880004	-3.254872375432334	23.03183420921983	-11.88754226862103	2.397536482721995e-10	0	0	63.24567801025513	-6.622376183388004	19.74801260399154	30.32322590863308	2.397536482721995e-10	0	0
0.1829214354539589	25.71187838993638	-5.742003614880438	-16.36779283081773	-11.43010486246004	12.22120639236343	-1.386539087783293	117.7670435538407	10.23908316719377	-56.41461155355202	-26.9139684149083	9.202368821114314e-14	-23.0865660401555	14.32106063764978	-46.9304375628512	0	-68.96899962613358	3.484313059423945	-20.80946994024735	-54.83663713145277	-1.032976031345892e-11	-54.83664730625038	45.69633858885342	45.37978259102368	-0.009321412114528606	-75.14235904275625	11.25393039972921	-3.92384627803158	21.58423268652507	-6.157964260944297	27.48237335226142	-10.21006537061864	-2.11739997659589e-10	0	0	64.49339208380989	-2.01877895330603	22.15743161806876	34.08718909464482	-2.11739997659589e-10	0	0
0.1876714545037473	30.73309144216771	-8.331034942095169	-19.31211537570456	-11.93135991119421	13.84942983807935	-1.507271656092969	114.0850605979539	8.350964890719405	-58.50598725546084	-39.67304422350386	2.977008364661699e-13	-34.83885852723212	13.56047680849902	-42.69174896354394	0	-80.88515339299536	1.653412521521532	-30.53886796026562	-70.6625700921373	3.485663684680024e-12	-70.66251639497128	49.25502421452177	57.31175882290942	-0.008504190075377959	-83.76194720159334	13.97180436470974	-2.009947708894969	25.76883206593502	-8.908394893131163	31.67659506870698	-8.362360922181889	1.188090744396112e-10	0	0	65.29929818874965	2.206335493363097	24.63983415354787	38.11196931937421	1.188090744396112e-10	0	0
0.1925170917444269	35.31091914053636	-10.70918823574556	-21.86429090353622	-12.39149215263975	15.37637024628348	-1.598682683394806	108.7088852722853	6.539058415215488	-60.53753131973863	-54.2754148763793	1.258014358671232e-13	-48.88758516407719	12.22825494469033	-37.14009355492086	0	-91.92993869516995	-0.1038743638108606	-39.6095721027341	-85.63657443808786	3.660647688628196e-12	-85.63662020151072	51.31783093817071	68.08712571535331	-0.007916147198243999	-91.57068929967619	16.42434589656044	-0.1232605581844626	29.70678280941769	-11.38825472770649	35.41024709419803	-6.359618405753577	-9.240379152510985e-11	0	0	65.60369924036263	5.861527793946705	27.09320147273953	42.30093722819858	-9.240379152510985e-11	0	0
0.1973819285398158	39.20678606513408	-12.7597544144906	-23.93689112929823	-12.79515033447433	16.74190052214443	-1.657357897388301	101.7101613812653	4.867499807464913	-62.46585223772609	-70.46101448013191	3.360800220281965e-12	-64.82473111226577	10.53332911874617	-30.44943077755002	0	-101.6210423322231	-1.708831232449586	-47.77536796652677	-99.27012130159305	-3.976670428291437e-12	-99.27011503688556	51.73421269141762	77.43598523175424	-0.007043496780981227	-98.19724340066	18.49000176618581	1.700237827566858	33.23760757341969	-13.50361337238763	38.51132512020405	-4.228969209828469	1.897916614968785e-10	0	0	65.39162133751675	8.807455183059931	29.41034894103514	46.54088582975078	1.897916614968785e-10	0	0
0.2021892435043931	42.23399655935593	-14.39280250390449	-25.48780179167493	-13.13027026105265	17.89821512125716	-1.682130677101588	93.29470098430897	3.384942761143761	-64.24837301228368	-87.88791658593297	-6.737847875969582e-12	-82.05618175736205	8.531910357762214	-22.89843274142231	0	-109.5834781058409	-3.094293156585747	-54.86928339051637	-111.1884259288586	2.81800138622289e-12	-111.188417495298	50.50347657531178	85.20820754119842	-0.006296321982548697	-103.359684851369	20.08099492927817	3.434395267179484	36.23283094078511	-15.19479875184016	40.86155354797298	-2.010671162900125	-1.987714537127415e-10	0	0	64.69478334415493	10.97325775261133	31.49082736831231	50.71016662810867	-1.987714537127415e-10	0	0
0.2068632224455918	44.28272729392046	-15.55648795437092	-26.52158997228881	-13.38996373898742	18.81489539010168	-1.674562025523573	83.91202789552028	2.120084077989601	-65.84783486161301	-105.8574350733004	7.376881930580041e-12	-99.86790757232116	6.052980902093454	-14.83721659047017	0	-115.5934422789771	-4.212778840653423	-60.80871901808521	-121.1614373300203	-1.584940097629172e-12	-121.1614623845397	47.77405186761172	91.37265275438615	-0.005572669877257829	-106.9009410273639	21.15394034044695	5.061393252344651	38.61061778630968	-16.44126371272756	42.41051962892669	0.2427598568742814	1.414869102601524e-10	0	0	63.58620694242057	12.3623601599189	33.253100437831	54.68906874320556	1.414869102601524e-10	0	0
0.2113301540101398	45.33431178441685	-16.24292778530095	-27.08387880230426	-13.57252599188984	19.48249749636871	-1.639446564263327	74.17449615369918	1.081244742104816	-67.23706199148322	-123.3743482502124	-8.430040772178898e-12	-117.5089512964841	3.573621009203816	-6.64452492763826	0	-119.6009887678463	-5.04224716317673	-65.59096129715124	-129.1144955697651	-4.354182812623357e-12	-129.1144643394403	43.820978861893	96.00392713632424	-0.004897280357089034	-108.8075622852603	21.71383858761299	6.568764652440886	40.34383115732555	-17.26043809778659	43.17954438395337	2.47035120459888	-1.315688669649903e-10	0	0	62.16915183588639	13.04586235882132	34.64476063394076	58.37062362126728	-1.315688669649903e-10	0	0
0.2155195921846577	45.46178080188946	-16.48754298928895	-27.25074076474723	-13.6820912039523	19.91201634709772	-1.582295611110851	64.69087093973427	0.2591195726140223	-68.40218604720167	-139.4690027679993	7.595578365567586e-12	-134.2756187482871	0.9952371675468115	1.315543911609671	0	-121.7274454841428	-5.587579214806906	-69.28125757684722	-135.1190326028285	5.291170619833239e-12	-135.1190701354004	39.00699271686575	99.26020986375049	-0.004270145350908741	-109.2083396860831	21.81097745350512	7.946372659694484	41.4602552914414	-17.70141596891418	43.25515506926233	4.608351890276493	3.545376756275886e-11	0	0	60.5628653634292	13.14614299325015	35.648749146471	61.66981608243607	3.545376756275886e-11	0	0
0.2193654673351004	44.81777123388477	-16.36228518395349	-27.11593999860801	-13.72744406321437	20.13184383645012	-1.510669295923638	55.87165947306307	-0.3683029780302148	-69.34376497103138	-153.4171540830747	-3.487681687522122e-12	-149.5810858202966	-1.817766024512039	8.72877319022818	0	-122.2406636944437	-5.87851331680011	-71.9967104782103	-139.367144036893	2.250468461816781e-12	-139.3671025561113	33.73604252249396	101.356491871063	-0.003520629167687792	-108.3538747772625	21.53181439696288	9.184463143877963	42.03501649278301	-17.83535950457203	42.77438373644027	6.596124623604984	2.132803750853555e-11	0	0	58.88787784829941	12.81499808252056	36.28430051931733	64.52992260046598	2.132803750853555e-11	0	0
0.2228071283122631	43.61197464961522	-15.96439021848959	-26.77872750324317	-13.7215244452213	20.18436187779426	-1.431779229882964	47.89631803425848	-0.8302187890487513	-70.07540958625016	-165.0299331091261	5.665787464893e-12	-162.9975839592869	-4.454939284105841	15.35220659158936	0	-121.5134162416017	-5.963495194674123	-73.8880773579049	-142.1360350474201	-6.87778713121169e-12	-142.1360200248818	28.4086599457943	102.5373757750674	-0.003165983873615372	-106.5816931221423	20.98595584544493	10.27311203046116	42.17758936078635	-17.74486990181493	41.90493512961663	8.381490976898609	-8.170148363777315e-11	0	0	57.2548329990712	12.21100435517442	36.60202859335043	66.924410622804	-8.170148363777315e-11	0	0
0.2257902993364854	42.0845351422217	-15.40334108971453	-26.33401406541868	-13.68009834343068	20.11872551929287	-1.352865580891138	41.02687502913918	-1.158063004567177	-70.62053834468864	-174.5469846674511	-6.720461143238866e-12	-174.2676178767811	-7.239780362789119	21.02042431342692	0	-119.9745728280463	-5.902064204307181	-75.1222208173249	-143.7490512823259	1.794251274995228e-11	-143.7490898758761	23.38696293876922	103.0524278950056	-0.002802722015217808	-104.2748356283663	20.29217890620812	11.20267869697921	42.0163437225947	-17.51416386604738	40.82535811025691	9.923641811046016	4.77522031469658e-10	0	0	55.75689431310087	11.48131130383661	36.67525946944115	68.85469838739972	4.77522031469658e-10	0	0
0.2282679370955254	40.47817822195138	-14.78794094686101	-25.8655681499415	-13.6196788477874	19.98573671752517	-1.280418702051452	35.45032173687561	-1.381695931936727	-71.00816873424988	-182.082667818726	-5.101804087738456e-12	-183.2860222411162	-9.875385054194055	25.63825768387883	0	-118.059630056375	-5.756291922223213	-75.8657069569861	-144.5376958437519	-4.19254172560348e-11	-144.5377354801653	18.97233983614317	103.1360502561159	-0.002270964265115126	-101.8192143438846	19.56540435456186	11.96476605506453	41.68274998969375	-17.2211468586405	39.70674377414132	11.19402322565036	-1.087297994006663e-09	0	0	54.46688318379912	10.74935330587652	36.58844742139986	70.34386063845612	-1.087297994006663e-09	0	0
0.2302009768984097	39.01537359132319	-14.21629884918404	-25.44228485225597	-13.5558608185485	19.83300130608963	-1.219823243167925	31.0788257425621	-1.526999315305468	-71.26858505749017	-187.5309867914978	-1.424945412957658e-13	-190.0612907421767	-11.88281752690508	29.1652627860374	0	-116.1696323881359	-5.583876814025932	-76.27102386930102	-144.809790468665	2.409765242143862e-11	-144.8097944898104	15.39741910082109	102.9926282537479	-0.001872273556400053	-99.56829581967742	18.90716479816933	12.55278060481892	41.29837491661583	-16.9322657682882	38.69948776101757	12.17502193816998	1.103358591730295e-09	0	0	53.43781966142795	10.1100815859187	36.42595591678807	71.42797202002366	1.103358591730295e-09	0	0
0.2315589714577417	37.87950283737221	-13.76795678100183	-25.11653572134203	-13.50218984932771	19.70025597286237	-1.175233287297172	28.02165158669978	-1.614407924148786	-71.42913296206564	-190.913940260129	3.386333196225547e-11	-194.6658765378427	-13.04844470163337	31.5956089776792	0	-114.6369048730181	-5.432510155921563	-76.46529071117344	-144.8228960148011	-2.617395326416447e-11	-144.8228584174223	12.82707037403588	102.7858938495261	-0.001653322743458906	-97.81378090657196	18.39854733672889	12.96227747916967	40.96411945081503	-16.69926683543733	37.92370021454837	12.8574058230811	1.018908000083874e-09	0	0	52.70559616005172	9.629886395760639	36.26154302730814	72.14646401599288	1.018908000083874e-09	0	0
0.2323208116596206	37.20380273726015	-13.49996257998951	-24.9240264523	-13.46888689084366	19.61667301138968	-1.149518844376945	26.79583739911992	-1.65831064233646	-71.51102815303538	-189.7569157527397	-5.745647490404789e-11	-197.1885059898846	-13.31954733574276	32.94009450464906	0	-113.7039755366979	-5.336887943789057	-76.54189804726653	-144.766552293128	1.401334154379934e-10	-144.766492572828	11.36635858859165	102.6325130756003	-0.001548717349831348	-96.76784402225482	18.09703360235997	13.19063729341797	40.7537122710429	-16.55812562107078	37.4645634548306	13.2374014250892	-4.081800348232717e-09	0	0	52.29207345753171	9.350510039066091	36.15110695889445	72.53339084462	-4.081800348232717e-09	0	0
0.2325	37.04089691153695	-13.4352347668556	-24.87775731497548	-13.46072088859916	19.59606728475399	-1.143399494177805	26.05510540140178	-1.668110646091683	-71.52943229516649	-179.3439992458806	-8.423997909821471e-11	-197.7752522285514	-13.16213738234857	33.25423932431644	0	-113.4769788976768	-5.313293207249607	-76.55655489412636	-144.7466882413578	1.308020213270885e-10	-144.7466238871214	11.02098748590265	102.5925850066582	-0.001525235736546957	-96.51545573536666	18.02445805998917	13.2442012368858	40.70185317851004	-16.52386556411327	37.35411831570646	13.32646122204746	-3.899668023092666e-09	0	0	52.19456069049428	9.283831187098997	36.12322999733993	72.62267811733065	-3.899668023092666e-09	0	0
0.2329542507337262	36.62117541655947	-13.26828233273301	-24.75880423111882	-13.43945219717629	19.54222026474172	-1.127767082723354	25.30930271444318	-1.6920669329855	-71.57461917250387	-194.1791049527582	-1.06779873216653e-11	-199.2511620385841	-14.8132580614426	34.0469431373499	0	-112.8886830691226	-5.251610033228445	-76.58799436283245	-144.6850907646096	-3.396066957764418e-11	-144.685016657497	10.14253473010767	102.4848477407576	-0.001466944566991229	-95.86481434052111	17.837678894669	13.37973216263071	40.56636376759374	-16.43522796617557	37.06999249274582	13.55166781550986	-5.374222088278349e-10	0	0	51.94697239362504	9.113223644713813	36.04931332021023	72.84605577507631	-5.374222088278349e-10	0	0
0.234015784775164	35.60292164324846	-12.86231829686952	-24.47175308669319	-13.38657826917316	19.40742317913482	-1.0905805052468	23.02003114654401	-1.743158426056263	-71.67197302856445	-198.1478436586778	1.580642615007387e-11	-202.6339872658559	-17.47691559353404	35.87818948861307	0	-111.4425535958754	-5.097125106427725	-76.62963667542245	-144.4785882167881	-1.563707634808271e-13	-144.4785029840208	8.074429219058677	102.1970042852683	-0.001333884430676911	-94.28427537121182	17.38579414264671	13.69498424145109	40.2273951143183	-16.21828818894003	36.38318410916527	14.07464507438228	8.228015766761252e-10	0	0	51.3664507848469	8.706260865738088	35.85843439750575	73.35123197504488	8.228015766761252e-10	0	0
0.2356644464118399	33.9190055072489	-12.1888364802496	-24.00182192783475	-13.29567198037106	19.17335608547899	-1.03107281953019	19.82660474837764	-1.80929094334801	-71.80011953096553	-203.1702937996456	7.481983299207298e-12	-207.6942484861283	-20.89139725354044	38.65948214747453	0	-109.0006888060318	-4.828987878712084	-76.60662198882028	-143.9855834860991	2.599872050223074e-12	-143.9855361886892	4.825648071447137	101.6517290156237	-0.001110086667868696	-91.66485849519862	16.64233884729614	14.18036076433626	39.63960855584052	-15.85508327642744	35.25466807722778	14.87688566073527	6.642983814967239e-10	0	0	50.46080288760855	8.053973309035678	35.51153073535331	74.08784566303532	6.642983814967239e-10	0	0
0.2378741041940474	31.47210624352777	-11.20759222421294	-23.32912501451528	-13.15707460702913	18.81329633232361	-0.9481789651818429	15.24752025489482	-1.87378415311207	-71.92746010384683	-209.6367776700692	1.063737859002406e-11	-214.0799118424536	-24.84064502357547	42.25692643923306	0	-105.3627888411318	-4.417788929371596	-76.41062466985603	-143.0012047527098	9.984315403778937e-13	-143.0012764663055	0.4179357877515363	100.7393050997798	-0.0007612818975710521	-87.84798779277837	15.57036606722245	14.82216916279225	38.73749928454438	-15.32114287244042	33.62946388210096	15.93073559859568	-6.063215971325574e-10	0	0	49.24285620645311	7.149375808623319	34.95086587964944	74.98017328429502	-6.063215971325574e-10	0	0
0.2406098871668135	28.15433852356278	-9.875986286746794	-22.43492376861387	-12.95883751792215	18.2960534063543	-0.8410179072018171	9.396835586707283	-1.91761597519568	-72.01385489991981	-217.4198745219211	-2.564860012729067e-11	-221.3008478657359	-28.9587907184943	46.48325500543955	0	-100.2998644923624	-3.831266101265194	-75.91059053699777	-141.2807952028203	-5.80209765071186e-12	-141.2809066077437	-5.087874459060675	99.3339124698449	-0.0003147105269443913	-82.6558253048803	14.13220906406507	15.60138546459068	37.44566328790192	-14.59184279932475	31.45047589795833	17.1967605859618	2.053791628699736e-11	0	0	47.73564846839537	5.9990464675628	34.10677296650421	75.92730726959205	2.053791628699736e-11	0	0
0.2438286436775879	23.86863459117055	-8.159268580743635	-21.30750739659333	-12.68807781231447	17.59025631790934	-0.709297888291766	2.500863876135917	-1.922101605013214	-72.01318068032856	-226.061687253584	1.483330951043761e-11	-228.7331315425799	-33.27056410502046	51.09925349381533	0	-93.59195977106017	-3.041097341005941	-74.96634832595393	-138.5687827122863	1.909052757559431e-12	-138.5686775251983	-11.57101223717056	97.31171360422414	0.0001728562604672502	-75.92432157587973	12.29966322353269	16.4933369916372	35.6905084461969	-13.64898278530886	28.67277170069121	18.62333434142944	1.741959275624167e-10	0	0	45.97515196355519	4.63375167467851	32.90637870138008	76.80685717908338	1.741959275624167e-10	0	0
0.2474796094921079	18.55398580315866	-6.042146366151242	-19.94739777425971	-12.33304703623975	16.66917480364963	-0.5536301796344597	-4.407080097882741	-1.871424899398143	-71.87647869484317	-233.3550286203566	-1.198169705496602e-11	-235.6418672256225	-38.23488042584334	55.82307207940624	0	-85.07237069345496	-2.031028567594428	-73.44385526640477	-134.6317475853524	-1.12476532807272e-11	-134.6317318153643	-18.83418660749875	94.5692064015829	0.0007222671880758435	-67.54217487220639	10.06504690140964	17.46737849715042	33.41378818428268	-12.48735280649883	25.27899659519368	20.14766765835601	-1.648901666125731e-10	0	0	44.01071390043971	3.116902682514786	31.28514387876169	77.48165454780553	-1.648901666125731e-10	0	0
0.25150520557877	12.20915422412817	-3.53904694231405	-18.37063034881617	-11.88366438917677	15.51617347996465	-0.3761598807119362	-11.20739259672579	-1.754443218571487	-71.55435345117834	-238.3419955995303	8.818927564085168e-12	-241.221248822344	-43.19821102295321	60.34645432897303	0	-74.66932558810916	-0.8043430437345761	-71.22932126975424	-129.2892401460126	1.204320756142586e-11	-129.2893052462936	-26.59670976071649	91.03801476359487	0.001354331134991705	-57.48709979456932	7.450247459384526	18.48713127571019	30.58506977145912	-11.11972920130041	21.29217845685356	21.69883794487099	1.202669278684616e-10	0	0	41.90246146460386	1.547638477728563	29.19891809029377	77.80838883899929	1.202669278684616e-10	0	0
0.2558419453248002	4.912349599215807	-0.7012840877527096	-16.60976819294687	-11.33431533655079	14.12926637778871	-0.1804186377026783	-17.34688380406271	-1.565655109523705	-71.00051031030182	-240.5689985573181	-7.282602689567686e-13	-244.665534605941	-46.89304176520596	64.36052170768254	0	-62.44245683831363	0.6106955556711756	-68.24389132218384	-122.443569235846	-2.990976189128162e-12	-122.4435000498827	-34.50342671097837	86.69680288144846	0.002013036874646365	-45.85708229599567	4.512335266700384	19.51168633576231	27.21233609198035	-9.57932138208904	16.78439798137632	23.20311104418796	-8.334992452213657e-11	0	0	39.7161058697414	0.05580367290560773	26.63569433044303	77.650925993491	-8.334992452213657e-11	0	0
0.2604214354539589	-3.169338687501979	2.381300405784889	-14.7118983820521	-10.68559360219523	12.52352160022165	0.02896395987341929	-22.45602297143928	-1.305095955183695	-70.17319459273251	-239.917653382918	-2.452509723388749e-12	-245.2508765563912	-49.80348141511469	67.58447781963289	0	-48.60240985023692	2.159164205196662	-64.45420542265401	-114.0986778860005	-2.524949560868055e-12	-114.0987794540137	-42.14877032818261	81.5756503664993	0.002705510074572444	-32.88608901208554	1.343326693545931	20.49797518038415	23.34710658180862	-7.918764357141771	11.87809162868531	24.59093733570552	5.099050837261348e-11	0	0	37.51507437342597	-1.210845795652193	23.62310937694592	76.8941370565416	5.099050837261348e-11	0	0
0.2651714545037473	-11.78462199598641	5.585506515929256	-12.73394429012194	-9.943094129250289	10.73129410512775	0.2461671654073089	-26.33411447431891	-0.9774338703389698	-69.03411080721082	-236.2368674947258	4.42954985061612e-12	-242.4124068792691	-51.32089550240862	69.79166799168014	0	-33.50728577860831	3.762710345200837	-59.87683050982874	-104.3640114625	2.730242545562534e-13	-104.3638972678066	-49.1129960180037	75.7520763815058	0.003540973103569089	-18.9378267835347	-1.936707807038967	21.40410676870005	19.08253155900212	-6.20562928151283	6.738697159571208	25.80438538497293	-1.012632509495402e-10	0	0	35.35161224494792	-2.105113533581883	20.22923136475085	75.45538215188589	-1.012632509495402e-10	0	0
0.2700170917444269	-20.61404644080315	8.76737233366385	-10.73871547634893	-9.121788096097832	8.802783763227385	0.4649834058396002	-29.06021228275189	-0.5916317373778216	-67.55944612575911	-229.4736969054321	6.84546463395475e-14	-235.8710999013822	-51.62517549735492	70.84405035735712	0	-17.65058209522536	5.329549179767668	-54.59253815712293	-93.46980085970415	4.268067298335007e-12	-93.46988182782701	-55.01998269182806	69.3567590907182	0.004238848927454991	-4.488400219793858	-5.191581511618156	22.1941935026221	14.55075928363118	-4.515014966327869	1.561461886863456	26.80416232093591	1.912356945869388e-10	0	0	33.26450922630134	-2.508400040119199	16.56135540897539	73.30664971985635	1.912356945869388e-10	0	0
0.2748819285398158	-29.30996532178954	11.77809589902554	-8.783811417125786	-8.238541446053986	6.795275420088713	0.6789143827510302	-30.74524339874569	-0.1588099461525827	-65.71577889338113	-219.420310254418	-1.075329259495237e-11	-225.5516262774655	-50.93450737145649	70.6750914741866	0	-1.581013573434953	6.763599231581575	-48.71127299891715	-81.69604467594191	-4.75429993843099e-12	-81.69598907818015	-59.55467985349963	62.53026680281049	0.005052148626864321	9.944436401396574	-8.287019464707463	22.84011460228874	9.897181435664802	-2.921062325699512	-3.453044907170388	27.57071155284056	-1.980340720333564e-10	0	0	31.26555088306569	-2.335189587473428	12.74270623192746	70.45262987293887	-1.980340720333564e-10	0	0
0.2796892435043931	-37.51590665210536	14.48605899940828	-6.929051299983811	-7.323422933671887	4.783573178840408	0.882214812426786	-31.31607044552374	0.3038993607686087	-63.53025874367637	-206.1751999677923	1.434152874039828e-11	-211.9290311736191	-48.96993143095236	69.37099508433013	0	14.06989874579573	7.987202008479168	-42.44528237983928	-69.48212318151029	9.985926351873863e-12	-69.48218722757692	-62.57491896160634	55.49679860369552	0.005602324423110657	23.79582376754019	-11.10269894406469	23.32926849155595	5.298456416446998	-1.487769562084759	-8.110780643044667	28.10918145606131	1.301246602146811e-10	0	0	29.3694970347274	-1.587369925280563	8.927625225907368	67.0049390665927	1.301246602146811e-10	0	0
0.2843632224455918	-44.95521853793918	16.78613899880792	-5.202350748434599	-6.390849449916441	2.81407207423277	1.071357913128604	-30.68079242008537	0.7829531161794203	-60.93903411920597	-189.2906535785799	-1.282255462386143e-11	-195.2068333650508	-46.34791144128305	66.97523129748461	0	28.85917849620496	8.931971032584586	-35.90199255811915	-57.06827026514694	-1.522197746113248e-11	-57.06820354629797	-63.95428093478842	48.34882952139841	0.006616127140375114	36.66436029764051	-13.55620530733184	23.65321484425939	0.8657767509058062	-0.2636476310342575	-12.2699581126393	28.43374849556774	-2.147920944248005e-11	0	0	27.53310454169328	-0.2591201623426175	5.212832077444362	63.00194574634507	-2.147920944248005e-11	0	0
0.2888301540101398	-51.35122200171408	18.6281400790931	-3.668551523025486	-5.497685281573509	0.9917951855508642	1.239437688733451	-28.72354906677302	1.247227667876795	-58.16091396305104	-169.80778083348	1.424713227362471e-11	-177.0989121660251	-43.41781109820957	63.90694097883718	0	42.1039794329771	9.595476902689892	-29.51973820109048	-45.218892963963	1.229841088669822e-11	-45.21892250229169	-63.99606733450047	41.51037006160198	0.007127285994845075	48.00815755638614	-15.58586507519442	23.8355865933784	-3.179830662097543	0.7259862208830232	-15.79754808648479	28.58958050886889	-1.877033285399835e-11	0	0	25.82033325068434	1.439671167163293	1.795496045829273	58.80392338758877	-1.877033285399835e-11	0	0
0.2930195921846577	-56.69879924482881	19.98214350775315	-2.271805890769762	-4.607452240720768	-0.7333400742510194	1.392325486344762	-25.5715581359558	1.699182736455608	-54.88547466962066	-148.3910552179836	-1.278500930866098e-11	-156.6333639050434	-39.99402125412374	59.96557906790885	0	53.99731278706653	9.932970675035008	-23.04192572666169	-33.50480977929251	-1.08432660798769e-11	-33.50483067799944	-62.49182040650763	34.66901049011744	0.007796509433833217	57.96204004193199	-17.20679091133349	23.86606681016021	-6.938191735023199	1.472314909613051	-18.70638637247659	28.58655223767817	-1.246492327505477e-10	0	0	24.06278456068927	3.612598348036857	-1.415863119676781	54.17291685362443	-1.246492327505477e-10	0	0
0.2968654673351004	-60.77465942552247	20.91041057721203	-1.146407231400188	-3.850976562529093	-2.157918488133282	1.515421325145363	-21.86163163248382	2.081030115766822	-51.87936263477565	-127.8223367052851	8.105161984005757e-12	-138.1292856207961	-36.41238343570357	56.21325594192868	0	63.508088419878	10.06892743367638	-17.48099570727079	-23.59375467884199	1.493921117095944e-11	-23.59371723415084	-60.49890112024775	28.84470535055256	0.008444032325762499	65.80104676552133	-18.39820628875382	23.82324411658826	-10.00651247218923	1.996512918841722	-20.89983869319152	28.51275595012925	3.796672632312098e-10	0	0	22.54948551868472	5.685883647484784	-4.055109700307286	50.034605985467	3.796672632312098e-10	0	0
0.3003071283122631	-63.83895037175727	21.44923645524614	-0.1729010672854367	-3.147370661273292	-3.41854352903367	1.621434318992246	-18.13141995184998	2.416464326421807	-48.66910183724482	-108.9234121152543	-1.024651155916988e-11	-119.4758473095324	-32.87741952604325	52.19920323764065	0	71.42427229307252	9.978109912057743	-12.25024122922588	-14.45998959258953	-1.577847250833277e-11	-14.45999082389725	-57.68829089804952	23.38784783040377	0.008909058847192269	72.15432082226698	-19.25012788860158	23.6903536189749	-12.67196961386291	2.323633950710062	-22.52953001317948	28.36066843757575	-5.854117442728265e-10	0	0	21.04432105381581	7.885003188072367	-6.376796243600533	45.90026111414699	-5.854117442728265e-10	0	0
0.3032902993364854	-66.2285265828844	21.65383996513831	0.7797439466239406	-2.405978974130388	-4.672019102747228	1.724457867702758	-14.54365149725526	2.737398702810363	-44.77058729488476	-91.40968530652395	1.081306997224018e-11	-98.30329402642698	-28.15112079094304	47.41457997676758	0	78.68803889675429	9.641867044440373	-6.688192406224692	-4.944118135401171	1.058732375555985e-11	-4.944129118655157	-53.70245860350921	17.5817980531134	0.009500662126022066	77.77843910965386	-19.86920885087443	23.4492724596044	-15.26590255757528	2.488394127152294	-23.78425285693745	28.1164121783728	4.589503491981737e-10	0	0	19.31170460450949	10.46974112673746	-8.67238125557693	41.22914855290674	4.589503491981737e-10	0	0
0.3057679370955254	-67.47598535424467	21.7134592985588	1.319761848232418	-1.97659793021433	-5.385801899348193	1.782730209953696	-12.09928933162071	2.917837773279405	-42.42827188836802	-78.73186066702397	-6.78347815616599e-12	-85.79666637535807	-26.09009218540151	44.55409146130467	0	82.71961952472333	9.408165555397387	-3.458957086823679	0.5492750809874587	1.521026672268595e-11	0.5492620566519475	-51.22873729793062	14.20988135676527	0.009857636595331641	80.86182551592029	-20.18272082171821	23.2933216054706	-16.73333591934717	2.554641371172733	-24.43590462819424	27.96149701289021	3.965457538334459e-11	0	0	18.28386456443204	12.00951977453903	-9.977413633911494	38.4728997342268	3.965457538334459e-11	0	0
0.3077009768984096	-67.84000840487914	21.72938782598711	1.478701883480349	-1.849967355356487	-5.595959812889756	1.799877317985606	-10.99695209675833	2.97088418594378	-41.73504827479589	-71.47851740441547	7.465232011073073e-11	-82.10153318732014	-25.61026326421674	43.70801197137099	0	83.90361335413898	9.338153779800123	-2.506409217804481	2.168833930747812	-5.235057184588722e-11	2.16882128934298	-50.49461366885598	13.21518254707876	0.009964875906938305	81.76624563163773	-20.27392409259509	23.24687305318197	-17.16511702043853	2.573357709122741	-24.62597275142372	27.91544063708862	-4.261992501366871e-11	0	0	17.98001036077059	12.46477777999901	-10.36159494906477	37.65861479885261	-4.261992501366871e-11	0	0
0.3090589714577417	-67.90716982152908	21.73217915605743	1.508151199190196	-1.826476182419003	-5.634913695145213	1.803054114276364	-10.85713090944779	2.980714200200354	-41.60623456842068	-67.48039199196916	-1.927102161623069e-10	-81.41533716411261	-25.76962306107107	43.5507980418286	0	84.12278429823702	9.325056275438754	-2.329673708966956	2.4692344951887	5.860161482090818e-11	2.469221675522672	-50.35795079616009	13.03063396051732	0.009984352590415493	81.9335502293778	-20.29071529278325	23.23821036017309	-17.24512164574739	2.576749108093594	-24.66102539599103	27.90685687925036	-6.322527963775514e-10	0	0	17.92358813272251	12.5493655651723	-10.4327974089478	37.5074146724243	-6.322527963775514e-10	0	0
0.3098208116596206	-67.91123860175452	21.73240048550094	1.509890442689469	-1.825098676365776	-5.637209433506389	1.803241848907127	-11.33887270080965	2.981294636605339	-41.59875773698508	-62.50399661708477	-3.882554545757485e-10	-81.37534850508418	-26.3024569140024	43.54166951315442	0	84.13580336646488	9.32432680967632	-2.319319795031165	2.486865332341551	2.715816238320536e-11	2.486852576114758	-50.35010370708232	13.01982028451058	0.009985613734435029	81.94352846076968	-20.29174482098196	23.2377185719201	-17.2498466222394	2.576976430778312	-24.66315385143822	27.90636742200636	-1.037408806126737e-09	0	0	17.9202995478306	12.55427969215298	-10.43699630262355	37.49859857599422	-1.037408806126737e-09	0	0
0.31	-67.91124324836562	21.73240251276787	1.509890904004284	-1.825098654293872	-5.637209874444689	1.803241902754563	-11.49150787849791	2.981294787103058	-41.59876031218985	-61.10197391520323	-3.925746447758995e-10	-81.37535661683059	-26.45977247610752	43.54167253916355	0	84.13580944008415	9.324328151597829	-2.319319970389407	2.486866161337698	2.597708423095752e-11	2.486853407664973	-50.35010943287355	13.01982039690736	0.009985617892377591	81.94353450504283	-20.29174641353969	23.23771913219908	-17.24984787622559	2.576977433298053	-24.66315644801975	27.90636790158668	-1.046315453949928e-09	0	0	17.92030019763383	12.55427815578838	-10.43699719947563	37.49860019604229	-1.046315453949928e-09	0	0
