DataType=double
version=3
OpenSimVersion=4.5
endheader
time	pelvis_tilt	pelvis_list	pelvis_rotation	pelvis_tx	pelvis_ty	pelvis_tz	hip_flexion_r	hip_adduction_r	hip_rotation_r	knee_angle_r	knee_adduction_r	knee_angle_r_beta	ankle_angle_r	subtalar_angle_r	mtp_angle_r	hip_flexion_l	hip_adduction_l	hip_rotation_l	knee_angle_l	knee_adduction_l	knee_angle_l_beta	ankle_angle_l	subtalar_angle_l	mtp_angle_l	lumbar_extension	lumbar_bending	lumbar_rotation	arm_flex_r	arm_add_r	arm_rot_r	elbow_flex_r	pro_sup_r	wrist_flex_r	wrist_dev_r	arm_flex_l	arm_add_l	arm_rot_l	elbow_flex_l	pro_sup_l	wrist_flex_l	wrist_dev_l
0	0.3109968118730659	0.1155362362514081	-1.064368436555603	1.587320662661492	0.7538467783831283	-0.280885738746014	-2.177556441885217	-1.762901203952908	-3.028188489325206	1.059825753085735	-3.28164161675672e-14	0.9284668431621526	-5.554703987697316	0.1044031436078826	0	-1.355747500769946	0.3375217120963489	-2.728139125007418	-11.16125389958574	-1.082279289976869e-13	-11.16125390923827	0.3946915912055555	3.948111598547268	0.00487959515129345	-0.3617713374825146	-0.6768124203967762	0.9878997120436749	0.6672709809265009	-0.5612488249636451	0.5247448797688348	0.9057109565227723	-9.433955213349918e-13	0	0	-1.466827901174818	5.018124499545374	-0.3412792222723464	-0.218675477604005	-9.433955213349918e-13	0	0
0.0004542507337261803	0.3324190175200269	0.1070811667834995	-1.070345231362643	1.589786031989328	0.7503193182735811	-0.2813092055641738	-2.174656839460515	-1.766926196370747	-3.005598668886617	1.144324036848187	-3.00889471942015e-14	1.014683804563454	-5.531961459459369	0.06815652749077709	0	-1.387646691493253	0.3308121804375435	-2.752021823059757	-11.16507869558102	-6.748724876661547e-14	-11.16507869747461	0.3946277981188034	3.980367579885233	0.004863172953618882	-0.3743607975132567	-0.6683584489559129	0.9921697049824256	0.6649350379570083	-0.5618564191729658	0.5268772132776184	0.896507370959521	-7.922978915071382e-13	0	0	-1.452048396383763	5.022437508956682	-0.3282750091356234	-0.2209948505473199	-7.922978915071382e-13	0	0
0.001515784775164009	0.3824794134598447	0.08732155596873339	-1.084308214037146	1.595546984563987	0.7420735302478259	-0.282298561470031	-2.167887725999184	-1.776328758646184	-2.952777680749719	1.341789539653302	-8.189595392152432e-15	1.216154109384979	-5.478734600382635	-0.01653637451367266	0	-1.462173814233934	0.3151312999231924	-2.807832258276826	-11.17397385741194	1.178265298522538e-14	-11.17397384129019	0.394487877133306	4.05573789133124	0.004824794615135784	-0.4037772943135748	-0.6485995316202922	1.002145830907295	0.6594739066718359	-0.5632770751591299	0.5318592338594397	0.87499947194511	2.347200665565041e-13	0	0	-1.417525442725363	5.03250608572336	-0.2978948419167718	-0.2264150466431478	2.347200665565041e-13	0	0
0.003164446411839883	0.4602127855999694	0.05661558336278089	-1.10592595270673	1.604488604537101	0.7292255786442641	-0.2838311568228281	-2.157782982338269	-1.790875571887067	-2.870227297862479	1.647855248377648	1.075132411133136e-14	1.528905730931636	-5.395284761160601	-0.147884880783651	0	-1.577627881180476	0.2907534191667465	-2.894498211450964	-11.18707788110505	2.860816465655322e-14	-11.18707783882258	0.3944222863599935	4.17265760271256	0.004765168565758589	-0.4494032928341105	-0.6178636951666757	1.017600432722357	0.6509544537884007	-0.5654964368370792	0.5395803275811808	0.8415936130879516	5.419136229232606e-13	0	0	-1.36415850483383	5.047970620527552	-0.2508649010303706	-0.2348345733245515	5.419136229232606e-13	0	0
0.005374104194047435	0.564290106347814	0.01533943622690028	-1.134422727396034	1.6164330411088	0.7117157269397988	-0.2858574976035358	-2.146113970156625	-1.809978544062066	-2.75598800267767	2.055218075654586	-9.88646286261252e-15	1.947019798472218	-5.281074290515297	-0.3226120123676293	0	-1.730312537349304	0.2579126496264412	-3.010563273189835	-11.1996652441306	-1.079298875261684e-14	-11.19966517966144	0.3953956697425579	4.32839812410916	0.004685102443690622	-0.5101298893967312	-0.5763309196678411	1.038038927925929	0.6392713431778148	-0.5685613660547777	0.549813141230398	0.7968058914999481	-5.812264646145935e-13	0	0	-1.294384480223941	5.067487179719735	-0.1889042770134904	-0.2461288963954084	-5.812264646145935e-13	0	0
0.008109887166813518	0.6927061780444381	-0.03622691875688222	-1.167835401551653	1.631065378381065	0.6889115730434494	-0.2882581435468536	-2.135719592657447	-1.832092428661707	-2.600583754181243	2.554042316948827	2.935659683872862e-14	2.460444595685826	-5.129107241611416	-0.5337351178789322	0	-1.911320779675551	0.21660820077871	-3.153869185266692	-11.19588830749111	6.923733624251823e-15	-11.19588826130192	0.4007072365467551	4.517400471714096	0.004585465619544913	-0.5836393026871575	-0.5236028838935167	1.062268173486432	0.6237719351009609	-0.5726984679400169	0.5620198924601392	0.7412912804381949	9.603527660488946e-13	0	0	-1.214804238831183	5.086934301433788	-0.1163512399422627	-0.2601443634894792	9.603527660488946e-13	0	0
0.01132864367758793	0.842523064074673	-0.09761674065709906	-1.203329078568444	1.647959471422571	0.6599628730294993	-0.2908714415535473	-2.130117182818978	-1.855058982307969	-2.391366765246314	3.130873892789495	2.885127533213723e-14	3.054412387035432	-4.928446316325641	-0.7707207716043234	0	-2.108258523539931	0.1668950777304562	-3.321116060123011	-11.15402989346262	5.657774449759799e-15	-11.15402990418727	0.4145504881328561	4.731338651922839	0.004468165316421465	-0.6665269593511525	-0.4591974178339048	1.08860552587768	0.6034697040172736	-0.5780894064407128	0.5752928702835689	0.6757718924107543	-5.198444782705833e-13	0	0	-1.134159311000064	5.100593021519994	-0.0388425534223446	-0.2765944093318864	-5.198444782705833e-13	0	0
0.01497960949210789	1.009667981018078	-0.1674837457901654	-1.238629503537276	1.666696289648178	0.6249303032377919	-0.2935905802101303	-2.132750632219664	-1.877414294257158	-2.126505584982235	3.766942434534855	-1.183785822678528e-14	3.710610553012033	-4.679913098543536	-1.02236966790651	0	-2.312002880095446	0.109678657459323	-3.50728232983803	-11.06456037370412	3.211790518619947e-16	-11.0645603543011	0.4376097855593861	4.961057665905921	0.004337531176591406	-0.7553227377744077	-0.3840042547115855	1.115744555619231	0.5778989620537273	-0.5843279656680918	0.58848387641558	0.600950026436601	-9.114659350617994e-14	0	0	-1.05668788333892	5.105368036108617	0.04087584452080525	-0.2948871162311718	-9.114659350617994e-14	0	0
0.01900520557876997	1.189019654355832	-0.2440354599039934	-1.270992497438568	1.686783146427062	0.5839984561117166	-0.2962909042357332	-2.147081830197279	-1.897431121149291	-1.805676372824434	4.440333869271831	-1.555845564190539e-14	4.406311732504821	-4.385373146431897	-1.274943853039833	0	-2.512023127586739	0.04620335627740771	-3.705635512913448	-10.91761396004136	-1.852137660684797e-14	-10.91761396061296	0.4697942186803878	5.19481958061972	0.004194575813950834	-0.8457174814737005	-0.2993393802540031	1.142127473982724	0.5464891362755602	-0.590710678033129	0.6000595788612307	0.5175051662159291	4.31157928599461e-14	0	0	-0.9865922144772745	5.097759641310072	0.1201247004212609	-0.3142864553434876	4.31157928599461e-14	0	0
0.02334194532480019	1.374584722250909	-0.3252076290068872	-1.296966441030655	1.707637288579978	0.5372162686657103	-0.2988051333602851	-2.176504133157135	-1.912843964469586	-1.427266502316991	5.126516564278703	-4.134538805306609e-15	5.114943301049875	-4.048498592959874	-1.512343877478786	0	-2.695224130074076	-0.02212704533615736	-3.907766534293413	-10.69929568334269	8.749327617148129e-15	-10.6992956932603	0.5110154517944452	5.418015799145705	0.004045008557249984	-0.9324573416405362	-0.20663883213839	1.165777547454699	0.5083908714290861	-0.596333853489264	0.6081139493537697	0.4261007411721589	-6.842993212903122e-14	0	0	-0.9293645728302664	5.072961408427581	0.1954038067189174	-0.3340275767622563	-6.842993212903122e-14	0	0
0.02792143545395889	1.559733054621299	-0.4083118871553628	-1.313600849005995	1.728689970455474	0.4852529280378198	-0.3009938428559826	-2.223694723621602	-1.921856456238812	-0.9979489612956415	5.797793589088498	-7.656920685691551e-15	5.808777832587117	-3.678912454940741	-1.719623748394657	0	-2.851289360006169	-0.09327780084788034	-4.103621006392388	-10.40467772645344	-6.508763621975593e-15	-10.40467774661004	0.5582597760650181	5.615450192337126	0.003891623158432645	-1.010404794140583	-0.108384889362635	1.184986568175894	0.4631416428366441	-0.5998069371343241	0.6106285059358757	0.3273932387587314	-1.52344393595958e-13	0	0	-0.8871447529902299	5.02797380622042	0.2652235487729716	-0.3532965517180165	-1.52344393595958e-13	0	0
0.0326714545037473	1.737720246321648	-0.4904531241085534	-1.318144905897516	1.749369538929455	0.4289319803624091	-0.3027146499401729	-2.289650620476034	-1.922759338535622	-0.5271475261118328	6.429129075400599	8.858445177939278e-15	6.46068923270003	-3.287674823023814	-1.883595690924258	0	-2.970861978484324	-0.1649834424611138	-4.282244282660663	-10.03141218116583	6.961590167087019e-16	-10.03141228371568	0.6074146682825241	5.771687775688143	0.003732956282106762	-1.074554668650511	-0.007445545421761995	1.198087426242823	0.4104122699229589	-0.5995599798291968	0.6056106364082349	0.2221281831559817	6.973028161167444e-14	0	0	-0.861195175678928	4.960198760140004	0.3284445961165526	-0.3714068482805052	6.973028161167444e-14	0	0
0.03751709174442691	1.902236072523566	-0.5686630863737898	-1.308561521634686	1.769149283507499	0.3693456346426167	-0.3038461832566552	-2.375239105785752	-1.914294830416168	-0.02830696769263657	6.994905703666517	-5.846872839015149e-15	7.046924211260521	-2.890201167594926	-1.99497376948866	0	-3.047347662151079	-0.2347985234450874	-4.432719257629204	-9.582758313619857	5.99612778231434e-15	-9.582758245652713	0.6531444759205608	5.872981073305011	0.003576740303840315	-1.120702904393384	0.09292026648854	1.203725512181676	0.3502303071565401	-0.5939668186210597	0.5913730561227868	0.111239800453889	9.897572269304872e-14	0	0	-0.8510249744021385	4.868348615875661	0.384740115242645	-0.3878579133449821	9.897572269304872e-14	0	0
0.04238192853981579	2.047979017463409	-0.6401710944281047	-1.283791078508533	1.787578097261952	0.3077809570677661	-0.3043009480864569	-2.479575249287452	-1.895815452533185	0.4824467548989438	7.474658638776608	2.5913746113976e-15	7.549430097821492	-2.500522448322033	-2.0495740195899	0	-3.077492619898491	-0.3003095253010934	-4.545416561739447	-9.067464477640938	-3.057055970643275e-15	-9.067464445093359	0.68967840691172	5.908981798047449	0.003424858926002217	-1.145926751285342	0.1893470006568126	1.201000642581134	0.283058304012395	-0.581594801632864	0.566790355991485	-0.004042430406737854	1.33054978984611e-13	0	0	-0.8546735401056642	4.752672371748028	0.4343745774041824	-0.4023785272291822	1.33054978984611e-13	0	0
0.04718924350439309	2.171141855536519	-0.7026900694781142	-1.243901864303888	1.804301105216785	0.2456116935674408	-0.3040367075714098	-2.598534258204463	-1.867373855614869	0.9883180886529374	7.859847171134239	-3.364971118771123e-15	7.95746243996669	-2.132196165893471	-2.048653591758544	0	-3.061485509041795	-0.3593850237331336	-4.61330779552113	-8.498763811557158	4.257108706644368e-15	-8.498763863785868	0.7118520703967754	5.874211263582886	0.003276486697231609	-1.148925428924502	0.2787212021183571	1.18956990981568	0.209823821826975	-0.5614779170972612	0.5315108574089531	-0.1221180386078778	-8.392085487126862e-14	0	0	-0.8692808290279198	4.614994476415557	0.477868895680312	-0.4149241314690569	-8.392085487126862e-14	0	0
0.0518632224455918	2.269715598875133	-0.7546268660991567	-1.190193758872928	1.819076889732507	0.1842471242866198	-0.3030676108336532	-2.727015294794245	-1.829810998936693	1.473227449016776	8.14896378964405	4.330271309829701e-15	8.268258231487247	-1.800447116148046	-1.998517039024436	0	-3.003026380538026	-0.4103719782250925	-4.63305203017635	-7.893857075121939	-4.723860117456512e-15	-7.89385705029543	0.7159084637649646	5.769134899717393	0.003132494443204117	-1.130229614758596	0.3584606501959493	1.169751402629722	0.1319541607681254	-0.533327200965832	0.4860955995323014	-0.240997938185473	8.644245171954683e-14	0	0	-0.8913989821085511	4.45883619388783	0.5158991977764198	-0.4256221302497964	8.644245171954683e-14	0	0
0.05633015401013977	2.343575059684371	-0.7952395386937428	-1.125099610813618	1.83178003442924	0.1250423749418953	-0.3014649727096195	-2.85884742904974	-1.784699605915549	1.923541448434101	8.34874442784605	-3.842931110907272e-15	8.486547556283517	-1.512332528751531	-1.909253953493983	0	-2.908745621769301	-0.4522720168895738	-4.605637584818569	-7.272323972919351	-8.772637994667575e-15	-7.27232395528217	0.7002563415705678	5.600393018462169	0.003003494035432672	-1.092141303478782	0.4267903419419384	1.142525325727057	0.05132668781251687	-0.4976745183852276	0.4320395447818937	-0.3583538756853497	-3.136036275194822e-13	0	0	-0.9175819372404538	4.289195302894731	0.5490752811441454	-0.4347011869956388	-3.136036275194822e-13	0	0
0.06051959218465776	2.394333047709724	-0.8246713855321288	-1.051994968679514	1.842396048178669	0.06925233765452532	-0.2993530260601257	-2.987928385953341	-1.734239106410254	2.328940815868185	8.471288642813862	9.383746714193661e-15	8.623163253606691	-1.270619837740578	-1.793138069586949	0	-2.787535670514023	-0.4848145667962386	-4.53640179832107	-6.654905466461456	1.247014832906738e-14	-6.654905424513867	0.6657433154774934	5.380267621644087	0.002883852954714815	-1.038488991367837	0.4828708637227096	1.109484947523743	-0.02980407021996938	-0.4558855500729969	0.3716802116277309	-0.4716285205937214	3.61714950440226e-13	0	0	-0.9447261878731759	4.112288124174261	0.5778988389905242	-0.4424143945501772	3.61714950440226e-13	0	0
0.06436546733510043	2.42500978525307	-0.8438837822824148	-0.9748886667428726	1.851006464989005	0.01798851890768386	-0.2968981940446962	-3.108867727667264	-1.681066831059331	2.682878214597153	8.531395797012159	-1.127295980043526e-14	8.693034959238062	-1.07470549471889	-1.662939998828907	0	-2.649638199135003	-0.5084433580860035	-4.434435893448812	-6.062089108501878	-2.507220795298127e-15	-6.062089067535309	0.615565893806123	5.125397045627038	0.002775271022017679	-0.9742040640370181	0.5268138316197769	1.072705502887839	-0.1089324391091624	-0.4100580087531548	0.3080004953376769	-0.5781826215962576	-1.387319813883191e-13	0	0	-0.9703845336326273	3.935109394309394	0.602723498824364	-0.4489827576684529	-1.387319813883191e-13	0	0
0.06780712831226307	2.439580665616713	-0.854488452895465	-0.8980776630464454	1.857770236764371	-0.0278016114850475	-0.2942906186290107	-3.217072837240512	-1.628046245497892	2.982346817661399	8.546120344987706	-8.732843490012521e-15	8.713023719241585	-0.9196412536265715	-1.530542677383986	0	-2.505768201174589	-0.5242059923268991	-4.311502611163427	-5.513045172199447	-3.28285175375354e-15	-5.513045158511007	0.5547753020464165	4.855042602044668	0.00268322622182046	-0.9048174086320695	0.5595568819132838	1.034569407458979	-0.1834477336004104	-0.3628161063583094	0.2443640723073344	-0.6754509496140794	-4.548213714707848e-13	0	0	-0.9928849613978673	3.764962406386953	0.623788349044321	-0.4545636106438856	-4.548213714707848e-13	0	0
0.07079029933648544	2.442481936652968	-0.8585178312585283	-0.8258017968700797	1.862899363644344	-0.06734367676637837	-0.2917256588716127	-3.308583030781238	-1.578047740163599	3.227259238462684	8.532957846768216	3.129855747114556e-14	8.699958489035454	-0.7995826931264933	-1.406010679548936	0	-2.366301533075837	-0.5335769607834842	-4.180697689123881	-5.0247852775383	1.492515782429551e-14	-5.024785229509084	0.4895609405002093	4.589203416468854	0.002602275872261374	-0.8359451922508236	0.5826447703338765	0.9975642611085621	-0.2507926918623322	-0.3170485957224645	0.1842256144670102	-0.7610791801911564	4.483442135750747e-13	0	0	-1.011334994640003	3.608972254442746	0.6412518642581659	-0.4592453914827339	4.483442135750747e-13	0	0
0.07326793709552543	2.438142198832326	-0.858167762901204	-0.7619505396848145	1.86663225185787	-0.1000299774266496	-0.2893887639765471	-3.382078828823324	-1.533754393961897	3.41955072540257	8.505480662875813	-4.802685610068145e-14	8.669133293764999	-0.7091468680919466	-1.297175232333296	0	-2.24063335666037	-0.5382421920927952	-4.055095824538099	-4.611665144626461	-1.876597236071627e-14	-4.611665050820229	0.4264495905575924	4.346889139367875	0.002533919071926632	-0.7728393829841134	0.5979533847782292	0.9640864474099081	-0.3086108541017719	-0.2756339704873894	0.1308586747403015	-0.8330255046727955	-2.960295032633472e-13	0	0	-1.025500019933716	3.473661872841722	0.6552293103364927	-0.4630606343601182	-2.960295032633472e-13	0	0
0.07520097689840965	2.430585781858869	-0.8555500342738136	-0.7098433007033307	1.869207491109443	-0.1254077391019242	-0.2874408442603274	-3.437927968415517	-1.497504003911712	3.562227026067299	8.472688427313871	5.067808009377788e-14	8.633343597172264	-0.6443019745349978	-1.209645642579797	0	-2.136716471062452	-0.5398814763929787	-3.946572910757501	-4.285154246920553	-1.052440815224911e-14	-4.285154145867959	0.3715730730909484	4.144743414677929	0.002481244252829755	-0.7200420484937673	0.6074074474541534	0.9362702671758726	-0.3548697258252901	-0.24119327742213	0.08713216146472733	-0.8896217790613575	7.763751762290192e-14	0	0	-1.035610971942829	3.364617363800655	0.6658140955615686	-0.4660065622209567	7.763751762290192e-14	0	0
0.0765589714577417	2.423131614412722	-0.8524800088804098	-0.6720894566001457	1.870837843753771	-0.1431604127179741	-0.2860095170288204	-3.476348581029741	-1.471173057559055	3.658487246089861	8.444157015276499	-2.593127457906549e-14	8.602414519977106	-0.6015380699258409	-1.147107117049118	0	-2.060775636759791	-0.5399733779676255	-3.864906810538887	-4.053819247940659	4.142889070413684e-14	-4.05381917482822	0.3300867423294637	3.996093513973006	0.002445557481425941	-0.6811562358526615	0.6127276827833504	0.9158553909802803	-0.3879515165336478	-0.2158934979962589	0.05534962818584421	-0.9295996965118529	1.870371580034476e-12	0	0	-1.042137303418874	3.286257058711721	0.6730850288103095	-0.46806491917405	1.870371580034476e-12	0	0
0.07732081165962061	2.418185996622122	-0.8503131697318449	-0.6505091165594521	1.871687322273505	-0.1530896717637344	-0.2851845024146609	-3.497450614790894	-1.456095164616276	3.711027291896491	8.426204891194383	-1.381607561444345e-14	8.583069365277897	-0.5785329267062773	-1.111726451997273	0	-2.017147904285951	-0.5396398715103291	-3.817159237076007	-3.923395250251354	3.685925334444491e-14	-3.923395206830075	0.3057612816117488	3.910364229340002	0.002426206005565131	-0.6587125285334783	0.6152317280407685	0.9040915359742776	-0.4067164289041176	-0.201305013597257	0.03714404871708458	-0.9520995880139005	6.682672527552763e-13	0	0	-1.045569355163766	3.2416808601708	0.6771048135784294	-0.4692165667735483	6.682672527552763e-13	0	0
0.0775	2.416943746216252	-0.8497571535216775	-0.6453924124711662	1.871880286746445	-0.1554217782268384	-0.2849881981075618	-3.502285463143563	-1.452517194024431	3.723230821526466	8.422094063384565	1.080068601737544e-14	8.5783169804157	-0.5732063794879547	-1.103378660012848	0	-2.006781702660807	-0.5395211259475362	-3.805728879502706	-3.892655372406954	3.109370904661699e-14	-3.892655337265418	0.2999307143370624	3.889960335283806	0.002421725491612322	-0.6533692670948988	0.6157703646722894	0.9012924430627295	-0.4111511941302642	-0.1978327428332202	0.03282338020501845	-0.9573987949656455	1.452855420835128e-13	0	0	-1.046351438370579	3.231133166050055	0.6780441161428428	-0.469487159915718	1.452855420835128e-13	0	0
0.07795425073372618	2.413660534424913	-0.8482685800222793	-0.6323524642301847	1.872357757926395	-0.1613279733744294	-0.2844867534089885	-3.514519937499474	-1.443393389500573	3.753902911212528	8.411283874905752	3.635504892989117e-14	8.565930381526218	-0.5599240499426097	-1.082177090681197	0	-1.980326477007442	-0.5391512422440465	-3.776413337481878	-3.81462376388807	1.311044165551654e-14	-3.81462375154575	0.2849645767013443	3.837830266503769	0.002410481540228634	-0.6397152812337572	0.6170498342650328	0.8941420208331812	-0.4224293033819131	-0.1889607352164911	0.02180497822356134	-0.9708442717225384	-1.143865675748637e-12	0	0	-1.048289889880929	3.204287681717721	0.6804147734963412	-0.4701726858650469	-1.143865675748637e-12	0	0
0.07901578477516402	2.405243970717536	-0.844348542395059	-0.6015009534887849	1.873407861384524	-0.1750964956415584	-0.2832939919612714	-3.543619530309686	-1.42177579344704	3.824092553829793	8.381053025811426	-3.229472670282632e-14	8.535130294791012	-0.5304694086812002	-1.032444122850202	0	-1.917532994428784	-0.5379013527915579	-3.706024946722203	-3.631713754191522	-1.550476215548448e-14	-3.631713801587901	0.2489597547531848	3.713771491228362	0.002384761743967986	-0.6072094727556842	0.6195582548439283	0.8771292510887009	-0.4489825739257955	-0.1678406533796336	-0.004304685708197684	-1.002327640484024	-1.241301218566387e-12	0	0	-1.052564464522136	3.140964976237062	0.6858959575585351	-0.4717724217279673	-1.241301218566387e-12	0	0
0.08066444641183987	2.390136247270803	-0.8370387973515602	-0.5525691536178291	1.874854987766184	-0.1963809319526049	-0.2813851900467492	-3.587896460180792	-1.387393940583794	3.928929987564632	8.328398594772445	3.656610924504529e-14	8.482368846930923	-0.4882556471135977	-0.9548589607812394	0	-1.817398291969585	-0.534888066237666	-3.591563731236311	-3.346222009532479	2.112338664583852e-15	-3.346222137962488	0.1902146479747901	3.515046192083031	0.002345557256732416	-0.555113753652551	0.6221146624042528	0.8498777326937204	-0.4907574547357793	-0.1339768905745168	-0.04583398860081148	-1.051383318321665	1.755942362104472e-12	0	0	-1.058451104126541	3.041031087246515	0.6942454310861983	-0.4742513489192531	1.755942362104472e-12	0	0
0.08287410419404742	2.36609879775913	-0.8249278116330139	-0.4851551450366088	1.876439651454016	-0.22470010605949	-0.2787251506593418	-3.645325068641053	-1.339818055887761	4.061369878825657	8.246353818626993	-1.276161413203138e-14	8.402927362403222	-0.4377720653657702	-0.8507280384313947	0	-1.678466127126224	-0.5288030556321696	-3.428614166504371	-2.961289650090458	1.822482790360288e-15	-2.961289773734841	0.1062133233190744	3.237659771000143	0.002291632394794497	-0.482370914139499	0.6229847398904439	0.811810867785087	-0.5477254738382409	-0.08660674042040796	-0.1032867851563537	-1.117388797625002	-6.15628697997415e-13	0	0	-1.064780468699767	2.904200231804763	0.7051232293103233	-0.4775632628866848	-6.15628697997415e-13	0	0
0.08560988716681352	2.330547729684727	-0.806310821487878	-0.399023985602816	1.877829096520507	-0.2593926320087276	-0.2752834796087273	-3.711375161209436	-1.27864598993602	4.212362999517512	8.131593569114875	5.532392558317438e-16	8.292182738151787	-0.38460994778115	-0.7226420792547693	0	-1.499521102275776	-0.5180321033897916	-3.212375395741031	-2.481928325245895	-1.605332169287639e-14	-2.481928257274285	-0.005818659618473691	2.877863930649537	0.002221246120022231	-0.3880237725737175	0.6200225037890068	0.7623255082511573	-0.6197095846801157	-0.02491873808647432	-0.1770884789546445	-1.199419075792559	-5.50155236647272e-14	0	0	-1.069882256006526	2.730510374558437	0.7180906010584343	-0.4816416379530531	-5.50155236647272e-14	0	0
0.08882864367758794	2.280949840066378	-0.7793943913524708	-0.2943624813903521	1.878635478226068	-0.2996139445806101	-0.2710491292743311	-3.779781918610796	-1.203655202125999	4.371441574094856	7.983854012262243	2.085963057449212e-15	8.14695356764674	-0.334985018739581	-0.5749509894302947	0	-1.280194617172211	-0.5008196793415748	-2.938736874062371	-1.915540208615609	-2.058094793912321e-14	-1.915540044230811	-0.1482929752916061	2.433580340988098	0.002141097967827688	-0.2716176995594377	0.6108865618647412	0.7009509049506063	-0.7062604421864676	0.05173781192529826	-0.2673593933527451	-1.296190095479612	-4.433300688178349e-13	0	0	-1.071575344665779	2.520679279249828	0.7326293376915406	-0.4863856837730102	-4.433300688178349e-13	0	0
0.09247960949210787	2.215262455177267	-0.7425452151055013	-0.1720397185170169	1.878436921550627	-0.3443400227936257	-0.2660460964078571	-3.842973624989493	-1.114961717268286	4.527511841327164	7.804596872625641	-1.639639566922529e-15	7.966758021950549	-0.2950673827560508	-0.4140334181945986	0	-1.021574686970364	-0.4754763758421252	-2.605485984691471	-1.272335467589695	1.443356906724671e-14	-1.272335439147763	-0.3225180895358615	1.905908958535285	0.002056809658200222	-0.1336291244317987	0.5933176403171172	0.6275246205575546	-0.8065191262735987	0.1436101666219159	-0.3736659693732314	-1.406017364752093	3.49469286039051e-13	0	0	-1.067219588615653	2.276473303388435	0.7481689936663529	-0.4916338019428199	3.49469286039051e-13	0	0
0.09650520557876997	2.132364192150961	-0.6945620358171467	-0.03382987795740088	1.876800906535688	-0.3923784886115209	-0.2603472386085748	-3.892408935772265	-1.013165058635796	4.669793192803688	7.598410115240323	-1.194518920823992e-14	7.754708425934204	-0.2698775044069462	-0.2482232106622091	0	-0.7267304513046507	-0.4406142964670631	-2.213479610901164	-0.5655504431248056	-1.097456781560356e-15	-0.5655504383981086	-0.5279344140661058	1.300476654583215	0.001963853238875564	0.02414218741670027	0.5654572184973651	0.5423635890496552	-0.9190821993715341	0.2502951861849587	-0.4947838906668461	-1.526804397601909	5.004559420116978e-14	0	0	-1.053849223086351	2.001033740404785	0.7641273892256621	-0.4971257435264401	5.004559420116978e-14	0	0
0.1008419453248002	2.032412096760927	-0.6349361719196829	0.1174529147297918	1.873310844058781	-0.4423889581878516	-0.2540830441803585	-3.918621501119223	-0.8994549751174284	4.78879124034922	7.373140538139785	1.232028439458785e-14	7.517797605399212	-0.26309311016935	-0.08732069352017885	0	-0.4010577392276831	-0.3953829976337634	-1.767554180806929	0.1886209349337295	3.055101245645219e-15	0.1886208446700835	-0.7614742279430733	0.6283310219337577	0.001866160424959781	0.1982929136307132	0.5261680032673457	0.4464013558252031	-1.041894105681981	0.3705310245875009	-0.6285193976960168	-1.656074178941393	-1.212104383859491e-13	0	0	-1.02839324877195	1.699092754384641	0.7799683571857605	-0.5024610715904599	-1.212104383859491e-13	0	0
0.1054214354539589	1.917059239850536	-0.5640562458249921	0.2779532588683891	1.867595488407272	-0.4929186571627194	-0.2474432684454226	-3.912782431762797	-0.7756576310762341	4.877156062643373	7.133676673571538	-9.611474076613863e-15	7.266427572852311	-0.277412632445003	0.05828985341717243	0	-0.05236282763544667	-0.3396678123518912	-1.276938952534978	0.9714384976364516	-4.550345390592273e-15	0.971438377422291	-1.017222413353252	-0.09389985879612803	0.001766818931391668	0.3837246853948207	0.4753011052481519	0.3412608334104626	-1.172197388736591	0.5020767231288114	-0.7716376504171798	-1.791049100324227	-3.694060871942406e-13	0	0	-0.9879703007666274	1.377012756724547	0.7952745079897462	-0.5070665303977786	-3.694060871942406e-13	0	0
0.1101714545037473	1.789478445143687	-0.4833104208539526	0.4429368801502268	1.859359627928279	-0.5424550457612342	-0.2406665121561777	-3.866024781241749	-0.6442076803055407	4.930281880941293	6.89243372431554	4.137887096956557e-16	7.013207500327148	-0.3094401619071285	0.1787884969457346	0	0.3093735817836495	-0.2742090992786235	-0.7549972594200504	1.762384863160035	-4.723894204481738e-15	1.762385044923132	-1.286534645771895	-0.8447603313599485	0.001666830028456405	0.5738043636983384	0.4138487812507882	0.229237528896955	-1.306571839635645	0.6417247371697203	-0.919940302015919	-1.928774628232867	1.306451649754162e-13	0	0	-0.9302280404418668	1.042599658739856	0.8098223662173294	-0.5101898966247099	1.306451649754162e-13	0	0
0.1150170917444269	1.654162668752231	-0.3950495286845491	0.6071163795670887	1.84841621360124	-0.5894967347815454	-0.2340221539802661	-3.771130461489416	-0.5080422466398196	4.946552858444178	6.666144577694453	2.090271689901088e-15	6.771229211171449	-0.3514079426121872	0.2661281575491822	0	0.6725736966885109	-0.2006091301146605	-0.2182488056971817	2.54025930960628	9.212122494206396e-15	2.540259354315667	-1.55868722966419	-1.599627477242503	0.001569096213087674	0.7608039563658665	0.3439326687295141	0.1131823524435269	-1.441085122984157	0.7854700445725539	-1.068513306095622	-2.066270962630032	2.523331062024198e-13	0	0	-0.8536845123790383	0.7046782379870337	0.8236380901977801	-0.5109354768377179	2.523331062024198e-13	0	0
0.1198819285398158	1.516510774877211	-0.3023976628945482	0.7651059830924921	1.834719879562758	-0.6326439995801256	-0.2277821211510945	-3.624770277898004	-0.370427667069585	4.927217874228957	6.46771088577715	-5.168184694358354e-15	6.552184432581988	-0.3959848052902404	0.3150688569488411	0	1.024950097206542	-0.1212120482605233	0.3152030054334596	3.284511112219027	2.907588254680456e-15	3.284510983344159	-1.822005818115044	-2.33305421959627	0.001473860063640618	0.9365968195012799	0.2686061430091329	-0.003706795873792191	-1.571558181389709	0.9288268168350317	-1.212131772224329	-2.200690116075429	7.489590144766665e-14	0	0	-0.7580229020014363	0.3724647432581978	0.8370085561534566	-0.5083487349602991	7.489590144766665e-14	0	0
0.1246892435043931	1.382250751427337	-0.2089296118225219	0.9119367267315804	1.818393513223829	-0.6707033139733172	-0.2221893478429279	-3.427764660499818	-0.2347415975950496	4.875958425621116	6.305196092955754	1.587304232016545e-14	6.364753483231209	-0.4375624704610825	0.323835177078671	0	1.354612843376523	-0.03886954858708638	0.8275599296537386	3.976673004579341	9.86555611256817e-15	3.976673039338042	-2.065286343750249	-3.021385925838072	0.001383896216225824	1.093529013170111	0.1914914055252422	-0.1181541658944545	-1.693921416285016	1.067250726623851	-1.345770943606769	-2.329454784318613	1.090854230504891e-13	0	0	-0.6442921728836498	0.05482309927848894	0.850428527772054	-0.5015478249932441	1.090854230504891e-13	0	0
0.1293632224455918	1.256789732548167	-0.1182680092440494	1.043542582554198	1.799746155251477	-0.7027912386833869	-0.217431051270022	-3.185026569198251	-0.1042393155702613	4.798269134028591	6.183350362729958	2.821570346727105e-14	6.21361263846264	-0.4725382189528456	0.2942766606275021	0	1.65124458909858	0.04336708166427733	1.303169852916999	4.601710181122194	1.843833457924395e-15	4.601710223158046	-2.279220010634903	-3.645150339874809	0.001299716595829293	1.225330686243304	0.1163149292813681	-0.2270901875174381	-1.804609622543924	1.196591533449587	-1.465140315366349	-2.450362060649825	-1.561543584104387e-13	0	0	-0.5149774773298093	-0.2404722576150603	0.8644842088591332	-0.4898841116694507	-1.561543584104387e-13	0	0
0.1338301540101398	1.144603065852394	-0.03367622056172159	1.157130834940066	1.77927660771753	-0.7284197573610622	-0.2136169998536753	-2.905900408742255	0.01816245666511997	4.700784418417837	6.10080126250482	-2.258617054468302e-14	6.099251373867347	-0.4990494741277977	0.2315203887860983	0	1.907153539647919	0.1225695267389566	1.729973108460195	5.149081791696068	-9.802078326661737e-15	5.149081834501692	-2.457519946862521	-4.190772666304178	0.001222225203073823	1.327904320695493	0.04643346493809222	-0.3279004121321749	-1.900925223559227	1.313491626453031	-1.56714349561252	-2.561642896045075	-1.837053371336042e-13	0	0	-0.3739222471559686	-0.5073383414854686	0.8796930366828436	-0.473104677141742	-1.837053371336042e-13	0	0
0.1380195921846578	1.048771943994351	0.04227426131005391	1.251371889269681	1.757657172536673	-0.7475493876826509	-0.2107705481813908	-2.603188041556903	0.1300550055111083	4.590659949931609	6.052365035360724	-1.117249935234893e-14	6.018561760221651	-0.516037797114684	0.1432112369449283	0	2.11801383736678	0.1962088547422183	2.100317863017036	5.613333443818343	-4.071780506362188e-15	5.613333441612969	-2.59752159250311	-4.651339007487012	0.001152715342444555	1.399838142108087	-0.01555383165311087	-0.4185980604760509	-1.98129871997864	1.4156581793971	-1.650176317575999	-2.661977890623835	3.53142662585457e-13	0	0	-0.2261063030392586	-0.7417448184210242	0.896337463238452	-0.4514822064160915	3.53142662585457e-13	0	0
0.1418654673351004	0.9707480240190127	0.1079023741174496	1.326383145902756	1.735701058118345	-0.7605914257718038	-0.2088330318382199	-2.29202517983639	0.2296381308973762	4.475070806817776	6.029876794062058	-9.942645948860307e-15	5.965967711074638	-0.5242532458967993	0.03851123297917408	0	2.283150957775813	0.2623397452015871	2.411067898017457	5.994109462521653	1.113169377340297e-15	5.994109378617674	-2.700166289536983	-5.026361815673035	0.001091212259719923	1.442542505142621	-0.06803574842618751	-0.4978973512963868	-2.045394021761069	1.501964069579125	-1.714209258145815	-2.750476300647962	-4.035876750030739e-13	0	0	-0.07730920141830648	-0.9417838887531786	0.9143365030494993	-0.4258804339534475	-4.035876750030739e-13	0	0
0.1453071283122631	0.910374905473903	0.1624570610719535	1.383524386945846	1.714313822598811	-0.7683538252076666	-0.2076790693629851	-1.987988834708799	0.3157403378422133	4.360841306535725	6.025808538389104	7.086614149395237e-15	5.934769667349568	-0.5253579728770772	-0.07294473834434047	0	2.405320256235151	0.319671139161988	2.663082979645033	6.295575365069458	-1.464756592119764e-14	6.295575307349987	-2.769435059588826	-5.320715477938613	0.001037946777036346	1.459985191109126	-0.1104329612696581	-0.5651867930577538	-2.094039649285521	1.572375609761179	-1.760646615141112	-2.826626119809693	2.627331500058086e-13	0	0	0.06629574984249548	-1.107460539413341	0.9331883187366299	-0.3977356403289403	2.627331500058086e-13	0	0
0.1482902993364854	0.8661449022604761	0.20600954910986	1.425055557763394	1.694434205575542	-0.7719400216390075	-0.2071377507681914	-1.70643913319117	0.3877619244759647	4.254189086764375	6.031386560197221	-1.572104637597571e-14	5.918369242516921	-0.5222462614104509	-0.1819625350659051	0	2.490024094586661	0.3675291465687467	2.86025522322093	6.525344587217379	1.662446881450796e-14	6.525344632253557	-2.811410320027203	-5.54304274638853	0.0009935078000239169	1.458080343236603	-0.1430704664658918	-0.620420566992583	-2.12900211857694	1.627738455210733	-1.791998269812949	-2.89022529196028	-7.435152386827632e-16	0	0	0.1985643348845752	-1.24026701341507	0.9520001328310113	-0.3689481045123606	-7.435152386827632e-16	0	0
0.1507679370955254	0.8356252145380456	0.2392389442606411	1.453724193739122	1.676971758099878	-0.7726127632476429	-0.2070186071622009	-1.460523457259652	0.4455589113143783	4.160552317894098	6.042362445156975	3.803362698205114e-14	5.911140781454291	-0.5169754069668216	-0.2804601701447242	0	2.544502152060705	0.4057394777821696	3.008323790452503	6.693087237557082	3.28506329105315e-14	6.693087349964002	-2.833187349920191	-5.703962676650089	0.0009578213977999339	1.443846424369246	-0.1669277740402755	-0.6639576896844253	-2.152647398928083	1.669475308311897	-1.811432337272889	-2.941301380578661	3.652757788803928e-13	0	0	0.313771797839193	-1.342637475843523	0.9695972594613564	-0.3416969135546602	3.652757788803928e-13	0	0
0.1527009768984096	0.8159696191483172	0.2631630148674325	1.472348579915655	1.66274704263979	-0.7716425769905276	-0.2071360422837692	-1.261968104458991	0.4892920681927529	4.084470065973004	6.052137885773451	-6.129154858281519e-14	5.908855567548871	-0.5121609323631091	-0.3618589067963207	0	2.57656603685195	0.4344642917167557	3.113670966343449	6.809024387000346	-2.888621592492895e-14	6.809024498239239	-2.841831809615468	-5.814357203298694	0.0009304817542091199	1.424470952244406	-0.1833284355638526	-0.6963807892080781	-2.167549116045099	1.699253790336076	-1.822284825221241	-2.980026009325994	-1.058982862095221e-12	0	0	0.4069366551996415	-1.41737859474808	0.9846878901284573	-0.3182034091262788	-1.058982862095221e-12	0	0
0.1540589714577417	0.8044297685969302	0.2788657518205268	1.483448352965636	1.652439224297584	-0.7701615922735914	-0.2073292162093969	-1.118753426702594	0.5192691627432268	4.029494489599788	6.061465102272399	6.834064730928469e-14	5.908705839382219	-0.5083249501542985	-0.4212283405326824	0	2.593454957007913	0.4540293277429553	3.182249665601042	6.882503745407977	6.779742763095054e-14	6.882503822398731	-2.843513649714664	-5.883917367826323	0.0009114702707621739	1.406415058578334	-0.1936288205154088	-0.7183227077610194	-2.17610319610897	1.718675149962159	-1.827596702863188	-3.006630865500696	1.937678105414836e-12	0	0	0.4740633331557005	-1.467154812138507	0.9960502456180818	-0.3004773417461397	1.937678105414836e-12	0	0
0.1548208116596206	0.7987969485371642	0.2872629386470315	1.488954120789773	1.646542900800825	-0.7690382051487199	-0.2074775724879543	-1.037468537716477	0.5358087261847267	3.998115799266885	6.065704710081492	9.658138074391015e-14	5.909066275362721	-0.5067149873340124	-0.4552715806708593	0	2.600854286499796	0.4647724813521683	3.218740317243849	6.920814448916229	1.309955784127198e-14	6.920814498282081	-2.84287103330124	-5.920045286298081	0.0009008894237046138	1.39465450975289	-0.1989516260876796	-0.7303240524962218	-2.180197035367671	1.729020366705176	-1.829729201827422	-3.02133682609665	5.712457227970407e-13	0	0	0.5123157193572057	-1.49408386815122	1.002711273369854	-0.2900786219589375	5.712457227970407e-13	0	0
0.155	0.7975611047586406	0.2891942317641751	1.490173598946808	1.645144208193546	-0.7687432281318751	-0.2075166369232801	-1.018183500363477	0.5396694527029163	3.990680116502288	6.066997055324612	5.615867587662615e-14	5.909192438920858	-0.5063618531224787	-0.4633524176988503	0	2.602375774689315	0.4672743871737463	3.227115073947695	6.929519547515389	-2.521153154844224e-14	6.929519589891361	-2.842554493486433	-5.92824021973465	0.0008984115307745886	1.391716674255298	-0.2001551825001463	-0.7331143102190949	-2.181085569923545	1.731395685953006	-1.830141637156135	-3.024772659055685	-3.938817036279377e-13	0	0	0.5213741471790736	-1.500313311200574	1.004308598448482	-0.2875845948355237	-3.938817036279377e-13	0	0
0.1554542507337262	0.794581296992045	0.2940147334805678	1.493136022532845	1.641578250061912	-0.7679427683910349	-0.2076227760222525	-0.9690179107682428	0.5494058450332735	3.971736826364457	6.070707042175866	-5.865321815721015e-14	5.909577579842191	-0.5052365453498937	-0.4839601107365575	0	2.60585716739172	0.4735736660034975	3.247989534470126	6.951063890954358	-1.017099075500606e-13	6.951063915310414	-2.841470164709699	-5.948498480982076	0.0008921512165871103	1.383974756953745	-0.2031228726765334	-0.7401319237194547	-2.183210421820567	1.737317929220275	-1.831034436486596	-3.033443105262243	-2.170676831759661e-12	0	0	0.5444414798888393	-1.51592668726098	1.008410845758422	-0.2811790829188809	-2.170676831759661e-12	0	0
0.156515784775164	0.788481945840675	0.3048531564972157	1.499336534491311	1.633132105821088	-0.7657762584926806	-0.2079105008456359	-0.8534273472001359	0.5718719724765704	3.926951091301938	6.077434466171861	-4.674871665365017e-14	5.910806060751678	-0.5013756121660812	-0.5327792075994318	0	2.611877949276264	0.4880488777714058	3.294774447341155	6.998472113195803	-3.631520751602826e-14	6.998472097131354	-2.837362976091903	-5.992953344877463	0.0008776580821726294	1.364227715909221	-0.209586512031691	-0.7562169838550742	-2.187457412382485	1.750599340402858	-1.832262595810382	-3.053482654517916	-9.673920781261766e-13	0	0	0.598922258350119	-1.5514125342864	1.018298189311529	-0.2657404247985377	-9.673920781261766e-13	0	0
0.1581644464118399	0.7814476749969036	0.3204779113621972	1.506957473143503	1.619701673575648	-0.7615831848296142	-0.2084671592025737	-0.6709305269640718	0.6059523474227814	3.855985393320175	6.089130958553435	3.037372769890069e-14	5.913431339936458	-0.4927006599582178	-0.6103134818385776	0	2.615286504885944	0.5098279405511459	3.361865129423265	7.063887829054893	4.774448799612475e-14	7.063887768776072	-2.826636518781785	-6.053989204242799	0.000855594467931675	1.328919920061375	-0.2182900224265501	-0.780315027026257	-2.192034051071876	1.769662702177396	-1.831767635371087	-3.083982376389832	8.818884926814261e-13	0	0	0.6851031336028426	-1.603735721237474	1.03451355646588	-0.2404310691950017	8.818884926814261e-13	0	0
0.1603741041940474	0.7767788055119683	0.3390489748791326	1.513336561546907	1.601107179703957	-0.7543654345448094	-0.2094210726483713	-0.4215581985377451	0.6500381268411193	3.758259701956276	6.103507690512718	-3.341544965350302e-14	5.917720621216097	-0.4771905722556588	-0.7171285784278183	0	2.608329380053441	0.5376206066072959	3.441096856124067	7.135752141707776	-4.808624660659431e-14	7.135752078855521	-2.804051738286757	-6.120570801517296	0.0008269389738391601	1.272634677955889	-0.2273383646289767	-0.8108985556323105	-2.194249915293448	1.792194435090697	-1.826472046292671	-3.123651646877375	-6.983583401079112e-13	0	0	0.8035070597299421	-1.668521139591511	1.057955346795336	-0.2038883072234149	-6.983583401079112e-13	0	0
0.1631098871668135	0.7787460864715824	0.3581602187070362	1.515167948657498	1.577150378954644	-0.7428621809801528	-0.2109271310530151	-0.1058783853430791	0.7020139254447005	3.633269921712298	6.119595891336776	2.290691058240835e-14	5.922924475442493	-0.45278176013856	-0.8531600266671774	0	2.581085947339394	0.5697030670058287	3.522168031808167	7.199405814781742	3.632852730757177e-14	7.199405829994079	-2.763321596679034	-6.179045190272431	0.0007927282239177451	1.188532772985594	-0.2342630480491306	-0.8459920725007742	-2.190655924276901	1.815247811142064	-1.812488735118849	-3.170806106623182	3.656422306182373e-13	0	0	0.9544918134111918	-1.740248097113494	1.089830007367609	-0.1543169646593636	3.656422306182373e-13	0	0
0.1663286436775879	0.7923078107206916	0.3749781647254509	1.508814550957472	1.547657042261417	-0.7256523408970977	-0.2131475813123029	0.2734175292807532	0.7593509268324476	3.480790968866723	6.132444303555847	3.181436515734058e-15	5.926453847251723	-0.418129181045269	-1.017089163094835	0	2.522187838462523	0.6039846533110379	3.593451907528765	7.238169283848589	-1.03167711172632e-14	7.238169374252842	-2.697927193781726	-6.214421259064295	0.0007537949141299079	1.068940485949188	-0.236180617381632	-0.8832850634960441	-2.17728462771837	1.835462059309909	-1.7854460330842	-3.223429678889265	-1.883282558416515e-13	0	0	1.137948278374816	-1.81268477984867	1.131596941944428	-0.08957846771494096	-1.883282558416515e-13	0	0
0.1699796094921079	0.8226868194892367	0.3864592872035752	1.490701013772854	1.512525656277704	-0.7012907273131701	-0.216228557695733	0.7111787021770017	0.8192507907571778	3.301058621570874	6.135308169581689	1.010843569459564e-15	5.923141253270105	-0.3727430147161238	-1.205769784940073	0	2.419828513280699	0.6381281927548501	3.643032911349418	7.234749474741764	-7.701315743370972e-16	7.234749417410175	-2.602114269774524	-6.211911473942495	0.0007110347247935996	0.9061507001324565	-0.2300395797719513	-0.9202878547642285	-2.149986401468899	1.849359765376176	-1.74092575510997	-3.279251063231249	2.186542960144837e-13	0	0	1.352980972584736	-1.87944991979226	1.184861321739382	-0.007331927361605237	2.186542960144837e-13	0	0
0.17400520557877	0.87481101118316	0.389643184083479	1.45775481762223	1.471780473914948	-0.6684716127890753	-0.220276355935535	1.198895817862718	0.8788395239697878	3.094913635770302	6.117714047539295	-1.395812910614704e-14	5.904810224841219	-0.3174747645094111	-1.413840040429492	0	2.263039237427236	0.6697261665382891	3.659882124139137	7.172902407003314	-2.129442109986185e-14	7.172902330398906	-2.471958138883243	-6.158576284650994	0.0006667928300518233	0.6934098846071197	-0.2129507766404611	-0.9545209493485912	-2.104853401369799	1.853705168746084	-1.674994178727671	-3.33583252260437	-3.57890029072205e-14	0	0	1.597614388205137	-1.934658871988657	1.251203647259784	0.09476290521972788	-3.57890029072205e-14	0	0
0.1783419453248002	0.952659431070031	0.3819972860081917	1.407839637254254	1.425621997680529	-0.6262110644291047	-0.2253344155824512	1.724829093738391	0.9353981599259906	2.863903809187434	6.067245962899122	1.025498524729766e-14	5.860382020148186	-0.2538701567562177	-1.633652822120304	0	2.043130175227811	0.6965203007790868	3.635030657120086	7.039205540607302	1.836551975626898e-14	7.039205573081732	-2.306322968634236	-6.044849220139974	0.0006220873644055368	0.4260056336777485	-0.1825698627882053	-0.9837178303001803	-2.03869913559224	1.845884145714717	-1.584774176824196	-3.390669711771328	-8.070428766981762e-15	0	0	1.8685808291104	-1.973577912835805	1.331948880546812	0.2187798575016338	-8.070428766981762e-15	0	0
0.1829214354539589	1.058599918752017	0.3617650456037507	1.34010831447833	1.374464916452364	-0.5740232676211555	-0.2313659750061385	2.274431421326565	0.9865999759642458	2.610348570069206	5.970609199525107	-6.591251932833583e-15	5.776677904723227	-0.186183199369161	-1.855616287176082	0	1.755109029046356	0.7166379557563916	3.562568232631498	6.824715194919483	5.190712799655155e-15	6.824715095335026	-2.107510393648079	-5.865706637112181	0.0005774361094429317	0.1023072334553395	-0.137473256357975	-1.006012408169962	-1.949534201799365	1.82424700939264	-1.468975586748915	-3.441305298774919	1.432051637376018e-13	0	0	2.161244682193973	-1.993180890057286	1.427897526822675	0.3662128891950299	1.432051637376018e-13	0	0
0.1876714545037473	1.192837616404197	0.3282543541020841	1.255202602177027	1.318962696724857	-0.5120599887195734	-0.2382505359602846	2.83099086102769	1.03071439902072	2.337372441692341	5.81527311317826	-1.299428668377384e-15	5.639935992837875	-0.118289274994457	-2.068961702860574	0	1.398830459024198	0.7288068254644644	3.440304058989373	6.526247179447947	-1.735885397649465e-14	6.526247230869267	-1.881415500472093	-5.621290297269995	0.0005352196033746031	-0.2754281343790738	-0.07745363476881693	-1.020081530714044	-1.836960177199253	1.788348655191859	-1.32828246339764	-3.485459575860444	-1.931319064275068e-13	0	0	2.469702224851344	-1.992497796979799	1.539059646056142	0.5376458027755679	-1.931319064275068e-13	0	0
0.1925170917444269	1.353102217156891	0.2820017534195159	1.155248309810991	1.260010727282881	-0.4411901048625597	-0.2457889087319137	3.376720162024092	1.066736926925601	2.048908936018451	5.590805609103783	-3.67873950225343e-15	5.437874886876807	-0.05309031234494389	-2.262856747073465	0	0.9796226394486252	0.7325064947851369	3.269982510852849	6.147041381374479	9.227368118394993e-15	6.14704145486778	-1.637090905485952	-5.316889781049014	0.0004954090376370402	-0.7006722392562598	-0.003663862542274111	-1.025221906405738	-1.702400213075328	1.739031247161876	-1.165501354496232	-3.521176716043226	-9.335764452518472e-14	0	0	2.787066886815402	-1.972670500111315	1.664444611481492	0.7324474134806565	-9.335764452518472e-14	0	0
0.1973819285398158	1.534673420268164	0.2247652566544441	1.043637555229891	1.198721248574502	-0.3629909743449306	-0.2537225288673706	3.894444328072785	1.094417030777904	1.749665595838201	5.290429450971788	1.027916061629114e-14	5.161961132327661	0.005384143362544939	-2.427685395355643	0	0.5082065752203914	0.7280232577013496	3.057031959324549	5.696663560412656	4.309602335389411e-15	5.696663494411279	-1.385746980555318	-4.962313864849177	0.0004589638733038534	-1.16280119955337	0.08143672588703271	-1.021357360934658	-1.549104691909404	1.678324558087195	-0.9854130954587137	-3.546980649790251	1.978945160626414e-13	0	0	3.105908939973843	-1.936686824981832	1.801957745154954	0.9485448644639576	1.978945160626414e-13	0	0
0.2021892435043931	1.730781340803417	0.159332107889102	0.9246385369398262	1.136378862929577	-0.2796458692804707	-0.2617628461912986	4.369075565235442	1.114181932864502	1.445035736404932	4.912273052372752	-3.860486266682359e-15	4.80942839697861	0.05462047765599689	-2.556253851655782	0	-0.0001428235903178435	0.716390098724287	2.809913845699757	5.190143861928949	5.828549387398476e-16	5.190143876897059	-1.13935236094236	-4.570788637577373	0.0004269524989954194	-1.647861955024285	0.1743378222300725	-1.008989431578156	-1.381910672467413	1.609179968428316	-0.7943304927342212	-3.562021664774942	1.471755760740659e-13	0	0	3.418779898757572	-1.888840904211414	1.948439684006403	1.182322694196474	1.471755760740659e-13	0	0
0.2068632224455918	1.933332321058137	0.08916994190132073	0.8029127131903577	1.07437492850931	-0.1937640480750751	-0.2696192892258325	4.789112057053057	1.126977326338388	1.140947542856513	4.460938722330657	2.019242647550686e-15	4.384606322878055	0.091653419844184	-2.644681759878614	0	-0.527076276433424	0.6992192639133843	2.539204458505359	4.646503284510128	7.629609164743436e-15	4.646503225832925	-0.909102042555793	-4.157590084750366	0.0003991999775788967	-2.139833002995235	0.270892391730022	-0.989113572159518	-1.206786351038619	1.535092198646002	-0.59943363250363	-3.566187509772418	-2.277870628343989e-14	0	0	3.718728931788245	-1.834032590078544	2.099857016080632	1.428679275345314	-2.277870628343989e-14	0	0
0.2113301540101398	2.133831229717849	0.01798707652171351	0.6830350926576791	1.014130513852703	-0.1081496719405815	-0.2770310651130763	5.147936064201156	1.134064968714308	0.8436532743988961	3.949320479176819	-2.933694931646666e-15	3.899259359393186	0.1149622666666835	-2.692805257878756	0	-1.053027809163812	0.6784567779821437	2.256569099629088	4.086933609717429	-1.004204558078157e-14	4.086933589474008	-0.7040551840486855	-3.738638459849344	0.0003758456101828657	-2.622165758667979	0.3668092396976635	-0.9631220311884385	-1.030241027639382	1.45968539908942	-0.4080084484998204	-3.560151465249903	8.204733469686784e-14	0	0	3.999721136921432	-1.777055366523778	2.251620054804269	1.681247979229917	8.204733469686784e-14	0	0
0.2155195921846577	2.324320728182891	-0.05071144478937424	0.569101210922591	0.957018348018749	-0.02556115296319135	-0.2837876195459318	5.444126809537799	1.136821530763043	0.5594783252253661	3.398494827952542	-4.191007767675663e-15	3.37185970202753	0.1247108250059499	-2.704034511627223	0	-1.559106189688893	0.6561089887098109	1.973781824295438	3.532940876886637	-1.034989880035376e-14	3.532940830898104	-0.530197637103891	-3.329254031552245	0.0003565731681432189	-3.079326320487816	0.4581274001473887	-0.9327056361270659	-0.8587085031093472	1.386340865997739	-0.2267331600335523	-3.545336798397032	-2.610044293849644e-13	0	0	4.256896670251224	-1.722014796828415	2.39897338557784	1.932758695264135	-2.610044293849644e-13	0	0
0.2193654673351004	2.498159158878914	-0.1139876476640665	0.4644724315428375	0.9042942069550497	0.05149486950647999	-0.2897409094778594	5.680689630188635	1.13657317549735	0.2945607107202203	2.834703745830882	3.432361516460615e-15	2.82595239658924	0.1215529046191202	-2.684732896697604	0	-2.028687887188407	0.6339948139439612	1.701908102032107	3.004731251873464	1.59504605117395e-14	3.004731200106208	-0.3900715550595959	-2.943212407096572	0.0003416339546248058	-3.498063909772409	0.5415856457927669	-0.899756484279372	-0.6980125644543049	1.31792447241671	-0.06113596498902463	-3.523796289153551	6.498440294102136e-14	0	0	4.486648812976481	-1.671970070278642	2.537387929094117	2.175490302708661	6.498440294102136e-14	0	0
0.2228071283122631	2.650502888404884	-0.1696935556766208	0.3716726253317806	0.857046422546911	0.1209115110168698	-0.2948082424246347	5.863517157944862	1.134484386922761	0.05461303357685167	2.285801750559466	9.323509552130927e-15	2.287953714022786	0.1080582049199456	-2.643278194781771	0	-2.448469684757943	0.6135688751680677	1.450720330481819	2.520032304968852	-1.272487131524213e-14	2.520032383167413	-0.2829773435490061	-2.592161568701123	0.0003301926624366917	-3.868205199550368	0.6148308305765006	-0.8662682453071137	-0.5529958982535417	1.256641473869632	0.08470015047207256	-3.498022168814723	-4.175449566082917e-13	0	0	4.68654322238436	-1.628826561216265	2.662883077850148	2.401749317189641	-4.175449566082917e-13	0	0
0.2257902993364854	2.77843760954782	-0.2165306421361599	0.2924167597622739	0.8161661133490173	0.1810527214385262	-0.2989641134872532	5.999910163020422	1.131502393448983	-0.1552679918790617	1.77753743887082	6.146991737100942e-15	1.784794858792717	0.08765385980136928	-2.589001438859495	0	-2.808878913602166	0.5958392294884396	1.228365967635922	2.093429210145826	3.509145393647244e-14	2.093429246354736	-0.2056337963711456	-2.285392037754143	0.0003212223379152491	-4.182893165097044	0.6764507947204939	-0.8342320445915874	-0.4273478410026224	1.204015511124501	0.208173355926063	-3.470716066310416	6.920228454594553e-13	0	0	4.85512667830674	-1.593443308844241	2.772230068653033	2.604311091377705	6.920228454594553e-13	0	0
0.2282679370955254	2.880780638344027	-0.2539597500570446	0.2277331481553989	0.7823417141678122	0.2307495241701399	-0.3022275223910403	6.097721808349723	1.12834722420952	-0.3307326808427389	1.333633938764615	-3.86150239382229e-15	1.341778878325732	0.06357970470096447	-2.531179662204948	0	-3.103878687395618	0.5813790366787422	1.041266970543775	1.736191539033356	-2.945155328132785e-14	1.736191467734083	-0.1531164622764278	-2.02989875925562	0.0003149126408317088	-4.438306712066455	0.7258547387686478	-0.8055298714748382	-0.3236226737021276	1.160966355716613	0.307978758784626	-3.444552545764624	-2.412641094392957e-13	0	0	4.991681498813051	-1.565881815121291	2.863018512900029	2.776775258569022	-2.412641094392957e-13	0	0
0.2302009768984097	2.957642084483804	-0.2820056603601109	0.178135232736561	0.7560736408451487	0.2692420071199791	-0.3046446127997768	6.164255360841611	1.125531892584279	-0.4682519887320543	0.9734735699626794	-2.392589014166296e-14	0.9808914588205238	0.04071470153413913	-2.4781990138147	0	-3.330321453839294	0.5704103273387593	0.8941992966462426	1.456483259983326	-1.119799768813221e-14	1.456483141097077	-0.1198804899965016	-1.830642371066931	0.0003109218803339389	-4.63299869540135	0.763051869818328	-0.7818322261043038	-0.2434023656707255	1.127948136523008	0.3837785698932558	-3.421964229998492	-1.043988223621693e-12	0	0	5.095976317992923	-1.545711869230042	2.933601870965675	2.913811915524028	-1.043988223621693e-12	0	0
0.2315589714577417	3.009863506425762	-0.3010111941748068	0.1438033621957763	0.7377004718483586	0.2960873449309164	-0.306271033304889	6.206073807702126	1.123397543090128	-0.5651454567435923	0.7140534409680945	1.243409962795224e-14	0.719647512614512	0.02230513857207571	-2.436937810409085	0	-3.487057453219534	0.5629274399429397	0.7904833564062514	1.259806926158733	-5.24431947323309e-14	1.259806829503473	-0.1007110575430634	-1.69090956454986	0.0003085336749063759	-4.767036619974932	0.7883865790542002	-0.764507224821575	-0.1875404067853642	1.105109680962208	0.4358117579614507	-3.404966583911784	1.773612381415344e-12	0	0	5.168048172413356	-1.532305786482945	2.982961189410682	3.011302689844642	1.773612381415344e-12	0	0
0.2323208116596206	3.038465989080227	-0.3113988357921659	0.124741470388673	0.7274265010026736	0.3110643676437642	-0.3071566094262179	6.227693643793655	1.122150667821386	-0.6195946117978928	0.5658016320074903	1.029169777704284e-14	0.5703794510108566	0.01169904652601667	-2.412353964319561	0	-3.574040397607403	0.5588246759496687	0.7321983714898622	1.149493590807361	-2.794862915381411e-15	1.149493531424879	-0.09149448937689877	-1.612659875064745	0.0003073145414413202	-4.841159465684512	0.8022892072185996	-0.7545449898983043	-0.1564114042469656	1.092440804420383	0.4645297398810564	-3.395026411141953	3.743368236282185e-13	0	0	5.208044008633076	-1.525075340988794	3.010545454185672	3.066414902730321	3.743368236282185e-13	0	0
0.2325	3.045117903887039	-0.3138120820335128	0.1202795153304852	0.7250137632479892	0.3145776059470674	-0.3073620419431746	6.232676783253178	1.121852636895897	-0.6324102080439682	0.5309167080930248	-2.768011579378778e-15	0.5349929627982055	0.009147358643886517	-2.406423325821183	0	-3.594394529622674	0.5578704755541188	0.718481623564341	1.123554854739498	2.212311265210397e-14	1.123554806478981	-0.08948870373781449	-1.594272880905933	0.0003070391377547773	-4.858476558707895	0.8055254916576883	-0.7521765816299939	-0.1491134470103782	1.089476844880427	0.4712330714577487	-3.392646442060803	-3.551944059326433e-13	0	0	5.217405403258672	-1.523405807301408	3.0170208242565	3.079420050129876	-3.551944059326433e-13	0	0
0.2329542507337262	3.061848794526909	-0.3198772831188003	0.1090057034975356	0.7189040207588687	0.3234669911720409	-0.3078778879444444	6.245015251578106	1.121089407324123	-0.6649128480270741	0.44215296432295	-2.879986649575273e-14	0.4448175634320117	0.002349620554203479	-2.391137319423064	0	-3.645808609822913	0.5554708168647029	0.6836983016146712	1.057816946257261	4.649212795052092e-14	1.057816929545447	-0.08468177494261216	-1.547694240771372	0.0003063596011692772	-4.902171584532662	0.8136708438999074	-0.7461295969794446	-0.1306551553786087	1.081990902122735	0.4881368989901985	-3.386541706176874	-1.421241948315144e-12	0	0	5.241058607767032	-1.519227285284217	3.033413215815195	3.112459851409866	-1.421241948315144e-12	0	0
0.234015784775164	3.100187580940434	-0.333748491589136	0.08287463834998149	0.7046652558552717	0.3441412858493269	-0.3090553939818493	6.271528984508445	1.119265502004005	-0.7409444386604276	0.2306937915618802	-2.389622415246491e-15	0.2315018386097707	-0.01533070020991857	-2.354020680795385	0	-3.764885043902777	0.5499767748275305	0.6023715019687593	0.9043306695374855	-1.466709067583303e-14	0.9043307392845762	-0.07501099737076466	-1.439051421352729	0.0003048729682392011	-5.003103865815022	0.8323681951451656	-0.731759046431764	-0.08776973314106261	1.064658290840589	0.5271262312902898	-3.371878149358319	-4.959413927110098e-13	0	0	5.295894186341329	-1.509768303445676	3.07158172690602	3.190058653315431	-4.959413927110098e-13	0	0
0.2356644464118399	3.157513605687693	-0.3544060075879212	0.04291245189183029	0.6826687867884756	0.3759487187789925	-0.31080462437547	6.308253162848903	1.11633493534526	-0.859216774810867	-0.1031938825502489	3.816911232492922e-15	-0.1067776565370069	-0.04714343937832651	-2.292566121453858	0	-3.946635678308676	0.5417897204605329	0.4760395456416666	0.6665121261985043	2.719805843579799e-14	0.6665123146291391	-0.06437147082861933	-1.270996403690763	0.000302853966956947	-5.156414744950325	0.8604254685566038	-0.7087798123006221	-0.02192273247104638	1.038214928214483	0.5861896859678147	-3.348010761910643	5.050638145174288e-13	0	0	5.379834081743542	-1.495949218177432	3.130422611541995	3.311605364144928	5.050638145174288e-13	0	0
0.2378741041940474	3.229798959259791	-0.380271203674736	-0.009388813287076721	0.6534394911639834	0.4179271335436812	-0.3129919959590228	6.348144080737274	1.11226080353478	-1.018020568332608	-0.5633883775583749	3.310787473901232e-14	-0.572852703532834	-0.09695705985531154	-2.203138674975821	0	-4.183546550331704	0.5315629412387234	0.3069470977046853	0.3493732198199044	1.106578128603e-14	0.3493733847532191	-0.05856893910806186	-1.047351331484597	0.0003007789628916591	-5.354809258349883	0.8960304426855854	-0.6767350550666018	0.06469432357356941	1.003760951516914	0.6623179777504117	-3.313968833124306	6.98306674976748e-13	0	0	5.489990022794955	-1.479146704814129	3.208291597892345	3.476320435851338	6.98306674976748e-13	0	0
0.2406098871668135	3.311432245485975	-0.4091395465205045	-0.072003630031151	0.6177090349560043	0.4687064172596809	-0.3154405028549404	6.382908201092917	1.107065805032018	-1.214934753669614	-1.151707651008626	6.137559889616175e-15	-1.16858662680388	-0.1686497436408648	-2.081691549189631	0	-4.465008708814381	0.5202603063917608	0.09852394275226857	-0.03961854195570999	1.220255300568184e-14	-0.03961868455168745	-0.06494960748381834	-0.7736050383547882	0.0002993111223462552	-5.588154826314144	0.936687064271119	-0.6351148231472943	0.1689478136541647	0.9628269371791063	0.7513806599537592	-3.268643594290455	-5.605943592644378e-13	0	0	5.622644952995762	-1.461155869660653	3.302792437057734	3.682786190279718	-5.605943592644378e-13	0	0
0.2438286436775879	3.395263279062491	-0.438206052440897	-0.1424218414823005	0.5764226829176819	0.5264886213188898	-0.3179370755413573	6.402701754725725	1.100873191223588	-1.446758593521584	-1.869882141882969	-1.70395614649366e-14	-1.893183385424503	-0.2652520235794201	-1.924536207245153	0	-4.777264949014871	0.5091726798093678	-0.1443959209575546	-0.4901980328110078	3.420707933427128e-15	-0.4901981829906447	-0.09176830437461911	-0.4570243278412623	0.0002990913091242136	-5.843544349720151	0.9792639687427694	-0.5834545740187659	0.2867176881686393	0.9173540413319269	0.8482001567326078	-3.210976068985891	1.595863667201445e-13	0	0	5.773455692272585	-1.444045006012262	3.410701030080619	3.928662946672821	1.595863667201445e-13	0	0
0.2474796094921079	3.472843099834267	-0.4641806536169407	-0.2177554011648919	0.5307316889778516	0.5890663290819405	-0.320244331817128	6.39957594826587	1.09393109210663	-1.709471100143863	-2.712120321096558	2.715820297455718e-16	-2.741404894267156	-0.390102767504244	-1.729178701863798	0	-5.103695041251982	0.4998799741798441	-0.4154597638850398	-0.9891923445648403	-1.435557003823354e-14	-0.9891921787301695	-0.1473182180201263	-0.1066094690660844	0.0003007188261847744	-6.10566898711748	1.020135887754079	-0.5214467517639739	0.4129548773807118	0.8696160411132547	0.946760276427735	-3.140168133261974	3.863723947321191e-14	0	0	5.937710502555289	-1.429914509442748	3.527963168472316	4.210420896001812	3.863723947321191e-14	0	0
0.25150520557877	3.534919084131345	-0.4835171914620045	-0.2949049020341789	0.4819682447024475	0.6538950559626967	-0.3221175213709191	6.368012003637072	1.086612764454169	-1.998229500369245	-3.664657331396635	-1.861634327755769e-14	-3.701978105022004	-0.546067722656666	-1.495103230470578	0	-5.425555593514341	0.4941385442779538	-0.706842265458188	-1.520752850816636	-1.549601238313506e-14	-1.520752879306422	-0.2388720756141972	0.2671506324935436	0.000304895248555214	-6.357592484110917	1.055435909312324	-0.4490570338785496	0.5418770822264017	0.8220741373930558	1.040574423482635	-3.055891704168772	-8.116265697966748e-14	0	0	6.110613339974452	-1.420573369991695	3.649805903222889	4.523138359381258	-8.116265697966748e-14	0	0
0.2558419453248002	3.572195618569168	-0.4927532879759309	-0.3707734218328757	0.4315994336225176	0.7182281682760445	-0.3233257043698397	6.305032055932166	1.079391641546454	-2.307419778639981	-4.70684574009867	1.14344258804038e-14	-4.756549783285442	-0.7324598325295456	-1.224362063468491	0	-5.723212638793761	0.4936915178744031	-1.009490364121624	-2.066993504701106	1.392311887571146e-14	-2.066993473722248	-0.3715615218294889	0.6527354739233306	0.0003122138126474693	-6.581947479511387	1.081409505406219	-0.3666318260780722	0.6673152910087353	0.7771724771995886	1.123203497674041	-2.958462820748519	7.118616044657048e-14	0	0	6.287558237492233	-1.417184979956392	3.77098671148361	4.860425436852021	7.118616044657048e-14	0	0
0.2604214354539589	3.576304298420951	-0.488925098054274	-0.4425013760195887	0.3811532108407845	0.779307255811731	-0.323673037327428	6.211556379209925	1.0727959981723	-2.630770135802737	-5.811194576580965	-4.437663370669862e-15	-5.879560767450457	-0.945884321318343	-0.9218354929931496	0	-5.977796166291141	0.500023292939838	-1.313578206344707	-2.609031261862844	-6.913566546512107e-15	-2.609031334096483	-0.5473889342390089	1.038235194625339	0.0003229773694528747	-6.762476774771154	1.094829672810288	-0.2749799761741925	0.7831901072839105	0.7371012256163788	1.188871785360001	-2.848946055250897	-3.537855333913658e-14	0	0	6.464354925007547	-1.419966923585011	3.886176129476723	5.214529317930989	-3.537855333913658e-14	0	0
0.2651714545037473	3.54084387865162	-0.4699888962078118	-0.5076825860984692	0.332133746818379	0.8345822324026282	-0.3230190619324715	6.091694799865255	1.067353657903253	-2.961503256927216	-6.945537308604244	1.224814818623972e-15	-7.039156532647429	-1.18005512218729	-0.5951070213010112	0	-6.173044189519796	0.5141011584729213	-1.609112459582547	-3.128282338385244	-1.230714459957442e-14	-3.128282380174727	-0.764560434570749	1.412078238388077	0.0003378353431946092	-6.885701101472566	1.093401371720315	-0.1754128081297836	0.8840467129890195	0.7035684914564162	1.233084424327252	-2.729165059169322	-2.06861894044662e-13	0	0	6.637365386866731	-1.428024637118253	3.990419291976504	5.576622239556466	-2.06861894044662e-13	0	0
0.2700170917444269	3.462324031620694	-0.4351595479474181	-0.5645388392061927	0.2859174764236226	0.8819456731359914	-0.3212943981754502	5.952129114328999	1.063532226213008	-3.292584842778221	-8.075432228897871	2.070629065089056e-14	-8.19947344320197	-1.425581485193765	-0.2538753088125969	0	-6.297120310554361	0.5361727206327758	-1.886697593193789	-3.607971397183374	4.01215754660577e-15	-3.607971323223014	-1.017386834724917	1.763829921098763	0.0003566745301837501	-6.942493392890025	1.076077556101321	-0.06972458787850029	0.9655941284838414	0.6776269286456091	1.253144598301174	-2.601607158778352	9.61091484219069e-14	0	0	6.80356698251696	-1.439426220271598	4.079627578841542	5.937329730653813	9.61091484219069e-14	0	0
0.2748819285398158	3.340770688073958	-0.3850918008782227	-0.6119980223608894	0.2436706446826734	0.9199046038794341	-0.3185089037766698	5.800871362947797	1.061690873186089	-3.616905079760336	-9.166621295180938	-1.915493416930478e-14	-9.323274819783453	-1.673926089505863	0.09083247426360554	0	-6.343870620346761	0.5656557251568379	-2.138175612105532	-4.034318848461151	-4.20343130299103e-15	-4.034318870642573	-1.296657683527603	2.084764031458665	0.0003793441115311312	-6.929112940386808	1.043205476669925	0.03987787304385775	1.025077969808806	0.659589785742575	1.248442894958908	-2.469251658862262	6.810216203141071e-14	0	0	6.960490596440318	-1.451440164100692	4.150939093867036	6.287274063609578	6.810216203141071e-14	0	0
0.2796892435043931	3.179959059486228	-0.3218373283853457	-0.6497382502425175	0.2062446331869418	0.947749223248594	-0.3147534763654727	5.646627305679855	1.062025327920061	-3.927756220502713	-10.18785301565238	-3.67861722155871e-16	-10.37633404217079	-1.915887053403084	0.4279403158129181	0	-6.313739706581753	0.6012044826151445	-2.357492501763972	-4.397965132729005	1.750788556161031e-14	-4.397965163166424	-1.590855299020355	2.3686061923454	0.0004048626435492858	-6.847822167644574	0.9964918265841975	0.1509162679396567	1.061604151122053	0.649056687853211	1.220513089877425	-2.335329539461962	-1.826551533885071e-13	0	0	7.106226679076102	-1.461122256349923	4.203044692698142	6.617956932927828	-1.826551533885071e-13	0	0
0.2843632224455918	2.986961666831638	-0.2486168683671594	-0.6780440633456444	0.1741909026897908	0.965486916247884	-0.3101830244307693	5.498036906337115	1.064560051904156	-4.218761453258422	-11.11002228079749	-1.841299950499454e-15	-11.3287664671395	-2.142866806219179	0.7469231736672304	0	-6.213105046975791	0.6408380184771377	-2.540665120055534	-4.693748784061767	-2.644336754447225e-15	-4.693748827313554	-1.887085826717962	2.611313409415957	0.0004334171001867172	-6.706181715203229	0.9387410532416157	0.2607672211123715	1.07594642345382	0.6450338759237957	1.172713526075996	-2.203121150179733	1.647673761075742e-13	0	0	7.239184186729348	-1.465624408794129	4.236049256707926	6.921950793009205	1.647673761075742e-13	0	0
0.2888301540101398	2.771609369377905	-0.1693765566169847	-0.6978331172634846	0.1476219921420601	0.9739875212700699	-0.3050193190113984	5.363174758038961	1.069087826111651	-4.484991301031676	-11.91269845233417	4.70044451106936e-15	-12.16156047584915	-2.349404364319323	1.03964173527178	0	-6.054380701330327	0.6823253350115075	-2.68694578821386	-4.922389029313782	-5.391977209040837e-15	-4.922388938503154	-2.173444880749177	2.81214076746775	0.0004642066235459683	-6.516782649539521	0.87353938012668	0.3668863612826222	1.070751841231145	0.6461372145942355	1.109866507295023	-2.075700603291825	1.323691003026653e-13	0	0	7.358384263400812	-1.463205435653798	4.251693494920461	7.194245368257567	1.323691003026653e-13	0	0
0.2930195921846577	2.545001239785041	-0.08837215397377424	-0.7102401446536744	0.1264561253347371	0.9745024464297297	-0.2995024845113146	5.248154172653752	1.075262851361916	-4.721915217612991	-12.58305825738126	5.675720895523713e-15	-12.86121882725283	-2.531283763126372	1.299338113606298	0	-5.852718099797628	0.7233164349569072	-2.797066546646956	-5.087247418475358	-5.98511943757293e-15	-5.087247490971266	-2.4387962049884	2.971709810278788	0.000495373231510273	-6.294439032053781	0.8047415539599606	0.4668465461901169	1.049480291154749	0.6508050590607763	1.037429153226412	-1.955892772664126	-4.594314981562653e-13	0	0	7.46288567043822	-1.452742590776339	4.252432772774403	7.431006073479703	-4.594314981562653e-13	0	0
0.2968654673351004	2.318835262226032	-0.009639271044583113	-0.7167623768825454	0.110212598601006	0.9688884966662016	-0.293905454155911	5.155762360392318	1.082544593597292	-4.927210971616018	-13.11975877508443	1.341006096888709e-16	-13.42785210857078	-2.685537845621162	1.522762189295451	0	-5.626293449193239	0.7618319267513491	-2.874848381136977	-5.196747130772606	5.983339366687205e-15	-5.196747149194392	-2.675469792938449	3.093682687121708	0.0005266570912720432	-6.056022839750447	0.7361819294295406	0.5585706511940236	1.016768192141143	0.6575261642948714	0.9611153619528995	-1.846075071479262	4.463144311189842e-13	0	0	7.552486950160526	-1.434873077001945	4.241808015712714	7.631338210488533	4.463144311189842e-13	0	0
0.3003071283122631	2.104307959916967	0.06334626057550076	-0.7190711172154497	0.09812270882120003	0.9593503599686016	-0.2885114034831508	5.085591867275205	1.090272135714616	-5.100628626393831	-13.53468573467689	-1.284209278149103e-14	-13.87293277611228	-2.812604615560296	1.709787148808287	0	-5.394250097499546	0.7964203612978178	-2.926378704364302	-5.262803406208246	7.750656555590142e-15	-5.262803351793033	-2.879401566733224	3.183948687671123	0.0005564866255335031	-5.818674260833882	0.6713536777811718	0.6403781436114722	0.9778449962197934	0.6650018092558394	0.8863271435631053	-1.748165087281947	-1.953996784925117e-13	0	0	7.627653152819621	-1.411763757057367	4.223958459733542	7.796812582380158	-1.953996784925117e-13	0	0
0.3032902993364854	1.910163246468889	0.1276892982271851	-0.718146662990431	0.08984687745843037	0.9472598065726177	-0.2835185251400331	5.035198736624482	1.097967396935926	-5.240033390084783	-13.8379392875974	5.879095295315883e-15	-14.19775885785849	-2.910276364008386	1.858395805128998	0	-5.170125321604413	0.8257142881545	-2.954577500328046	-5.291635564949988	-2.007221514789473e-14	-5.291635536117432	-3.045647695744075	3.245007777703312	0.0005839327733878367	-5.594835105214519	0.6129601390445119	0.7107020902582228	0.9361180803270629	0.6722053323028712	0.8171710069281767	-1.663915987380052	-3.897597586124872e-13	0	0	7.68785071975557	-1.384395488028336	4.201467807246393	7.926768946645799	-3.897597586124872e-13	0	0
0.3057679370955254	1.744343595996851	0.1814264240535867	-0.715469809748732	0.08447731011317945	0.9346998746124858	-0.279165549025564	5.000950938140964	1.104998694864269	-5.347738156115467	-14.04954566613807	-2.485007881105271e-14	-14.42410710948655	-2.982232812133014	1.971937968547486	0	-4.96959667645324	0.8492844176024127	-2.966699995904245	-5.29631543070442	4.89795556224387e-14	-5.296315431699079	-3.175307769493948	3.283924190391183	0.0006079635172580614	-5.397866585110387	0.5632959631303234	0.7685873138356467	0.8962702289062674	0.6784642288805364	0.7573385583183376	-1.594466076836331	3.437486699665022e-13	0	0	7.734283912298846	-1.356337225357669	4.178180872623448	8.025126432428916	3.437486699665022e-13	0	0
0.3077009768984096	1.61348766374369	0.2234176744516611	-0.7127341531298442	0.08080350357493465	0.9240449278330061	-0.2756995559360406	4.977404502180306	1.110700568467778	-5.428948456169596	-14.19688511001182	7.739364390498983e-14	-14.58566394498639	-3.036017448204701	2.057080032354734	0	-4.80832223600755	0.867389331919331	-2.972280219546139	-5.293373187305189	-2.146453097459343e-14	-5.293373213220423	-3.273481889214801	3.310237438114672	0.000627142937812171	-5.240507958734667	0.5241762356052616	0.8135602351254673	0.8634227980743514	0.6834240729832997	0.7098825728258227	-1.540468921703088	3.633682333753156e-13	0	0	7.769274449658948	-1.33259355147942	4.158448139302512	8.098550383111821	3.633682333753156e-13	0	0
0.3090589714577417	1.521304204306474	0.2529284720609135	-0.7107010771335471	0.07831119908359872	0.9164125702739124	-0.2732526346794579	4.9620007235158	1.114743360159794	-5.485515128014308	-14.29569905393768	3.612183251792702e-14	-14.69657504716696	-3.072848255990957	2.116301878536163	0	-4.694195427161626	0.8800594009630863	-2.975533889267088	-5.290172909348286	-7.851064295543321e-15	-5.29017295253765	-3.341937398709727	3.328026930450687	0.0006406917919961592	-5.129327711456796	0.4966300740180796	0.8451220192651353	0.8400447265361177	0.68692157622599	0.6764108327309095	-1.502567182687379	-2.212094560821072e-14	0	0	7.793643323564156	-1.315594676425158	4.144316692175747	8.149562259618937	-2.212094560821072e-14	0	0
0.3098208116596206	1.469567494805684	0.2694850343753848	-0.7095511158591615	0.07692050305006659	0.9121183573367309	-0.2718788886173943	4.953394700149881	1.117014518833923	-5.517208142922415	-14.3499591020129	-1.970605405984432e-13	-14.75857762770913	-3.093541997551972	2.149475393679236	0	-4.630099905016919	0.8871631790363537	-2.977302811305206	-5.288281678199524	2.576323743007611e-14	-5.288281731134176	-3.380297592817161	3.337948011877939	0.0006482989693661087	-5.066901773138558	0.4811712124828263	0.8628255378491777	0.8269040071858347	0.6888847712874726	0.6576218712548583	-1.481306899690979	-6.829939850840352e-13	0	0	7.807296350717746	-1.306031248373241	4.136366173793447	8.178131869129349	-6.829939850840352e-13	0	0
0.31	1.457398592043063	0.2733792274232889	-0.7092805610345845	0.07659346665018626	0.9111082350747115	-0.2715557686959493	4.951344108706362	1.117548732092264	-5.524662155629237	-14.36264530771281	-2.672118525399274e-13	-14.7731591424457	-3.098446118302443	2.157277553583315	0	-4.615023749228954	0.8888339898628772	-2.977718406393653	-5.287836060816465	3.047093689980687e-14	-5.287836116036541	-3.389319745107859	3.340281011881864	0.0006500882754776427	-5.052218447456544	0.4775351681909267	0.8669894661495801	0.8238130356292719	0.6893465355520305	0.6532025212987396	-1.47630640396216	-8.700825229301836e-13	0	0	7.81050745954015	-1.30378166803702	4.134495985626905	8.184851180992453	-8.700825229301836e-13	0	0
