DataType=double
version=3
OpenSimVersion=4.5
endheader
time	pelvis_tilt	pelvis_list	pelvis_rotation	pelvis_tx	pelvis_ty	pelvis_tz	hip_flexion_r	hip_adduction_r	hip_rotation_r	knee_angle_r	knee_adduction_r	knee_angle_r_beta	ankle_angle_r	subtalar_angle_r	mtp_angle_r	hip_flexion_l	hip_adduction_l	hip_rotation_l	knee_angle_l	knee_adduction_l	knee_angle_l_beta	ankle_angle_l	subtalar_angle_l	mtp_angle_l	lumbar_extension	lumbar_bending	lumbar_rotation	arm_flex_r	arm_add_r	arm_rot_r	elbow_flex_r	pro_sup_r	wrist_flex_r	wrist_dev_r	arm_flex_l	arm_add_l	arm_rot_l	elbow_flex_l	pro_sup_l	wrist_flex_l	wrist_dev_l
0	-0.5348472418112918	-0.001307464155940075	-0.1590969566077488	-0.161255059	0.9403797739999999	0.3774675260000001	0.4463481471699127	-0.07040863339818755	-0.1822436041317115	0.3518502204352238	0.1021521049148762	0.3555293809999998	0.0502816824780002	0.2269102551791182	0	0.9025874879351639	-0.2101214367325454	-0.1461404716570466	0.781203934223114	0.08218151389187185	0.7812039340000001	0.2531487174668463	-0.1123902515111026	-0.0004759512870188536	-0.1308556600628516	0.08870948660083203	0.06756247435495882	0.00172259094541971	-0.2722836989492027	-0.3925413852666871	1.53589373157768	1.570796326969429	0	0	-1.034518324451213	-0.7732366604748658	-0.9683691889963988	0.582985944232999	1.570796326969429	0	0
0.0004542507337261803	-0.5347011057538702	-0.001256902095414223	-0.1595818042375098	-0.1605334574760147	0.94072140827941	0.3773398372667487	0.4453596491190768	-0.07121034674538351	-0.1836140302894385	0.352350838718446	0.1021521049148762	0.3559707198146014	0.04776361940766581	0.2269494478443515	0	0.9019643935022136	-0.2099696411503597	-0.1473851552238051	0.7761330576921036	0.08218151389187182	0.7761330574663675	0.2533279919121561	-0.1105894927592921	-0.0004737384572368384	-0.1310228543483614	0.08840396417027961	0.06801219835046886	0.002025168728845098	-0.272538784638916	-0.3923025352118221	1.536303061076634	1.570796326969429	0	0	-1.035181275283665	-0.7709561941330975	-0.9685212617361746	0.5828860839484944	1.570796326969429	0	0
0.001515784775164009	-0.5343216610219225	-0.001153719293135352	-0.1607254242060806	-0.1588427876791728	0.9415135217792353	0.3770406927945414	0.4430547727762642	-0.07309099042856099	-0.1867765473246255	0.3536703883465191	0.1021521049148762	0.3571547771924741	0.04191948753372055	0.2269768434107148	0	0.9004517985474155	-0.2096267953108558	-0.1503361425991815	0.7642762151284339	0.08218151389187181	0.7642762149102768	0.2537468263146759	-0.1063241910189038	-0.0004685964032215711	-0.1314358652579314	0.08770496561414343	0.06907071582964806	0.002728121861412583	-0.2731359682071363	-0.3917405925838778	1.53724331851651	1.570796326969429	0	0	-1.036704346851657	-0.7656193591981328	-0.9688536098467269	0.5826486135493509	1.570796326969429	0	0
0.003164446411839883	-0.5336269995070485	-0.001035062419389001	-0.1625309214323657	-0.156204898079993	0.9427263709836344	0.3765740134722482	0.4394891080035071	-0.0760315631738958	-0.191576778709749	0.3561350313989745	0.1021521049148762	0.3594176581759658	0.03295552236405946	0.2268412516577278	0	0.8979459113711215	-0.2091273389131894	-0.1550367530601593	0.7458431052374239	0.08218151389187182	0.7458431050679368	0.2543971053531366	-0.09954123126201132	-0.0004606910950053273	-0.1321391858369435	0.0866609669361704	0.07073566628159907	0.003808359286582998	-0.274066447249368	-0.3908573671749618	1.538658359699937	1.57079632696943	0	0	-1.038997302159567	-0.757309661535256	-0.9693059250354279	0.5822683916963862	1.57079632696943	0	0
0.005374104194047435	-0.532495064043078	-0.0009555246437437957	-0.1650062795747062	-0.1526463177601551	0.9443184595072268	0.3759445959013172	0.4347345091233991	-0.08001001975291483	-0.1977939619365277	0.3602269820978528	0.1021521049148762	0.3632583083968084	0.02115931855794981	0.2263210018438963	0	0.8942905301952161	-0.2085211019238025	-0.1615608655892536	0.7211079558584803	0.08218151389187184	0.7211079558111433	0.2552693717381626	-0.09014870338918381	-0.0004502501131932599	-0.133199444986151	0.08534147551885203	0.07300688605926413	0.005233924702179355	-0.2753193575355423	-0.3896537358957412	1.540468515658257	1.570796326969429	0	0	-1.04193396369751	-0.7461334153275647	-0.9697914437510771	0.5817370125440573	1.570796326969429	0	0
0.008109887166813518	-0.5307754723905921	-0.0009839500386872515	-0.1681561375451895	-0.1482040405774996	0.9462347328170808	0.3751592324848476	0.4288785483853826	-0.08499248393386442	-0.2051257297557439	0.3665334422764446	0.1021521049148762	0.369288687681733	0.006915404647507671	0.2251478659727308	0	0.8893065239748107	-0.2078718015152773	-0.1699932871730148	0.6904669230480277	0.08218151389187184	0.6904669231653402	0.256357018339654	-0.07804732784089644	-0.0004375688459834664	-0.1346961625226656	0.08383646189322923	0.07588023349046226	0.006961971896900521	-0.2768803689946815	-0.388132711643518	1.54257248871007	1.57079632696943	0	0	-1.045364035519992	-0.7322417196352804	-0.9702076420167181	0.5810444931844544	1.57079632696943	0	0
0.01132864367758793	-0.5283042291069805	-0.001199200596217005	-0.1719733794077051	-0.1429267524820924	0.9484061669403506	0.3742271334218237	0.4220151816896059	-0.09092739351029722	-0.213166971582283	0.3756860575504999	0.1021521049148763	0.3781675835843679	-0.009276683403793257	0.2230448837675134	0	0.8828328115448751	-0.2072543196959429	-0.1804145440708712	0.6544868411357051	0.08218151389187185	0.654486841305549	0.2576670213523757	-0.06315991721444586	-0.0004229983608751662	-0.1367092763707359	0.08225413729126077	0.0793424439426617	0.008937673221764468	-0.2787323132199353	-0.3863019806946549	1.544853161039768	1.57079632696943	0	0	-1.049140773270065	-0.7158434887702726	-0.9704552342864919	0.580180637396019	1.57079632696943	0	0
0.01497960949210789	-0.5249219918028175	-0.0016831947270328	-0.1764327014752501	-0.1368757688410302	0.9507523093725553	0.3731601356118035	0.4142363145527235	-0.09774208052041297	-0.221421719969059	0.3882845714500402	0.1021521049148763	0.3905233699873867	-0.02682217718861033	0.2197657859706167	0	0.8747577112766899	-0.2067492942939594	-0.1928811329999502	0.6139151331252487	0.08218151389187187	0.6139151332729302	0.259220776693127	-0.04546213644960365	-0.0004069246842600535	-0.1393065920934457	0.08071438716778101	0.0833672975751845	0.01109501959989581	-0.2808543532020887	-0.3841768524040625	1.547184000021719	1.570796326969429	0	0	-1.053136234415278	-0.6972095218060228	-0.9704493020624303	0.5791372365308379	1.570796326969429	0	0
0.01900520557876997	-0.5204944785181361	-0.002511746964414245	-0.1814866007039095	-0.1301256697599291	0.9531864907967869	0.3719727086157589	0.4056260000740435	-0.1053418646692462	-0.2293469556776182	0.4048148276253459	0.1021521049148762	0.406872133550921	-0.04507579793820666	0.2151320614516677	0	0.8650384986477974	-0.2064354392036981	-0.2074021719282536	0.5696512718588079	0.08218151389187182	0.5696512721159456	0.2610448361055179	-0.02501264171683917	-0.0003897510473723147	-0.1425321107833336	0.079338358969267	0.08791330564462935	0.01335942099463658	-0.2832197166293728	-0.3817833697674147	1.549435612275013	1.570796326969429	0	0	-1.057243247920791	-0.6766677792585126	-0.9701220442430765	0.5779107886445642	1.570796326969429	0	0
0.02334194532480019	-0.5149324112138852	-0.00374675151122235	-0.1870583350468092	-0.1227650034893458	0.955618621916612	0.3706821700057746	0.3962561788681652	-0.1136062981419543	-0.23636822267634	0.4255754458737064	0.1021521049148762	0.4275344438325859	-0.06336929327250883	0.209074445853487	0	0.8537350324650574	-0.2063834079041015	-0.223915891903478	0.5227560142836286	0.08218151389187181	0.522756014426677	0.2631697420046128	-0.001988412720325651	-0.0003718879455932353	-0.1463921042436497	0.07824087019092736	0.09291954096775232	0.01564841699189176	-0.2857943076269246	-0.3791617836546653	1.551482344436359	1.570796326969429	0	0	-1.061391325707061	-0.6546076910911265	-0.969434385800596	0.5765045182957577	1.570796326969429	0	0
0.02792143545395889	-0.5082089152708925	-0.005427565293939242	-0.193040277471676	-0.1148962917433108	0.9579607527940229	0.3693085934594385	0.3861871725791989	-0.1223897274505711	-0.2419317976447754	0.4506118705497759	0.1021521049148762	0.4525699338803563	-0.08106738415707224	0.2016562661655244	0	0.8410199626746243	-0.2066482263298749	-0.2422677644635923	0.4744085340132622	0.08218151389187184	0.4744085342002293	0.2656173306571114	0.02329165030451193	-0.0003537144382564248	-0.1508464537148115	0.07751964421239058	0.0983045485051402	0.01787500633248679	-0.2885343371062045	-0.3763686240883399	1.553208603636578	1.570796326969429	0	0	-1.065543881115134	-0.6314716419903681	-0.9683761210328525	0.5749300653894623	1.570796326969429	0	0
0.0326714545037473	-0.5003713146382399	-0.007564024541190286	-0.1992960098993866	-0.1066353801451058	0.9601328561007392	0.3678745491801542	0.3754746549781403	-0.1315242426834562	-0.2455627639361111	0.4796782864246687	0.1021521049148762	0.4817389352974848	-0.0976145227378067	0.1930774217646586	0	0.8271749509278844	-0.2072626516745739	-0.2621952904376297	0.4258457784515886	0.08218151389187181	0.4258457782483645	0.2683865801537955	0.05035718146970342	-0.0003356077446337442	-0.1558053442236238	0.07724522452166957	0.1039672371253803	0.019952108666386	-0.2913846392553327	-0.3734767509204393	1.554514980417325	1.570796326969429	0	0	-1.069689417846546	-0.607740986340582	-0.9669626996874703	0.5732081136707968	1.570796326969429	0	0
0.03751709174442691	-0.4915449636136495	-0.01013262254682597	-0.2056659900185005	-0.09811009175757028	0.9620677161644621	0.3664046986339012	0.3641802318751625	-0.14082464576622	-0.2469142657554997	0.5122369807275735	0.1021521049148762	0.5144989084974895	-0.1125797367783697	0.1836573387704826	0	0.8125752685241628	-0.2082328522277575	-0.2833242498108247	0.3782973801144899	0.08218151389187184	0.3782973797844417	0.2714434802130302	0.07859517214061704	-0.0003178999542348811	-0.1611322428105499	0.07745371919471251	0.1097896511708214	0.02179766532157478	-0.2942787871094962	-0.3705727439962847	1.55532418701784	1.570796326969429	0	0	-1.073831732240961	-0.5839188689096479	-0.9652317567517985	0.5713677304551484	1.570796326969429	0	0
0.04238192853981579	-0.4819281115496026	-0.01307612254641298	-0.2119779550825863	-0.08945804410676786	0.9637154017473153	0.3649251439181094	0.3523782611655969	-0.1500965691087453	-0.2458118929910493	0.5474691841796707	0.1021521049148762	0.5500392658504163	-0.1256873276462431	0.1737962116837253	0	0.7976581027486837	-0.2095365577718538	-0.3051796341753694	0.3329066909380853	0.08218151389187181	0.3329066910172629	0.274714567981596	0.1072817846005383	-0.0003008707380746896	-0.1666544780497652	0.07814241049881326	0.1156424654759062	0.02334088163862945	-0.2971412513056191	-0.3677512354796272	1.555586606894521	1.570796326969429	0	0	-1.077975597976195	-0.5605069055065421	-0.9632367831199664	0.5694447614266313	1.570796326969429	0	0
0.04718924350439309	-0.4717781828426164	-0.01630738268618599	-0.2180598655523584	-0.08082378989076446	0.9650460210811932	0.3634626170727711	0.3401781351095239	-0.159146092421206	-0.242275388857636	0.5843639592895349	0.1021521049148762	0.5873482621607088	-0.1368139208526487	0.1639241551862093	0	0.7828839925489095	-0.2111247202337559	-0.3272124561146886	0.2906607997422617	0.08218151389187184	0.2906607996514927	0.2780898408706802	0.1356335415085591	-0.0002847628509371496	-0.1721794262241151	0.07927016958350407	0.1213921423537792	0.02452836305199022	-0.2998921859638128	-0.3651067708524072	1.55528505102233	1.57079632696943	0	0	-1.082115567664382	-0.5379809225907465	-0.9610420895498509	0.5674795693676908	1.57079632696943	0	0
0.0518632224455918	-0.4613916111101713	-0.01971670851442656	-0.2237540731973435	-0.07235541243337129	0.9660508876526036	0.362043542007034	0.3277367443748698	-0.1677902074162259	-0.2365186597531346	0.6218088125704061	0.1021521049148762	0.6253006417649232	-0.1459927017867587	0.1544478157567558	0	0.7686950160502665	-0.2129263045954282	-0.34883970593368	0.2523323725028494	0.08218151389187182	0.2523323723696667	0.2814339792241759	0.1628719489812069	-0.0002697862482574939	-0.1775141795615404	0.08076228447613087	0.1269092580040469	0.0253296738680871	-0.3024542213857875	-0.3627242659411504	1.554438025057131	1.570796326969429	0	0	-1.086227694907349	-0.516766924560872	-0.9587181980201537	0.5655146942574333	1.570796326969429	0	0
0.05633015401013977	-0.4510804676789294	-0.02318170956385934	-0.2289301860806921	-0.0642008241020928	0.966741827354161	0.3606930906752356	0.3152636632051629	-0.1758664449049522	-0.2289261542642335	0.6586831731476501	0.1021521049148762	0.6627502912946867	-0.1533809308138957	0.1457057598716798	0	0.7554775600659629	-0.2148556267721711	-0.3694914103956148	0.2184442847684409	0.0821815138918718	0.218444284746032	0.2846046039325049	0.1882905891233514	-0.0002560859948673703	-0.1824851403896843	0.08251920350933199	0.1320767001308476	0.02574128730853581	-0.3047602451780959	-0.360669713073119	1.553100737832402	1.570796326969429	0	0	-1.090266564166537	-0.4972211282691167	-0.9563385829626715	0.5635928201639351	1.570796326969429	0	0
0.06051959218465776	-0.4411495804128985	-0.02657798907750724	-0.2334946141176232	-0.05650401257829532	0.967148872359159	0.3594343397554788	0.3030177013090537	-0.1832403729520559	-0.2200118562209497	0.6939376948547246	0.1021521049148762	0.698612897452887	-0.1592000464059328	0.1379401393709658	0	0.743534625830067	-0.2168209489551254	-0.3886564434816405	0.1892596831721123	0.0821815138918718	0.1892596832512891	0.2874730528403631	0.2113129752165691	-0.0002437514198908767	-0.1869542363562948	0.08442754907455959	0.1367965814510662	0.02578822785493029	-0.3067605889628859	-0.3589828643248449	1.551363212822814	1.570796326969429	0	0	-1.094167009007625	-0.4796164341059161	-0.9539771863783106	0.5617552745729293	1.570796326969429	0	0
0.06436546733510043	-0.4318773995073202	-0.02978896684829323	-0.2373951968504324	-0.04940147770169627	0.9673166202995532	0.3582876289342046	0.2912943408090646	-0.1898098730346523	-0.2103683278179057	0.7266483921911897	0.1021521049148762	0.731927436269814	-0.1637021857019799	0.1312877186844794	0	0.7330713314040044	-0.2187329047895222	-0.4059187230730171	0.1647982292205446	0.08218151389187184	0.16479822948963	0.2899428032318636	0.2315308362334819	-0.0002328720913216324	-0.1908290727602528	0.08637152097099568	0.1409947769283907	0.02552286122585463	-0.3084280755011084	-0.357673349986208	1.549345248136116	1.570796326969431	0	0	-1.09784963690877	-0.4641373312058259	-0.9517064614111804	0.5600410410433778	1.570796326969431	0	0
0.06780712831226307	-0.4235027910706162	-0.03271338979241712	-0.2406203217633446	-0.04301904395148342	0.9672996945240816	0.3572701833588788	0.2804081013753091	-0.1955057485414937	-0.2006144619372721	0.7560457737370924	0.1021521049148762	0.7618914517803199	-0.1671287446526178	0.1257884219324738	0	0.7241943694740272	-0.2205114140414757	-0.4209776105780412	0.1448747088817432	0.08218151389187181	0.1448747092314614	0.2919611529187119	0.2487168033019209	-0.0002234791633175839	-0.1940657047331211	0.08824281779947513	0.1446224487504194	0.02502071528052087	-0.309759763637304	-0.3567210387070225	1.547188449407534	1.570796326969429	0	0	-1.101228351874415	-0.4508837352969792	-0.9495955488751	0.5584861248627541	1.570796326969429	0	0
0.07079029933648544	-0.4162185501394799	-0.03526968791362207	-0.2431929165298535	-0.03746917609907006	0.9671577338866482	0.3563960209999639	0.2706737312008774	-0.2002888302348196	-0.1913487723220171	0.7815262262011647	0.1021521049148762	0.7878711612168374	-0.169690006463921	0.1214063140067247	0	0.7169239562927937	-0.2220901957412124	-0.4336500333835933	0.1291539832669328	0.08218151389187185	0.1291539836948072	0.2935217873601266	0.2628108591154054	-0.0002155948693712681	-0.1966641725188178	0.08994775661805823	0.1476544546755215	0.02437363484329699	-0.3107749546144438	-0.3560806264358606	1.545046028386252	1.570796326969429	0	0	-1.104218136452212	-0.4398829602194044	-0.9477084568286137	0.5571230717538181	1.570796326969429	0	0
0.07326793709552543	-0.4101710893195946	-0.03739704620366121	-0.2451605510140226	-0.0328488623269796	0.9669503547466755	0.355676087676379	0.262384757372927	-0.2041442996405599	-0.1831124346480462	0.8026368990270372	0.1021521049148762	0.8093919217177563	-0.1715573366124445	0.118056677275705	0	0.7112150101090101	-0.2234185762728843	-0.4438558447013408	0.1172148428156848	0.08218151389187184	0.1172148434222367	0.2946582376680966	0.273885016869054	-0.0002092320024467359	-0.1986582457782681	0.09141103812373429	0.1500850936489129	0.02368098223607572	-0.3115098167316175	-0.3556896636792805	1.54307136703623	1.570796326969429	0	0	-1.106741659238608	-0.4311078058068994	-0.9461022550330855	0.5559804907489769	1.570796326969429	0	0
0.07520097689840965	-0.4054647841924049	-0.03905372011059383	-0.2465833841467986	-0.02923805093215695	0.9667324454887206	0.355118553162682	0.2557928765305478	-0.2070743066345725	-0.1763633497265562	0.8190482978612539	0.1021521049148762	0.8261167093726245	-0.1728646831363493	0.1156334676449851	0	0.7069834076654573	-0.2244608886524894	-0.4515910897060739	0.1086153365026982	0.08218151389187181	0.1086153373045252	0.2954303359791051	0.2820941627172021	-0.0002043849864663094	-0.2001016370499816	0.09257639774132138	0.1519220633881256	0.02303987449630105	-0.3120096395609974	-0.3554786809830264	1.541406455686892	1.570796326969429	0	0	-1.108733910403588	-0.4244979926261068	-0.9448253955963816	0.5550825253235346	1.570796326969429	0	0
0.0765589714577417	-0.402168924774603	-0.04021358281282259	-0.2475218175383962	-0.02669855353593638	0.9665500809266839	0.3547291761667852	0.2510980174071878	-0.2090901099884448	-0.1714601287813231	0.8305352700674972	0.1021521049148762	0.8378202665761486	-0.1737103545896485	0.1140331548222904	0	0.7041330537018184	-0.2251942065111794	-0.4568955654530904	0.1029530239536058	0.08218151389187182	0.1029530248773908	0.2959070337991567	0.2876223786026413	-0.0002010398658000672	-0.2010532112232235	0.0934049901452928	0.1531797325022621	0.02253555460308412	-0.3123201027788701	-0.3553818383382556	1.540171228514087	1.57079632696943	0	0	-1.110144753182364	-0.4199819061207816	-0.9439162713938801	0.5544482924520181	1.57079632696943	0	0
0.07732081165962061	-0.4003247349670089	-0.04086223123287702	-0.2480256398949761	-0.02527294748759362	0.9664372318892013	0.3545115958920307	0.248441519156505	-0.2102051791386013	-0.168652865345143	0.8369615733987023	0.1021521049148762	0.8443666518827126	-0.1741598245920651	0.1131727077914144	0	0.7025796446322982	-0.2256054705042524	-0.4598219064039258	0.0999143144320695	0.08218151389187188	0.09991431540083907	0.2961492888556871	0.2906342125918467	-0.000199184144481819	-0.201563622447063	0.09387276654946945	0.1538730009657963	0.02223285889752301	-0.3124790400240112	-0.3553465886912839	1.539454454591292	1.570796326969431	0	0	-1.110940013477097	-0.417495255621499	-0.9434019542452595	0.5540912629673947	1.570796326969431	0	0
0.0775	-0.3998915350821739	-0.04101454788628395	-0.2481417453478499	-0.02493754561516208	0.9664095910427282	0.3544605117293226	0.2478143826259098	-0.2104657740280456	-0.1679867982790809	0.8384710805746441	0.1021521049148762	0.8459042131896994	-0.1742630133236033	0.1129742471487948	0	0.7022191234072701	-0.2257021572676935	-0.4605048738718481	0.09921404150879833	0.08218151389187188	0.09921404248461342	0.2962035559463262	0.2913330775545201	-0.0001987497984778721	-0.2016811776903108	0.09398305744691936	0.1540347530276255	0.0221595828461954	-0.3125148006725832	-0.3553403197990992	1.539283374707872	1.570796326969431	0	0	-1.111127437530266	-0.4169153288632381	-0.9432805407663557	0.5540071605844364	1.570796326969431	0	0
0.07795425073372618	-0.3987943750476552	-0.0414002168942515	-0.2484319573456076	-0.0240871335397019	0.9663376488214706	0.3543311693162648	0.2462206967040559	-0.2111235116789681	-0.1662885371593411	0.8422944269821179	0.1021521049148762	0.8497981249730765	-0.1745203602784287	0.1124778499298519	0	0.7013135404579288	-0.2259471548646803	-0.4622269890789005	0.097463517289636	0.08218151389187188	0.09746351827632559	0.2963364105551323	0.2930882767639486	-0.0001976522877110092	-0.2019748758661408	0.0942630668576552	0.1544425446976661	0.02197025750646626	-0.3126026550590387	-0.3553279087773897	1.538845422424735	1.570796326969431	0	0	-1.11160318612786	-0.4154536757743268	-0.9429719997217443	0.5537937399738652	1.570796326969431	0	0
0.07901578477516402	-0.3962365676765884	-0.04229865688266853	-0.2490868924812752	-0.0220989965235709	0.9661590815607931	0.3540298074514912	0.2424744561104424	-0.2126442854935464	-0.1622662021316734	0.8512075937934391	0.1021521049148762	0.8588750306546159	-0.1750989290043892	0.1113554579618132	0	0.6992445661107488	-0.2265188666561063	-0.4661986525428817	0.09351117957108229	0.08218151389187185	0.09351118053966359	0.2966199272187071	0.2970966928741834	-0.0001951071921207324	-0.2026367758195449	0.09491947735568551	0.155382714452145	0.02150776511794907	-0.3127920812725455	-0.3553185758041886	1.537798135415027	1.570796326969429	0	0	-1.112718282577886	-0.4120857527052755	-0.9422467997637993	0.5532937863075004	1.570796326969429	0	0
0.08066444641183987	-0.3922832507567914	-0.04368487998733499	-0.2500383944174648	-0.0190091570838285	0.9658528440542921	0.3535643157705683	0.2365955948308149	-0.2149601041653393	-0.1558744451335078	0.8649827669098956	0.1021521049148762	0.8729038806745807	-0.1759381350888776	0.1097172224267546	0	0.696165319300175	-0.2274033793362323	-0.4722151305912104	0.08775882906932633	0.08218151389187185	0.08775882988750967	0.2969824207713501	0.3030566249953937	-0.0001912078680335335	-0.203595178958876	0.09594325061995208	0.1568064768416469	0.02073319652137915	-0.3130410549797309	-0.3553597455148904	1.536105223234199	1.57079632696943	0	0	-1.114458587745844	-0.4069894819352348	-0.9411090793585116	0.5525139488609875	1.57079632696943	0	0
0.08287410419404742	-0.3870276375794263	-0.04552155436531728	-0.2511852755316	-0.01486454302850593	0.965387575555261	0.3529454689368959	0.2286035784935697	-0.2179735164161688	-0.1470448176362124	0.883297105140923	0.1021521049148762	0.891561004019862	-0.1769599985484649	0.1077223870422915	0	0.6923020217210409	-0.2285790073773701	-0.4799732040890581	0.08078967183722699	0.08218151389187184	0.0807896723459699	0.2973110172154291	0.3105194761801007	-0.0001860840257087982	-0.2047420191066796	0.09731941109814717	0.1586426787976748	0.01958605157865283	-0.3132851748863608	-0.3555241297507115	1.533709149946384	1.570796326969431	0	0	-1.116804738979578	-0.4004204253736603	-0.9395629502731864	0.551462354218341	1.570796326969431	0	0
0.08560988716681352	-0.3806017065096758	-0.04775381735532593	-0.2523953747656534	-0.009728965045101096	0.9647252904661628	0.3521876097291425	0.2185389592936811	-0.221555848506335	-0.1357239561587205	0.9057032332653551	0.1021521049148762	0.9144010252147985	-0.1780825588687279	0.1055705431399297	0	0.6879532103122681	-0.2300117782008696	-0.4890609162909413	0.07334335929604738	0.08218151389187184	0.07334335970366228	0.2974503209001332	0.3188888101286781	-0.0001799103588797835	-0.2059336550437331	0.09902072492898832	0.1607965069217364	0.01798947864305699	-0.3134384797402182	-0.3559070047951162	1.530540072241364	1.57079632696943	0	0	-1.11972545033117	-0.3927117174975134	-0.9376160212907857	0.5501502591182441	1.57079632696943	0	0
0.08882864367758794	-0.3731778801254125	-0.05030724886374916	-0.2535121875311834	-0.003683149632163618	0.9638254532139512	0.3513083042903963	0.2064798641769558	-0.2255516545992272	-0.1219039667400899	0.9316419403561945	0.1021521049148762	0.9408617367529887	-0.1792370218008813	0.1034833709541403	0	0.6834772103789085	-0.2316528026929163	-0.4989657401086515	0.06626571040918111	0.08218151389187177	0.06626571128616349	0.2972052659200584	0.3274426547383014	-0.0001728917651141749	-0.206996726360425	0.1010033463963531	0.1631523563563136	0.01585599743576541	-0.3133964615982565	-0.3566213480932858	1.526523740536323	1.570796326969429	0	0	-1.123173180608326	-0.3842590726434508	-0.9352810546003901	0.5485923162272262	1.570796326969429	0	0
0.09247960949210787	-0.3649672057705344	-0.05308751922728955	-0.2543646319734413	0.003175687119551013	0.9626496160634403	0.3503277889828748	0.1925597393272355	-0.2297853688686937	-0.1056512102567186	0.9604669326067278	0.1021521049148762	0.9702813491130636	-0.1803819097278476	0.101680569513765	0	0.6792724773254483	-0.2334368700114877	-0.5090936002922306	0.06044645751426676	0.08218151389187178	0.06044645874175445	0.2963496359560688	0.3353713298023851	-0.0001652293229761409	-0.2077382218036631	0.1032038900458928	0.1655786404991389	0.01309505508038395	-0.3130413715018299	-0.3577903699744341	1.521590879935826	1.570796326969429	0	0	-1.127079648134958	-0.3755001203218917	-0.9325775735728139	0.5468069017626765	1.570796326969429	0	0
0.09650520557876997	-0.3562128506664988	-0.05598262243510727	-0.2547799687100223	0.01073472988399895	0.9611662680531471	0.3492682135726428	0.1769823273497962	-0.2340701763851101	-0.08712848289502091	0.9914714973537126	0.1021521049148762	1.001929155792547	-0.1815128304554652	0.1003522719840044	0	0.6757505445934902	-0.2352831535761574	-0.5188011383872566	0.056748634739624	0.0821815138918718	0.05674863598883499	0.2946420801878004	0.3418323702883914	-0.0001571362109550304	-0.2079602455772908	0.1055391698194744	0.1679347705176565	0.009622367946424281	-0.3122502784537708	-0.359537190582318	1.515687523052808	1.57079632696943	0	0	-1.131352091552293	-0.3668884696392156	-0.9295332144212892	0.5448165953904609	1.57079632696943	0	0
0.1008419453248002	-0.3471784204505374	-0.05886828909679689	-0.2545992348651482	0.01886701993046273	0.9593554815710386	0.3481527096569834	0.1600344812252543	-0.238218830253798	-0.06660610464132498	1.023936323577674	0.1021521049148762	1.03504741236078	-0.1826609372394073	0.09963206490353191	0	0.6733027338249479	-0.2370986812225535	-0.5274412828752699	0.05593488475294339	0.0821815138918718	0.0559348858987791	0.2918500467452227	0.3460206437449563	-0.0001488333848921146	-0.2074790014750252	0.1079095385953728	0.1700802145654016	0.005370655445372547	-0.3109058737798426	-0.3619719791061027	1.508785452642939	1.57079632696943	0	0	-1.135871488410442	-0.3588636827473147	-0.9261845485621806	0.5426488496668067	1.57079632696943	0	0
0.1054214354539589	-0.3381317550333898	-0.06161655345471933	-0.2536937496166941	0.02743355531905575	0.9572129040144349	0.3470043563841324	0.1420887745149934	-0.2420556982760541	-0.04445924341058473	1.057152949803119	0.1021521049148762	1.068898386533167	-0.1838908695754292	0.09957590343577766	0	0.6722635210437634	-0.2387847203187683	-0.5344186931158021	0.0585975409278228	0.08218151389187181	0.05859754143218524	0.2877798692894895	0.3472471914440959	-0.0001405152311015509	-0.2061462615455819	0.1102060810077322	0.1718850536268107	0.0003009487456247331	-0.308909320878137	-0.3651776130748196	1.500891708466676	1.570796326969429	0	0	-1.140493960997707	-0.3518194626906868	-0.9225771167880386	0.540336798850389	1.570796326969429	0	0
0.1101714545037473	-0.3293260766589531	-0.06410666697716172	-0.2519805463697655	0.03628606172887221	0.9547526360602678	0.3458451639885218	0.1235966303162896	-0.2454289089554296	-0.02115140352623862	1.090459545056908	0.1021521049148762	1.102807943634572	-0.1852794747371494	0.1001520148682395	0	0.6728749898182297	-0.2402455562955472	-0.5392480653042523	0.06510017264911883	0.0821815138918718	0.06510017328337732	0.2823087909145509	0.3450161227060143	-0.0001323624198598153	-0.2038703735347376	0.1123209853816501	0.1732409409900651	-0.005586784336748515	-0.3061936912125628	-0.3691956578756019	1.492056054594248	1.570796326969429	0	0	-1.145056284145205	-0.3460733911097456	-0.9187645201944732	0.5379200142109383	1.570796326969429	0	0
0.1150170917444269	-0.3209813269605308	-0.06623680164121094	-0.2494342455945951	0.04527039202726481	0.952008594832227	0.3446952209584855	0.1050732645268951	-0.2482212097508616	0.002793287390221018	1.123299533063514	0.1021521049148762	1.136196899088647	-0.1868783601464676	0.1012450774265013	0	0.6752576898571411	-0.241398464132577	-0.5416058613154149	0.07553796405323653	0.0821815138918718	0.07553796552796778	0.2754128375426328	0.3390866343163337	-0.0001245233649260163	-0.2006330755617442	0.1141594763950236	0.1740710041942531	-0.01224528624552702	-0.3027359372125262	-0.3740149743716862	1.482375440713587	1.570796326969429	0	0	-1.149385766945168	-0.3418421176406052	-0.914806619307893	0.535444855939786	1.570796326969429	0	0
0.1198819285398158	-0.3132689153945864	-0.06793450850608954	-0.2460931120806851	0.05423044660857965	0.9490340657692624	0.3435721260165082	0.08706205077617551	-0.2503581389645312	0.02682431178948706	1.155233503760988	0.1021521049148762	1.168594034464441	-0.1886964882909292	0.1026749161007107	0	0.6793930868178589	-0.2421831947097021	-0.5413658425503641	0.08972263696237652	0.08218151389187182	0.08972263797190917	0.2671840552464618	0.3295081622553431	-0.0001171231659031975	-0.196498402481074	0.1156510332921141	0.1743371509038673	-0.01957557240045175	-0.2985651880226667	-0.379565290320143	1.471994826429859	1.57079632696943	0	0	-1.1533139131717	-0.3392256895022439	-0.9107671610180088	0.5329639849277004	1.57079632696943	0	0
0.1246892435043931	-0.306302704071115	-0.06916389931001835	-0.2420578789109438	0.06301241635730082	0.9458993267807734	0.3424908061045597	0.07008903217876161	-0.2518123987580215	0.05039999943805962	1.185921071236924	0.1021521049148762	1.199629505426519	-0.1907017866846615	0.1042265416767117	0	0.685121436853483	-0.2425692046405717	-0.5386113121318096	0.107194696734285	0.08218151389187184	0.1071946975622652	0.2578321960097607	0.3166210594955466	-0.0001102557566468955	-0.1916109800607019	0.1167575253069754	0.1740435334148039	-0.02742770597328416	-0.2937655526685223	-0.3857174770890317	1.461104199367785	1.57079632696943	0	0	-1.156692353287899	-0.3382036034768661	-0.9067113831771825	0.5305346434373521	1.57079632696943	0	0
0.1293632224455918	-0.3001378945301754	-0.0699280787630026	-0.2374832405854778	0.07146905631219382	0.9426874887682806	0.3414637026477811	0.05461518762854518	-0.2526038316107059	0.07301873656812623	1.215092083218452	0.1021521049148763	1.229012642442086	-0.1928312217274369	0.1056856288113132	0	0.6921564601475985	-0.2425592329391356	-0.5336216247940965	0.1272619504162625	0.08218151389187188	0.127261951454346	0.2476692702873533	0.3010220463486699	-0.0001039852280669181	-0.1861829374663467	0.1174764843403258	0.1732355545411814	-0.03560730848256058	-0.288472556120875	-0.3922911100625235	1.449932099922065	1.57079632696943	0	0	-1.159408808419335	-0.3386432909030952	-0.9027042095573444	0.5282155340910221	1.57079632696943	0	0
0.1338301540101398	-0.29477781632299	-0.07026635968070818	-0.2325633536614389	0.07946366016724704	0.939489002884733	0.3405012562528297	0.04099436288282268	-0.2527950567149424	0.0942425789716876	1.242516462903071	0.1021521049148763	1.256501988745517	-0.1950040692446507	0.1068723292177135	0	0.7001150523143419	-0.2421885880704717	-0.5268359363940458	0.1490592155986514	0.08218151389187184	0.1490592168184351	0.2370795153099962	0.2835009874301135	-9.835384228983362e-05	-0.1804711123760302	0.1178388755350337	0.171994601593681	-0.04388726982802323	-0.2828636012644169	-0.3990684190572685	1.438736351554762	1.570796326969429	0	0	-1.161400505094885	-0.3403195779623321	-0.8988094603738888	0.526062498539845	1.570796326969429	0	0
0.1380195921846578	-0.2901868962136113	-0.07024694945428048	-0.2275138386646744	0.08687337151959364	0.93639553295036	0.339612542200771	0.02944074812255242	-0.252483462463295	0.113711554780603	1.267964250313438	0.1021521049148762	1.281876594434752	-0.1971333280571219	0.1076669691800078	0	0.7085572573129189	-0.241520425330908	-0.518801622087222	0.1716208076386098	0.08218151389187182	0.1716208089788419	0.2264808273124593	0.2649610259833468	-9.338002991894826e-05	-0.1747484935191447	0.1179020638971063	0.1704294501595258	-0.05202305730871404	-0.2771440346098064	-0.4058123743446211	1.427792933604673	1.570796326969429	0	0	-1.162662625618936	-0.3429417730557894	-0.8950901207943367	0.5241236083231041	1.570796326969429	0	0
0.1418654673351004	-0.2863068203934934	-0.0699567377019332	-0.2225533089816356	0.09359153443304231	0.9334940365405163	0.338805884886727	0.02001769333306734	-0.2517907373756644	0.1311486332026423	1.29119161745358	0.1021521049148762	1.304915776736008	-0.1991359983057222	0.1080233954513656	0	0.7170296663188203	-0.2406380796065164	-0.510117041315257	0.193955631341933	0.08218151389187181	0.1939556325044512	0.2162854176535149	0.2463362130119695	-8.906573436636778e-05	-0.16927523505792	0.1177397677888679	0.1686657756261633	-0.05976928276061777	-0.2715311766936425	-0.4122858199846809	1.417383990725992	1.57079632696943	0	0	-1.163250063138952	-0.3461839614276545	-0.8916092492317671	0.5224346170164854	1.57079632696943	0	0
0.1453071283122631	-0.2830724598318118	-0.06949025657441539	-0.2178872367809421	0.09952889905876829	0.9308618915021846	0.3380892986874073	0.0126457736528387	-0.2508513568713777	0.1463565428199091	1.31193319318467	0.1021521049148762	1.325390890409655	-0.2009439093397493	0.107968740320428	0	0.7251049875913212	-0.2396359536204879	-0.5013779494215072	0.2151150399677915	0.08218151389187181	0.2151150408463967	0.2068668695458326	0.2285191989306125	-8.540234605974188e-05	-0.1642746213668678	0.1174312931369895	0.1668353359634449	-0.06689501397792909	-0.2662388196600882	-0.4182685204365343	1.407785902345551	1.570796326969429	0	0	-1.163271812903873	-0.3497141004486249	-0.8884307873768955	0.5210158203705085	1.570796326969429	0	0
0.1482902993364854	-0.2804245911670221	-0.06893973786324234	-0.2136961182689869	0.1046136489665596	0.9285636698068553	0.3374706711944019	0.007131269181267838	-0.2498013877315755	0.1592082984328879	1.329915926033969	0.1021521049148762	1.343068595687755	-0.2025072935168203	0.1075912480914464	0	0.7324118744699759	-0.2386104669837324	-0.493134377229324	0.23424597455625	0.0821815138918718	0.2342459754095506	0.1985383215928162	0.2123072843293143	-8.237269810950547e-05	-0.1599180279094891	0.1170521570492691	0.1650661584582704	-0.07319576202978366	-0.2614642212241118	-0.4235697095188131	1.399258165631682	1.57079632696943	0	0	-1.162878525697615	-0.3532184892658198	-0.8856194797059608	0.5198711882813188	1.57079632696943	0	0
0.1507679370955254	-0.2783176123134367	-0.06838757867455644	-0.2101287269674682	0.1087903888523171	0.9266498093219495	0.3369576688213581	0.00320576232097715	-0.2487686606830932	0.1696335586871393	1.344871878043121	0.1021521049148762	1.357722128604171	-0.203795187927436	0.1070198039460327	0	0.7386517906764888	-0.237652218706688	-0.4858612790094284	0.2506256111581628	0.08218151389187185	0.2506256122174121	0.1915432152576881	0.1983697968504747	-7.995554464652701e-05	-0.1563206435801867	0.1166674877275756	0.1634745960023146	-0.07850098639614722	-0.2573787558970229	-0.4280349709633899	1.392033629089756	1.57079632696943	0	0	-1.162244821966373	-0.3564197495515253	-0.883239358409975	0.5189901802096303	1.57079632696943	0	0
0.1527009768984096	-0.2767219146629287	-0.06790170549335556	-0.2073000870383419	0.1120183783424362	0.9251570421065424	0.3365574099030879	0.0005735384427378498	-0.247864911135183	0.1776029544366819	1.356561473328306	0.1021521049148762	1.369145964311193	-0.2047898774316394	0.1063996006457407	0	0.7436029061298574	-0.2368399842243459	-0.4799427962216435	0.2636778027805959	0.08218151389187185	0.2636778040655895	0.1860570142313778	0.1872349623470191	-7.813051491756216e-05	-0.1535471719016011	0.1163286355450508	0.1621595793652029	-0.08267705220799831	-0.2541224125002093	-0.4315476483145242	1.386310387877068	1.57079632696943	0	0	-1.161548699418327	-0.3590880913784714	-0.8813507028126786	0.5183520499472734	1.57079632696943	0	0
0.1540589714577417	-0.2756218833600277	-0.06753356408959378	-0.2052929228951221	0.1142694101731748	0.9241100859872592	0.3362759994586452	-0.001043316735544076	-0.2471800297549844	0.183112454422158	1.364786306165293	0.1021521049148762	1.377169933825074	-0.2054828110942608	0.1058680818908162	0	0.7471138692718493	-0.2362366402486606	-0.4756673726379372	0.2729750627966345	0.08218151389187188	0.2729750642120912	0.1821962699695678	0.179291117795289	-7.68798541561693e-05	-0.1516245886583356	0.1160725660851864	0.1611989204361696	-0.08562656135279059	-0.2518015065982663	-0.4340261259297128	1.382245407673612	1.57079632696943	0	0	-1.160950657478732	-0.3610469382884559	-0.8800058600352062	0.5179318511657205	1.57079632696943	0	0
0.1548208116596206	-0.2750112208581886	-0.06731789524137355	-0.2041606420647696	0.1155260639575837	0.9235237604267426	0.3361179930381243	-0.001864702829698168	-0.246778116553923	0.1861703567846779	1.369405849039985	0.1021521049148762	1.381671542142008	-0.2058694162051964	0.1055342380125647	0	0.7490925815028284	-0.235886639338125	-0.4732290160804009	0.2782331576043385	0.08218151389187191	0.2782331590681931	0.1800301394266567	0.1747946189446685	-7.61894943550229e-05	-0.1505575300587297	0.1159230032361031	0.1606470875909944	-0.08728599609610621	-0.2504881848070801	-0.4354193137732211	1.379949223543741	1.570796326969431	0	0	-1.160574952736893	-0.3621749792072388	-0.8792445049057094	0.517706875543815	1.570796326969431	0	0
0.155	-0.2748681969917887	-0.06726624778915878	-0.2038937291591015	0.11582098	0.9233859840000004	0.3360808120000002	-0.002048878938470072	-0.2466817598104732	0.1868861066381879	1.370492862830319	0.1021521049148762	1.382730389	-0.2059601826661224	0.1054519350700246	0	0.7495587618315591	-0.235803133229301	-0.4726515038305158	0.2794740685279241	0.08218151389187191	0.2794740700000001	0.1795207575045114	0.1737330799160725	-7.602828754612501e-05	-0.150307886465418	0.1158872453159299	0.1605159718596739	-0.0876767420164514	-0.2501781513719887	-0.4357472173722572	1.379407527249964	1.570796326969431	0	0	-1.160482340498015	-0.3624432603322624	-0.879064687801303	0.5176551200115513	1.570796326969431	0	0
0.1554542507337262	-0.2745065893962699	-0.06713378213305624	-0.2032161368602511	0.1165674791409874	0.9230369607660436	0.3359865236943599	-0.00250022914539338	-0.2464344004225479	0.1886945785703625	1.373249667275336	0.1021521049148762	1.385414728015369	-0.2061899549299197	0.1052367829558249	0	0.750741704077715	-0.2355894404166757	-0.4711808239817363	0.2826267295814024	0.08218151389187187	0.2826267310686426	0.1782297560209427	0.1710355432523054	-7.56216065246392e-05	-0.1496774405277096	0.1157956461002999	0.1601813572325852	-0.08866799128519884	-0.2493903131213207	-0.436578771633635	1.378031550622048	1.57079632696943	0	0	-1.16024027235555	-0.3631283346483689	-0.8786075510451943	0.5175259348318689	1.57079632696943	0	0
0.156515784775164	-0.2736664592626942	-0.06681586961395226	-0.2016277415584365	0.1183056013792306	0.9222228765276564	0.3357659772475284	-0.00346765007977534	-0.2458392273882994	0.1928870053365443	1.379697490026961	0.1021521049148762	1.391688559797516	-0.2067243762664511	0.1046972114944341	0	0.7535113688368684	-0.2350790121726445	-0.4677078928664219	0.2900310481220763	0.08218151389187182	0.2900310496132847	0.1752154239951555	0.1646970568745776	-7.468226818035943e-05	-0.1482185796017749	0.1155765347757798	0.1593871054803377	-0.09098788700505203	-0.247538972295253	-0.4385232355035901	1.374800783539164	1.570796326969429	0	0	-1.159633483428492	-0.3647565013251471	-0.8775318783412636	0.517235589416989	1.570796326969429	0	0
0.1581644464118399	-0.2723727292456423	-0.06630018568434499	-0.1991492247460248	0.1209870647116901	0.9209636879974265	0.3354227626147794	-0.004724669148248965	-0.2448681733542944	0.1993029526396767	1.389726823730512	0.1021521049148762	1.401435542885963	-0.2075441971530546	0.1037551990816443	0	0.7578212814918753	-0.2342563121787876	-0.4622196862056592	0.3016244627651117	0.08218151389187185	0.3016244641891838	0.1705456904149889	0.1547650538205534	-7.325357385003738e-05	-0.1459977555793614	0.1152235973364481	0.1581203460841129	-0.09459837661932111	-0.2446368491193754	-0.4415440118920333	1.369741377112174	1.570796326969429	0	0	-1.158575280668052	-0.3673578544161807	-0.8758398283609005	0.5168181113465958	1.570796326969429	0	0
0.1603741041940474	-0.2706521710188066	-0.06557101423332326	-0.195811508232988	0.1245456322929537	0.919288485253705	0.3349611112276663	-0.005932679951694064	-0.2434801783945925	0.2077159328789448	1.403197714620181	0.1021521049148762	1.414506851152582	-0.2086165410831496	0.1022891693294444	0	0.7635949345784588	-0.2330987596316119	-0.4547013177964428	0.3173159844677589	0.08218151389187181	0.3173159857429812	0.1643230244798972	0.1413110462314767	-7.139485228510172e-05	-0.1431215805595356	0.1147306947555924	0.1563619626479515	-0.09944530340055618	-0.2407009663404069	-0.4455867227151182	1.362882746489554	1.570796326969429	0	0	-1.156931221041103	-0.3709742663145327	-0.8735283766132406	0.5163266521942432	1.570796326969429	0	0
0.1631098871668135	-0.2685263598411897	-0.06461631396043106	-0.1916673173460998	0.1288933783364319	0.9172397892210253	0.3343862016834099	-0.006655737050870694	-0.2416300500614721	0.2178277317302508	1.419918411913663	0.1021521049148762	1.430703782640471	-0.2098897956491145	0.1001420255098183	0	0.7706982313223488	-0.2315834598730381	-0.4451720294064004	0.3369313374493619	0.08218151389187182	0.3369313386451325	0.1567042835997293	0.1244804972053245	-6.917960109740384e-05	-0.1397513131080631	0.1140981799826039	0.1540948107318955	-0.1054449918212123	-0.2357651498010364	-0.4505663072361415	1.354272110945405	1.570796326969429	0	0	-1.154527546180399	-0.3756392303480451	-0.870591176867673	0.5158355520539738	1.570796326969429	0	0
0.1663286436775879	-0.2660012354849304	-0.06343475210246742	-0.1867981370897677	0.1339227515356594	0.9148753235531168	0.333703832908289	-0.00638813079472477	-0.239277038681946	0.2292784855824054	1.43963864980652	0.1021521049148762	1.449775053349203	-0.2112930136206497	0.09713298094056128	0	0.7789191685664721	-0.2296935246713011	-0.43371333328669	0.3601773570221951	0.08218151389187184	0.360177358421524	0.1479101124529598	0.1045251278558934	-6.669098479184944e-05	-0.1361121763335262	0.113339231006242	0.1513105824577463	-0.1124773322760668	-0.2298877705850592	-0.4563598204134435	1.343980526122937	1.570796326969429	0	0	-1.151161640560966	-0.3813606912023911	-0.8670173301540729	0.5154411285859057	1.570796326969429	0	0
0.1699796094921079	-0.2630579707671571	-0.06204228377450833	-0.1813190945604976	0.1395095988843488	0.912268896139672	0.3329201912019694	-0.004592685650839055	-0.2363936477343649	0.2416607788837356	1.462037805785669	0.1021521049148762	1.47140933364008	-0.2127383547625805	0.09307567198674424	0	0.7879522714966427	-0.227424506176275	-0.4204932098263466	0.3866127338864621	0.08218151389187184	0.3866127354165953	0.1382282198804912	0.08182750004353084	-6.40174653000306e-05	-0.1324979089402024	0.112485447917874	0.1480164701075336	-0.1203806329052507	-0.2231582821104587	-0.4628016134578223	1.332108719005253	1.570796326969429	0	0	-1.146616617056856	-0.3881055422387004	-0.8627906269214973	0.5152613009638987	1.570796326969429	0	0
0.17400520557877	-0.2596478022814221	-0.06047680732906841	-0.1753799859679211	0.1455170990339019	0.9095097525684064	0.3320418152665724	-0.0007490958316801233	-0.2329734483533691	0.2545373202515642	1.486709033732803	0.1021521049148762	1.495222826156734	-0.214129191897986	0.08780231914008696	0	0.7973933574222068	-0.2247899033925329	-0.405780780661996	0.4156327467681303	0.0821815138918718	0.4156327478649497	0.1280069547598612	0.05691082107457886	-6.124544512906485e-05	-0.1292666994614597	0.1115901738508988	0.1442405475903614	-0.1289500529971092	-0.2157009408723343	-0.4696830322608949	1.318792104765009	1.57079632696943	0	0	-1.140680120813861	-0.3957889192170889	-0.8578900539852631	0.515433172841342	1.57079632696943	0	0
0.1783419453248002	-0.2556932240329496	-0.05879948703389309	-0.1691610904085108	0.151800567744848	0.9066998405949134	0.3310758133886066	0.005591452836528846	-0.2290366506283341	0.2674615144626061	1.513143631106346	0.1021521049148762	1.520744809088759	-0.2153690834098391	0.08119175613965816	0	0.8067496456499101	-0.2218246465053201	-0.3899469116025491	0.4464746982234132	0.0821815138918718	0.4464746993506788	0.1176370585196913	0.03042884193438363	-5.845129850328952e-05	-0.1268252906370203	0.1107281067161053	0.1400348626084614	-0.1379413297189477	-0.2076742732937888	-0.4767584619844728	1.304204207851794	1.570796326969429	0	0	-1.133166625188661	-0.404270887993808	-0.8522923504285786	0.516107675373123	1.570796326969429	0	0
0.1829214354539589	-0.2510970525489197	-0.05709179102909492	-0.16286337445591	0.1582129699810641	0.903948702256091	0.3300303360536502	0.01475226015608544	-0.2246324573642795	0.2799998437716557	1.540725736083486	0.1021521049148762	1.547406912735244	-0.2163760364302934	0.07319719601891737	0	0.8154680692521924	-0.21858568666713	-0.3734486286899319	0.4782477243588712	0.08218151389187185	0.4782477253116497	0.1075221560011986	0.003134485283252819	-5.570610922699339e-05	-0.1255998288143201	0.1099903185992997	0.1354755731555388	-0.1470808096864517	-0.1992655334465833	-0.483758551220598	1.288557795367392	1.57079632696943	0	0	-1.123941533144575	-0.4133618023147217	-0.8459772180350448	0.5174405805916493	1.57079632696943	0	0
0.1876714545037473	-0.2457593125328218	-0.05544811819208454	-0.1566939489480524	0.1646108288681005	0.9013661817542619	0.3289152194786427	0.02688463058383591	-0.2198377653063413	0.2917546605637377	1.568741062521191	0.1021521049148762	1.574543581982588	-0.2170981236547694	0.06386831341497602	0	0.8229811191375206	-0.2151492975908511	-0.3567984439534051	0.509986150525376	0.0821815138918718	0.5099861512290743	0.09804172465657843	-0.02416967910315457	-5.306508912619059e-05	-0.1259947791603088	0.1094747525911542	0.1306599818836031	-0.1560816406006476	-0.1906804112967082	-0.4904099549546672	1.272103188871942	1.570796326969429	0	0	-1.112944505590159	-0.4228357737300296	-0.8389353358442014	0.5195796847797415	1.570796326969429	0	0
0.1925170917444269	-0.2395999242730612	-0.05396492275080115	-0.1508488687771892	0.1708601142356103	0.8990536409192974	0.3277426585668268	0.04193535664551306	-0.2147524748186422	0.3023858001067314	1.596404512315697	0.1021521049148762	1.601410605856262	-0.2175110434585841	0.0533622359296297	0	0.8287652995372923	-0.2116053604762032	-0.3405228858521965	0.5407205363099687	0.0821815138918718	0.5407205375344442	0.08951298351759722	-0.05069199106672367	-5.056917643116579e-05	-0.1283444071030093	0.1092734184197492	0.1257008908605372	-0.164664577019429	-0.1821293558724272	-0.4964592494735227	1.255123461277259	1.570796326969429	0	0	-1.100208902854759	-0.432449811284696	-0.8311786286881981	0.5226486921578992	1.570796326969429	0	0
0.1973819285398158	-0.2325833337052486	-0.05272820710433267	-0.1454961702149355	0.1768415754567571	0.8970948419894024	0.3265277535037052	0.05963566133655793	-0.2094923466776129	0.3116293262203689	1.622904224606597	0.1021521049148762	1.627225284414952	-0.2176238370394845	0.04193967405865835	0	0.8324034437401203	-0.2080495742309671	-0.3251168330704342	0.5695562763997872	0.08218151389187185	0.5695562775234898	0.08215935537773375	-0.07571375378145176	-4.824949609010452e-05	-0.1328640786770381	0.10945851861395	0.1207191575273267	-0.1725805635618626	-0.1738127437538896	-0.5016972919646417	1.237926542983937	1.570796326969429	0	0	-1.085874301015594	-0.4419648150978275	-0.8227514599624335	0.526729204757036	1.570796326969429	0	0
0.2021892435043931	-0.2247401326437959	-0.05180182192102756	-0.1407621218316454	0.1824550018750538	0.8955479354338315	0.3252887509461876	0.07951444143898112	-0.2041807755517627	0.3193117274247044	1.647461889934775	0.1021521049148762	1.651226286780344	-0.2174758436449262	0.02994544310266303	0	0.8336399960086228	-0.2045750297898393	-0.3110010421006009	0.5957473899486219	0.08218151389187182	0.5957473909470781	0.0760922527860266	-0.09864303492512831	-4.612148153391334e-05	-0.1396100027675746	0.1100702474861675	0.115835559727301	-0.1796314910927383	-0.1659074513414087	-0.5059797140256095	1.220834663886345	1.570796326969431	0	0	-1.070189840724191	-0.4511642446737705	-0.8137407978867037	0.5318430492089907	1.570796326969431	0	0
0.2068632224455918	-0.2161808700058186	-0.05121895560969622	-0.1367229711115848	0.1876219831439473	0.8944399120610735	0.3240469026441945	0.1009339898413351	-0.1989409070456856	0.3253580554885274	1.669399998325322	0.1021521049148762	1.672745087190658	-0.2171291589617981	0.01777623010678013	0	0.8324188362827033	-0.2012647284627339	-0.2984893958086202	0.6187536896146725	0.08218151389187185	0.6187536905824766	0.07131000760296273	-0.1190523857404213	-4.419209191612585e-05	-0.1484553553389152	0.111108791566906	0.1111630523193293	-0.1856855790868499	-0.15855705102631	-0.5092397470848883	1.204172011216438	1.57079632696943	0	0	-1.053507538263931	-0.459867089150463	-0.8042831810754527	0.5379376879928686	1.57079632696943	0	0
0.2113301540101398	-0.2070987495915171	-0.05097848202873485	-0.1334032231194983	0.1922868922431644	0.8937644876741323	0.3228259194014252	0.1231441803300463	-0.1938892190474288	0.3297929039327488	1.688213445624423	0.1021521049148762	1.691276161193946	-0.2166631523894083	0.005841507900562293	0	0.8288963943262178	-0.198186356318419	-0.2877702477952438	0.6382727479329733	0.08218151389187185	0.6382727486139441	0.06771365199760507	-0.1366960418393604	-4.246218135005142e-05	-0.1590879440345066	0.112532144909744	0.1068002946514454	-0.1906847860784936	-0.151866955729425	-0.511491113639876	1.188251872423908	1.570796326969431	0	0	-1.036266286622957	-0.4679334660780041	-0.7945666212478991	0.5448774810291165	1.570796326969431	0	0
0.2155195921846577	-0.197760360823145	-0.05104667234941745	-0.1307801057954388	0.1964160557186885	0.8934837726324972	0.3216510781485926	0.1453454798296883	-0.1891311473718333	0.3327337749006722	1.703628639219756	0.1021521049148762	1.706531643964048	-0.2161566029578693	-0.005475001521861508	0	0.8234278188748528	-0.1953900180103145	-0.2789034536390432	0.654243027451115	0.08218151389187181	0.6542430281116479	0.06513528264308098	-0.1515060528895224	-4.092887064323014e-05	-0.1710303810432239	0.1142600132677295	0.102827053458473	-0.1946432380581023	-0.1459046854409308	-0.5128208295728383	1.17336474299297	1.57079632696943	0	0	-1.018968641322329	-0.4752631807382889	-0.7848264036662855	0.5524429832919294	1.57079632696943	0	0
0.2193654673351004	-0.1884862395402842	-0.0513635327704859	-0.128792774775782	0.1999952995117194	0.8935333705497529	0.3205481302958873	0.1667487081962246	-0.1847587780251405	0.3343771993808863	1.715632038816211	0.1021521049148762	1.718468519829035	-0.2156791352479126	-0.01584640448958826	0	0.8165293478427349	-0.1929088702119391	-0.2718319845705904	0.6668197990567384	0.08218151389187182	0.666819799419786	0.06337216120386605	-0.1635701973609003	-3.958720963039259e-05	-0.1836793446839815	0.1161827432118202	0.09930181722196982	-0.1976374240736633	-0.1407043871513254	-0.5133737911629916	1.15976879096018	1.57079632696943	0	0	-1.00215328394097	-0.4817891927274864	-0.7753348728253077	0.5603393637066229	1.57079632696943	0	0
0.2228071283122631	-0.1796250746980526	-0.05185209284486097	-0.127354243997658	0.2030262623383793	0.8938300008452956	0.3195421424035459	0.1866221583173721	-0.1808502170549203	0.3349787904874735	1.724455194683499	0.1021521049148762	1.727281931583035	-0.2152810438275509	-0.02502154763767054	0	0.8088242007451482	-0.1907619406791347	-0.2664049786384803	0.676329713699671	0.08218151389187182	0.6763297141372363	0.06221921801758096	-0.173096802829476	-3.843144869340707e-05	-0.1963571944557334	0.1181732788739076	0.09626171344628418	-0.1997903383153289	-0.1362740850752179	-0.513332382764088	1.147683669148212	1.570796326969429	0	0	-0.9863661630426503	-0.4874687074108642	-0.7663864017580441	0.5682136532425687	1.570796326969429	0	0
0.2257902993364854	-0.1715262128980291	-0.05242859539368468	-0.1263640278352111	0.2055219711991991	0.8942804549953128	0.3186564216283783	0.2043225622468365	-0.1774700609125003	0.3348290593194404	1.730523397105485	0.1021521049148762	1.733365143754284	-0.2149869820058239	-0.03283014436568672	0	0.8009812744505314	-0.1889580506398036	-0.2624079771536673	0.683212282208787	0.08218151389187185	0.6832122828579154	0.06149413753318936	-0.1803724728478286	-3.746007234461979e-05	-0.2083678069918279	0.1200998504345516	0.09372458247498117	-0.2012524852294926	-0.1326039759596316	-0.5128947361276605	1.137288056376913	1.570796326969429	0	0	-0.9721328353709213	-0.4922744569964192	-0.7582795201214532	0.5756791887133749	1.570796326969429	0	0
0.2282679370955254	-0.1645146446971256	-0.05301176262333447	-0.1257198960040269	0.20750220197101	0.8947906714311112	0.3179116170154236	0.2193122273339911	-0.1746704021590686	0.3342271908169911	1.734381555120639	0.1021521049148762	1.73724301631734	-0.2147982464356022	-0.03917548390017027	0	0.7936554590230931	-0.1874997650126528	-0.2595959327181224	0.6879568920750357	0.08218151389187188	0.6879568926812306	0.06105196956276433	-0.1857183792324774	-3.667229170700785e-05	-0.2190491684278633	0.1218374248401828	0.09169282459934003	-0.2021826310036343	-0.1296743417148242	-0.5122547448372556	1.128720641145914	1.57079632696943	0	0	-0.9599337635057051	-0.4961879140270849	-0.7512984233964448	0.5823446182121071	1.57079632696943	0	0
0.2302009768984097	-0.1588712374319681	-0.05352996187056249	-0.1253277479580283	0.2089890911570914	0.8952739707581343	0.3173250441495194	0.2311650441293745	-0.1724919378970257	0.3334550373265888	1.736613363263388	0.1021521049148762	1.739490033314626	-0.2146969129399844	-0.04401824641588685	0	0.7874360879963023	-0.186386591361719	-0.2577251398515251	0.6910427605189952	0.08218151389187182	0.6910427609303035	0.06078922584149059	-0.1894496243761488	-3.606753472051525e-05	-0.2278174665614698	0.1232766876892705	0.09015842444011007	-0.2027305522930561	-0.1274621502722404	-0.5115858339463225	1.122083710545622	1.570796326969429	0	0	-0.9501835210073457	-0.4991951321473577	-0.7456958238425694	0.5878443463677518	1.570796326969429	0	0
0.2315589714577417	-0.1548191428052907	-0.05392589763244453	-0.1251092025916203	0.2100033514678759	0.8956578482510555	0.3169102272349766	0.2395649220899859	-0.1709649074961786	0.3327533879455585	1.73775977356422	0.1021521049148762	1.740645402304658	-0.2146539147579545	-0.04735598445229684	0	0.7828068707087514	-0.1856170813642859	-0.2565812150602084	0.6928871161758894	0.0821815138918718	0.6928871164343857	0.06063983980505269	-0.1918407167845176	-3.56469596781913e-05	-0.2342003346082257	0.1243301883428582	0.0891084012278595	-0.2030231098929354	-0.125945945898579	-0.5110292151163195	1.117448138224172	1.570796326969429	0	0	-0.943214163768983	-0.5012850239587919	-0.7416784683526478	0.5918673726460491	1.570796326969429	0	0
0.2323208116596206	-0.1525151798417633	-0.05415918988500401	-0.1250069177780851	0.2105614461715075	0.8958891285853507	0.3166765590716558	0.2443012665068672	-0.1701095309216373	0.3323021006000914	1.738247395430057	0.1021521049148762	1.741136921518609	-0.2146409645208167	-0.04920324219354567	0	0.7801171114796432	-0.1851897880600708	-0.2560011912775769	0.6938048644466474	0.08218151389187181	0.6938048646446341	0.06056669549936061	-0.1930991053701047	-3.541237576771656e-05	-0.2378603402198342	0.1249361233073151	0.08852975265986275	-0.2031541178747122	-0.1251088615725415	-0.510686234734921	1.114857865826851	1.57079632696943	0	0	-0.9392616816870895	-0.5024496283735627	-0.7393954158555769	0.5941824787303307	1.57079632696943	0	0
0.2325	-0.1519701257552054	-0.05421520531157278	-0.1249849654499932	0.2106915763298834	0.8959451825139457	0.3166215017666467	0.245417643137164	-0.1699084812814264	0.3321899283164283	1.738345653366858	0.1021521049148762	1.741235958012736	-0.2146390957855307	-0.04963497738674415	0	0.7794748608934031	-0.1850897387477496	-0.2558712187679919	0.6940085162827767	0.08218151389187181	0.6940085164711071	0.06055048138446707	-0.1933864277423941	-3.535733332245339e-05	-0.2387293717358986	0.1250801743252706	0.08839475904763343	-0.2031814909814732	-0.1249133745630001	-0.510602395546826	1.114249729671752	1.57079632696943	0	0	-0.938327621937261	-0.5027227543339695	-0.7388553809820062	0.5947331094741486	1.57079632696943	0	0
0.2329542507337262	-0.1505830714861414	-0.05435913511192382	-0.1249328910059977	0.2110195263205744	0.8960900995530616	0.3164817649030572	0.2482516693586387	-0.1693990518348484	0.3318952741183824	1.738566710311906	0.1021521049148762	1.741458523216789	-0.214636466498813	-0.05072463873916829	0	0.7778304169832259	-0.1848368717589355	-0.2555527475974747	0.694503960094134	0.08218151389187182	0.6945039602675401	0.06051093795593248	-0.1941000463249791	-3.521801591110861e-05	-0.2409462737142706	0.1254479380987494	0.0880544533766444	-0.2032450311981334	-0.1244201806784934	-0.5103844934046773	1.112710000204044	1.57079632696943	0	0	-0.9359522352045624	-0.503413810557672	-0.7374811726599498	0.5961394386272978	1.57079632696943	0	0
0.234015784775164	-0.1473123701780176	-0.05470609623953378	-0.1248310742048906	0.2117751049791874	0.8964444566674136	0.3161543135709878	0.2548952529713431	-0.1682099405368424	0.3311491005768766	1.73892412201996	0.1021521049148762	1.741817808921547	-0.2146431413000049	-0.05324338407942369	0	0.7738969293916088	-0.1842501511412801	-0.2548701402495228	0.6955453839458634	0.0821815138918718	0.69554538414634	0.06042637250781109	-0.19568528539036	-3.489360628799883e-05	-0.2462038156755887	0.1263216437703368	0.08727000922072227	-0.2033609320942991	-0.1232808304541694	-0.5098455607221908	1.109122804721947	1.570796326969429	0	0	-0.9303595136478388	-0.5050214633042629	-0.734240824758478	0.5994845601577159	1.570796326969429	0	0
0.2356644464118399	-0.1421535728054737	-0.05527351575769928	-0.1247274904801907	0.2129187065949016	0.8970381020700037	0.3156433303753762	0.2652659598817192	-0.1663670512219496	0.3298300674014635	1.739030326894444	0.1021521049148762	1.741921769158912	-0.2146939744398724	-0.05707433878816691	0	0.7675395320832843	-0.183350235112655	-0.2539811780063804	0.6968401663916824	0.08218151389187182	0.6968401668136438	0.06031221115627424	-0.1979191378089635	-3.43926888718938e-05	-0.2545792133022137	0.1277172341637737	0.08608241870168146	-0.2034512218298137	-0.1215474495283659	-0.5089275644712932	1.103583211477861	1.570796326969429	0	0	-0.9215589766839969	-0.5074990211208966	-0.7291282428693	0.6048439153213799	1.570796326969429	0	0
0.2378741041940474	-0.1350956896830378	-0.05608560765622612	-0.1246907263372493	0.2143948212295732	0.8979153455598986	0.3149541081168378	0.2792510380653132	-0.1639048080332876	0.3277560931656185	1.738296344123298	0.1021521049148762	1.741173492393385	-0.2148517287530514	-0.0620427871740129	0	0.7585555915700498	-0.1821645314145653	-0.2531161915123971	0.6979621452875221	0.08218151389187184	0.6979621461495109	0.06017817663827163	-0.2004801440556438	-3.372592013070883e-05	-0.2661938703726986	0.1296582536109316	0.08455140069907208	-0.2034035994563865	-0.1192916328648249	-0.5075475158080855	1.096222435132362	1.57079632696943	0	0	-0.909549185374667	-0.5107856248975952	-0.7221248201445967	0.6123430487487375	1.57079632696943	0	0
0.2406098871668135	-0.1261459256784688	-0.05716626655781905	-0.1248026201832215	0.2161334908341402	0.8991284866869045	0.3140944138079523	0.2966694984829772	-0.1608689827538289	0.3247017064882147	1.735955068425779	0.1021521049148763	1.738795896892321	-0.2152127353338918	-0.06790660624029325	0	0.7467221483485955	-0.1807261172444547	-0.2525618630732028	0.6983847828583	0.08218151389187187	0.69838478377859	0.06001265121207854	-0.2029701380371077	-3.290534117242923e-05	-0.2811658964807839	0.1321661094110525	0.08275644639107826	-0.2030831965363498	-0.1166020090017092	-0.5056123702436081	1.08721734593705	1.57079632696943	0	0	-0.8943473664433512	-0.5148069220318967	-0.7132178372192814	0.6221353389210823	1.57079632696943	0	0
0.2438286436775879	-0.115348615048653	-0.05853144861049869	-0.1251486854558567	0.2180550666704142	0.9007307413810742	0.3130749559713019	0.3172524048263418	-0.1573155699420387	0.320418034531482	1.731099262235027	0.1021521049148762	1.733874769147917	-0.215907627347927	-0.07435812792193978	0	0.7318420418571123	-0.179070052590411	-0.252636503838255	0.6975297656506084	0.08218151389187188	0.6975297658967561	0.05976603130113377	-0.2049489398740904	-3.194270526440527e-05	-0.2995696371215654	0.1352511818330892	0.08079453715775049	-0.2023483427821785	-0.1135769008774061	-0.5030356410411538	1.076787955154135	1.570796326969429	0	0	-0.8760052097240781	-0.5194813098310539	-0.7024122502989752	0.6343842800952527	1.570796326969429	0	0
0.2474796094921079	-0.1028050995834561	-0.06018109245731203	-0.1258076940320148	0.2200757636753525	0.9027681911857522	0.311909793773103	0.3406305034014681	-0.1533090486523621	0.3146562393910872	1.722742469239562	0.1021521049148762	1.725422084339207	-0.2170990539191837	-0.08103317012528777	0	0.7137950529653586	-0.1772291666329552	-0.2536602023218458	0.6948247896245201	0.08218151389187188	0.6948247900138279	0.05933765301609562	-0.2059747966396	-3.084837174638746e-05	-0.321392034381161	0.1389035349602457	0.07877647658616407	-0.201068572962419	-0.1103161082999655	-0.4997552007847322	1.065192356519356	1.57079632696943	0	0	-0.8546244936311659	-0.5247259878563871	-0.6897440362094053	0.6492412886457625	1.57079632696943	0	0
0.25150520557877	-0.0886913190177589	-0.06209199829088093	-0.1268417056089179	0.2221135171991737	0.9052715788337315	0.3106166093796721	0.36633850541722	-0.1489202124047166	0.3071929519804624	1.709914067008625	0.1021521049148762	1.712460393954792	-0.2189771886597476	-0.08752910823595619	0	0.692587745768328	-0.1752300654741659	-0.2559221608466216	0.6897655603481067	0.08218151389187181	0.6897655611303996	0.05857081627380583	-0.2056468898243343	-2.963024817958166e-05	-0.3464916447193864	0.1430847741091571	0.07682167112587172	-0.1991428680428624	-0.106912925234696	-0.4957497118770056	1.052718844316791	1.57079632696943	0	0	-0.830370803531481	-0.5304613234782194	-0.6752938186237495	0.666819737971265	1.57079632696943	0	0
0.2558419453248002	-0.07326902602221931	-0.06421336311097986	-0.1282879029691318	0.2240936087035732	0.9082490237024126	0.309216742898169	0.3938282672149844	-0.1442238098233367	0.2978558439360318	1.691765174803588	0.1021521049148762	1.694124578729329	-0.2217434557305828	-0.09343220709677673	0	0.6683939243507132	-0.1730903035150388	-0.2596484847997534	0.6819752673612648	0.08218151389187182	0.681975267904132	0.05725956703438692	-0.2036454309030245	-2.829316062946638e-05	-0.3745675858906674	0.1477228515439003	0.07505134992017914	-0.196515604177473	-0.1034475823100934	-0.4910507738098653	1.03967514123447	1.57079632696943	0	0	-0.8034835548498802	-0.5366122930355653	-0.6591987769762511	0.6871670214482427	1.57079632696943	0	0
0.2604214354539589	-0.05688665488825764	-0.06646654602950103	-0.130153412580256	0.2259534712616091	0.9116808049988349	0.307734914711476	0.4224975665409552	-0.1392963043983337	0.2865472028143313	1.66768037943412	0.1021521049148762	1.669771624998281	-0.2255805572953933	-0.09835208795244638	0	0.6415774025661711	-0.1708176578460208	-0.2649743435709084	0.6712537756418341	0.08218151389187184	0.671253776444912	0.05516877199419607	-0.1997645875293512	-2.683993474476284e-05	-0.405145590998361	0.1527114249556682	0.07358049839494056	-0.1931875596081351	-0.09998318492039679	-0.485748133390201	1.026375229742406	1.57079632696943	0	0	-0.7742810780179544	-0.5431064314456246	-0.6416605595790504	0.7102374213501113	1.57079632696943	0	0
0.2651714545037473	-0.0399671550776954	-0.06875000338200328	-0.1324138286568174	0.227646138089494	0.9155171788610753	0.3061986063432986	0.4517257884046292	-0.134214044960541	0.2732633583851691	1.637375437951015	0.1021521049148762	1.639084209051162	-0.2306259909238355	-0.1019589903015223	0	0.6126906481503648	-0.1684121195923195	-0.2719243709776463	0.6576092913287039	0.0821815138918718	0.6576092913849704	0.05206597897371394	-0.1939341167991867	-2.527209168842178e-05	-0.4375863790803103	0.1579146643517031	0.07250910720347971	-0.1892198349341489	-0.09656480314216169	-0.47998629737236	1.013124881185139	1.57079632696943	0	0	-0.7431602995796376	-0.5498687553859375	-0.622947186520962	0.7358692151382153	1.57079632696943	0	0
0.2700170917444269	-0.02298246672045958	-0.07094924300064523	-0.135015531226599	0.229141957167118	0.9196797886940924	0.3046371234511848	0.4809115674443633	-0.1290520499727091	0.2581079549826285	1.600968203689587	0.1021521049148763	1.602150983342411	-0.236937321092243	-0.1040179818894477	0	0.5824466667536239	-0.1658705647753095	-0.2804044238720359	0.6412672526234217	0.08218151389187177	0.6412672532100481	0.04776020980356627	-0.1862269540996234	-2.359075584895928e-05	-0.4711178672838321	0.1631772895514781	0.07191363731989354	-0.1847296216445655	-0.09322172665850195	-0.4739524816445541	1.000207430776687	1.570796326969429	0	0	-0.7105912761022616	-0.5568152765699752	-0.6033877482094696	0.7637696347412396	1.570796326969429	0	0
0.2748819285398158	-0.006417335038782463	-0.07295037801791779	-0.1378812183701238	0.2304283939300595	0.9240666041056884	0.3030804320798945	0.5095029937923529	-0.1238834723786938	0.2412975448179644	1.559007621841504	0.1021521049148763	1.559507947381142	-0.2444768362407523	-0.1044142301413881	0	0.5516667773430943	-0.1631932866581138	-0.290206207189713	0.6226547686255519	0.08218151389187178	0.622654769008487	0.04214042736058245	-0.1768520912871192	-2.180209793026098e-05	-0.5048878975851	0.1683383802182674	0.07183976388514518	-0.1798782909095681	-0.08997220105876161	-0.4678576799266255	0.9878714694796488	1.57079632696943	0	0	-0.6771073857295776	-0.5638474169144463	-0.5833600302773723	0.79351062090531	1.57079632696943	0	0
0.2796892435043931	0.009272072548223898	-0.07465481167371721	-0.1409175707600493	0.2315080751720465	0.9285596768456484	0.3015578948086167	0.5370195551716918	-0.1187796768051557	0.223158566309118	1.512460409569392	0.1021521049148762	1.512130647509283	-0.2531080697898263	-0.1031647775587791	0	0.5212120796685864	-0.1603909139947973	-0.3010243103701383	0.6023629400080517	0.08218151389187178	0.6023629405451706	0.03520566632743653	-0.1661341807722908	-1.991812627759788e-05	-0.5380296057989524	0.1732465377197329	0.0722974246635691	-0.174853768165337	-0.08682942471632504	-0.4619141836514767	0.9763218646585829	1.570796326969429	0	0	-0.6432921697157834	-0.5708496527883592	-0.5632725699315844	0.8245370050332764	1.570796326969429	0	0
0.2843632224455918	0.0236976562469982	-0.0759921453691027	-0.1440237318145628	0.2323954476480214	0.933034481141751	0.300097080003794	0.5630627737143762	-0.1138107428259136	0.2041155042184871	1.462656859770274	0.1021521049148762	1.461375504830582	-0.2625972283923164	-0.100414746618832	0	0.4919100160147142	-0.1574899921992968	-0.3124831925877647	0.5810930540706605	0.08218151389187187	0.5810930541573075	0.02708024405588005	-0.1544831202588842	-1.796099371433696e-05	-0.5697286245984478	0.177773625925576	0.07325893644706051	-0.1698502526824686	-0.0838073778639508	-0.4563136606356561	0.9657149643386741	1.570796326969429	0	0	-0.6097637450512756	-0.5776918602595763	-0.5435437221289214	0.85618693785839	1.570796326969429	0	0
0.2888301540101398	0.03656985693879056	-0.07692878497175694	-0.1470992508940731	0.2331127255565464	0.9373692535345797	0.2987227677674932	0.587317215012141	-0.1090460837075696	0.1846713840040609	1.411205786869992	0.1021521049148762	1.408880707291323	-0.2726347508348865	-0.09641944927074188	0	0.4644890185033119	-0.1545358604027179	-0.324169457743513	0.5595960981066871	0.08218151389187181	0.559596098483075	0.01801129319171856	-0.1423586899038998	-1.595698511201266e-05	-0.5992805003638018	0.1818246658350313	0.07466047352641278	-0.1650489634047153	-0.08092523782940145	-0.4512097338261135	0.9561581013454531	1.57079632696943	0	0	-0.5771577421046991	-0.5842361070565557	-0.5245809703511833	0.8877219251876509	1.57079632696943	0	0
0.2930195921846577	0.04771449748854994	-0.0774706755256717	-0.1500508186414412	0.233685534218341	0.9414533253795246	0.2974562400440816	0.609540298120277	-0.1045549348672012	0.1653806762278933	1.359863617014256	0.1021521049148762	1.356434897848367	-0.2828630213916007	-0.09151413551463521	0	0.4395295452062039	-0.1515919249906837	-0.335666442653702	0.5386115128122514	0.08218151389187182	0.5386115132101413	0.008347703303386285	-0.1302330948388703	-1.394792576554896e-05	-0.6261310071782498	0.1853425665028699	0.07640686798332635	-0.1606021564186093	-0.07820959967224304	-0.4467074914221716	0.9477130530940623	1.57079632696943	0	0	-0.5461087602818165	-0.5903474003340607	-0.5067625004581388	0.9183645318521305	1.57079632696943	0	0
0.2968654673351004	0.05707237342152262	-0.07766029035175913	-0.1527962405341464	0.2341397026078582	0.9451920983065405	0.2963150021082088	0.6295419263645109	-0.1004060760950675	0.1468223149466457	1.310414308379556	0.1021521049148762	1.30585989739825	-0.2928987677540117	-0.08608279943944747	0	0.41744441131448	-0.1487362465214137	-0.3465800231699684	0.5188238373537588	0.0821815138918718	0.5188238374993375	-0.001489156061218845	-0.1185625579694208	-1.198343113200174e-05	-0.649889828332242	0.1883071341213995	0.07837873323105525	-0.1566251125059041	-0.07569440677683902	-0.4428617125768687	0.9404021966371859	1.570796326969429	0	0	-0.5172332758739883	-0.5959026545613213	-0.4904253570795477	0.9473335692483147	1.570796326969429	0	0
0.3003071283122631	0.0646868667912618	-0.0775684034468879	-0.155268020220421	0.2344975239547035	0.9485115053052745	0.2953126575581269	0.6471619868456038	-0.09666735578299354	0.1295629721637826	1.264528189922312	0.1021521049148762	1.258861649661425	-0.3023633927092783	-0.08051621212520489	0	0.3984721587803173	-0.1460546739008262	-0.3565680687044983	0.5008157852901978	0.08218151389187182	0.5008157855400871	-0.01105088031156629	-0.1077544807720093	-1.011997028328413e-05	-0.6703304047850134	0.1907301026948049	0.08044204912113304	-0.1531901095209164	-0.07341888361892072	-0.4396809743245718	0.9342172660339939	1.57079632696943	0	0	-0.4911093586198982	-0.6008033814347478	-0.4758549337502084	0.9738868409283967	1.57079632696943	0	0
0.3032902993364854	0.07067658024912601	-0.07728360740566569	-0.1574124684582644	0.234777339609693	0.9513563184147251	0.294459348687159	0.6622555175119816	-0.09340365016371184	0.1141360556379502	1.223685614345213	0.1021521049148762	1.216975888282403	-0.3109031075170683	-0.07519036122734031	0	0.3827090433779687	-0.1436348661400508	-0.3653441974164251	0.485065788327338	0.08218151389187181	0.485065788707676	-0.01989160366840697	-0.09816077935278457	-8.419384124601508e-06	-0.6873588442199969	0.1926462287585353	0.08245748304350013	-0.150333323247981	-0.07142444668060749	-0.4371391233841445	0.929128039745861	1.570796326969429	0	0	-0.468263671443674	-0.6049760369295981	-0.4632859667972387	0.997343420424175	1.570796326969429	0	0
0.3057679370955254	0.0752044923611499	-0.07690069906490929	-0.159188737161867	0.234993074919984	0.9536880924958475	0.2937622550841498	0.6746871741234171	-0.09067466690550145	0.1010185190994217	1.189131423868816	0.1021521049148762	1.181512147016344	-0.3182040382006454	-0.07044379966947091	0	0.3701456931144212	-0.1415597255522605	-0.3726812483029572	0.4719464102565838	0.08218151389187182	0.471946410672565	-0.02759951442088429	-0.09007088126043944	-6.94302394246322e-06	-0.7009783942866753	0.194103557767057	0.08429013504215289	-0.1480625718293077	-0.06975124549305416	-0.4351882569029424	0.9250915743236389	1.570796326969429	0	0	-0.4491579111491673	-0.6083721005482426	-0.4529044290215462	1.017106347348957	1.570796326969429	0	0
0.3077009768984096	0.07845001465180773	-0.07650941410273074	-0.1605691733912284	0.2351527833412159	0.9554846706976348	0.2932259616661505	0.6843311726347685	-0.08853316571763878	0.09060242480281987	1.161828950495702	0.1021521049148762	1.153472494665159	-0.3240209643035762	-0.06654941457746499	0	0.3606947772371057	-0.139900504797138	-0.3784216825411348	0.4617107695345437	0.08218151389187187	0.4617107699243594	-0.03383262264505701	-0.08369718824006124	-5.749301873925745e-06	-0.7112608720501726	0.1951546492460322	0.08581932634704474	-0.1463616612635301	-0.0684349590958355	-0.433770100231647	0.9220616113511372	1.570796326969429	0	0	-0.4341733204222944	-0.6109711450281365	-0.4448467935176447	1.032690451177583	1.570796326969429	0	0
0.3090589714577417	0.08057853997867499	-0.07618597678280048	-0.1615356865069273	0.2352608182275965	0.9567343422407916	0.2928532241402436	0.6910799057141767	-0.08702209683497357	0.08319151416996934	1.142482264256741	0.1021521049148763	1.133589829918344	-0.3281689635986224	-0.06371567575281091	0	0.3542425603597568	-0.1387139898702717	-0.3824602589547413	0.4545245249530503	0.08218151389187184	0.4545245252959784	-0.03832449509533174	-0.0791897967931573	-4.888448484676957e-06	-0.7183019876261264	0.1958477764962767	0.08694556840144856	-0.14520499931405	-0.06750449863949817	-0.4328288054698436	0.9199953994179682	1.570796326969429	0	0	-0.4236061330287103	-0.6127692704684392	-0.4392092279834923	1.043722898405492	1.570796326969429	0	0
0.3098208116596206	0.08171782330681721	-0.07598697898748791	-0.1620766891915003	0.2353199490432722	0.9574308665263842	0.2926455725771746	0.6948568945454904	-0.08617197542374999	0.07900035538636278	1.131570508013738	0.1021521049148763	1.122369768450163	-0.3305178438071898	-0.06209075504730857	0	0.3506907482719461	-0.1380408192353969	-0.3847278145622488	0.4504949781960386	0.08218151389187184	0.4504949785023476	-0.04088512986657196	-0.07665059247458231	-4.397446049993538e-06	-0.722185936826911	0.1962202407063607	0.08759615997852988	-0.1445700248280551	-0.06698042635695034	-0.4323206455040919	0.9188587818224683	1.570796326969429	0	0	-0.4176634213702907	-0.6137679006937532	-0.4360549492472713	1.049942445684363	1.570796326969429	0	0
0.31	0.08198006240455306	-0.07593834151443131	-0.1622038082382316	0.235333703	0.957594217	0.2925968840000001	0.6957443014215293	-0.08597177158354727	0.078011068179628	1.128998025996067	0.1021521049148762	1.119723897	-0.3310726098148514	-0.06170489509079385	0	0.3498624390898281	-0.1378817002427934	-0.3852613497467102	0.449547419703381	0.08218151389187184	0.44954742	-0.04149164811445134	-0.07605226208686205	-4.281118122216893e-06	-0.7230925510061396	0.1963061352089966	0.0877511413183935	-0.1444221302043831	-0.06685694486668703	-0.4322032032803704	0.9185937969127845	1.570796326969429	0	0	-0.4162641571977269	-0.6140017247163457	-0.4353139282153424	1.051408473572563	1.570796326969429	0	0
