DataType=double
version=3
OpenSimVersion=4.5
endheader
time	hip_flexion_r	knee_angle_r	ankle_angle_r	hip_flexion_r_u	knee_angle_r_u	ankle_angle_r_u
0	0.432858877408049	0.3614407798401865	0.04660681117952545	-2.177158242070809	0.9480432292350889	-5.553839326806585
0.0004542507337261803	0.4318706089163726	0.3618903336970317	0.04408918172088105	-2.17417438938404	1.031042191035788	-5.5309233296781
0.001515784775164009	0.4295658160700766	0.3630869721002533	0.03824633771842184	-2.168239097740152	1.223610746628882	-5.47732787876541
0.003164446411839883	0.4259985887731439	0.3653518613614606	0.02928537875597836	-2.15934264152449	1.523962381570747	-5.393030710989291
0.005374104194047435	0.4212385556443669	0.3691627075120725	0.01749532844796556	-2.149420611347672	1.92489119464457	-5.277721927110139
0.008109887166813518	0.4153715614884688	0.3751038446588012	0.003262580758700895	-2.14034041687076	2.417526394320928	-5.124365990775448
0.01132864367758793	0.4084917463377311	0.3838072141722212	-0.01291159715533449	-2.135592447493011	2.988594034609953	-4.922023267480254
0.01497960949210789	0.4006925983312751	0.3958784720099396	-0.03043057075175991	-2.138284038310564	3.620752259773757	-4.671793635385113
0.01900520557876997	0.3920603785771294	0.4118143555819225	-0.04864699742532301	-2.152377150365891	4.291511082687336	-4.374971224934028
0.02334194532480019	0.3826692317938386	0.4319273725433993	-0.06688924474524272	-2.180961881825326	4.976943923758659	-4.035141064374122
0.02792143545395889	0.3725823557407626	0.45627919104244	-0.08451773080139549	-2.226981414619685	5.648632912961828	-3.661690530154528
0.0326714545037473	0.3618580702820658	0.4846409786153738	-0.1009693806113214	-2.291271059039846	6.281649885651719	-3.264184229890627
0.03751709174442691	0.350560599382641	0.5164900590762052	-0.1157998051669137	-2.374752928327682	6.849734049358803	-2.857831918660886
0.04238192853981579	0.3387679263166554	0.5510242790360655	-0.1287287460350155	-2.476094987404109	7.333002069428789	-2.459809172772598
0.04718924350439309	0.3265929775153512	0.5872473881955107	-0.1396460883168955	-2.591486489400556	7.722049500764204	-2.08678401746083
0.0518632224455918	0.314192919639935	0.624055590333874	-0.1486153060454084	-2.716395899472587	8.014099758396002	-1.757472348596638
0.05633015401013977	0.3017741761540811	0.6603305758569018	-0.1558303317800173	-2.845239932944239	8.214912309169467	-1.478940465970925
0.06051959218465776	0.2895907622225721	0.6950242198581984	-0.1615387027823125	-2.971584541919555	8.337404073166116	-1.251924413485978
0.06436546733510043	0.2779363260947239	0.7272220222253927	-0.166000231881517	-3.089175099982321	8.398995027868992	-1.072478489680688
0.06780712831226307	0.2671251282347305	0.7561700170093308	-0.1694438120449004	-3.192837706261019	8.417897635442092	-0.9314035386920332
0.07079029933648544	0.2574703805038412	0.7812759367037034	-0.1720556127336924	-3.279388832130379	8.410202901564814	-0.8213039197839913
0.07326793709552543	0.2492591349434684	0.8020883608220651	-0.1739850576951815	-3.348432918970789	8.387570237396096	-0.7373007417478568
0.07520097689840965	0.2427359563414769	0.8182761723831681	-0.1753506367700876	-3.400468258870285	8.359392885389362	-0.6761516619808354
0.0765589714577417	0.2380939459502409	0.8296116441832195	-0.176240841347473	-3.435809779058177	8.334510357371029	-0.6351952074959
0.07732081165962061	0.235469231780996	0.835955494538849	-0.1767162244563646	-3.454438593641589	8.319329324659671	-0.6127833553811963
0.0775	0.234849860284899	0.8374458827641897	-0.1768255497732971	-3.45846864517313	8.315776945734278	-0.6075231969903654
0.07795425073372618	0.2332765892919096	0.8412211085355095	-0.1770985296945886	-3.468703458015439	8.30589522388496	-0.594484040611353
0.07901578477516402	0.2295804685821982	0.8500245561069706	-0.1777142845834972	-3.495144493833404	8.279553651034055	-0.5660231247355423
0.08066444641183987	0.2237844466536497	0.8636352602301678	-0.1786136984005005	-3.535974010014367	8.230207008050733	-0.5258061487055739
0.08287410419404742	0.2159112453855874	0.8817370116761627	-0.1797218004840225	-3.589878119273948	8.151803032752035	-0.4782670438328491
0.08560988716681352	0.2060033079164583	0.9038871337732037	-0.1809596546517112	-3.652430487333408	8.038595921925287	-0.4282935070136369
0.08882864367758794	0.1941389234726186	0.9295268753500875	-0.1822599352303511	-3.717826938309196	7.890963381270764	-0.3817775928255296
0.09247960949210787	0.1804520152464182	0.9580162314356867	-0.183579395694858	-3.776972482258277	7.714831123716426	-0.3434282395781865
0.09650520557876997	0.1651505289444616	0.9886798517956681	-0.1849040645505781	-3.821293313496006	7.519568977911273	-0.3175354957311276
0.1008419453248002	0.1485231427843765	1.020831091875156	-0.1862548673440995	-3.842055891217761	7.307015086878422	-0.3086971071239923
0.1054214354539589	0.1309390850873165	1.053771366458613	-0.1876859965451964	-3.831564586873499	7.07885687974251	-0.3194321301342811
0.1101714545037473	0.1128429826661208	1.086840842424728	-0.1892626092648358	-3.780608770816033	6.846804973251976	-0.3463772233643936
0.1150170917444269	0.09474182694567057	1.119476630124702	-0.1910251030981048	-3.682417767542149	6.627345211757426	-0.3817310414525834
0.1198819285398158	0.07716954468045051	1.151237924305392	-0.1929712848566367	-3.533074128893952	6.435511309384882	-0.4180430034345419
0.1246892435043931	0.06064309370198923	1.181787232025198	-0.1950600850231506	-3.333809767460524	6.28005800248363	-0.450039046271844
0.1293632224455918	0.04561257453949008	1.210857158394475	-0.197224287633659	-3.089357671847603	6.165016816191081	-0.474863099180407
0.1338301540101398	0.03242129373921826	1.238212762078603	-0.1993852507342975	-2.809405346042177	6.088373026391992	-0.4913583399537176
0.1380195921846578	0.02127257052924886	1.263619258245289	-0.201462529857324	-2.50645134989511	6.044856896699612	-0.4989649697267482
0.1418654673351004	0.01222099723008668	1.286825844970888	-0.203383332516176	-2.195724082616129	6.026668915787797	-0.4987784569027167
0.1453071283122631	0.005179061160961063	1.307562106876846	-0.2050912657672606	-1.89256333902709	6.02566906526611	-0.4928649456166529
0.1482902993364854	-5.226694977294999e-05	1.325548475655187	-0.2065492190870107	-1.612122095104161	6.034103773865711	-0.4841259954715227
0.1507679370955254	-0.003745688349975684	1.340512731583236	-0.2077377444787094	-1.367480068715681	6.045983382876377	-0.4750630159318612
0.1527009768984096	-0.006198928738457343	1.352210709550943	-0.2086488250976642	-1.169938242035201	6.057475937818827	-0.4676211103278889
0.1540589714577417	-0.007691651412553291	1.360442861967009	-0.2092804854981977	-1.027905211206195	6.066768605130843	-0.462742541058534
0.1548208116596206	-0.008443951355796453	1.36506708107393	-0.2096321159124957	-0.9471013335757115	6.073018875638262	-0.4605036018912414
0.155	-0.008611976071919214	1.366155441773267	-0.209714600023947	-0.9279160795623143	6.074787557795258	-0.4600938943636597
0.1554542507337262	-0.009022408443396801	1.368916024729568	-0.2099233473086339	-0.8791566338548775	6.079333592400596	-0.4588797010413406
0.156515784775164	-0.009894938542121645	1.375373649289636	-0.2104081959326675	-0.7645091322889388	6.087121913384392	-0.4543098603517453
0.1581644464118399	-0.0110066032314432	1.385419134617077	-0.2111494942098722	-0.5834761636862111	6.099035226504489	-0.4444839279355586
0.1603741041940474	-0.01202326466336467	1.398912539780083	-0.212113361950411	-0.3358170094321886	6.113960101029447	-0.4272283565297563
0.1631098871668135	-0.01251465597488072	1.415663067501365	-0.2132471809192225	-0.02225186121474354	6.131042073423675	-0.4008362634286953
0.1663286436775879	-0.01198195615270625	1.435421652043013	-0.2144797824040167	0.3544773629393737	6.144659582040356	-0.3641372753780279
0.1699796094921079	-0.009896158814341249	1.45786600385074	-0.215724609359499	0.789140034659995	6.147764610005474	-0.3169914022230702
0.17400520557877	-0.005746167892922593	1.482586383750421	-0.2168883820274152	1.27309102374503	6.129575394665697	-0.2605497661628497
0.1783419453248002	0.0009066216704093355	1.509070926394628	-0.2178801863815147	1.794571464702575	6.078399541472193	-0.1965478203644073
0.1829214354539589	0.01037534771656978	1.536700904790448	-0.2186256093758252	2.339127818863772	5.980199707729033	-0.1294344081655865
0.1876714545037473	0.02280248594965939	1.56475696869672	-0.2190816113701619	2.890423156351785	5.822791553385677	-0.0631750964943274
0.1925170917444269	0.03812832549594408	1.592450631447718	-0.2192330239684688	3.430849963580335	5.595697265867317	-0.0003808717141495777
0.1973819285398158	0.05607920369359576	1.618968225915365	-0.2190967788416513	3.943331710171604	5.292990384886053	0.05499610040595604
0.2021892435043931	0.07618026107362896	1.643533254054091	-0.2187178126173462	4.412609022049627	4.91282041140113	0.1010928034967589
0.2068632224455918	0.09779053850140743	1.665470909385029	-0.2181608172254157	4.827145452493699	4.460396771892472	0.1352801356816551
0.2113301540101398	0.1201583380428232	1.684280884337096	-0.2175043813926664	5.180428022407643	3.948344227827794	0.1568142367645762
0.2155195921846577	0.1424847475107248	1.699691916772266	-0.2168232149606618	5.471385698023639	3.397590879307653	0.1665431850014705
0.2193654673351004	0.1639837532624361	1.711692303884123	-0.2161821338206286	5.703242282310735	2.834019309510222	0.1650660459714821
0.2228071283122631	0.1839275527773293	1.720513983721839	-0.2156298884302328	5.881831748985623	2.285838481147921	0.1543110822538587
0.2257902993364854	0.2016769609801161	1.726584570321371	-0.2151932750581715	6.014428052749274	1.779199798316974	0.1370607964550685
0.2282679370955254	0.21669871257789	1.730449060882647	-0.2148785654202696	6.109153247269777	1.33731373808747	0.1158434743584436
0.2302009768984097	0.2285714936519377	1.732690652980668	-0.2146743805670151	6.173472084097413	0.9800223067489018	0.09481747046387978
0.2315589714577417	0.2369827195691142	1.733847333436833	-0.2145569403027559	6.21357190489595	0.7228861197188987	0.07781538198408233
0.2323208116596206	0.2417244734863117	1.734342729250883	-0.2145015070553664	6.234397318591747	0.5775199151370383	0.06775632278270871
0.2325	0.2428420294757133	1.734443136870154	-0.2144895677313083	6.239187628882041	0.5436391046091011	0.06536472579470631
0.2329542507337262	0.2456788530620352	1.734670900774602	-0.214461296107339	6.250872531863594	0.4581159279441902	0.05898922765898984
0.234015784775164	0.2523281893949342	1.735046361419113	-0.2144075651408246	6.276513112830118	0.2486709524594004	0.04177332080037122
0.2356644464118399	0.2627058679082915	1.735185422678805	-0.2143640422235992	6.311822432267793	-0.0813424316860667	0.01009177895376778
0.2378741041940474	0.2766975739114333	1.734503621188877	-0.2143961001259832	6.350635173506657	-0.5382018505832242	-0.0405667027550618
0.2406098871668135	0.2941213508572348	1.732237756283192	-0.2146053897124535	6.384376940759248	-1.121731104027739	-0.1143033766153092
0.2438286436775879	0.3147077038846347	1.727484634709616	-0.2151308709922004	6.403418836405837	-1.836415390485907	-0.2145209739195759
0.2474796094921079	0.3380871254759402	1.719256180109399	-0.2161467310629442	6.399625372075294	-2.675448650122644	-0.3449866183528019
0.25150520557877	0.3637948486490309	1.706578935487732	-0.2178596072930589	6.367953152192304	-3.626347206431107	-0.5093606670805966
0.2558419453248002	0.3912852508536596	1.688602400370269	-0.2204874966383698	6.305506842393871	-4.665452567648849	-0.7052009191266868
0.2604214354539589	0.4199603775977291	1.664713574312732	-0.2242196229043711	6.213893924595008	-5.767172899718015	-0.9269742435899284
0.2651714545037473	0.4492072084898251	1.634624390998322	-0.2291920296794932	6.097427555920676	-6.898814263247765	-1.167845118273972
0.2700170917444269	0.4784322956771813	1.598444747432394	-0.2354553839576868	5.962826378825603	-8.028790373127055	-1.417558789098976
0.2748819285398158	0.507088850464986	1.556707388531503	-0.2429611403766403	5.816881019912647	-9.12164434873845	-1.667596076526842
0.2796892435043931	0.5346939127801178	1.510368536746776	-0.2515597109532754	5.66728986348424	-10.14645437061287	-1.90811687354992
0.2843632224455918	0.5608417501482046	1.46075015821216	-0.261004141332616	5.521861006693641	-11.07189978633932	-2.131106260568718
0.2888301540101398	0.5852067652928066	1.409466303986451	-0.2709765313060601	5.388681291133424	-11.87541242746702	-2.331714140724684
0.2930195921846577	0.6075385618874494	1.358285380673808	-0.2811169160583066	5.274494154132451	-12.54264848140656	-2.506811122733395
0.2968654673351004	0.6276433199405997	1.30900156387436	-0.2910445266264747	5.18315093060265	-13.07388886542405	-2.653627778822097
0.3003071283122631	0.6453596307562939	1.263284937312898	-0.3003869021127528	5.11416140360575	-13.48158938378562	-2.773358297877371
0.3032902993364854	0.6605406391214199	1.222608625571254	-0.3087997965816046	5.065435661735879	-13.7805245055586	-2.8644954056789
0.3057679370955254	0.6730491003676369	1.188198390158366	-0.3159804783969156	5.032624342717385	-13.99049254482784	-2.931030266591375
0.3077009768984096	0.6827555296146751	1.161012356733383	-0.3216947330624012	5.010436670456697	-14.13536031656397	-2.981040711977771
0.3090589714577417	0.6895496711137308	1.141751607733567	-0.325766540115567	4.9956818496939	-14.22969136441712	-3.015751096105225
0.3098208116596206	0.6933523739103369	1.130891874144053	-0.3280715867525539	4.987273300941994	-14.27961775064682	-3.035624323642249
0.31	0.6942458631411523	1.128332035823933	-0.3286159632564951	4.985219908129298	-14.29059335672371	-3.040329003631422
