DataType=double
version=3
OpenSimVersion=4.5
endheader
time	hip_flexion_r	knee_angle_r	ankle_angle_r
0	7.68306587861381	184.7657135277236	50.451617427349
0.0004542507337261803	5.858246123066344	181.4762444804155	50.4232566125203
0.001515784775164009	5.596145615938703	181.8988133453799	50.68136986977167
0.003164446411839883	5.019736529350297	182.0043022998792	51.51800555880561
0.005374104194047435	4.018620526822765	180.928722431842	53.2753205039995
0.008109887166813518	2.505361801932949	179.0009348984082	59.29557324905472
0.01132864367758793	0.4689910835902822	175.6938190901578	65.91455835897656
0.01497960949210789	-2.020538074094965	170.2646773535351	71.04661688167587
0.01900520557876997	-4.968224213039463	162.8165699690504	76.2628108465629
0.02334194532480019	-8.267480874522001	152.8423194085412	80.13353175337193
0.02792143545395889	-11.7804043248782	140.3356447439299	82.81408709778054
0.0326714545037473	-15.32952800295002	125.769659275676	84.20055466024347
0.03751709174442691	-19.09933114689482	108.4225794817058	83.13196530430473
0.04238192853981579	-22.48793731079846	90.18130960626293	80.1857743999788
0.04718924350439309	-25.45653556499916	71.59013169697475	74.4012376448123
0.0518632224455918	-27.90843672718798	53.42636983375115	66.35778994691296
0.05633015401013977	-29.65721559654268	36.63650553222746	58.25912024187991
0.06051959218465776	-30.51813366302686	22.08708859362257	50.1028247672925
0.06436546733510043	-30.48448970417986	10.20535696101172	43.46319427178741
0.06780712831226307	-29.61746218225866	1.013136098207873	38.67374998197914
0.07079029933648544	-28.38005846575057	-6.123855778593093	35.23099616802345
0.07326793709552543	-27.35545185519484	-12.20062136192744	32.59073971084489
0.07520097689840965	-26.45768766600808	-16.88151712080347	30.73223541670357
0.0765589714577417	-25.38472347973448	-19.59290238025123	29.61838523917694
0.07732081165962061	-23.03387921021378	-19.95259159008447	29.32561673181741
0.0775	-20.08541549381168	-21.18601279480549	29.55792643113669
0.07795425073372618	-24.1519135077298	-22.51598928526187	27.98340796404784
0.07901578477516402	-24.92604698859753	-27.08441942046237	25.79048075153476
0.08066444641183987	-24.73176332106752	-32.45801840280797	23.06621776463632
0.08287410419404742	-23.81145228016756	-38.40126168355778	20.0457655298313
0.08560988716681352	-21.87224540597806	-43.89440740920706	16.47624748681365
0.08882864367758794	-18.51791997446963	-47.42693849342215	12.51666754648829
0.09247960949210787	-13.8310862344234	-48.59448969696463	8.54528209006082
0.09650520557876997	-8.066451130530758	-48.52506301777694	4.317875028326531
0.1008419453248002	-1.477545563700502	-49.58339347231576	-0.2104608330882805
0.1054214354539589	6.268795631536811	-49.72372882043894	-4.261650103468448
0.1101714545037473	15.30342067270471	-47.54884461906852	-6.768165032217066
0.1150170917444269	25.38221812629619	-42.63251342599462	-7.576998508456811
0.1198819285398158	36.04734730148714	-36.04661065509234	-7.189440793650135
0.1246892435043931	46.93254611201831	-28.4752822399272	-6.029406017636216
0.1293632224455918	57.62896078481023	-20.77250759116462	-4.547767065876023
0.1338301540101398	67.70615673035053	-13.57992206493063	-2.766453136063983
0.1380195921846578	76.81540900984297	-7.319046415600788	-0.8519417683924573
0.1418654673351004	84.72452690539497	-2.251561272760618	0.9537077507439697
0.1453071283122631	91.33216556207319	1.516091982033341	2.425887245533961
0.1482902993364854	96.65184063499666	4.018074388374838	3.384316612041351
0.1507679370955254	100.7344634235499	5.476734767945516	3.850492824668024
0.1527009768984096	103.6371556423779	6.423368343711829	3.774595700479653
0.1540589714577417	105.4909325739486	7.418792284551792	3.299319730159377
0.1548208116596206	106.8009677074908	9.4039547197332	2.450156866569921
0.155	107.4155642246984	12.77214265035103	1.820781163112962
0.1554542507337262	107.3955758732422	8.186547608761536	3.360417205468472
0.156515784775164	108.7189264044345	7.276347612487861	5.044683488414456
0.1581644464118399	110.8250945982385	6.963192922364549	6.824114168126796
0.1603741041940474	113.2913850587827	6.675702297936148	8.704115771115456
0.1631098871668135	115.8354323021672	5.498652531213907	10.52396019263125
0.1663286436775879	118.1331653341503	2.864637423028899	12.20068738275498
0.1699796094921079	119.7953130546476	-1.471560881286344	13.52281351678841
0.17400520557877	120.4450043127598	-7.748865490095113	14.46353112286358
0.1783419453248002	119.8233931912331	-16.20233537056201	14.88742113947822
0.1829214354539589	117.7670435538407	-26.9139684149083	14.32106063764978
0.1876714545037473	114.0850605979539	-39.67304422350386	13.56047680849902
0.1925170917444269	108.7088852722853	-54.2754148763793	12.22825494469033
0.1973819285398158	101.7101613812653	-70.46101448013191	10.53332911874617
0.2021892435043931	93.29470098430897	-87.88791658593297	8.531910357762214
0.2068632224455918	83.91202789552028	-105.8574350733004	6.052980902093454
0.2113301540101398	74.17449615369918	-123.3743482502124	3.573621009203816
0.2155195921846577	64.69087093973427	-139.4690027679993	0.9952371675468115
0.2193654673351004	55.87165947306307	-153.4171540830747	-1.817766024512039
0.2228071283122631	47.89631803425848	-165.0299331091261	-4.454939284105841
0.2257902993364854	41.02687502913918	-174.5469846674511	-7.239780362789119
0.2282679370955254	35.45032173687561	-182.082667818726	-9.875385054194055
0.2302009768984097	31.0788257425621	-187.5309867914978	-11.88281752690508
0.2315589714577417	28.02165158669978	-190.913940260129	-13.04844470163337
0.2323208116596206	26.79583739911992	-189.7569157527397	-13.31954733574276
0.2325	26.05510540140178	-179.3439992458806	-13.16213738234857
0.2329542507337262	25.30930271444318	-194.1791049527582	-14.8132580614426
0.234015784775164	23.02003114654401	-198.1478436586778	-17.47691559353404
0.2356644464118399	19.82660474837764	-203.1702937996456	-20.89139725354044
0.2378741041940474	15.24752025489482	-209.6367776700692	-24.84064502357547
0.2406098871668135	9.396835586707283	-217.4198745219211	-28.9587907184943
0.2438286436775879	2.500863876135917	-226.061687253584	-33.27056410502046
0.2474796094921079	-4.407080097882741	-233.3550286203566	-38.23488042584334
0.25150520557877	-11.20739259672579	-238.3419955995303	-43.19821102295321
0.2558419453248002	-17.34688380406271	-240.5689985573181	-46.89304176520596
0.2604214354539589	-22.45602297143928	-239.917653382918	-49.80348141511469
0.2651714545037473	-26.33411447431891	-236.2368674947258	-51.32089550240862
0.2700170917444269	-29.06021228275189	-229.4736969054321	-51.62517549735492
0.2748819285398158	-30.74524339874569	-219.420310254418	-50.93450737145649
0.2796892435043931	-31.31607044552374	-206.1751999677923	-48.96993143095236
0.2843632224455918	-30.68079242008537	-189.2906535785799	-46.34791144128305
0.2888301540101398	-28.72354906677302	-169.80778083348	-43.41781109820957
0.2930195921846577	-25.5715581359558	-148.3910552179836	-39.99402125412374
0.2968654673351004	-21.86163163248382	-127.8223367052851	-36.41238343570357
0.3003071283122631	-18.13141995184998	-108.9234121152543	-32.87741952604325
0.3032902993364854	-14.54365149725526	-91.40968530652395	-28.15112079094304
0.3057679370955254	-12.09928933162071	-78.73186066702397	-26.09009218540151
0.3077009768984096	-10.99695209675833	-71.47851740441547	-25.61026326421674
0.3090589714577417	-10.85713090944779	-67.48039199196916	-25.76962306107107
0.3098208116596206	-11.33887270080965	-62.50399661708477	-26.3024569140024
0.31	-11.49150787849791	-61.10197391520323	-26.45977247610752
