DataType=double
version=3
OpenSimVersion=4.5
endheader
time	bflh_r	bfsh_r	gasmed_r	glmax2_r	iliacus_r	recfem_r	soleus_r	tibant_r	vasmed_r
0	0.06832890773212626	0.04482724000316034	0.02331850399610601	0.0001797388645161296	0.1505257079983132	0.0219769878556642	0.0002312495408038691	0.08133437803875543	0.0003469859752312712
0.0004542507337261803	0.05947867713565242	0.04582176442000398	0.02078810876676814	0.0001655748409944875	0.1367669427684138	0.005393093419755293	0.0002111484737116183	0.07719867804351609	0.0002931463073287806
0.001515784775164009	0.06177832812330434	0.04494264981905056	0.02135417658016804	0.0001677317391682955	0.1357372746026104	0.004151072964574138	0.0002145446757206081	0.07690492946286584	0.0002944318114294393
0.003164446411839883	0.06593879175995694	0.04349649535853677	0.02233269340524626	0.0001710370343157553	0.1345410385012054	0.00340584468118533	0.0002197975449778944	0.07666912284990371	0.0002984567417161162
0.005374104194047435	0.07097661591384548	0.04162130831285319	0.02349497953947331	0.0001746787965297896	0.132884849764371	0.002759522886701711	0.0002257097812110095	0.07625809428224306	0.0003031683131310176
0.008109887166813518	0.07807344937635513	0.03936145697307846	0.02495834737436235	0.0001774574586591283	0.1300494785418206	0.002433492670274366	0.0002306260943572609	0.07604994559236801	0.0003068336069154794
0.01132864367758793	0.08720054163479779	0.03680923914545924	0.02667849053254287	0.0001788416347792178	0.1257935874488414	0.002300839095718507	0.000233773416606201	0.07609770969217017	0.0003083139215599999
0.01497960949210789	0.09741884214129098	0.03420891671050105	0.02845537507973896	0.0001783540425104245	0.1202538349051633	0.002198272013916537	0.0002343731580768048	0.07634066766511641	0.0003065593146920202
0.01900520557876997	0.1089531049132682	0.03162015532739511	0.0302376827524632	0.0001747343749374364	0.1127571216791144	0.002103146918501048	0.0002306621917782867	0.0768501814324596	0.0002993486966536692
0.02334194532480019	0.1207832329757825	0.02924964503051034	0.03181076645758223	0.0001674840267656347	0.1035386688366202	0.002108166649961465	0.0002218453436636898	0.07752657942212121	0.0002860623714999614
0.02792143545395889	0.1320090449801908	0.02726788950893024	0.03298467356736949	0.0001561512489190623	0.09274835227391916	0.002227390538229433	0.00020720985848245	0.07826079388238986	0.0002660100274605782
0.0326714545037473	0.1417592445337697	0.0257870122456168	0.03359509364034526	0.0001405587764985808	0.08042977495822944	0.002145189111534246	0.0001864486565969052	0.07886528244335117	0.0002383723021767984
0.03751709174442691	0.1485309676173814	0.0247901917700138	0.03333329427450087	0.0001199752058593888	0.06655074534010583	0.002014523766935563	0.0001585274879681544	0.07884192965598159	0.0002022573714436717
0.04238192853981579	0.152420904112701	0.02430868592180597	0.03243997201249541	9.760229929821896e-05	0.0529532302564289	0.001976475956221966	0.0001278624537371557	0.07842458187351578	0.0001634268585401815
0.04718924350439309	0.1533060217606826	0.02416352830786979	0.03099428524527421	7.480981071492235e-05	0.04018875109788907	0.002024019050522683	9.641948354727592e-05	0.07744394959272086	0.0001242251469939806
0.0518632224455918	0.1512522095601078	0.02419608313306417	0.02913281315477094	5.333029387397838e-05	0.02898082837643041	0.002127408848536285	6.666156964946831e-05	0.07582604774121142	8.75693737379278e-05
0.05633015401013977	0.1463180103162343	0.02447802329015185	0.02698919626053445	3.494666179100364e-05	0.02035743283662499	0.002250295553503456	4.102595583611929e-05	0.07374951039323085	5.646185426061416e-05
0.06051959218465776	0.1389386331838115	0.02498393447594362	0.0247597675083704	2.138313110861161e-05	0.01506823190743777	0.00225997925065993	2.191657512595565e-05	0.07138839262551736	3.36024091405765e-05
0.06436546733510043	0.1298244037598493	0.02577211390270646	0.02261082820055272	1.329236974897477e-05	0.01343487021915495	0.002227359298215807	1.022535129125506e-05	0.06906406477867952	2.020245537912328e-05
0.06780712831226307	0.1197010869387145	0.02691034881484199	0.02066720293442744	1.070239607894487e-05	0.01552584967320201	0.002369004277026083	5.976138123475838e-06	0.06709905389713426	1.666166588972893e-05
0.07079029933648544	0.1093532128923272	0.02808742189721533	0.01892079215491677	1.14813655571402e-05	0.01955476647949648	0.002524209474076587	6.365398126313197e-06	0.06527160232671153	1.895895838413054e-05
0.07326793709552543	0.09958273987307542	0.02908285831326286	0.01729573719274011	1.252000645943054e-05	0.02340130161259799	0.002703004664105561	7.199984599886917e-06	0.06343681191859034	2.170316097645219e-05
0.07520097689840965	0.09114284555309446	0.02991304416154167	0.0159385230444279	1.407036836536886e-05	0.02706496059835705	0.0028952469630663	8.83630893351565e-06	0.06185488984686141	2.526498176750497e-05
0.0765589714577417	0.08434303850868853	0.03072833101712683	0.01500149892189953	1.759451904465536e-05	0.0314636980093567	0.00310217145788098	1.324006933605015e-05	0.06085668173168738	3.215089537214287e-05
0.07732081165962061	0.08217669851931514	0.03219050401884056	0.01556060564997975	3.133417010000306e-05	0.04366823094863761	0.007692185450475441	3.157474841380842e-05	0.06296757866153523	6.430663502357885e-05
0.0775	0.08829732738308525	0.03415044543623829	0.0182140849594972	5.485854013228427e-05	0.06527759451293963	0.02172475869330977	6.335590728239951e-05	0.06968265216302863	0.0001299283473377195
0.07795425073372618	0.07709896745690979	0.03161105608027046	0.01407218379558071	2.233696894352446e-05	0.03699028660447712	0.003844800613852518	1.928988691832692e-05	0.05991406228000804	4.213370462200898e-05
0.07901578477516402	0.07132717644555654	0.03132798545601347	0.01267070734590703	1.637886408315405e-05	0.03400707917992287	0.002821504468272822	1.105996906200991e-05	0.05743140507943825	3.036153321087525e-05
0.08066444641183987	0.06185918986820883	0.03160297279823052	0.01095444740911707	1.514642453677398e-05	0.03546987790133131	0.002613661884185735	9.059371134544356e-06	0.05474539579819899	2.844703373641578e-05
0.08287410419404742	0.04867206460553469	0.03223308189968643	0.008801522902944434	1.689153659438751e-05	0.03972640419745035	0.002381178282014796	1.095762866259445e-05	0.05144897816833295	3.185237690853657e-05
0.08560988716681352	0.03279565561502574	0.0332380311908477	0.006495291333595618	2.314125246737262e-05	0.0475005931735625	0.00226222261792645	1.887772662439446e-05	0.04796873132743158	4.339477448762117e-05
0.08882864367758794	0.01565162518326719	0.03466233921250422	0.00442669508659829	3.600501359031712e-05	0.05966538288173965	0.00217532450766994	3.574628810404033e-05	0.04488256871716337	6.647338855973865e-05
0.09247960949210787	0.002480714161991192	0.03666978936044737	0.003476935035992103	5.52970956074064e-05	0.07667654227336698	0.004727020245743174	6.132931339259547e-05	0.04425778966527914	0.0001051808944213496
0.09650520557876997	0.001473776607694964	0.03918038958497391	0.005061869190411756	8.117749232752656e-05	0.1003347364454549	0.01628735866335839	9.601314713266016e-05	0.04923119723778249	0.0001708334291318413
0.1008419453248002	0.001422142402487418	0.04208139161628726	0.007087061122870749	0.0001111396771514684	0.1292689577559235	0.0329354897637114	0.0001361774557592766	0.05568512212152948	0.0002526862464144478
0.1054214354539589	0.00138247631201384	0.04532862124588413	0.009380206854768501	0.0001450094168962112	0.1621319644603554	0.05211856692313211	0.0001815919670449928	0.06299133129039912	0.0003458703674412296
0.1101714545037473	0.001875078171559647	0.04891876365840477	0.01203016999251586	0.000182775636378113	0.1981098086569399	0.0725529732003755	0.0002322581776578318	0.07116367656899711	0.0004480101246362295
0.1150170917444269	0.002306334333079712	0.05272949776397084	0.0148611920806935	0.0002233390276925705	0.2356370213792776	0.09251617602891515	0.000286702150688209	0.07964243160738978	0.0005541238817696596
0.1198819285398158	0.001754617398494784	0.05658512098549	0.01762238602998762	0.0002653194963426683	0.2737437808472135	0.1116584321288046	0.0003430716396171379	0.08784649202435936	0.0006612508013406423
0.1246892435043931	0.001405225666566951	0.06034284715315869	0.02045032230918022	0.0003077242871941339	0.3118620325120939	0.1306896048713234	0.0004000728094033184	0.09601321523589929	0.0007688903432724529
0.1293632224455918	0.001447648136186747	0.06382636024396017	0.02329228614644083	0.0003492840724668126	0.3491594273523758	0.1498157873187702	0.0004560260419580466	0.1039685359542964	0.0008752120682365983
0.1338301540101398	0.001534053081792107	0.06688922985230342	0.02598188537724226	0.000388429543630067	0.3843724239718682	0.1684853280914418	0.0005088172711171196	0.1113082442540324	0.0009765304177184148
0.1380195921846578	0.001665481677172105	0.06943129418810105	0.0284253578190024	0.0004237890395044686	0.4163832293323758	0.186242873935296	0.0005565929720873418	0.1178062210674338	0.001069655401813899
0.1418654673351004	0.001825923853175676	0.07140772676884345	0.03055384587642417	0.00045440514312705	0.44439210812322	0.2026726572563408	0.0005980490953138518	0.1233162677059559	0.001152185126796967
0.1453071283122631	0.001963933413834414	0.07283242103991905	0.03232669117277109	0.0004798278136265504	0.4680099354511751	0.2174608178139875	0.0006325578427769716	0.1277815482153223	0.001222780226829388
0.1482902993364854	0.002097934726775679	0.0737546424085241	0.0337456806912274	0.0005000529067395947	0.4872204735660541	0.2304788391592955	0.0006600939967712678	0.1312474914632425	0.001281201814901252
0.1507679370955254	0.002315652012857163	0.07424606473457163	0.03483555403676851	0.0005152407376746677	0.502056314456188	0.2414989269301938	0.0006808522591408177	0.1338023956083801	0.001327311023373071
0.1527009768984096	0.002735275713205687	0.07439535351343383	0.03564536895569084	0.0005258269602357293	0.5124300742989096	0.249770345337766	0.0006954038468364759	0.1355181383232207	0.001360494543270364
0.1540589714577417	0.003421116558398655	0.07436288906538022	0.03625186344957677	0.000532796559786377	0.5187244668118371	0.2546757183685335	0.0007050483845003997	0.1365700767026342	0.001381332452598176
0.1548208116596206	0.007432349196624265	0.07429484343074663	0.03735547302812336	0.0005387110169714228	0.5233488341753879	0.2588854993854942	0.0007133157807889169	0.1384759601255652	0.001398892247955747
0.155	0.02010744985771603	0.0737371884369266	0.03971391236102841	0.0005411944890372999	0.5256552462590343	0.2665856268661121	0.0007171941718785506	0.1427227346634664	0.001416325245731871
0.1554542507337262	0.004267030579047265	0.07431511566766252	0.03691256852587163	0.0005401453441904099	0.5256079837480003	0.2603769568316057	0.0007152234071758206	0.1377604184927325	0.001404254241434052
0.156515784775164	0.002989244845132571	0.07434171755728634	0.03696440472575657	0.0005440320056575107	0.5308658227146501	0.2656070042077781	0.0007205406994178112	0.1381619145523389	0.001420495235495565
0.1581644464118399	0.002433166374346126	0.07440559186505957	0.03736431242676934	0.0005511328742229097	0.5389353747042988	0.2729662503665257	0.0007302926084991824	0.1392157208663526	0.001446082998600757
0.1603741041940474	0.002147053879408667	0.07433042239096345	0.03786682103989946	0.0005589962906877995	0.5479944596319806	0.2817890633806418	0.0007411556841711163	0.1403977968415596	0.001475611868847452
0.1631098871668135	0.002020641742765332	0.07393432496075664	0.03830381485353621	0.000565441879012264	0.5570542663507888	0.2928083149516666	0.0007501847071564494	0.1414502028495302	0.001506655421990458
0.1663286436775879	0.001892134185021502	0.07305334631844301	0.03848685167656646	0.0005681281397527424	0.5646042231018348	0.3059006911929962	0.000754206802012235	0.1420166405097335	0.001534962965120269
0.1699796094921079	0.001732907755358792	0.0715145670581683	0.0382464463063569	0.0005646524683075655	0.5686413863765253	0.3201689539283101	0.0007499741134414175	0.1416834721779335	0.001554768368449987
0.17400520557877	0.001628940612242412	0.06914401410066705	0.03742155977234238	0.0005524531370973646	0.5671594804555565	0.3349141853053285	0.0007340205596558775	0.1400852984781744	0.001560383903525461
0.1783419453248002	0.001606165394102987	0.06582233588973545	0.03588597937858842	0.0005296299338159174	0.5587901457256269	0.3498024694412938	0.000703769590213485	0.1369704856431347	0.00154792752006317
0.1829214354539589	0.001598930664909833	0.06144945967285591	0.03357828382099928	0.0004954347272759812	0.5427936111823605	0.3644229715646092	0.0006582284517734861	0.1321274930176307	0.001515367050068574
0.1876714545037473	0.001547133389999483	0.05609926355401581	0.0305122524724687	0.0004502309602271239	0.5189987018985058	0.3779100554663256	0.0005978716447566162	0.1255410597688199	0.001461766889453869
0.1925170917444269	0.001470189945721339	0.04985228313173035	0.02678868276177773	0.0003954307304442492	0.4880292755983938	0.389822335585143	0.0005246208777042529	0.1173249890338582	0.001388760230302468
0.1973819285398158	0.001456618054084946	0.04283416442810957	0.02258097712380367	0.0003333283542637969	0.4513957776172939	0.4003882450780856	0.0004415977648686901	0.1077803056407141	0.001300709718812877
0.2021892435043931	0.001547654831673927	0.03520220679575167	0.01808154604533594	0.0002666155694331927	0.411031576324053	0.4101268255262788	0.0003524582936226395	0.09727953663373785	0.001203192625338255
0.2068632224455918	0.001665963753670895	0.02733874575587183	0.01360650966589423	0.0002001060740782703	0.3700974184724726	0.419140003347279	0.0002636992840492027	0.08646238237236581	0.001104699733233215
0.2113301540101398	0.001700757414024096	0.01996063854053237	0.009550048774035097	0.0001399132539209898	0.3326807082994332	0.4271722111785045	0.0001834773659253627	0.07634916888103895	0.001015327753300603
0.2155195921846577	0.001690610128400764	0.01378432566367988	0.00626196481975396	9.11541108397036e-05	0.3023421646048573	0.4340554309200317	0.0001185739586991734	0.06796727121952995	0.0009436080754700685
0.2193654673351004	0.001758341463486166	0.00922953606805663	0.003927817653270532	5.630532326368544e-05	0.2807791273137463	0.4395366758273691	7.224388475318042e-05	0.06190717936699213	0.0008933559254036967
0.2228071283122631	0.001930882472363887	0.006204702030696858	0.002449014869828567	3.386773502823062e-05	0.2670525464920195	0.443607286161965	4.245238417367133e-05	0.05800332521869217	0.0008619698108394082
0.2257902993364854	0.002081137845223231	0.004435292925124341	0.001562460859832718	2.032073211223953e-05	0.2594675425346251	0.4472463657800198	2.443778071146385e-05	0.05585337026574776	0.0008451596194817714
0.2282679370955254	0.002300805149145828	0.003457484949934406	0.001095488019691976	1.283671719175292e-05	0.2565327764225221	0.4516150450232178	1.447856259904936e-05	0.05496751456688273	0.0008401362618793751
0.2302009768984097	0.002810151006764457	0.003027376792490674	0.0009462041275646865	9.345605433702134e-06	0.2563846771058639	0.4559893608453359	9.820179569161557e-06	0.05496562365211071	0.0008420016641309567
0.2315589714577417	0.003363589986854721	0.003133165140985912	0.001030775855228112	9.244365833887413e-06	0.2580003493131324	0.4590294542826932	9.634421369252685e-06	0.05558242291138488	0.0008473053028600669
0.2323208116596206	0.005832391921550091	0.005382468196301795	0.002394005206868424	2.336432633226961e-05	0.2695635213229707	0.4620299805410941	2.826581408839849e-05	0.05982416132934523	0.000876991136588165
0.2325	0.0155493077741674	0.01171119586969682	0.006793941313808799	6.433374801959312e-05	0.2980788820455419	0.4628735783785032	8.248936611812014e-05	0.07183040198064149	0.0009487209595585976
0.2329542507337262	0.00373832104395433	0.003627554504868673	0.001271266542787049	1.192941478818986e-05	0.2622808892796744	0.4632410797540706	1.313273217534828e-05	0.05683507680830271	0.000859554167921699
0.234015784775164	0.003073092526771312	0.002872165874877623	0.0008613547227268815	7.486637650874843e-06	0.2609532690871507	0.4666899273476674	7.273968235347226e-06	0.05596711396933373	0.0008581620106166842
0.2356644464118399	0.002494261523538105	0.002745561236117835	0.0007283278965902424	6.988097499850132e-06	0.2639152309831821	0.4726984168229308	6.600582695543241e-06	0.05628938508897728	0.0008682168352231542
0.2378741041940474	0.002096600299041233	0.002617836101412655	0.0006256068376077673	6.489032345918617e-06	0.2683448487056925	0.4814737670023828	5.918877995935486e-06	0.05697136782586477	0.000883271521557179
0.2406098871668135	0.001875904573690279	0.002428010060508982	0.0005529688460206532	5.982133607218421e-06	0.2749089490404142	0.4943826632335194	5.238179935690169e-06	0.05809521750491092	0.0009057866300247468
0.2438286436775879	0.001596502397185386	0.002686317907950685	0.0006538590634449738	8.24816523370702e-06	0.285548261492069	0.5109797479092065	8.190254216261141e-06	0.06023430322458929	0.0009397778634240377
0.2474796094921079	0.001335218437202963	0.005697267653903176	0.001790253774680344	2.611001223133469e-05	0.3091380350358117	0.5296154106005578	3.156303174301093e-05	0.06638119186006712	0.001004422351431859
0.25150520557877	0.00143020418724579	0.01197891908695432	0.004147609940454179	6.154712254527993e-05	0.3469356204232554	0.5495878076320718	7.788907770300984e-05	0.07722706866239325	0.001101857793096211
0.2558419453248002	0.001643598711597157	0.02157844710853106	0.007689228371884821	0.0001146357013218052	0.3994799858601161	0.5716173645910786	0.0001472466435918378	0.09283396671833065	0.001233536688014492
0.2604214354539589	0.001881827774935873	0.03403097818933835	0.01226251245312027	0.0001832842051539842	0.4654701457315109	0.5964106003550143	0.0002369308605920474	0.1126393518286719	0.001397124439833199
0.2651714545037473	0.002252929045802602	0.04867726821834656	0.01766676658646349	0.0002641594554158272	0.5423953725281212	0.6242036887364515	0.0003426060692879072	0.1358171775319362	0.00158727689337517
0.2700170917444269	0.002811579533119489	0.06502211502418317	0.02365883230497699	0.0003534937400876582	0.6258652505931334	0.6518297980551075	0.0004592810181276651	0.1613088469714361	0.001791748358147586
0.2748819285398158	0.003216070558316336	0.08320894820863098	0.0299934947978463	0.0004486391153238858	0.7094564052974337	0.6696953311113255	0.000583267986284966	0.1879808025047802	0.00198863099302795
0.2796892435043931	0.002889872437280531	0.1034633624565264	0.03636132157882077	0.0005466330209640786	0.7867094569439862	0.6681857152559243	0.0007104057162790867	0.21470026600935	0.002155455220268995
0.2843632224455918	0.002259375401085727	0.1254662805522096	0.04256517424777195	0.0006435057919016141	0.8523499854334585	0.6424584024094296	0.0008353650154681394	0.24052167522627	0.002276577710122718
0.2888301540101398	0.001568550842547583	0.147678321265379	0.04823173142066434	0.0007328691486074681	0.9037433822345315	0.5975944860330047	0.000949931778688489	0.2640807095221726	0.00235012548630448
0.2930195921846577	0.001378242561110359	0.1685010827599951	0.05310563056547292	0.000809230713574186	0.9398835106115546	0.5410181358995106	0.001047151611569862	0.2843471742805438	0.00237998994593261
0.2968654673351004	0.001279487351512901	0.1866271350492023	0.05689644557928476	0.0008690590798526494	0.9611700207303318	0.4797624282853858	0.001122644447635674	0.3003643798525112	0.002372800275107184
0.3003071283122631	0.001446609885164035	0.2013779416406579	0.05958412829240614	0.0009114423702702366	0.9688025076297259	0.4185209223976539	0.001175413703083109	0.3119139938372805	0.002335448646725634
0.3032902993364854	0.002226983435051593	0.2127578737030101	0.06134688207163046	0.0009380868220321623	0.9658474320953062	0.3613366082933247	0.001207806970176978	0.3196358358020072	0.002278174153324853
0.3057679370955254	0.00284101483544672	0.2207788403217515	0.06229811793704317	0.0009525315163727281	0.9568022977874111	0.3126088515978853	0.001224680067206662	0.3239597380242927	0.002215084223858215
0.3077009768984096	0.002893670296727954	0.2259002475073562	0.06261062227996114	0.0009583576491536133	0.945419936445879	0.2744732316862101	0.001230778838373363	0.3256776833422091	0.002156254554445943
0.3090589714577417	0.00315511807237875	0.2286771694493092	0.062562159828623	0.0009578170993221417	0.9331989693552094	0.2464762434646516	0.001229004612295636	0.3256946763277194	0.002104717102160249
0.3098208116596206	0.006074607519017406	0.2296527758547848	0.06277454893643042	0.0009539709352850127	0.9236719333184757	0.2317406401708843	0.001223400246900148	0.3258516644670389	0.002071272553029367
0.31	0.006940241391870147	0.2297953773324143	0.06283799549671441	0.0009527938143777078	0.9211933617309587	0.2283709542377105	0.001221744250398966	0.3258455149463511	0.002063096933368672
