DataType=double
version=3
OpenSimVersion=4.5
endheader
time	pelvis_tilt_moment	pelvis_list_moment	pelvis_rotation_moment	pelvis_tx_force	pelvis_ty_force	pelvis_tz_force	hip_flexion_r_moment	hip_adduction_r_moment	hip_rotation_r_moment	hip_flexion_l_moment	hip_adduction_l_moment	hip_rotation_l_moment	lumbar_extension_moment	lumbar_bending_moment	lumbar_rotation_moment	knee_angle_r_moment	knee_adduction_r_moment	knee_angle_r_beta_force	knee_angle_l_moment	knee_adduction_l_moment	knee_angle_l_beta_force	arm_flex_r_moment	arm_add_r_moment	arm_rot_r_moment	arm_flex_l_moment	arm_add_l_moment	arm_rot_l_moment	ankle_angle_r_moment	ankle_angle_l_moment	elbow_flex_r_moment	elbow_flex_l_moment	pro_sup_r_moment	pro_sup_l_moment	subtalar_angle_r_moment	subtalar_angle_l_moment	wrist_flex_r_moment	wrist_dev_r_moment	wrist_flex_l_moment	wrist_dev_l_moment	mtp_angle_r_moment	mtp_angle_l_moment
0	85.05873989028234	-71.99539631021312	-32.65189018709361	29.92928789206621	227.7668243983132	33.28248658997774	-35.3482638558282	-37.78466794826728	10.83310801656008	31.45718937412633	17.9609828125494	-11.1413542577561	83.1436608146371	10.59010878846057	-6.09313516356344	44.54182356088455	-16.09819802799741	-0.02851162106354002	1.448271617750886	13.02388709610297	0.01648696211432193	-5.331166625412238	2.959828801547553	0.9284427152442576	2.203555409712934	4.239510539595559	1.245274305984508	-0.467956337419482	3.542047998954384	-1.285800267261276	1.566774669841006	0.03934163281743677	0.0005191561459681471	-1.124336196865054	-0.4486935644946635	0.06860961772547132	0.1767638418804141	0.3687847962980546	-0.1489656813399044	0.02660632763705149	-0.1463586136252592
0.0004542507337261803	84.34136082334335	-71.32451909604643	-33.08294614705757	22.98852776352371	230.1504104273794	31.56542822345606	-35.34666167870932	-38.41987494916516	10.63931346316386	31.15249016356168	17.04103746246293	-10.78427846451709	83.18611974264586	10.67776488892587	-6.174188066708659	42.85968557420288	-16.36018124043615	-0.02550882846054184	1.399110529307452	12.55963509707454	0.01637025364179746	-5.332717148976305	2.952495374833748	0.9239690053504271	2.290533295314284	4.247742696288204	1.268710068622579	0.310544626171475	3.554687272185706	-1.287528243019391	1.601302448245436	0.03918796055506907	0.001036434868001312	-1.281504702480508	-0.4776999548761483	0.06796666146321995	0.1767613813297547	0.3746169202162536	-0.152161572585582	-0.0444143288934246	-0.1461561072146026
0.001515784775164009	83.4788667118471	-66.29499253230016	-31.42787268505996	24.27264931407888	234.817367536684	24.788789569631	-35.83230894210161	-35.77601671580889	10.32910112466849	30.43949691178804	14.87347245733956	-9.961160609417028	83.27924358232065	10.92960588121448	-6.36131450301821	43.5755122908161	-15.27105030714872	-0.02611133535639049	1.293241833349096	11.47073269790072	0.0160736867422055	-5.336446398129055	2.935274145670784	0.913502970433603	2.493309347097713	4.259051623548289	1.320925994355856	0.7746241380842221	3.584363985436362	-1.293591902951996	1.682382282217433	0.03886753598269999	0.002116739199383932	-1.302974812426805	-0.5458673028855995	0.06641364574316856	0.176951198476346	0.3876700182192297	-0.1598054123032719	-0.09157420880144479	-0.1456949385222037
0.003164446411839883	83.66238616144673	-57.64260298417091	-28.49823088682853	25.90029116406336	236.2339023177483	14.66850141492715	-35.70511042158073	-31.18581465124257	9.806207897475012	29.30811424732655	11.50822753208678	-8.728411746455269	83.37859118716108	11.61020060886931	-6.627169524467737	44.14863548637432	-13.34298169255725	-0.0265119446185651	1.212976195256387	9.786428477771569	0.0155351874522802	-5.342304653336892	2.907640048806429	0.8973803552689383	2.792171447373134	4.226183154655788	1.384159504811109	1.084135826919884	3.630022763950441	-1.315982802827984	1.807678820321624	0.0386354654052731	0.002951149780412887	-1.239588874751437	-0.6529080431817841	0.06371568510771462	0.178514636007037	0.4037972192662855	-0.1724930911713681	-0.1248989795342232	-0.1449519891117859
0.005374104194047435	84.86876388320644	-44.97459130982237	-24.47052466811053	24.39483645957674	227.3941967806591	3.540128804804638	-35.41506208957526	-25.12759081196592	9.214939837264481	27.66628641173328	7.159259535716558	-7.200975072330324	83.3428175601732	13.53713592828347	-6.880272497214721	44.39883772531044	-10.83860264343838	-0.02562001520308914	1.438758140242659	7.59459676216322	0.01466885023596299	-5.349898162253954	2.86705417527206	0.8764393647745856	3.113572712329831	4.001001548477334	1.402038513994157	1.22061776270723	3.685865470482123	-1.392379669602622	1.967980684293022	0.03929584402091255	0.0009922297190673168	-1.093245261900166	-0.7982045078526417	0.05911664759539478	0.1851620559900745	0.4097195834067666	-0.1919144946366905	-0.14252010742709	-0.1436534956697973
0.008109887166813518	86.47331224649992	-27.76539667255857	-19.43005466969619	17.53207749766395	201.2807604165154	-5.897006206424759	-35.95941757345387	-17.97405709471667	8.785863228249497	25.3202505069516	2.123848024133454	-5.507791087517825	82.98441333661026	17.69781247426029	-6.991889688159535	44.89205784608235	-8.02962209708703	-0.02319037856648652	2.323102426240508	4.996826781053841	0.01395549826637675	-5.358757802248184	2.809473500744863	0.8509219160532482	3.343621590584602	3.393561486591242	1.299878100361581	1.197866473119172	3.735580990046543	-1.568820891809295	2.14595462588532	0.04180785997158637	-0.007067216756069583	-0.8715418223370268	-0.9785475815586964	0.05158932845098964	0.2014492692813139	0.3877166220388822	-0.2197215574927635	-0.1471207974728296	-0.141129152570733
0.01132864367758793	87.73681890586656	-7.454740929051204	-13.49648129112464	8.800364749822819	171.0815612179126	-16.62729924978403	-36.8263967699915	-9.951506517765898	8.315422795187887	22.30209048879921	-4.133755378312768	-3.569312976674524	82.43732845224574	22.69697501119082	-7.050519714481188	45.51167407553326	-4.919340430542837	-0.02030284820367931	3.379227067394773	1.781735730492688	0.01485754899408476	-5.364748407166108	2.732871945445873	0.8151301551325384	3.567795576497092	2.627666109648784	1.158626338211441	1.069431532270051	3.770117102653535	-1.778216930090959	2.346080328015053	0.04456829084433356	-0.01737603380348596	-0.6014127324114095	-1.191675654214441	0.04189314615608396	0.220996887909691	0.3569751719677826	-0.2525689828977892	-0.1409637395138318	-0.137350468190568
0.01497960949210789	87.68733261504943	14.4624828520383	-6.955329305114396	0.10809978661743	148.4759121715689	-30.90280395702155	-37.82000829155086	-1.495265061983907	7.628050814985664	18.72302685690335	-11.97018452285574	-1.406670498338496	81.79645053160486	27.27392178722508	-7.138541308407252	46.04737625382553	-1.603209741215114	-0.01745921831233604	4.19378080170214	-2.159484606445111	0.01597282995973498	-5.360839473547363	2.635440153416889	0.7645896354252971	3.885453295433182	1.906940146596329	1.055111844348419	0.8671836732612044	3.78808822005637	-1.960603531597096	2.578852008974108	0.04616109667863671	-0.02634421712882884	-0.3078607918972607	-1.433933242596463	0.03076680729042234	0.2381712882366774	0.3358554714545384	-0.2879998264264201	-0.1246135198659542	-0.1326040952018268
0.01900520557876997	85.09761451738379	37.29160692295302	-0.5529557195086363	-13.48091339914228	123.312874756517	-44.00034993432439	-40.4933512130015	6.068725274983378	7.11064129511419	14.38730381929251	-20.48077289921929	0.6803109960271654	80.82760330156697	32.53088438615146	-7.116796178603526	46.91926189664886	1.159808772552268	-0.01355575872330743	5.26700343623059	-6.475628203406348	0.01737217623253179	-5.345758648387912	2.517185255244857	0.7023009362859941	4.16013265429394	0.9963866207761317	0.8991006142694959	0.655541046212386	3.764109268853876	-2.173940711503576	2.824742868348609	0.0479001432017227	-0.03804232751074177	-0.03664239645719702	-1.687955458548787	0.01722717482096202	0.2587298597688787	0.3027610844388496	-0.3280951708313335	-0.1058706262222137	-0.1260834740720793
0.02334194532480019	82.52550921372941	58.65415171503183	5.918480548845149	-25.37402645901906	99.49481762872927	-55.21671660546168	-41.84686065208125	12.33258211456844	6.585936811456099	9.349771485828876	-29.32271286538118	2.55607924815931	79.5590763124877	37.65358195523579	-7.021396870980064	47.1259215275842	3.366515587729136	-0.00975209695958304	6.451355797863317	-11.01113948663869	0.01881071661761675	-5.312834805854444	2.379174171742303	0.6271169826779427	4.43934339655135	0.001446364762794194	0.7300517520820451	0.3883126144149506	3.685288674106062	-2.384678049320707	3.085515783234379	0.04905617235427095	-0.05055765731544004	0.2157781323538172	-1.937122061497916	0.001837290102916271	0.2796081148261249	0.266934513896153	-0.3710952459387222	-0.07605310101078099	-0.1176833569877386
0.02792143545395889	77.42616125696783	76.55541593416218	11.4284678120443	-39.09432650846458	79.60746660867298	-63.13231594915842	-43.60800381768512	15.96926563357007	6.311165678069774	3.674655698828881	-37.74467815044701	4.053156788328427	77.9425734516271	42.31432791399932	-6.851802812472481	46.95512079363779	4.345859315216541	-0.005245666382334174	7.80920871648218	-15.45391308147913	0.0178280224642896	-5.256435653954401	2.225048579417946	0.5410736955056417	4.727098511047228	-1.064541228537706	0.5534535012923691	0.3361689582665682	3.538393246211172	-2.584780679587906	3.358792596036353	0.04954877876952568	-0.06357187950361087	0.3493909328752255	-2.160460921256103	-0.01501010017986038	0.3002112293602637	0.2295229414072121	-0.4163436650270685	-0.06244414758387727	-0.1071921838645697
0.0326714545037473	70.4758660110366	89.62373085403284	15.84058358593705	-52.9919263094105	62.06810314849665	-66.30943512444549	-45.0435142878599	16.87876747935424	6.38085020234664	-2.557589244088783	-44.83969531143079	5.059142317207028	75.93717701252129	46.25154936312973	-6.608652450449384	46.21900820984057	4.072074785844241	-0.0003087093887100614	9.444715733260027	-19.43895915598181	0.01648271342491533	-5.173191881106023	2.060432352520926	0.4477229545076913	5.019642987226339	-2.198905214606737	0.3699032473811545	0.4170339690356297	3.314035250289106	-2.770311770498232	3.64002747798699	0.04944653250693148	-0.07697286473695608	0.3734479195699836	-2.335894567076668	-0.03279625066703108	0.3203156462519296	0.1904496771492758	-0.4631074214645656	-0.05729862743233254	-0.09444996449317992
0.03751709174442691	62.06220577505107	96.73623578439457	18.99002966280209	-66.60425701723585	46.72100748252282	-64.07661590694427	-45.66572720461103	15.05224166746608	6.865189562232981	-9.152895450111387	-49.8539556792992	5.562730078817138	73.53700803362175	49.08233168525098	-6.317161788453411	44.56799163943394	2.575970398588941	0.005166295161829999	11.38045617494572	-22.65314496879784	0.01496324296508152	-5.061205850504683	1.891715200468049	0.3510587651213752	5.336158247556876	-3.363367087357193	0.1929666025400185	0.6187771146361364	3.012543929393631	-2.930091457231965	3.927666121003854	0.04868717030251818	-0.09005001676703861	0.286484138695616	-2.445874128739977	-0.05074566467014302	0.338961659865789	0.1527912699496629	-0.5103293600229396	-0.05971423336616878	-0.07952886847221358
0.04238192853981579	51.70894620924496	98.30560957997838	20.77341088936046	-79.53084551638059	33.53491243598171	-57.07923926721443	-46.17004564479674	11.39112169948311	7.80652080791197	-15.87270249111019	-52.18612722014711	5.633214148610469	70.73741390340498	50.65141533291528	-5.997193791400574	42.61415885130764	0.1923382181333344	0.01021903788759046	13.65722279782458	-24.84360311401635	0.01408973402897926	-4.923117253333031	1.726209296841926	0.2560020943824119	5.674911043489077	-4.545526760126677	0.02460253421011016	0.8630091396897392	2.640687575872983	-3.062043374349073	4.217075630166509	0.04743138306680961	-0.1026247182952045	0.1197916694481397	-2.478895304601868	-0.06813529424521787	0.3560040959433292	0.1168783379921878	-0.5571366365025877	-0.06544002898889367	-0.06259119703108526
0.04718924350439309	40.53056548092978	94.75174194265956	21.38726350714539	-90.51709692497369	21.98424595164111	-45.95734230279412	-45.87471410491166	6.687870851031869	9.078318658876814	-22.44581281435644	-51.62627273556004	5.408785872506467	67.57060665605867	50.86015606161658	-5.679618140168901	40.14355238209677	-2.667294220182994	0.01494404845658789	16.23873384786752	-25.90150446632516	0.01373622720326977	-4.765359731745129	1.570439280079694	0.1669091942510995	6.039403306139589	-5.71724043510638	-0.1290821334339833	1.115646387362771	2.214831331182698	-3.163063419210963	4.504294512274582	0.04579476109232911	-0.1143268019049204	-0.09450299561757076	-2.433386796252317	-0.08425041032561412	0.3711189233118302	0.08410768259155804	-0.6025508299814362	-0.07162405010807839	-0.04406690053711395
0.0518632224455918	28.90228932970685	87.27135135290132	20.98509256834222	-99.44019447279106	11.89480124227515	-31.96936129129495	-44.93707291508544	1.813566825398276	10.53793895697073	-28.64148419100274	-48.31860716646242	5.047005321582805	64.09172291580546	49.80229872128975	-5.391359436481333	37.37040415521633	-5.605575187200334	0.01943686202574645	19.05931703266457	-25.85656177719954	0.01270260974173006	-4.598294665430741	1.429492428931022	0.08726825698441765	6.419740287154742	-6.859972022137701	-0.2676458810447651	1.3273928762814	1.756216089581521	-3.235360061726993	4.783724193739017	0.04396734520528361	-0.1250581443360173	-0.3203332430419114	-2.316906622958257	-0.09857655413933807	0.3843978000222304	0.05456154123110461	-0.6457287993432699	-0.07501963241112533	-0.02454647731794581
0.05633015401013977	17.78782242531608	77.01956668375699	19.88193497017594	-105.6969049597188	3.121968293895677	-16.25569001626621	-43.01868657569083	-2.65240396788982	11.99285173512989	-34.2527540643286	-42.76822328919982	4.685920738935405	60.39007017840121	47.68034071820896	-5.157934661189721	34.23619030674791	-8.306059850583399	0.02359405903995916	22.00266137837663	-24.87256057157269	0.01116817804640332	-4.434208229922332	1.306442043826202	0.01911639691169131	6.804274940212084	-7.951126229421886	-0.3904277549366619	1.5019562200752	1.28962011009418	-3.282473612817424	5.049967590973679	0.04210700936002382	-0.1347263977829813	-0.5353486644535894	-2.145039460864124	-0.11080155180237	0.3959701380623592	0.02841693228347911	-0.6859144445972412	-0.07605539056058896	-0.004798488295732796
0.06051959218465776	8.383729693905195	65.21960424003277	18.52915298456114	-107.8598114297576	-4.450754821313566	0.1107929249748736	-39.61071143606109	-6.22026956266549	13.22431583523773	-39.15077819377024	-35.69228898228349	4.416104486628446	56.58262969997956	44.80044280679265	-4.996221024875457	30.77972238353393	-10.4818803199313	0.02694007015646205	24.93720920405871	-23.19895256212848	0.009370159545768053	-4.285395681867508	1.202529379004165	-0.03686356092901932	7.176842104656129	-8.97155414460836	-0.4986547689997418	1.64497469261444	0.8386739559349472	-3.310177852223934	5.297526210037521	0.04036189585354877	-0.1433458181571308	-0.7191683718436152	-1.937768895054915	-0.1208446808469994	0.4061033006510211	0.005404645419504917	-0.7225123250595451	-0.0749293293148325	0.01436042640539502
0.06436546733510043	-0.1652498115738439	53.22517069571298	16.91436614315412	-107.9914851448441	-9.824006854164196	15.69095125378769	-35.95721449394951	-8.866421069986957	14.23460428282299	-43.28357933622555	-27.88824282493299	4.27478263713942	52.81142223859524	41.500304902468	-4.913947870867543	27.5261514790586	-12.17242069301463	0.03074129849502575	27.72907589466294	-21.12187054235515	0.007485785895201884	-4.161763420541842	1.117554720339979	-0.08113960086101379	7.522336301968888	-9.902755009735172	-0.5933689979090202	1.780568523200375	0.4234289039161109	-3.32422730978731	5.52164278988101	0.03883069615983448	-0.1509372991289677	-0.8774287980456347	-1.716095084187239	-0.1287996948602801	0.4150148951831075	-0.01469692716628085	-0.7550745442546647	-0.07551778238267959	0.03217040361215184
0.06780712831226307	-7.682050008035247	41.849323350238	15.26671804126828	-106.0111208585534	-12.33147199725811	29.68369075467573	-32.25288382566677	-10.68459870191884	14.99590067691172	-46.66354753720211	-20.09178156543051	4.255430234728292	49.2190132787121	38.1171581607717	-4.90655276763674	24.7024774074914	-13.40651772386101	0.03348158187285152	30.26466935174902	-18.91284480430438	0.005716389070883761	-4.068499326797586	1.049649863622252	-0.1151847346143138	7.828866074396443	-10.72862552922085	-0.6753718461270237	1.98356793883313	0.0582372267645257	-3.330159822300733	5.718683241540365	0.03756854636191109	-0.1575252527794064	-1.025554692356453	-1.49882640514824	-0.1349173874757779	0.4228812115370305	-0.03207104962089077	-0.7833163357966674	-0.08483383841764705	0.04801430979934571
0.07079029933648544	-12.82116552641367	31.40997884905138	14.05707250874192	-100.9162942482764	-13.26262026008516	42.1314877734961	-27.62497971172415	-11.82745011526668	15.44211910743921	-49.34419499202014	-12.90378636575431	4.325533949863416	45.95338393307378	34.93292854138883	-4.959889345344069	21.96037110144339	-14.18240546399567	0.03490614057365239	32.45881709203064	-16.79877638773374	0.004186821915491103	-4.006339026673862	0.9969184920588767	-0.1406329732692588	8.088242009821382	-11.43637065967328	-0.7450369993966177	2.266778567214754	-0.2483286862085804	-3.332023356782405	5.885984334955656	0.03658854488487723	-0.1631164975992172	-1.162207511002127	-1.300922605558689	-0.1394811889632899	0.4297534864449705	-0.04680907958987049	-0.8070668431027275	-0.1019901766400206	0.06147285453469496
0.07326793709552543	-16.94147896143319	22.62459718053747	13.04495574131398	-96.0204382648954	-12.71912649098638	52.32733864360662	-23.55485692045038	-12.5811443384051	15.73845984161585	-51.3972526586518	-6.752145962946468	4.443481906961471	43.14540287121072	32.16196399419326	-5.052021755823833	19.66470933727402	-14.71738493522889	0.03582270739997221	34.25816364779225	-14.94643866410211	0.002922713110293526	-3.971350757655224	0.9573185852475612	-0.1591111869609197	8.296520424469009	-12.01679845536137	-0.8022989776433338	2.577729219073453	-0.4929220696785794	-3.332412593889073	6.021980958666721	0.03587229266840086	-0.1676997586971962	-1.287913944893516	-1.132836472353498	-0.1427780027417893	0.4355836427713466	-0.05890835390255697	-0.8262562773982403	-0.1235159331002994	0.07232913365710654
0.07520097689840965	-20.02873336488011	15.74747030621953	12.29076067951081	-91.60414459605848	-11.23177448128337	60.12720588671142	-20.21299780678794	-13.05726113004162	15.92110942068772	-52.89310771398331	-1.90199457219795	4.570433408815317	40.89909389830004	29.95034502239622	-5.156765730697551	17.89488049093662	-15.06922623215554	0.03631700309661278	35.63670279219608	-13.46385720863785	0.001939733669037829	-3.956228950848163	0.9288362429144128	-0.1720460625177669	8.453256527281358	-12.46390906349724	-0.8467506308599551	2.891455279653219	-0.6759707747371011	-3.332641524661228	6.126004676080477	0.03538252082914378	-0.1712480690330509	-1.398961780396994	-1.000932004035727	-0.1450646120154171	0.4402558607840384	-0.06829152387305515	-0.8408818470884589	-0.1470689906951134	0.08052930454196186
0.0765589714577417	-21.55511751862861	10.75007900596112	11.96033941565434	-86.73151968951311	-9.412968646507373	65.66584384163085	-17.23845298222439	-13.30944822288877	15.97770147153819	-53.8905127471926	1.505919151764155	4.676301292293381	39.29433341708044	28.3830335069916	-5.248733846031487	16.60696816157264	-15.24053808690123	0.03618393844025743	36.58749170901977	-12.4123066078697	0.001249752966287382	-3.952695394296322	0.9099996164625528	-0.1804438944935647	8.559871548367015	-12.77454688072272	-0.8779145952507235	3.209253613093305	-0.7999193050689033	-3.333033970266096	6.197912764190266	0.03507743983487027	-0.1737306590298968	-1.494425613446493	-0.9085006121251973	-0.1465330262933774	0.4436214773112286	-0.07486486721564842	-0.8509733129752362	-0.1722102565990687	0.0861212779190326
0.07732081165962061	-20.54480284828949	7.698209086065701	12.35006302106015	-77.08069233816519	-6.44215397054208	68.73258128012129	-13.86994602012956	-12.9540882086944	15.73707631279052	-54.43143309691946	3.411408893049913	4.741224584336122	38.38527410409539	27.50201188011249	-5.307253258323732	16.28438065604029	-15.00423353685977	0.03400927535799348	37.11340421295153	-11.82120535952001	0.0008623650692082992	-3.953464329108018	0.8998386825311444	-0.1849270718439274	8.618290138091933	-12.94743777412626	-0.8953867990389157	3.525927336512312	-0.8676348768617901	-3.333404716783967	6.237805361881089	0.03492106763520925	-0.1751206237804361	-1.559713294601372	-0.8568909195766342	-0.147309767403285	0.4455441970877199	-0.07854845169491467	-0.8565675578414133	-0.198589873833027	0.08919027428504482
0.0775	-0.4852742522552447	1.795168840530541	17.64547881129717	-45.36965107678867	-18.74353392360985	78.02072949818665	4.830380084735036	-12.48848267095427	14.33130775038466	-54.55676057965716	3.858538610184592	4.757040038451875	38.17060037595223	27.29479405337645	-5.321757730643685	9.771839286948392	-13.78202434333213	0.02698567061221579	37.23625533125333	-11.68219610065685	0.0007711809690947795	-3.953943964665454	0.8974904451867135	-0.1859589471173709	8.631877465991241	-12.98795133545794	-0.8994959245970047	4.201173302715526	-0.8833637532197374	-3.333511539688368	6.24714002773546	0.03488587105387736	-0.1754473144290929	-1.618203470215503	-0.844786965721823	-0.1474877130072209	0.4460002978704883	-0.07941457376271349	-0.8578762985061459	-0.2324007930899676	0.08990458420336575
0.07795425073372618	-22.56981766615527	5.931730183002446	11.7201303830132	-81.17107159080537	-8.344528766261149	71.29599481011869	-13.83505686598711	-13.24278676660017	15.90885811337975	-54.87127855977084	4.989845203728201	4.798027885355736	37.62498931262259	26.76968320425001	-5.359809246409607	15.19996662627916	-15.23713004193262	0.0356880929346742	37.54617811346866	-11.32998320068077	0.0005398681604182852	-3.955681725995021	0.891608002426254	-0.1885374877615532	8.66605391476979	-13.09038924675568	-0.9099125918432907	3.396443880230807	-0.9228908466209845	-3.333819953187826	6.270720120315854	0.03479939116802255	-0.1762751399555813	-1.549352992433148	-0.8141719374380384	-0.1479308829304024	0.4471634075102427	-0.0816098805592462	-0.861181946998254	-0.1841450992326311	0.09170210103944405
0.07901578477516402	-24.76800307145123	3.102877020057096	11.00273100824686	-83.43533927233128	-10.45483091226449	75.34864991750634	-12.78303114042507	-13.18935272353233	15.96266830831582	-55.58876962662082	7.618684161048177	4.898568750460005	36.34252024592191	25.54497876184461	-5.456016757644466	13.76936091316013	-15.3157371058346	0.03689642010520739	38.26153999645371	-10.50891382743079	-1.869249203521363e-06	-3.962739012331242	0.8782475938756413	-0.1943644291038856	8.74436912480941	-13.3282350927465	-0.9342585995765238	3.16335846457651	-1.013269785156124	-3.334777711193786	6.325345863790405	0.03461287342620323	-0.1782080554118408	-1.510236096406572	-0.7430785545233435	-0.148923464599963	0.4499215892487389	-0.08673898335653046	-0.86883909020865	-0.1583316103423014	0.09582549126588709
0.08066444641183987	-26.54958382919949	-1.680715728435961	10.42212411943773	-81.78315878912063	-11.96424186638949	81.81410024592699	-9.597203350798489	-12.90477964659052	15.87042900280335	-56.65632238325683	11.64657127554836	5.066572918716002	34.33235511882524	23.65634706618534	-5.626343697533652	11.62604755361125	-15.25942779388174	0.03725356372745087	39.34555440501364	-9.244365491471077	-0.0008481398350879499	-3.982437498605516	0.8585443885176411	-0.2029102237931534	8.861465496397422	-13.69308548348313	-0.972097253337969	3.017875200205364	-1.147832462868314	-3.337064986724732	6.408814556651089	0.034367780242336	-0.1812074553258949	-1.488556142837582	-0.6342393520506331	-0.1503520104351709	0.4543256110687983	-0.09470545079772619	-0.8805425718488367	-0.1378456603065244	0.10200017297884
0.08287410419404742	-28.47587420454292	-8.054379963275789	9.866279733329321	-77.87655843468787	-12.20202332909719	90.24842463850422	-4.878593333663665	-12.45363337517959	15.68310213760077	-58.00362122809235	16.90097213141238	5.310132247141134	31.60946622041686	21.17113516247607	-5.896287981107921	8.852761772644682	-15.12996446931437	0.03695090487479229	40.74017617961062	-7.584551233759184	-0.001997305423906773	-4.02664425934348	0.8339925060718087	-0.2135713396911081	9.009035862668236	-14.17256106520031	-1.02290713465437	2.973939017867283	-1.316330372222019	-3.342054045996312	6.517935320962932	0.03412703013311141	-0.185227074575161	-1.492082708345163	-0.4923119431668063	-0.1520729752909096	0.4604814572409144	-0.1053920062071822	-0.8958655300333602	-0.1248669322897196	0.1097962064005691
0.08560988716681352	-30.32002572947011	-15.5356017131776	9.470103478680127	-71.23998468100046	-10.25506461314399	100.1576553578067	1.38044456863368	-11.69796560215661	15.34024079089853	-59.55154117427717	23.09839612164937	5.631361176211596	28.20578736548327	18.21062859382832	-6.300211544001424	5.629843971096566	-14.8550783693898	0.03585333692908697	42.36051414940342	-5.61496733344907	-0.003457045664671409	-4.111858217825842	0.8061663089968681	-0.2259133601993961	9.175440480598068	-14.74923827618224	-1.08602788951274	3.046230349579726	-1.504604808400484	-3.352084478899104	6.648407902960133	0.03397183011082222	-0.1902113810871533	-1.520432226886289	-0.3247516543101323	-0.1539473149323168	0.4685492448789695	-0.1186474682461318	-0.914257085746359	-0.1212202177803921	0.118602505092556
0.08882864367758794	-31.92453811563369	-23.44384770265132	9.387475326977633	-61.39128600866516	-4.79323778106361	110.8070997738892	9.057950737256764	-10.50435563198862	14.78431060751082	-61.22587522459648	29.82430679665373	6.020144118876063	24.18039437553233	14.9657779818269	-6.880394338977321	2.274485727180084	-14.36732324825225	0.03360941589710371	44.09361829857758	-3.467579164858325	-0.005251609834450173	-4.259025293778897	0.7764937734585479	-0.2399220784609877	9.346053318045174	-15.40043755291028	-1.160608604253617	3.246239438373151	-1.694891028970043	-3.370686841555258	6.794963380222423	0.0339967320664647	-0.1960970525092596	-1.572582174186851	-0.1422510892864138	-0.1558792525030171	0.4787429831358257	-0.1342734474346269	-0.9350732854428154	-0.1286401870624489	0.1276224926169075
0.09247960949210787	-34.74471574369889	-30.67304858260231	9.365937382127237	-50.15216920945841	7.133705320489156	120.6092153684667	16.5625486399247	-8.908777247305226	14.091329392273	-62.97086383889454	36.5355492326436	6.449890686358897	19.62979103384395	11.70261891242778	-7.685013820941151	-0.3089696417804185	-13.73319763084501	0.03051413322097921	45.80177339992326	-1.321964579456277	-0.00742656353733925	-4.492672609899841	0.7462150900519947	-0.2561574757633173	9.504229511917973	-16.09846651650918	-1.245485863581392	3.582059612713355	-1.866675041975921	-3.402611135875593	6.951623318353554	0.03430358609444306	-0.2028097254712402	-1.655666898632635	0.04133922444093123	-0.1578444205039185	0.4913157112077122	-0.1519952100663304	-0.9576163298420481	-0.1510719063217114	0.1358894037027455
0.09650520557876997	-34.19912819371523	-37.49570612172575	10.77260587877642	-38.02809073905425	19.18159295431136	131.7133627042089	27.60754694591928	-7.236112268067988	13.18872715215313	-64.75326581118362	42.59493475789644	6.877963717549504	14.69253781440722	8.752661773586397	-8.764219446575995	-4.903580653345654	-13.00038005292392	0.02713123014470128	47.3304353963504	0.6061351695757562	-0.01005001779966394	-4.838590155346806	0.7160146177426909	-0.2759545069953373	9.632035177428907	-16.81160604095623	-1.33913294805905	4.199079145681146	-1.998153529620069	-3.453224728725291	7.111918047218668	0.03498224537003558	-0.2102580254147695	-1.796376612663317	0.2098333657246113	-0.1599112754840928	0.5064876068286429	-0.1714454313156536	-0.9811645908315667	-0.1925465272501349	0.142329276993625
0.1008419453248002	-30.07810581652053	-42.37046274785015	13.72547930937336	-24.91475311255924	32.1263313317418	142.7608837346696	41.76897531895609	-5.019711581228169	11.95565558459562	-66.55926889753187	47.33796593632714	7.252743865208323	9.544410134079667	6.477032225817632	-10.16558761541541	-10.95348464904767	-11.9915840031875	0.02265600402719492	48.52283037478887	2.088713748493878	-0.01319936176052315	-5.320330186232271	0.6864366865596623	-0.3011442949213019	9.711960526707477	-17.50671855294101	-1.43964802537258	4.996160655951094	-2.068300370631672	-3.527625422382049	7.269413012220664	0.03609992987351507	-0.2183302474010633	-1.958738683493195	0.346248528633849	-0.1622107735548495	0.5243681199590496	-0.1921552935764514	-1.005024149157773	-0.2446796898150095	0.1458478557034616
0.1054214354539589	-22.58089567322105	-43.95257944412668	18.15669641559166	-10.92206769385938	47.21044036289676	152.2871531248151	58.30756779989836	-1.961819776743289	10.32568624185179	-68.38314929923345	50.16615202573296	7.526627869296422	4.385027499624957	5.213708488765999	-11.92768142566363	-17.72628826801226	-10.60609492787599	0.01660365173414913	49.23985447960634	2.919463759767323	-0.01693390834765056	-5.954944065222201	0.6583602044716312	-0.333562500449353	9.728728301222223	-18.1525185685403	-1.544806848314047	5.896708165001235	-2.059284857156918	-3.629505337442098	7.418195663681574	0.03769322267749919	-0.2268886820209504	-2.11684988335884	0.4348952430406016	-0.1648762743827836	0.5448720972870702	-0.2135665253057903	-1.028564119004332	-0.3020738267133324	0.1454425339489774
0.1101714545037473	-12.87497770421614	-41.08352130283815	23.57824685377695	2.758932784098768	66.18786087872502	158.5664248408468	75.68918829196402	2.076917035207209	8.287353548046923	-70.20869213534326	50.64739658437566	7.670981241046508	-0.5801397327789657	5.217751311447539	-14.07189269530466	-24.2020916132157	-8.802970775424956	0.008537104178548825	49.38067474681801	2.950840913620741	-0.02126318664109513	-6.748733599182268	0.6331857095901895	-0.3745080673910932	9.669794438499421	-18.7229386584081	-1.652317680647282	6.777342648112658	-1.958820581207525	-3.759757365539711	7.552956690944681	0.03975730385210807	-0.2357638876185917	-2.238066152639604	0.463638865245376	-0.1679666756377978	0.5676250080500647	-0.2350979109279296	-1.05120530485482	-0.3566571308741142	0.1403369375145721
0.1150170917444269	-1.553583788997239	-33.3585812908476	29.57743759291943	15.2979167163985	89.54479988366857	160.5576182424732	93.04307273527277	7.054214190206071	5.854451282493741	-71.99183653391783	48.59340795101722	7.687145361028472	-5.169247177310707	6.592264995111474	-16.59705172479262	-29.86773380372786	-6.594321404879347	-0.001576598751393349	48.89912728029499	2.123385240687121	-0.02611751244655071	-7.693512707807932	0.6141714994224383	-0.4236288499711334	9.525911820571366	-19.2020978358739	-1.760340681044297	7.551356464054125	-1.762193077976847	-3.915323226267253	7.669382864989336	0.04225468963531487	-0.2447729965984833	-2.301346534012285	0.4258268090443733	-0.1713397025311573	0.5919156149653404	-0.2562667265770996	-1.072447155967071	-0.4021933018498218	0.1301046154142334
0.1198819285398158	11.12772296805269	-21.0157951533895	35.77025355343873	25.84115613730225	116.4820742424359	157.9643949129662	109.96447925045	12.83650773342636	3.064455475823053	-73.6530222784925	44.11234227102403	7.608296545428921	-9.25497784958675	9.26847004725775	-19.47103881958203	-34.69238425567964	-4.027231888988138	-0.01339552759575641	47.81381839394636	0.4833148339639105	-0.03133542609379363	-8.764683322443991	0.6052168288191614	-0.4789030153110707	9.291519827211454	-19.58487977950082	-1.867566003869604	8.167697870649214	-1.473611637138002	-4.088958126761261	7.764077222666048	0.04511247841847998	-0.2537145333522062	-2.297155064155669	0.3217018057406021	-0.1746473577787166	0.6167168084491665	-0.2767336661801469	-1.091834411475705	-0.4345000257818489	0.1147751877341197
0.1246892435043931	25.02121536127376	-4.859629588175558	41.79876049110003	33.76590888625466	145.5869257531346	150.9862489481003	126.3233787795067	19.24406118933378	-0.0160114227101289	-75.08787619882042	37.59237286564463	7.490057925670818	-12.77024556965695	12.99639343923434	-22.63017187467084	-38.91121055006521	-1.17737376155763	-0.02645635508769998	46.20521475893788	-1.8240607670509	-0.03668237314051941	-9.923466696936394	0.6119993283547032	-0.5360256863478901	8.965590450180891	-19.87782976238825	-1.973369733735235	8.607599389701544	-1.10628593575317	-4.269953326032281	7.834695896820543	0.04824980391319733	-0.2623860739053585	-2.227142901138273	0.1585748694259898	-0.1772960594111594	0.6408067502286576	-0.2963588226835315	-1.108968249208323	-0.4515180059552887	0.09488019399201519
0.1293632224455918	39.42832464583268	13.93426061280497	47.20151411218579	38.46465578852595	176.0513351305903	140.0083156393966	141.6963603567038	26.02061606807677	-3.277127521264759	-76.18518056024972	29.64449435345	7.393055426274008	-15.71831208544688	17.39818240507348	-25.97983984206744	-42.65757941608282	1.844566296046235	-0.04014148352634908	44.20254867839502	-4.577095949012142	-0.04189517072082403	-11.12026937086855	0.6396273867031324	-0.5895134306229264	8.552165138055585	-20.09589467986967	-2.077552123453338	8.898231454907688	-0.6812077039133461	-4.445513125374259	7.880018747801955	0.05157032397928707	-0.2705904025271115	-2.107385791478858	-0.04995850939472823	-0.178592635578817	0.6629027638101413	-0.3151555878676104	-1.123516878409626	-0.4563279760924763	0.07142615476794907
0.1338301540101398	53.21542829462652	33.94181902245379	51.51342387458814	39.60161146023156	207.8617089496964	125.5758044215613	155.4203249518686	32.82740168957082	-6.576674647464948	-76.85823887778146	20.99595184589943	7.364303354087485	-18.15078849192997	22.04082929327128	-29.40211666102831	-45.88385948407325	4.902969175048937	-0.05366216314823325	41.96281446173089	-7.51782416773077	-0.04673413005027505	-12.30195540644008	0.6916852291085993	-0.6337316260541246	8.061799891424105	-20.25791705961825	-2.179850116244921	9.094930390855263	-0.2244950325853249	-4.603186800680141	7.900094282959998	0.05497474461325169	-0.2781422876705426	-1.961799932091744	-0.2860641484804726	-0.1779028231899638	0.681883266793837	-0.3331903097215176	-1.13524303015483	-0.4554001463540478	0.04577659296553729
0.1380195921846578	65.58111288817558	53.73309738111135	54.47673659372929	37.44019071906046	240.5880023688399	108.6518370213781	167.149244733374	39.36959795142091	-9.797792413353228	-77.07035697495974	12.36930392974082	7.424746423294004	-20.14859162466689	26.51893840582776	-32.76748336252526	-48.6365826948122	7.890497290132219	-0.06612834170940571	39.6472781945382	-10.39625272963276	-0.05102010307548054	-13.41855143815393	0.7687653817892243	-0.6642690231512005	7.513211780059447	-20.3819672869482	-2.279375470671887	9.25214441640777	0.2360826099062804	-4.733284651897442	7.896753528145685	0.05836451145041466	-0.2848802299187319	-1.81064856917009	-0.5304316536472709	-0.1748427256448611	0.6969854417332797	-0.3504408970045064	-1.144076383269869	-0.4544418314788209	0.01946526150452594
0.1418654673351004	76.09969766090279	72.0708965469257	56.07898264020183	32.78557244215061	273.445532338333	90.47483466170812	176.8310053272773	45.40316001499346	-12.83829158268398	-76.8464531116703	4.372012912847921	7.567193552665273	-21.79603684140461	30.51573045998875	-35.94988695116679	-50.99641447072285	10.71482126854414	-0.07711096852987619	37.40039855880872	-13.00893538060679	-0.05471723524584676	-14.42920221541643	0.8678405207217458	-0.6789630080053137	6.931734581217612	-20.48270409786147	-2.374616804109581	9.404419414130761	0.6748692086770653	-4.830257157777168	7.873569697753986	0.06163686060019313	-0.2906901884144137	-1.667482964300726	-0.7652050573858858	-0.1694012814716171	0.7078960875832911	-0.3667717001540031	-1.150145254235282	-0.4565994012429078	-0.00601856116269156
0.1453071283122631	84.40013191056931	88.08992276779657	56.42142271938503	26.56203442407239	305.6668399744476	72.2321234336674	184.377613616164	50.72753848312502	-15.61642377412587	-76.26859055860515	-2.572775829502699	7.763894355420778	-23.16252155622732	33.8422566233134	-38.8386240025493	-52.89997148608979	13.30394087851712	-0.08638576667005116	35.33708024690732	-15.22234827976386	-0.05774119271165146	-15.30577539348147	0.9820526546341123	-0.678468474535602	6.347792197336238	-20.56912521790838	-2.46336174599008	9.546585992612812	1.07122316201602	-4.893513816399795	7.835671168673561	0.06468685242426087	-0.2955112135588167	-1.535278400504971	-0.976307540353466	-0.1619950031923992	0.7147923227751096	-0.3818951279010445	-1.153774109555136	-0.4615062799319585	-0.0294116315954775
0.1482902993364854	90.55152377260248	101.2988904429645	55.81647401140005	19.816490255784	335.9702548541304	55.1562747120412	189.990109189201	55.21335757616296	-18.05882291365066	-75.46215751885971	-8.245066463087069	7.979007267019729	-24.29416637315104	36.43674793624108	-41.34713493103156	-54.36529781383412	15.58921741430253	-0.09393891749421615	33.5385797530605	-16.978344701242	-0.06009587496084946	-16.03347482363834	1.101766527629169	-0.6659420831866552	5.79410155024171	-20.64488688773742	-2.542975357650927	9.664637079621306	1.410970345594833	-4.927048577614865	7.789314622753905	0.06741470100065872	-0.2993415367213679	-1.415090224263102	-1.154674672168515	-0.1534022018385001	0.7182831390725982	-0.3954141562623599	-1.155452784084926	-0.4672371092876551	-0.049781647577709
0.1507679370955254	95.07340719345014	111.5845160806375	54.71313703057884	13.46939417595738	362.5015288201618	40.37495254484343	194.1688528648605	58.84101593130926	-20.11104124772031	-74.5713599363939	-12.60432547473386	8.18007915573865	-25.21363733800016	38.3326441455251	-43.41686746348827	-55.57790798621278	17.51738917362501	-0.09990404243760952	32.0547704039768	-18.28321201960498	-0.0618375289443835	-16.60889532539167	1.216390909499803	-0.6460992002288433	5.302050382239593	-20.71042783457104	-2.610918054553105	9.756284932027459	1.68638607224593	-4.938028152444359	7.741198237912722	0.06973304484700826	-0.302240583074648	-1.310057856254087	-1.296230033948985	-0.1446098596186079	0.719263438225728	-0.406924690619552	-1.155773985307266	-0.4722020990240615	-0.066544694496248
0.1527009768984096	97.8448022005028	119.0770939386394	53.35799209509968	7.725174217999147	384.4823638348738	28.44197945874771	196.8249386398182	61.54737256561136	-21.72118288637058	-73.73714918858808	-15.73199681334201	8.344643079746273	-25.92602956746975	39.62435786407403	-45.01382871047197	-56.40518409357895	19.03817068623161	-0.1042240006152912	30.91154590678754	-19.18573896634386	-0.06304747800200172	-17.03651936871977	1.315504528550567	-0.6243117002189669	4.898936316353074	-20.76393148735959	-2.66496643624373	9.79695214217079	1.894916469166698	-4.935134943396975	7.697616269223083	0.07157031142835313	-0.3043040062643891	-1.21903261738562	-1.400805642285637	-0.1366595572285017	0.7187445635548897	-0.4160641418523002	-1.155334312993738	-0.4742603213581284	-0.07941179159562328
0.1540589714577417	99.22722487492499	124.0287864550624	52.09057155209448	3.054819509697602	400.7297516287982	19.85374368816053	198.2412278816094	63.36027440889443	-22.85865791063943	-73.07910885810574	-17.76629242510589	8.461137176777445	-26.4267212204501	40.42538514711664	-46.12245793122411	-56.88986589301238	20.11846576566687	-0.1070179477505288	30.11909315163224	-19.75212653047786	-0.06381337689820624	-17.32459486099023	1.390158481887417	-0.6056094844707958	4.606277257763355	-20.80291296452054	-2.703407182912341	9.791276636910332	2.0372504080839	-4.926814274634054	7.663871206893791	0.07287327747911887	-0.3056406390918136	-1.146087206846062	-1.470510669555728	-0.1304912739819319	0.717681164143447	-0.4225533281810752	-1.154660653096636	-0.473236903359944	-0.0882949473856319
0.1548208116596206	99.45544403667495	126.7120690396447	51.1374535405015	-0.4406175710278006	410.380552155044	14.88632909827032	198.5861316648346	64.31622157730851	-23.50420995397852	-72.6844017130868	-18.8440986248809	8.525933281011515	-26.70831664206808	40.83462602496733	-46.73861563925777	-57.07850469571287	20.73768673135774	-0.1083256291773201	29.67911541901714	-20.04378687166064	-0.06421106232540612	-17.48147463747292	1.433829014359175	-0.5938751252533967	4.438841255909391	-20.82530053455144	-2.725120664129717	9.741996600043137	2.115392604185017	-4.919813081980767	7.643822123271907	0.07360791081630247	-0.3063473112187176	-1.093997578221174	-1.508089751639473	-0.1268183699398309	0.7168263081574623	-0.4262140190964993	-1.154150470320803	-0.4689319541430961	-0.09321090896790593
0.155	102.7781270151611	126.721307826069	52.35489344096915	12.04979701105174	412.5019157678697	13.89462216572237	201.2528299167798	64.68038604137168	-23.74437536963725	-72.5889334022344	-19.09072618414734	8.541060719012705	-26.77465609215331	40.92660496387965	-46.88287544890211	-55.6205356791933	20.90595800011345	-0.1127956598864391	29.57615111434001	-20.10957234098239	-0.06430116311624798	-17.5178640989413	1.444285207076065	-0.5909849058627969	4.399130602453995	-20.83062040635066	-2.730241782731963	9.717509736081935	2.133581963034015	-4.917919566491108	7.638990684034622	0.0737810326675018	-0.306508873469681	-1.06966017974143	-1.516759656891324	-0.1259322485658716	0.7165979690413506	-0.4270768376074107	-1.154016659226427	-0.467210029235565	-0.09435947644481255
0.1554542507337262	100.4246762014164	128.7643759858838	50.64715229438737	-1.533391107993168	418.0714685280307	10.9402189921974	199.543954999147	65.14159002021616	-24.0163815470426	-72.34246573838342	-19.70395390271477	8.579158335277789	-26.94304602379989	41.15239537902474	-47.24738905963541	-57.29533722450368	21.21747497560243	-0.1098280608672622	29.31605969146172	-20.27144929957405	-0.06452360682100647	-17.6092283532709	1.471105027981523	-0.583435351035082	4.297912497960066	-20.84419905663916	-2.743246428798415	9.797220812003147	2.179356705911514	-4.912695146393375	7.62654632867624	0.07422041951757719	-0.3069103644576237	-1.074081781673262	-1.538440431283266	-0.1236479055083729	0.7159722789041064	-0.4292668748048881	-1.153653890750649	-0.4738770163230056	-0.0972573849618123
0.156515784775164	101.6695460629935	132.1040278769631	49.62152197946958	-4.648870567385252	431.1303741633606	4.331519822341008	200.8615298996231	66.48410105634078	-24.86486581444906	-71.74184575477956	-21.0683713735104	8.66637396066735	-27.33801521410994	41.63817004493415	-48.09215067880454	-57.81242171330606	22.01970550340688	-0.111918554348583	28.71369222611815	-20.62178712640425	-0.06500937577537831	-17.81768187339921	1.535514440142363	-0.564545245906761	4.058391175944223	-20.8764559807686	-2.773751835350911	9.888924100652185	2.284368117375883	-4.898092492555992	7.596378937699926	0.07524968799346687	-0.3078026165364347	-1.040639038303055	-1.587375177599305	-0.118097181900033	0.7142461280338752	-0.4343978603282431	-1.152675051561865	-0.4820809681263997	-0.1039481747132352
0.1581644464118399	103.0797999175417	136.8685309564397	47.76393114794945	-9.250240540740101	452.400586146723	-6.098776207147807	202.4933739742146	68.45777796219537	-26.19675234765572	-70.74194372874996	-22.98904421876332	8.794598529705535	-27.95670132230359	42.27359494126397	-49.38246351234044	-58.3359411532625	23.28259165131396	-0.1151370080237553	27.79445693706752	-21.08538115051029	-0.06566555937903362	-18.12686321219482	1.640272560716933	-0.5317413319207498	3.678595071298894	-20.92803157932436	-2.821391471497594	9.972884217027353	2.441621587913772	-4.868669710063209	7.546582396276769	0.07685286702950411	-0.3090564719477564	-0.9729056940606773	-1.658240028781305	-0.1088876703381405	0.7108227188393786	-0.4423899827282264	-1.150794955291156	-0.4903784986055656	-0.1140921372376661
0.1603741041940474	103.7839187750717	142.4352040696658	44.70200135805048	-16.52872210677537	482.584556865192	-20.18563733799256	203.7872149114814	70.85584433092131	-27.96641607041826	-69.27918391173624	-25.16458474439929	8.946012161891353	-28.79892445701272	42.89234444597133	-51.06445335927363	-58.85129038969911	24.97211737535436	-0.1188715415299859	26.59676270872472	-21.54570968118868	-0.06634636986277438	-18.51202707071	1.789343460718472	-0.4812036240704733	3.156180840077581	-20.9999287159808	-2.885562587054153	10.03110270337768	2.640128915852219	-4.816144352460754	7.474453827997013	0.07900326356919585	-0.3104728652792381	-0.8684017658775556	-1.742518423546101	-0.09543124511028585	0.7047946173789865	-0.453104418553686	-1.147603140122324	-0.4979393887215516	-0.1271547891026663
0.1631098871668135	103.6896948342869	147.9039434321917	40.36290052940515	-25.93736641074186	521.6051909412241	-37.2605416559381	204.7590056143121	73.48905494697101	-30.10801492959722	-67.28800810331195	-27.19090029165583	9.086517563165669	-29.86641548566647	43.28326208050969	-53.05924685597876	-59.45330015292436	27.02944429373533	-0.1230551837377514	25.1742778037019	-21.84752607354711	-0.06684930376704798	-18.93997246710559	1.986664585405756	-0.408471677238885	2.491780128041353	-21.09282541262783	-2.965065132192855	10.0712003189737	2.864294092599117	-4.730111410593123	7.377200959742382	0.0816517000888024	-0.3117808223223431	-0.7307036194438492	-1.828160914946027	-0.07705249011951315	0.6950184150100885	-0.4662667638094852	-1.142627628513869	-0.5052137166811257	-0.1423643653638273
0.1663286436775879	102.0666292076979	152.1610006659316	34.55212563544653	-37.43094235957241	570.0629983146621	-56.53003946217103	204.9217401886321	76.00939396025959	-32.51261495148903	-64.71821127991475	-28.5903249159424	9.159819010636646	-31.15845244369358	43.21813290890726	-55.26081649230636	-60.04033898082409	29.35735695301488	-0.1272648461174854	23.594317467356	-21.80805938611919	-0.06669842764792086	-19.37092097108005	2.23450476224492	-0.3094162156206139	1.692608725454207	-21.20567976982819	-3.057692245213299	10.08449632122135	3.094205071907612	-4.599365506410496	7.252817318166812	0.08471530065743893	-0.3126414557894495	-0.5622574605084079	-1.899912252650043	-0.05314489515252162	0.680243854121565	-0.4813730116240442	-1.135423636684641	-0.5122896994940171	-0.1587187423913008
0.1699796094921079	98.17273933084327	153.9911605124026	27.19279707604064	-50.83715054617518	628.3942616416247	-76.82106634897947	203.7972303199918	77.99692448513267	-35.02663806418064	-61.56199641215398	-28.86693131042783	9.085561896770535	-32.66716470195279	42.48899443449534	-57.53859568758811	-60.50686680976134	31.8162346882306	-0.1310072288031658	21.93253128730726	-21.23929345948345	-0.06581845322653318	-19.76147334523009	2.531782358437025	-0.1813670765920108	0.7757586985255664	-21.33488789595934	-3.159994916847776	10.06288681188328	3.306833839551983	-4.413526762244567	7.101234876022989	0.08806350097355253	-0.3126739188734675	-0.3682197599898086	-1.940549003441024	-0.02335397726920801	0.6592738410416233	-0.4976206844739207	-1.125706570835681	-0.5192508765879698	-0.1750390514667761
0.17400520557877	91.76364017132502	152.2598745709058	18.5244627160319	-65.47226983749162	696.1131969239198	-96.40348404133101	201.3138613155772	79.04262913597088	-37.44256077468383	-57.8755454462859	-27.5892446041987	8.765347169560991	-34.36921501924959	40.95716828207053	-59.74531938407197	-60.90677380460392	34.21449989342583	-0.1339230485979049	20.2641687721468	-19.98001913596353	-0.06447859488039762	-20.06912251451424	2.872294954973869	-0.02442505674670903	-0.2289186894904345	-21.47329623212653	-3.267127471917196	10.01517824715182	3.478417552707081	-4.165179114700887	6.925574450617138	0.09150683018267902	-0.3114964052202593	-0.1603661404873583	-1.933157528336824	0.01221086581552573	0.6311748739120425	-0.5138537885155561	-1.113502677716386	-0.5267571024661047	-0.190081289153428
0.1783419453248002	81.95715032478965	146.007162103611	8.790678702715461	-80.52849718155046	773.6179758026552	-113.7340388668587	196.8075917867733	78.59824950657448	-39.5232942599073	-53.77893038240184	-24.48618809314456	8.099111985836673	-36.21404837118756	38.6118440515083	-61.72918142145148	-60.73786440550784	36.32111952683944	-0.1355081156757943	18.65450892534702	-17.93189968178128	-0.06267909898334045	-20.25805523174622	3.242942640647816	0.1572225110022409	-1.276675933151865	-21.60827995420285	-3.372649129618209	9.905868380559598	3.587866177023699	-3.852507678689644	6.733176619810877	0.09479766664643574	-0.3087672697370101	0.05606136826435026	-1.864226521662753	0.05276429259145739	0.5955387151744569	-0.528508721295564	-1.099270866534791	-0.5333836506576091	-0.2026967870387679
0.1829214354539589	69.13597598375391	134.9022261149812	-1.316902235057841	-95.58134569548334	858.7830853210046	-126.6398698990646	190.58007668487	76.37958114674433	-40.99893356907997	-49.45034673667234	-19.52722776765672	7.011026790617853	-38.10912407610752	35.59778426071745	-63.35139203250279	-60.21041294777051	37.8801634511482	-0.1353891649053463	17.15131393002212	-15.09169645135833	-0.06046285239522878	-20.30497104366982	3.624029476012752	0.3549875421180264	-2.311302317691182	-21.72234482935529	-3.469149632090914	9.747787010968574	3.620480971197977	-3.480733116976778	6.53547442537632	0.09764104975839472	-0.3042475664827609	0.2628750209675977	-1.726924396736567	0.09678676257350165	0.5526495127205606	-0.5397520390233986	-1.083927840692921	-0.5388869556358729	-0.2119958810203832
0.1876714545037473	53.73523819232567	119.1895098051963	-11.03280084590077	-109.943404154443	949.3828256741199	-133.458728212135	182.8637809607681	72.20936768036606	-41.61853150128442	-45.09256994983004	-12.95806761961933	5.47697883411802	-39.93439971436215	32.21167982785175	-64.50352080231437	-59.27918476709318	38.64210657157869	-0.1332984040594668	15.77871451963802	-11.56638412862713	-0.05791181976872442	-20.20081205081407	3.991085158101845	0.5568441345155366	-3.269464287058522	-21.79535833365964	-3.548992048303524	9.551495102346117	3.57075743471048	-3.062251677058506	6.347681751708848	0.09972767418857031	-0.2978624811968693	0.4410378885712771	-1.523389129031604	0.1421482423551652	0.5035428389900853	-0.5456583965355259	-1.068835444734161	-0.5434568291497578	-0.2174664421883952
0.1925170917444269	36.45038652779897	99.80424156940279	-19.6309709624521	-123.7936977148286	1042.296570138217	-132.9274885954151	173.9903933913811	66.14281185076767	-41.19844958740643	-40.89997489299596	-5.263879059840272	3.542933189723462	-41.54361977414714	28.87440671181214	-65.1164912786229	-58.04537662061663	38.42045758987549	-0.1290520895811007	14.54119424437156	-7.562895623491045	-0.05536261295486236	-19.95218900933522	4.317158685794296	0.7487523914606744	-4.089550665155774	-21.8043566647299	-3.604972522893088	9.319606423399497	3.443405883339952	-2.615650015426508	6.186204426128184	0.1007765161937721	-0.2896985256493978	0.57568346313273	-1.265086867205432	0.1863438180309336	0.4499548805020422	-0.5444318858534538	-1.055523913814546	-0.5457329323141215	-0.2190178959309187
0.1973819285398158	17.97055145464758	78.17019955538014	-26.59057468616812	-137.6288310814732	1134.422604240676	-124.7820652358836	164.2036967143324	58.43728641598781	-39.66736885020644	-37.0239781017175	2.912712825494651	1.326012235035241	-42.78643347505012	26.03774019373212	-65.16580776707418	-56.49686676009825	37.12699541516655	-0.1224811552002824	13.42898891490389	-3.356492331161468	-0.0526418281061692	-19.57798272891142	4.578577231207999	0.9178554990034136	-4.72225537144606	-21.72793194533131	-3.631536679546681	9.058152845274018	3.252715421880148	-2.162386145861133	6.065676469128946	0.1005939567155368	-0.2800058305214783	0.655199418093933	-0.9712078737624064	0.2269809188396763	0.3940597335148588	-0.5347506979360531	-1.045387434679708	-0.5450624528088976	-0.2169542313088546
0.2021892435043931	-0.6518938326842232	56.04332151249894	-31.56202700807642	-152.0447946590778	1222.062745970518	-109.4521591911841	154.0090819094596	49.60668199947089	-37.08086205761799	-33.5495718961964	10.90040895723942	-1.00673271305564	-43.54095385179977	24.10594413718157	-64.66445247156601	-54.80225568834088	34.79735585422884	-0.1137291819366894	12.42609014115747	0.7597801941865625	-0.04980086576326134	-19.10374521684015	4.757673334342595	1.054566943465058	-5.138940536367936	-21.54738606838693	-3.625241623776605	8.793328761418644	3.019369246307352	-1.723030627705582	5.995803285085825	0.09910135097089734	-0.2691370430453734	0.6701436187268993	-0.66494206136272	0.2621615879412163	0.3381160006773098	-0.5159608873084384	-1.039329146331236	-0.5419102303301011	-0.2118686469366465
0.2068632224455918	-18.24931520208973	35.16364355141343	-34.42058296159396	-167.1961218522343	1301.751107698878	-88.18511599808721	144.0210063119454	40.30701532792773	-33.62192217723941	-30.50088182787335	18.11471298273904	-3.272387583378587	-43.72948076560327	23.35081470707403	-63.65408555347084	-53.11377974086497	31.59073877427286	-0.1032471027086936	11.5177368953308	4.523798152334803	-0.04715113280995751	-18.55737715701813	4.846238547242701	1.15430760960069	-5.336751668034977	-21.24916586232886	-3.58511306417914	8.561614123815229	2.766331684431112	-1.314212265640371	5.978941506181946	0.09636211686671878	-0.2574801409730394	0.6159557442106003	-0.3692168448998652	0.2907915367311913	0.2841618314770428	-0.4882229727649641	-1.037501228314901	-0.5378450227582606	-0.2045116608449477
0.2113301540101398	-33.80027843845828	16.93591093684784	-35.27084486822336	-182.4872276885229	1371.032901754312	-62.99404119047284	134.8118182597665	31.20123998447828	-29.57166198238061	-27.85717124861058	24.13781651585064	-5.308805335792289	-43.33575369525256	23.85324721705081	-62.19916310260123	-51.43189409917785	27.76112604177944	-0.0917297274072541	10.69338638637211	7.741838676581764	-0.04494213013633475	-17.96529050559396	4.847119687278487	1.217985509278326	-5.338636904216351	-20.82926941492275	-3.513003717205348	8.40121817773276	2.515103853845001	-0.9464342833022473	6.009724819016427	0.09257303049892629	-0.2454234584993633	0.4933281480567703	-0.1029959017354012	0.3126972818186234	0.2337586366214505	-0.4525845098923795	-1.039292936954999	-0.5354891592853074	-0.1956792557343114
0.2155195921846577	-46.53293790892633	2.249226684355299	-34.38905467310459	-196.9236182002368	1428.556221569698	-36.07457848382542	126.871701127885	22.85577647740281	-25.26037011916556	-25.57915616955205	28.76471613984317	-7.003796467703853	-42.40740610365837	25.5131851709804	-60.38182049625256	-49.721735914281	23.61828006953157	-0.08000763074927339	9.948914432511781	10.31027119231525	-0.04331972410422592	-17.35161340389681	4.77156298762531	1.250372289754384	-5.187389222122411	-20.29441271706849	-3.413233488125997	8.329635469313665	2.282694356646599	-0.6242236159288166	6.076444325647611	0.08802030132362876	-0.2333176244590527	0.3127818377938746	0.1212561494057484	0.3284270327408655	0.1879242015169601	-0.4108429607778554	-1.043498858777928	-0.5361392172089988	-0.1861266289666131
0.2193654673351004	-56.31949956306855	-8.585182574642786	-32.27484538384532	-210.115021924655	1474.195545946918	-9.593735750151225	120.3055596409035	15.6399117200675	-21.01815783050896	-23.62778617765338	31.9845162498839	-8.306047367333612	-41.05157448454209	28.06594852902861	-58.30579317396018	-47.96493154232525	19.48598394281113	-0.06868456596411938	9.284060862579333	12.21245785067205	-0.04231529649573471	-16.73837048692906	4.638576791116273	1.259029792102238	-4.93584111558944	-19.66629772246288	-3.292595066854048	8.334695811697003	2.080227021330987	-0.3474999282483266	6.164339068661077	0.0830539206378591	-0.2215033049581445	0.0950803659051916	0.2981358415749435	0.3390498311751578	0.1472143747923844	-0.3654107031913129	-1.048714930375958	-0.5392228655882169	-0.176510810776042
0.2228071283122631	-63.4236428794338	-15.77580228055211	-29.47154946822472	-221.9357429161404	1508.835542864098	14.73047464337285	115.0265746863904	9.723890473622873	-17.11462924625499	-21.97273772958166	33.9490856661304	-9.223192917905568	-39.41591524944474	31.15777292899642	-56.09540207058127	-46.19268683464132	15.63997136338549	-0.05819114400677759	8.70148959035413	13.50570107936287	-0.04186630833213828	-16.14751101207613	4.469982192646915	1.251828101983534	-4.637980749787175	-18.98028163378499	-3.159878845509738	8.400027007348735	1.913041361555338	-0.1135804660868184	6.258515217136495	0.07802301583362364	-0.2103189202569573	-0.138385508926699	0.4286096157873525	0.3457859543595015	0.1118500955116538	-0.3190685118453002	-1.053669728762102	-0.544317131652631	-0.1673775911248085
0.2257902993364854	-68.14935909193883	-19.90084407922863	-26.42322159316189	-232.117520367543	1533.682712812701	35.78698008556163	110.9971781178514	5.137908399732805	-13.73870918227082	-20.5976976857939	34.91335504420817	-9.806606607117216	-37.66937150485117	34.40646982970395	-53.89362797836725	-44.54160541701997	12.28457519507339	-0.04895359761597512	8.205060851604451	14.29578192629211	-0.04184346327550025	-15.60154550996018	4.288470846965767	1.236002348751272	-4.339501585659894	-18.28297412689127	-3.025124805727232	8.498043046598376	1.781661586759416	0.08050579763324195	6.346899515703449	0.07326050171974696	-0.2001148445021435	-0.3645078699071578	0.5182599841482978	0.3497966313888072	0.08192699434045081	-0.274679530427556	-1.057523410155364	-0.5497565947232615	-0.1591525182944424
0.2282679370955254	-70.68524365937303	-21.7349944447187	-23.40343294792269	-240.1807203884783	1550.034133901595	53.09513738115392	108.3270117477675	1.83035008761926	-10.97807509578789	-19.49364835233612	35.1797181627113	-10.13273844929912	-35.98570573507508	37.46108372575844	-51.8529506170711	-43.28101433175667	9.530079125313119	-0.04134426588364076	7.798372125754316	14.71198025788737	-0.04208864450993825	-15.12294925673242	4.114725501333627	1.217311161328196	-4.073728034822671	-17.62722234243658	-2.89885322324397	8.626556592959057	1.683442841371287	0.2370178302403133	6.421553530399702	0.06905176414480019	-0.1912518747612073	-0.5705343983639317	0.5752560259766731	0.3520346524294783	0.05750481063691946	-0.2349517909634983	-1.059968217218627	-0.5557707089867677	-0.15215514060111
0.2302009768984097	-71.90271828280132	-22.14158988572767	-20.81429571186266	-246.4682493994389	1560.120631551333	66.28636693032138	106.5716966515873	-0.4214950641841373	-8.877513792325121	-18.65439901023558	35.04836676739969	-10.28467150290365	-34.52672714685403	40.03865016467063	-50.1223185394805	-42.36405490211789	7.429705218759339	-0.03536306637344448	7.484271043543348	14.88430753414306	-0.04244606422430592	-14.73294681903457	3.965857256999795	1.199877649940955	-3.861180427037904	-17.06573551986744	-2.791125328168085	8.75883871568143	1.614223317657716	0.3570895831266034	6.478608219440462	0.06562362687087023	-0.1840785128440392	-0.742262935154828	0.6084308772372169	0.3532006995832808	0.0386598506785393	-0.2022393590229087	-1.061155476716138	-0.5618144217638517	-0.1466167206353084
0.2315589714577417	-72.66209606073994	-21.88795667422006	-18.99462657128586	-251.42525536517	1566.017660016305	75.22316554328097	105.259096130378	-1.861195002155196	-7.449494769020049	-18.07604211278418	34.77879944203287	-10.33724457671186	-33.42639443435087	41.93681871111475	-48.83204019035676	-41.6804902205057	5.99834162220578	-0.03096274766540433	7.265160619251738	14.9257138536267	-0.04278294811458606	-14.44996484025351	3.854817970881047	1.186389570175675	-3.711704062105142	-16.64467321724084	-2.710563295693584	8.861419505206106	1.569639811400771	0.4407671007613099	6.517235490516375	0.06314562355910863	-0.1788986647342368	-0.8664591078221509	0.6257621190948854	0.3537592681288492	0.0255026690811032	-0.1784002982657962	-1.061511218138919	-0.5666931935764132	-0.1426938979592245
0.2323208116596206	-71.3146197090359	-21.67856296006039	-17.30989973387241	-249.8023430143284	1568.879488404281	80.18565264645106	105.9396999803929	-2.439754700579005	-6.621055458115951	-17.75573297901909	34.56388471685669	-10.3471747786413	-32.78205467896549	43.02925756441643	-48.08088651513619	-41.21380770094513	5.147268004156045	-0.02974844914738128	7.142785599265185	14.92032497420881	-0.04300234730138935	-14.28791242645908	3.79033950994664	1.178438249283032	-3.628465126720648	-16.3987514828361	-2.663592083488188	8.968315810981801	1.546119401857504	0.4875598808538103	6.538159517580691	0.06173206962477393	-0.1759405382654493	-0.9525050180479037	0.6333224708281688	0.3539893564701708	0.01814447749800546	-0.1647283202158518	-1.061511510494332	-0.5720082762982216	-0.1404839477792848
0.2325	-65.06886639654914	-22.33144614504175	-14.56235548338697	-230.7481269562655	1572.120956675745	80.73749079737571	111.0437583192626	-2.096911184057999	-6.306420415788057	-17.68083740990119	34.5067191610738	-10.34747307768984	-32.62768989443993	43.28882996273697	-47.90133989549631	-39.77157775918594	4.694577209524823	-0.03475216635521367	7.11405901631929	14.91608418584296	-0.04305708194629732	-14.24945028600136	3.774954743693742	1.176531539371861	-3.608991465698465	-16.33989253570921	-2.652358252815748	9.090809528537678	1.540744268639284	0.4985554610403893	6.542989988797403	0.06139725970924437	-0.1752392431109513	-1.015271432735279	0.6348751495194579	0.3540353991429974	0.01641582136103761	-0.1614822236189264	-1.061489218125606	-0.5783959648902222	-0.1399633238265866
0.2329542507337262	-72.70067858825033	-21.20773154006189	-16.8877478547128	-255.4449986797401	1570.864767675478	84.21102344256963	104.3900985652467	-3.148147046833444	-6.012459489203536	-17.49174065350402	34.35055282599051	-10.34476160523735	-32.23157832729645	43.95106896353469	-47.44126051031808	-41.00574740742324	4.552746140185508	-0.02676012704695419	7.041331738667163	14.90027865986189	-0.04320112792196336	-14.15135353484578	3.735589222499193	1.171639247886864	-3.559844202163047	-16.1889436363182	-2.623561948969697	8.979147857239537	1.527386964762333	0.5264176584878911	6.555066798244303	0.06054462653416218	-0.1734519132190431	-0.997680984875712	0.6384269468175814	0.3541389593003963	0.01203667069433441	-0.1532021511304085	-1.061392950422651	-0.5716295986619856	-0.13864222965914
0.234015784775164	-72.43058419429462	-20.34930581630641	-15.23082920113047	-258.4736279639448	1573.4420169404	90.9246260015951	103.8692326052852	-3.996955407167048	-4.966808789769463	-17.05420764503022	33.92301813783845	-10.31911192239319	-31.27924483624828	45.52030639149993	-46.33847308283281	-40.573568750513	3.502613239591036	-0.02362302362164789	6.871906681628516	14.83521892556435	-0.0435669650010749	-13.91878028049221	3.641624332020092	1.159902951567392	-3.446506081390422	-15.82646276055386	-2.554488025579451	9.053863146116608	1.497681875031422	0.5914999487728955	6.582253534046727	0.05853117940195207	-0.16922144898906	-1.091289752734162	0.6445832176522269	0.3543116405739199	0.001817437268714014	-0.1335728781157666	-1.060934856822952	-0.5732115567037647	-0.13554865800101
0.2356644464118399	-71.64732894105499	-18.52766062350618	-12.56997268422731	-262.9706809670416	1576.351119911968	100.8874100712635	103.2132938750376	-5.135637369502886	-3.393687439594949	-16.38722130192137	33.08719796625202	-10.22620208547533	-29.72666302030954	48.00744920369508	-44.54842703872277	-39.86686757214027	1.91830566745362	-0.01873832978475201	6.610212799836526	14.6569920665728	-0.04421413367848671	-13.5482621575133	3.490548750378304	1.140949443464757	-3.276123643274486	-15.23647250640818	-2.442256237174078	9.198548248307512	1.45575405949544	0.6926955941506888	6.621136506003976	0.05534953683145979	-0.1625003635586841	-1.245036552880244	0.6482335679008223	0.3544075728863421	-0.01402828539487651	-0.1023410565150162	-1.059521702717216	-0.5777807233396894	-0.1307308973029874
0.2378741041940474	-70.3425831458075	-15.06014056222078	-9.055672744320461	-270.0814796461888	1577.583601392455	113.3130213711692	102.2365131723107	-6.321449883251772	-1.429631107963498	-15.51851726883483	31.64623807794667	-10.00267731577128	-27.50805062438426	51.40439417182856	-42.0007834740416	-38.99192609966166	-0.05594122739545462	-0.01178602652451172	6.262053057511383	14.27414176542005	-0.04522500420608232	-13.03378572366113	3.279306937762974	1.114501158897492	-3.062920805166429	-14.39453997463773	-2.282407917706794	9.42209578769822	1.407588442719543	0.8291495260449009	6.665490609615055	0.05099145019108081	-0.1532007196210317	-1.456380700391761	0.6420222731354642	0.3542671339942152	-0.0352617791584135	-0.05916305444047315	-1.056130238691217	-0.5858362569832837	-0.1242616590173878
0.2406098871668135	-67.43440027856255	-9.258337643703742	-4.484743546340653	-278.4383526666114	1574.666999295705	127.2035955072897	101.6229454303879	-7.140882703800012	0.7720933389317608	-14.48572078378444	29.37251149328522	-9.575564800387959	-24.54961024394066	55.63872367880481	-38.61082436035473	-38.14665387394518	-2.262137634569925	-0.003165879614895201	5.834576289889032	13.5806198905913	-0.0466863921490643	-12.36841257969716	3.006143545034279	1.080737617785847	-2.832233080852613	-13.27273756653027	-2.069711273856858	9.762277293297517	1.360555828577624	1.000658429496417	6.705244517143951	0.04546685106549136	-0.1412229809608352	-1.729126563945153	0.6172480523112112	0.3537807311693396	-0.06164096651876504	-0.003858836375576685	-1.049237263985715	-0.5990829387250773	-0.1162599947214281
0.2438286436775879	-62.71177764890682	-0.4792120281598656	0.9718596848768484	-287.660283253356	1565.930153845091	140.7032333358642	101.3235683363084	-7.254501119528054	2.946796882189624	-13.33749920340346	26.0466771548725	-8.875772733848757	-20.78275644591579	60.52705042001612	-34.29305482083681	-37.1211097726803	-4.446408362572366	0.007055434900451324	5.335754206644555	12.47342639637491	-0.04866509743430952	-11.54617758523807	2.672376017087727	1.04047801082791	-2.623461039281707	-11.84572589442363	-1.799065886411724	10.20652899312015	1.322477973401726	1.207976190661811	6.725828743497161	0.03881869835261864	-0.1264865974193921	-2.050775847158425	0.5651931854198613	0.352926965254686	-0.09294987962682794	0.06333600239660873	-1.036805408791375	-0.6167416791128285	-0.1069020604761741
0.2474796094921079	-55.34517283805228	11.52551276590071	7.365514303125679	-294.7129182695953	1551.087454408588	151.4706558960866	101.8863392404932	-6.30429377889703	4.801231492735152	-12.13565547077981	21.5053262408515	-7.854563979782501	-16.1576933957441	65.73573339764519	-28.98159723125342	-35.43691698655714	-6.347364621042688	0.01797568761470211	4.774045500336681	10.87362485861546	-0.05117953824341386	-10.56535286482842	2.283927910130553	0.9950578041589795	-2.490707272393715	-10.0989037823733	-1.466717353134789	10.73508927747022	1.300372804712012	1.452456139680108	6.708296882476901	0.03113687718681013	-0.1089752902513457	-2.406255820854702	0.4787566036615043	0.3517538564720531	-0.1289736075135277	0.1414962836098741	-1.016380772772448	-0.6374065248361916	-0.0964282949902508
0.25150520557877	-44.82729818643956	26.76133616849963	14.59311608645787	-298.1285560068002	1529.323032911767	157.363818633788	103.6782812811142	-3.946508267471417	6.035333378059047	-10.94797548580816	15.68907214711179	-6.500129720683869	-10.66631960706454	70.75777769463825	-22.65721482669555	-33.1520940623814	-7.663978424171442	0.02911849322028459	4.157284887974892	8.747793763330602	-0.05417528565003313	-9.431232781249129	1.852373196193648	0.9460476545781199	-2.49932954545686	-8.039551729869345	-1.072072975414875	11.3470809164119	1.299144399901218	1.735590742198623	6.630981945267353	0.02255699025316715	-0.08882000885822494	-2.778871790502367	0.3541275116755737	0.3503272828330394	-0.1694746420608577	0.2287188492728387	-0.9853898204531459	-0.6608211828146746	-0.08514457791229627
0.2558419453248002	-31.07556980472305	44.63901610326655	22.4840598619076	-296.6839446813976	1501.404398519653	156.2657042217593	106.8849809124705	-0.01179257829522484	6.4090902923474	-9.843937868861783	8.686514815237301	-4.849950111411045	-4.350218697927753	74.94071390113794	-15.37563841303869	-30.24894755014586	-8.160432138101227	0.04006345311363976	3.493694901148778	6.125741328894309	-0.05750929388357296	-8.161079846120364	1.39440865722396	0.8944696403192813	-2.717983094037221	-5.706131159342245	-0.6195475521488387	12.06692196319212	1.320429145901763	2.057129057667569	6.472301433798566	0.01325872802547379	-0.06637560856345281	-3.161961572437776	0.1921833116045303	0.3485899031894467	-0.2140405209620301	0.3219434910900374	-0.941576621569838	-0.690138536411724	-0.07341947041930026
0.2604214354539589	-14.48461292964167	64.09411408846732	30.75669716473045	-290.2149263366375	1468.460402162561	146.748927334374	111.4187105658336	5.483831288397781	5.739607364695033	-8.883225606688004	0.7575192048118902	-2.993634268942404	2.690751772556981	77.56502670694623	-7.289545626638416	-26.89245064485643	-7.650899613706462	0.05048558779424736	2.793075158967143	3.108635491330055	-0.06094971610882405	-6.787088447340741	0.92998145151221	0.840144479800921	-3.206011673311424	-3.173745163938172	-0.1201502643104007	12.85930244662777	1.361985081154961	2.413070626147543	6.214713792168942	0.003456837582295369	-0.04228279383998856	-3.529882078279725	-0.0008420309520273117	0.3462345818154023	-0.2619199592004164	0.4169628384566185	-0.8835363663665194	-0.7232022224753175	-0.06167107776683937
0.2651714545037473	4.057375003784738	83.51908346481071	39.1089914805765	-278.9891531673196	1433.099583851672	128.1194297563759	116.9562412051842	12.25393604499881	4.001915896075975	-8.093835580321459	-7.678080722170506	-1.062955035478771	10.2844054593386	77.95988343231619	1.344707918703645	-23.07528660635397	-6.115778496631398	0.06002995788600388	2.067089021949112	-0.1367876460305061	-0.06419781010355979	-5.354492545272545	0.4797834753692376	0.7817130155957459	-3.9986878579532	-0.5536912881072173	0.4075101647318253	13.69143421544069	1.417931937847863	2.79488127654637	5.849096694158275	-0.006618198566657962	-0.01749859080826832	-3.865729115270096	-0.2137474989312204	0.3426985396277998	-0.311969806934141	0.5086572076421678	-0.8112289689359824	-0.7590399332214366	-0.05034101881794526
0.2700170917444269	23.50955207038891	101.173546470815	47.27884928937215	-264.4283031001918	1397.324443985858	101.1280170726558	123.112774332042	19.8509915763844	1.345600760596191	-7.473268883533418	-16.08225147746651	0.7894376342205125	18.21097344260398	75.66685904327259	10.18206573431509	-19.11291199359324	-3.689690664464825	0.06852936445049862	1.333968856405832	-3.397808859483098	-0.06693511869065284	-3.921433376339478	0.06187262930649576	0.7167677511229089	-5.096478679429501	2.01591368625728	0.937260818421942	14.53388937273933	1.4797926779479	3.188324733803784	5.378177125716227	-0.0167196374077343	0.006748512804922946	-4.158280056296964	-0.4317487446360589	0.337211820185582	-0.362549714664224	0.5914512504928431	-0.7263609383990857	-0.7962318728555187	-0.03986266873240801
0.2748819285398158	40.53173789091035	115.3568487692785	54.34137159193373	-251.4219699448467	1364.709903739047	66.73758396755682	127.5614956524163	27.30314377415254	-1.95390373106666	-6.962670966128764	-23.88766830687339	2.42104255348321	26.21290755718546	70.51991065712045	18.84104541375148	-14.05060647296335	-0.6521538937021163	0.0763185210200705	0.6150446477869499	-6.450771651124888	-0.06887126649021121	-2.54583644185261	-0.3113114353587644	0.6428588869516468	-6.460495733081906	4.396768066032337	1.439676250549426	15.25843430548263	1.538282686436113	3.576428841677799	4.814974499731353	-0.02662063279312599	0.02919560420736778	-4.38430480096516	-0.6390673377702547	0.3290067697028057	-0.4118301315867692	0.6602750855894266	-0.6318731803007833	-0.8294526115213919	-0.0306176944760121
0.2796892435043931	53.50250608651533	124.8337093588851	59.96970974746085	-243.0186819673706	1336.372077171295	27.98025393481157	129.3831817072005	33.82635451577438	-5.428476860752546	-6.500200105217209	-30.57389665749707	3.722097985031276	34.00927968455153	62.7934973712986	26.93281601696458	-7.939331854325696	2.579822010745057	0.08371325955641634	-0.06021407286560287	-9.09201938761651	-0.06982084010828737	-1.286568460188028	-0.6330814720655421	0.5587513112828553	-8.01302675135217	6.452139416185513	1.881271532452949	15.83435964907034	1.584853098455441	3.939782565176685	4.188722491541605	-0.0360727406690205	0.04849197430317598	-4.549586335674655	-0.8209030422311527	0.3176156522394306	-0.457759018519703	0.7108435399623099	-0.532780333349008	-0.8579689312780943	-0.02287755994203568
0.2843632224455918	61.92603580422199	128.4079080214993	64.2094401229096	-239.6121741449975	1312.68682701102	-11.44249728947437	128.4044459561056	38.56848860840892	-8.413813448147227	-5.94534888451589	-35.7828258737497	4.642519700179693	41.37660212250962	52.95779137275053	34.18467797865972	-0.7800704624437915	5.401279512289409	0.09059146426399925	-0.6705103337448826	-11.17983765938076	-0.06968399025681052	-0.173707675209135	-0.9076802058036866	0.4636764535193039	-9.661669400904049	8.12233267529859	2.242928509349996	16.25374980194806	1.613595263704816	4.265146697784201	3.521999675329988	-0.04495809031301146	0.06407490491109724	-4.681341622863087	-0.9669963605053349	0.3028062554367325	-0.4990507545885182	0.7417034287576607	-0.4323567608415877	-0.8813524116428446	-0.01680316348810373
0.2888301540101398	65.84268249911861	125.987203819452	67.05691586883052	-242.1735796277451	1295.446169029006	-47.67555184539535	125.1658419016157	40.98535442342876	-10.42173419198697	-5.324570964030766	-39.33641300060025	5.179333219428138	48.05623679003204	42.02591170045802	40.32569374115955	6.938122042628363	7.365795946931135	0.09619691488525051	-1.182188964630521	-12.64200117719574	-0.06860535687222102	0.7466336293085838	-1.132079409397697	0.3623152595970121	-11.28754312422441	9.309286260641107	2.493057971980964	16.5620400189049	1.621864722333874	4.535701999608813	2.870370182808704	-0.05293215005413449	0.07478683959090549	-4.810345760672512	-1.070926445872953	0.2854066050168997	-0.5338246683483325	0.7514708848998942	-0.3386923627961978	-0.9022114412425489	-0.01234991934461672
0.2930195921846577	66.72544183663422	117.1242009059653	68.89187105163536	-247.4297425956901	1278.82785415286	-77.26962294837168	120.3521295378874	40.50179758008037	-10.86157652695243	-4.354332917768194	-41.28522657608938	5.392953019422878	54.01385197890308	30.37432350831066	45.42744754876072	14.48694006500307	7.898702291796454	0.1018679769145278	-1.608160348051767	-13.48839395356013	-0.0665960400720397	1.523507314037328	-1.333381485673311	0.2527843186962875	-12.83177185919559	10.1579103187509	2.662116627872654	16.81967988057059	1.609669844570825	4.760628260949846	2.218377233831373	-0.06030606257289034	0.08229283018291142	-4.986144441277534	-1.133894985924128	0.2654242458703713	-0.5634137807413317	0.7455562952838889	-0.247919330860316	-0.9229051527790915	-0.009449358866023064
0.2968654673351004	64.4372184842434	104.339037592	69.2611022778591	-258.8128883173332	1268.210618388777	-98.903676132969	114.7313734780378	37.54684341473676	-10.06971878754549	-3.451785887130953	-41.84459875095727	5.347221506314009	59.00368552407051	19.62542864665812	49.272597665263	21.16994859420797	7.261428706186031	0.1060497686008181	-1.904869386722211	-13.80183295886079	-0.06428210818741276	2.078311263815297	-1.485767096546795	0.1496898393189197	-14.16394654666811	10.50447582489386	2.700153208768993	17.07287451660239	1.58186489497529	4.917599485299775	1.671194135788009	-0.06626763974440786	0.08447219333025038	-5.198095085318651	-1.15884084094285	0.2455251783597888	-0.5848865622285875	0.722581218767671	-0.1755615641523599	-0.945917429404833	-0.007726943195237194
0.3003071283122631	60.76811339971497	88.09615875691237	68.61984647470297	-271.1055274736131	1255.502945472028	-112.2015293853801	108.6391342135895	32.18472215269817	-7.979561352509968	-2.285686526318027	-41.37808902797961	5.147558020989776	63.17300619853776	9.627218022991771	52.20486783259506	26.74043117895963	5.315257611035178	0.1089330978632244	-2.121915911392436	-13.70899574745765	-0.06183767364627581	2.516018586357344	-1.62519571260929	0.04904525828574258	-15.3050308233445	10.64056979902215	2.683266527340246	17.3168436172455	1.542953004933233	5.034619175554379	1.171019477583367	-0.07147640597817828	0.08474721180978789	-5.46063031617989	-1.156163021767102	0.2255823209761746	-0.6017142171789519	0.692694727338468	-0.1107397073897484	-0.9686349409065806	-0.007009921065826631
0.3032902993364854	57.82982230282579	68.71759289329698	67.58999631240756	-277.6269274742923	1233.295926803462	-117.927248583016	102.6793011031909	24.84532223826617	-4.761455382151819	-0.4861594707732051	-40.10003373409348	4.859483356416114	66.67752534589722	-0.1069035503979254	54.56024510974407	31.02554509370302	2.148766588475193	0.1110066668023564	-2.305556910028979	-13.26986353770758	-0.05898377317807694	2.950339544918538	-1.790218644954238	-0.05598491379157394	-16.30469817881165	10.83178129653974	2.685589072609338	17.54613240480557	1.492207283964424	5.146165169818905	0.649161678491231	-0.07679707646293149	0.08614167126326377	-5.774873612637471	-1.131167671382896	0.2050365269349461	-0.6181078719934294	0.6640010322577564	-0.04175094455138884	-0.9888244162944976	-0.007023066538180571
0.3057679370955254	52.65141717275596	52.99957921750731	65.12016738408441	-292.3608334794083	1224.840006622553	-119.3660359596855	97.24831143625947	17.83659341880453	-2.020666903236023	0.4296650343305028	-38.64173127681479	4.551227624137582	69.14873946125687	-6.570413487811004	55.83983356103467	34.11364209632828	-0.6651220438616816	0.1100237154885703	-2.360021074004439	-12.77012532075324	-0.05702767070894373	3.117181286959476	-1.870722263505965	-0.1277469898403746	-16.95692793607843	10.53419703336119	2.552890018192677	17.69185212634423	1.448940238942602	5.180079422201285	0.3641764142951233	-0.07966186294508243	0.08190691281134754	-6.014893594085565	-1.097871497298392	0.189968073042532	-0.6245125502630944	0.6272838136105002	-0.008526802393898719	-1.001858999236904	-0.007249615325922075
0.3077009768984096	46.0697571071358	42.64288256454603	61.86423446415895	-313.84905253843	1230.026773676124	-118.7381054422775	92.76255349910757	12.16734573030028	-0.1211980041096083	0.3564859064709784	-37.50392719303575	4.298712851731073	70.72790158204795	-9.75606847040619	56.30457648041127	36.1356460065927	-2.708836254674611	0.1080276020678593	-2.322691438944226	-12.410765288163	-0.05614935024986033	3.052176049244033	-1.866508708682228	-0.1632449441404595	-17.29441402551663	9.88824381450635	2.325856251951665	17.74377485748627	1.422961317853909	5.14727677468543	0.3046677634116156	-0.08014782757670236	0.07368603897367687	-6.159142078622422	-1.070972722461118	0.1811241821641753	-0.6220820402687149	0.5890912083102033	-0.008049866240769171	-1.006136397542803	-0.007542593377988779
0.3090589714577417	40.34090991068495	36.14440011745411	59.04266380932727	-332.5596105025874	1235.680005610841	-117.3559947261417	89.14577480835386	8.015777885060002	1.164484601776294	0.05620556335711857	-36.73658994920692	4.1245167390556	71.72873262217925	-11.36945618902493	56.47402131536407	37.31415282260892	-4.136564473040081	0.106494726867147	-2.273987998266297	-12.18221935249129	-0.05576089788064353	2.945372424941282	-1.842277746345298	-0.1814191076428959	-17.47018317656428	9.31098876717593	2.127558845709087	17.68251448933414	1.408297474314743	5.105014826437008	0.3163922555441139	-0.07992551908889382	0.06643944409528296	-6.224942330412221	-1.05287193573357	0.1758697491831014	-0.6179700605957175	0.5597101576206853	-0.01585054757576487	-0.9995735190978574	-0.007811593343315517
0.3098208116596206	37.64584999194847	32.12901867538831	57.54670320419807	-341.8922359736103	1242.259252369763	-116.1860643296374	87.84037705357511	5.53960613937963	1.927575495092931	-0.1547196084382527	-36.31512210595822	4.0287055160958	72.26871867865798	-12.14891048655722	56.54178350554313	38.2129642281446	-4.995590358452947	0.1041550285888276	-2.242959650620409	-12.05992018286674	-0.05559028932761403	2.874431156515669	-1.824919077976079	-0.1903540386229316	-17.5544557255816	8.965282859142135	2.008711716633314	17.52419739955031	1.400904562514079	5.077682879955354	0.3336264276452986	-0.0796990294342181	0.06210864380740599	-6.230317115949908	-1.042976988990877	0.1730985417624205	-0.6152117777068923	0.5428295467321135	-0.02178967400318743	-0.9832137235809253	-0.00798075889522314
0.31	37.02515036979477	31.15357806035673	57.19398508175451	-344.0303136333598	1243.98519329289	-115.8731098498188	87.55777653196597	4.938155115611841	2.112913518394709	-0.2049508055555025	-36.21614689854647	4.006343619311757	72.39469191898503	-12.32700830466471	56.55690021655487	38.44780577517091	-5.204858725872224	0.1035073865360921	-2.235565838425772	-12.03130847485049	-0.0555521196825313	2.857432705763422	-1.820753013921213	-0.1924202414820216	-17.57337784366561	8.883297335434168	1.980424172338617	17.47624092149657	1.399200697680357	5.071133555162249	0.3381244108784434	-0.07964322469506827	0.06108099249992749	-6.228945472232479	-1.040655318549168	0.17245126167653	-0.6145483022480092	0.5388504525748627	-0.02324597757280258	-0.9783145280165513	-0.008021872763298417
