Inverse Dynamics Generalized Forces
version=1
nRows=63
nColumns=42
inDegrees=no
endheader
time	pelvis_tilt_moment	pelvis_list_moment	pelvis_rotation_moment	pelvis_tx_force	pelvis_ty_force	pelvis_tz_force	hip_flexion_r_moment	hip_adduction_r_moment	hip_rotation_r_moment	hip_flexion_l_moment	hip_adduction_l_moment	hip_rotation_l_moment	lumbar_extension_moment	lumbar_bending_moment	lumbar_rotation_moment	knee_angle_r_moment	knee_adduction_r_moment	knee_angle_r_beta_force	knee_angle_l_moment	knee_adduction_l_moment	knee_angle_l_beta_force	arm_flex_r_moment	arm_add_r_moment	arm_rot_r_moment	arm_flex_l_moment	arm_add_l_moment	arm_rot_l_moment	ankle_angle_r_moment	ankle_angle_l_moment	elbow_flex_r_moment	elbow_flex_l_moment	pro_sup_r_moment	pro_sup_l_moment	subtalar_angle_r_moment	subtalar_angle_l_moment	wrist_flex_r_moment	wrist_dev_r_moment	wrist_flex_l_moment	wrist_dev_l_moment	mtp_angle_r_moment	mtp_angle_l_moment
      0.00000000	    110.25504105	    -81.03369947	    -33.56990495	     40.95463070	    204.42681386	     45.68264070	    -11.80020877	    -43.83636164	      9.45217836	     31.45359377	     17.95884495	    -11.14090568	     83.14362656	     10.59026035	     -6.09311287	     29.84771600	    -17.87865628	     -0.02277597	      1.45018824	     13.02243007	      0.01648693	     -5.33116571	      2.95982738	      0.92844257	      2.20354188	      4.23948499	      1.24526458	      0.13721430	      3.53817173	     -1.28580669	      1.56677323	      0.03934176	      0.00051873	     -1.32381707	     -0.44832649	      0.06860945	      0.17676449	      0.36878253	     -0.14896600	      0.00783940	     -0.14408908
      0.00500000	    109.17736055	    -55.06663521	    -24.68753072	     33.46126704	    194.63447546	     18.38183470	    -13.70008058	    -31.53750923	      8.34948965	     27.95762296	      7.87409593	     -7.44800055	     83.36617040	     13.10941658	     -6.84835967	     31.00784489	    -12.75953385	     -0.02118868	      1.36695628	      7.95754627	      0.01482466	     -5.34864281	      2.87429978	      0.87992260	      3.06798732	      4.05749580	      1.40589415	      0.06028383	      3.67494964	     -1.37477462	      1.94182430	      0.03908598	      0.00163786	     -0.97997593	     -0.77327009	      0.05999459	      0.18357781	      0.41033807	     -0.18840117	      0.00221248	     -0.14260064
      0.01000000	    105.73172016	    -24.52868278	    -16.13716999	      9.86804091	    146.71986068	      2.73786361	    -20.26897059	    -20.58362464	      8.21161228	     23.56497355	     -1.45115674	     -4.37439242	     82.65939723	     20.77552776	     -7.02141819	     33.56123343	     -8.76126671	     -0.01594419	      2.99487465	      3.14978161	      0.01446605	     -5.36327031	      2.76558481	      0.83104182	      3.46680798	      2.92297370	      1.20914720	     -0.00344949	      3.76088119	     -1.69898677	      2.26284605	      0.04362287	     -0.01349427	     -0.64448449	     -1.10367407	      0.04588719	      0.21359413	      0.36779030	     -0.23928867	     -0.01113557	     -0.14062508
      0.01500000	    101.41812751	      4.61070333	     -7.48391784	     -9.23156625	    113.86851220	    -14.98410191	    -25.58234105	    -10.59002698	      7.89070810	     18.70046914	    -12.01031947	     -1.39602368	     81.79100372	     27.30883291	     -7.13794630	     35.56377963	     -5.15007428	     -0.01202017	      4.20220110	     -2.18037322	      0.01598092	     -5.36081934	      2.63487430	      0.76431628	      3.88615277	      1.90102806	      1.05381879	      0.00301525	      3.78755576	     -1.96208354	      2.58001851	      0.04617982	     -0.02642700	     -0.35685159	     -1.43520255	      0.03069497	      0.23831271	      0.33556742	     -0.28821737	     -0.02520093	     -0.13231332
      0.02000000	     95.67265520	     31.83877599	      0.56387954	    -28.36060722	     83.68664866	    -30.08292308	    -30.87773043	     -2.35074507	      7.68969218	     13.26037233	    -22.54557884	      1.14555699	     80.55480920	     33.78284869	     -7.09901288	     37.35458895	     -2.39764233	     -0.00815280	      5.54213919	     -7.52988675	      0.01772532	     -5.33992678	      2.48642151	      0.68579085	      4.22273968	      0.76511515	      0.85864713	      0.06672583	      3.75092105	     -2.22519995	      2.88450831	      0.04825495	     -0.04100103	     -0.13095545	     -1.74767048	      0.01374436	      0.26374544	      0.29413910	     -0.33801444	     -0.04107168	     -0.12439101
      0.02500000	     88.53754353	     55.42636842	      7.67766952	    -45.55783969	     60.27048380	    -42.65970184	    -35.56419812	      3.86734560	      7.54872725	      7.33869059	    -32.52364157	      3.15937535	     79.01087808	     39.41496904	     -6.96961923	     38.71600486	     -0.54622771	     -0.00462990	      6.91827478	    -12.67711987	      0.01849827	     -5.29499110	      2.32412645	      0.59654526	      4.54656079	     -0.37838155	      0.66742629	      0.18865173	      3.63737971	     -2.45870774	      3.18499123	      0.04929016	     -0.05522170	      0.02088651	     -2.02319158	     -0.00419279	      0.28713121	      0.25371638	     -0.38746096	     -0.05769982	     -0.11255082
      0.03000000	     79.89631527	     74.42197248	     13.46935692	    -61.44178018	     40.95684121	    -51.22821741	    -39.74627067	      7.85914948	      7.56907814	      0.98374806	    -41.07940983	      4.55942177	     77.10494415	     44.17523075	     -6.75132165	     39.64824253	      0.30536912	     -0.00113500	      8.49755098	    -17.28547283	      0.01727342	     -5.22324887	      2.15338865	      0.50061235	      4.85307317	     -1.56077487	      0.47173106	      0.35924436	      3.45124873	     -2.66965758	      3.48177745	      0.04959472	     -0.06951500	      0.09382817	     -2.24505485	     -0.02279160	      0.30925217	      0.21211610	     -0.43686452	     -0.07467491	     -0.10311867
      0.03500000	     69.83398861	     88.00836708	     17.74527439	    -75.47370637	     25.88185772	    -55.41662593	    -43.18723567	      9.71276738	      7.77370087	     -5.70359066	    -47.56360075	      5.36260590	     74.83124857	     47.76122400	     -6.47358361	     40.06352935	      0.22792013	      0.00234227	     10.33470795	    -21.10360286	      0.01575290	     -5.12271993	      1.97916458	      0.40122612	      5.16989165	     -2.75620187	      0.28402069	      0.56975961	      3.17864791	     -2.85046975	      3.77823383	      0.04914785	     -0.08331141	      0.09037907	     -2.39808779	     -0.04146865	      0.32947357	      0.17218671	     -0.48585752	     -0.09123416	     -0.08778028
      0.04000000	     58.54344605	     95.81482186	     20.40718711	    -87.49526846	     13.97988940	    -54.82255661	    -45.73648950	      9.66801653	      8.19566684	    -12.58543503	    -51.39853653	      5.64508184	     72.15756768	     50.05234608	     -6.15542503	     39.91076835	     -0.65693780	      0.00568995	     12.50200810	    -23.90831882	      0.01421537	     -4.99375669	      1.80648413	      0.30210464	      5.50538962	     -3.96618308	      0.10542322	      0.80934419	      2.82844333	     -3.00125036	      4.07519485	      0.04810548	     -0.09655912	      0.01900662	     -2.47239111	     -0.05973241	      0.34788962	      0.13411671	     -0.53431399	     -0.10677975	     -0.06979281
      0.04500000	     46.39845169	     97.83091367	     21.50294687	    -97.01305591	      4.81647232	    -49.58847260	    -47.15672021	      8.13463222	      8.81994867	    -19.46763966	    -52.24193055	      5.53805903	     69.06376679	     50.92957091	     -5.82310692	     39.12754899	     -2.14369667	      0.00842624	     15.02068845	    -25.55892869	      0.01398879	     -4.83944876	      1.64019614	      0.20671184	      5.86993222	     -5.18299824	     -0.06052333	      1.06814017	      2.41693845	     -3.12050869	      4.37341182	      0.04657810	     -0.10908151	     -0.10643544	     -2.46386162	     -0.07706581	      0.36442955	      0.09872841	     -0.58198284	     -0.12078484	     -0.05362019
      0.05000000	     33.78966406	     94.40971837	     21.19722730	   -103.74858697	     -2.23001115	    -40.05426608	    -47.24262107	      5.60351853	      9.60125437	    -26.20447980	    -49.95648604	      5.19966866	     65.52632922	     50.37129386	     -5.50219968	     37.67215884	     -3.99614405	      0.01113616	     17.90100389	    -25.99951305	      0.01319216	     -4.66598793	      1.48427307	      0.11806863	      6.26513068	     -6.40437050	     -0.21371211	      1.33784540	      1.94221702	     -3.20952358	      4.67236435	      0.04471703	     -0.12085834	     -0.26926925	     -2.37140872	     -0.09304303	      0.37926313	      0.06605819	     -0.62864542	     -0.13294676	     -0.03179653
      0.05500000	     21.20922523	     86.20502601	     19.74561662	   -107.35314501	     -7.45261352	    -26.84242592	    -45.79217278	      2.59458971	     10.45674485	    -32.61970825	    -44.65036465	      4.78894820	     61.53132494	     48.41983472	     -5.22185491	     35.51522347	     -5.96533541	      0.01385665	     21.10285986	    -25.25656828	      0.01167269	     -4.48296396	      1.34181661	      0.03853286	      6.68801277	     -7.62642458	     -0.35474836	      1.61272364	      1.43247341	     -3.27049201	      4.97085408	      0.04266567	     -0.13190285	     -0.45188207	     -2.20211228	     -0.10731991	      0.39262026	      0.03601053	     -0.67406703	     -0.14317920	     -0.01177464
      0.06000000	      9.16302418	     74.10787761	     17.46364008	   -107.55346996	    -11.13566730	    -10.71621586	    -42.65359953	     -0.41180113	     11.28262817	    -38.56497978	    -36.65748251	      4.44382708	     57.07211327	     45.20065433	     -5.01256835	     32.65006284	     -7.82489653	      0.01658440	     24.56612943	    -23.44234618	      0.00960787	     -4.30324519	      1.21477735	     -0.03035831	      7.13027255	     -8.84524990	     -0.48554225	      1.88981727	      0.89476167	     -3.30750657	      5.26698839	      0.04057539	     -0.14229784	     -0.63809189	     -1.96559321	     -0.11967677	      0.40487570	      0.00819068	     -0.71803496	     -0.15162405	      0.01203520
      0.06500000	     -1.87840783	     59.16412986	     14.70638532	   -104.25542033	    -13.31023852	      7.42931523	    -37.74131077	     -3.01381066	     11.96766220	    -43.92986231	    -26.50120388	      4.26331703	     52.16416274	     40.90409541	     -4.90751281	     29.10277918	     -9.38925902	      0.02044780	     28.19571097	    -20.73699732	      0.00715984	     -4.14312893	      1.10446463	     -0.08780465	      7.57919439	    -10.05564632	     -0.60865842	      2.16900200	      0.35418265	     -3.32572109	      5.55824855	      0.03858904	     -0.15216508	     -0.81465656	     -1.67706252	     -0.12999771	      0.41646737	     -0.01793856	     -0.76034677	     -0.15863249	      0.03580993
      0.07000000	    -11.52473364	     42.50012068	     11.83635234	    -97.55619351	    -13.89448441	     26.74793702	    -31.04092479	     -4.92686081	     12.41254299	    -48.65630498	    -14.83708799	      4.29915406	     46.83125760	     35.79524830	     -4.93988506	     24.91377201	    -10.53325257	      0.02375521	     31.87953275	    -17.37329394	      0.00459127	     -4.02083251	      1.01033658	     -0.13424548	      8.02032148	    -11.24973288	     -0.72667451	      2.45226647	     -0.16846878	     -3.33173514	      5.84201956	      0.03683640	     -0.16164405	     -0.97258593	     -1.35394179	     -0.13833721	      0.42792131	     -0.04292634	     -0.80084267	     -0.16466196	      0.05806579
      0.07500000	    -19.46974969	     25.25480988	      9.20381740	    -87.81584613	    -12.59821149	     46.34221554	    -22.61916674	     -5.98014768	     12.54296420	    -52.74190859	     -2.40662650	      4.55577046	     41.13478657	     30.18160501	     -5.14446870	     20.15496920	    -11.19157663	      0.02599952	     35.49387844	    -13.61872215	      0.00204185	     -3.95726462	      0.93170483	     -0.17075662	      8.43722263	    -12.41768365	     -0.84213518	      2.74319238	     -0.65531111	     -3.33260528	      6.11527871	      0.03543046	     -0.17088003	     -1.10717996	     -1.01484001	     -0.14483785	      0.43976398	     -0.06731765	     -0.83937546	     -0.17025433	      0.07857324
      0.08000000	    -25.50125861	      8.52907632	      7.13193278	    -75.54596305	     -9.14079681	     65.48814188	    -12.60346682	     -6.11447496	     12.31893274	    -56.23261680	     10.03228094	      4.99746850	     35.14497214	     24.41489667	     -5.55457677	     14.91818919	    -11.35638782	      0.02691125	     38.91404376	     -9.75234042	     -0.00050619	     -3.97318146	      0.86633519	     -0.19953496	      8.81495850	    -13.54673433	     -0.95684197	      3.04614510	     -1.09736697	     -3.33601298	      6.37537944	      0.03445992	     -0.17999885	     -1.21776901	     -0.67755453	     -0.14979216	      0.45253228	     -0.09149442	     -0.87585350	     -0.17595783	      0.10117836
      0.08500000	    -29.49820853	     -6.65791335	      5.89975384	    -61.56406239	     -3.06727732	     83.47713166	     -1.17848619	     -5.34956621	     11.73398083	    -59.21726455	     21.75132695	      5.55826054	     28.96681705	     18.85678121	     -6.20325314	      9.30641240	    -11.06295476	      0.02610035	     42.00914047	     -6.04371391	     -0.00312721	     -4.08980381	      0.81214523	     -0.22321862	      9.13998472	    -14.62242111	     -1.07193415	      3.36542680	     -1.46193585	     -3.34942991	      6.61977968	      0.03399254	     -0.18909903	     -1.30667013	     -0.36147932	     -0.15355078	      0.46670534	     -0.11568996	     -0.91021266	     -0.18227138	      0.11518325
      0.09000000	    -31.38312016	    -19.39717337	      5.72565945	    -46.65404485	      5.95974913	     99.75171219	     11.44580292	     -3.76042504	     10.81058450	    -61.80158016	     32.09232238	      6.16077273	     22.71631085	     13.86515995	     -7.12110670	      3.44051714	    -10.37415027	      0.02411173	     44.67380896	     -2.74250441	     -0.00593121	     -4.32600114	      0.76642267	     -0.24503595	      9.40101055	    -15.62934723	     -1.18781742	      3.70442886	     -1.75705634	     -3.37958415	      6.84635794	      0.03406276	     -0.19824621	     -1.37793481	     -0.08025173	     -0.15652901	      0.48265602	     -0.13996246	     -0.94242914	     -0.18962446	      0.13152790
      0.09500000	    -31.13986622	    -28.91349183	      6.76127078	    -31.78836495	     18.28807565	    113.81527098	     25.03959241	     -1.44051940	      9.58838528	    -64.10132004	     40.50657574	      6.72534729	     16.52451307	      9.76770330	     -8.33637895	     -2.56326411	     -9.36306802	      0.02096642	     46.80401237	     -0.05606118	     -0.00903792	     -4.69806022	      0.72697789	     -0.26822089	      9.59016024	    -16.55230875	     -1.30413317	      4.06524669	     -1.95471602	     -3.43229372	      7.05355026	      0.03468737	     -0.20746757	     -1.43611698	      0.15114957	     -0.15913919	      0.50065252	     -0.16419092	     -0.97251956	     -0.19833862	      0.13935896
      0.10000000	    -28.78082652	    -34.58442235	      9.06447269	    -17.84522267	     34.18317300	    125.22642060	     39.36834819	      1.51945741	      8.11317492	    -66.21572618	     46.57031601	      7.18833803	     10.52637637	      6.83983018	     -9.87351827	     -8.59614455	     -8.09906956	      0.01663596	     48.33014041	      1.85222231	     -0.01255943	     -5.21777320	      0.69194702	     -0.29587511	      9.70124328	    -17.37797109	     -1.42018720	      4.44845556	     -2.06153584	     -3.51151057	      7.24008614	      0.03585230	     -0.21675973	     -1.48522929	      0.32373280	     -0.16175112	      0.52077492	     -0.18816200	     -1.00051222	     -0.20863178	      0.14597585
      0.10500000	    -24.36592616	    -35.96398530	     12.60378361	     -5.64743373	     53.82299803	    133.56811672	     54.20004343	      5.05096307	      6.42543499	    -68.21804161	     50.00229333	      7.50700313	      4.84573123	      5.27856125	    -11.75312938	    -14.56057861	     -6.63604723	      0.01123658	     49.19768416	      2.87563287	     -0.01657207	     -5.89113063	      0.66080943	     -0.33029575	      9.73015757	    -18.09700013	     -1.53518703	      4.85285853	     -2.06385448	     -3.61913233	      7.40526989	      0.03752977	     -0.22610057	     -1.52787302	      0.42922077	     -0.16461790	      0.54292118	     -0.21162085	     -1.02646829	     -0.22061900	      0.14574069
      0.11000000	    -17.99248438	    -32.80793074	     17.24745918	      4.12748074	     77.29046282	    138.49043815	     69.31074047	      9.10731778	      4.55449501	    -70.14395714	     50.67353308	      7.66809968	     -0.40863331	      5.19415993	    -13.98880281	    -20.37639543	     -5.00885419	      0.00462655	     49.38604955	      2.96447951	     -0.02109912	     -6.71773853	      0.63399976	     -0.37290065	      9.67331156	    -18.70410796	     -1.64846635	      5.27577491	     -1.96361114	     -3.75464723	      7.54844455	      0.03967592	     -0.23544402	     -1.56498549	      0.46369415	     -0.16785018	      0.56678209	     -0.23433398	     -1.05041934	     -0.23432626	      0.14035640
      0.11500000	     -9.82025743	    -25.09815570	     22.76363609	     10.98766388	    104.62586166	    139.61631665	     84.48074675	     13.66634419	      2.51373195	    -71.98581212	     48.60507264	      7.68727451	     -5.15396524	      6.58507732	    -16.58754437	    -25.97904144	     -3.23044207	     -0.00325775	     48.90189017	      2.12778595	     -0.02609971	     -7.68995468	      0.61422210	     -0.42344428	      9.52657365	    -19.20058361	     -1.75996207	      5.71306569	     -1.76292089	     -3.91474001	      7.66901046	      0.04224523	     -0.24474135	     -1.59564366	      0.42606511	     -0.17132775	      0.59182875	     -0.25619345	     -1.07237557	     -0.24970130	      0.13007658
      0.12000000	     -0.09012158	    -13.06132342	     28.83553993	     14.66325064	    135.82776260	    136.70245398	     99.49149594	     18.71078044	      0.30419319	    -73.69107723	     43.97564648	      7.60564670	     -9.34748476	      9.34808523	    -19.54491470	    -31.31697045	     -1.29817262	     -0.01226795	     47.78046714	      0.43425760	     -0.03146517	     -8.79204766	      0.60517240	     -0.48029280	      9.28466368	    -19.59303581	     -1.87016124	      6.15928215	     -1.46568579	     -4.09332770	      7.76609041	      0.04518592	     -0.25392976	     -1.61742934	      0.31840126	     -0.17472241	      0.61731716	     -0.27722186	     -1.09227997	     -0.26662135	      0.11443057
      0.12500000	     10.86743090	      2.81587586	     35.06804637	     15.06061261	    170.88888421	    129.52908677	    114.11717218	     24.22070581	     -2.08339411	    -75.17112514	     37.10837435	      7.48243606	    -12.98015717	     13.26843236	    -22.84472538	    -36.34820573	      0.80269225	     -0.02223155	     46.08456214	     -1.99329003	     -0.03703043	    -10.00119713	      0.61312022	     -0.53970028	      8.94113724	    -19.89419484	     -1.98023798	      6.60774459	     -1.07990900	     -4.28175120	      7.83844282	      0.04846258	     -0.26293934	     -1.62670543	      0.14613364	     -0.17742988	      0.64232724	     -0.29761342	     -1.11000260	     -0.28489811	      0.09340619
      0.13000000	     22.62081213	     21.79008672	     41.01503896	     12.33127916	    209.88190675	    118.02439401	    128.12578893	     30.15208183	     -4.66085392	    -76.30588635	     28.46380624	      7.38416829	    -16.08671445	     18.04080255	    -26.45545765	    -41.03606870	      3.08978384	     -0.03304572	     43.90080575	     -4.98176512	     -0.04259703	    -11.28710886	      0.64536818	     -0.59635319	      8.48808266	    -20.12140836	     -2.09193850	      7.05083289	     -0.61883007	     -4.46882496	      7.88431113	      0.05204211	     -0.27168636	     -1.61925626	     -0.08165428	     -0.17862781	      0.66575743	     -0.31771462	     -1.12532461	     -0.30428794	      0.06796270
      0.13500000	     34.64282498	     42.88236247	     46.20499056	      6.76339192	    252.97313018	    102.27534849	    141.27069037	     36.42338739	     -7.43592348	    -76.96171160	     18.61902444	      7.37175507	    -18.73353625	     23.29042650	    -30.32859035	    -45.34375892	      5.57649365	     -0.04448056	     41.33408770	     -8.31658776	     -0.04796028	    -12.61403014	      0.71023316	     -0.64353005	      7.91739043	    -20.29472631	     -2.20724826	      7.47991226	     -0.09865835	     -4.64161880	      7.90138449	      0.05590240	     -0.28006141	     -1.59076878	     -0.35249195	     -0.17731307	      0.68639668	     -0.33796368	     -1.13793046	     -0.32448795	      0.03873270
      0.14000000	     46.32542478	     64.92133682	     50.17396873	     -1.23268522	    300.38080764	     82.57778133	    153.29228339	     42.90486106	    -10.40561347	    -77.00833133	      8.23875890	      7.48747989	    -21.01582765	     28.60356215	    -34.39771170	    -49.23157563	      8.26511986	     -0.05608325	     38.50095202	    -11.75309241	     -0.05295838	    -13.94198097	      0.81616724	     -0.67366451	      7.22318349	    -20.43481457	     -2.32791505	      7.88547009	      0.46116178	     -4.78633528	      7.88729188	      0.06003094	     -0.28792226	     -1.53734628	     -0.65068464	     -0.17238871	      0.70299511	     -0.35878025	     -1.14745728	     -0.34513918	      0.00628358
      0.14500000	     57.00836171	     86.60591125	     52.50201193	    -11.14438698	    352.45557612	     59.42366832	    163.92630722	     49.41382097	    -13.55065020	    -76.33544623	     -1.96758695	      7.74395771	    -23.04369875	     33.55840478	    -38.58016155	    -52.65341301	     11.14137665	     -0.06756342	     35.52250045	    -15.03204528	     -0.05748403	    -15.22899242	      0.97083578	     -0.67909548	      6.40232071	    -20.56142510	     -2.45530549	      8.25730066	      1.03526622	     -4.88888785	      7.83972801	      0.06441028	     -0.29509753	     -1.45597202	     -0.95754658	     -0.16276167	      0.71429731	     -0.38052487	     -1.15352278	     -0.36583421	     -0.02693758
      0.15000000	     66.02427657	    106.59429399	     52.85886828	    -22.45292567	    409.57782368	     33.59270247	    172.91376425	     55.71254740	    -16.82976713	    -74.86872905	    -11.29246835	      8.11612272	    -24.92983295	     37.77264420	    -42.77757462	    -55.55897389	     14.16879075	     -0.07860700	     32.51253663	    -17.89541605	     -0.06131982	    -16.43366146	      1.17937102	     -0.65320450	      5.45759290	    -20.68977842	     -2.58969088	      8.58481779	      1.60256750	     -4.93634730	      7.75704544	      0.06900977	     -0.30137138	     -1.34499153	     -1.25322963	     -0.14750088	      0.71915341	     -0.40333094	     -1.15578012	     -0.38612273	     -0.06175977
      0.15500000	     72.73835082	    123.59738554	     51.02934270	    -34.65470097	    472.08585144	      6.03678503	    180.01321448	     61.52228143	    -20.17897334	    -72.58924756	    -19.09073360	      8.54111015	    -26.77465615	     40.92660472	    -46.88287546	    -57.89577286	     17.28829150	     -0.08887593	     29.57654633	    -20.10971845	     -0.06430116	    -17.51786409	      1.44428520	     -0.59098491	      4.39913067	    -20.83062041	     -2.73024178	      8.85746490	      2.13284455	     -4.91791957	      7.63899070	      0.07378103	     -0.30650887	     -1.20433681	     -1.51668593	     -0.12593225	      0.71659797	     -0.42707684	     -1.15401666	     -0.40552668	     -0.09394591
      0.16000000	     76.59714219	    136.48501265	     46.95537158	    -47.36398647	    540.22493689	    -22.03632174	    185.01810758	     66.53236016	    -23.50850529	    -69.53609546	    -24.82934621	      8.92237355	    -28.65514801	     42.80656084	    -50.78384057	    -59.61583522	     20.41522891	     -0.09791929	     26.79630441	    -21.48098656	     -0.06624776	    -18.44924520	      1.76343084	     -0.49028432	      3.24561702	    -20.98754154	     -2.87468321	      9.06542391	      2.60815172	     -4.82610084	      7.48708535	      0.07863949	     -0.31025505	     -1.03593263	     -1.72921818	     -0.09779820	      0.70593219	     -0.45129275	     -1.14819668	     -0.42355836	     -0.12531868
      0.16500000	     77.17467932	    144.37878828	     40.74498724	    -60.23226702	    614.05400159	    -49.32281008	    187.78074151	     70.42821899	    -26.70588265	    -65.80741832	    -28.14299776	      9.14347787	    -30.62051671	     43.31263539	    -54.37259200	    -60.68224638	     23.44253181	     -0.10557978	     24.23382647	    -21.87673513	     -0.06692684	    -19.20272841	      2.13034625	     -0.35198672	      2.02420136	    -21.15879667	     -3.01965258	      9.20054662	      3.00389238	     -4.65716359	      7.30535662	      0.08346020	     -0.31237824	     -0.84382755	     -1.87424200	     -0.06329914	      0.68676904	     -0.47520553	     -1.13856517	     -0.43975377	     -0.15215930
      0.17000000	     74.24043669	    146.73957706	     32.68025765	    -73.10300582	    693.30924798	    -74.40807734	    188.22854860	     72.91542274	    -29.63870888	    -61.54404772	    -28.86457725	      9.08462281	    -32.67567148	     42.48305929	    -57.55060910	    -61.07973784	     26.24339850	     -0.11167651	     21.92386808	    -21.23464474	     -0.06581260	    -19.76336069	      2.53348063	     -0.18061065	      0.77063418	    -21.33560333	     -3.16055450	      9.25732159	      3.30752046	     -4.41238064	      7.10036245	      0.08808168	     -0.31267118	     -0.63433345	     -1.94061410	     -0.02318049	      0.65914444	     -0.49770787	     -1.12564817	     -0.45369806	     -0.17492535
      0.17500000	     67.72345227	    143.39934380	     23.19871433	    -85.97578841	    777.43020935	    -95.91919101	    186.37889597	     73.75234639	    -32.16239422	    -56.94276301	    -27.02894240	      8.64314081	    -34.79312633	     40.47579170	    -60.23761744	    -60.81942728	     28.67867850	     -0.11591782	     19.87805675	    -19.57098026	     -0.06409569	    -20.12535325	      2.95742064	      0.01633864	     -0.47348139	    -21.50594425	     -3.29236343	      9.23397655	      3.51042131	     -4.09732950	      6.88145504	      0.09230512	     -0.31100493	     -0.41589847	     -1.92286080	      0.02134787	      0.62347030	     -0.51750850	     -1.11031027	     -0.46507081	     -0.19329944
      0.18000000	     57.79481084	    134.60214351	     12.85930925	    -98.96958196	    865.37051208	   -112.54740029	    182.35172079	     72.77682900	    -34.12847038	    -52.20514301	    -22.87286951	      7.75102769	    -36.91048158	     37.56957087	    -62.37375989	    -59.94733706	     30.60461752	     -0.11804353	     18.08817518	    -16.97724521	     -0.06190972	    -20.29258150	      3.38295679	      0.22858639	     -1.66157618	    -21.65364575	     -3.40955772	      9.13349773	      3.60912904	     -3.72227833	      6.66042480	      0.09591084	     -0.30732273	     -0.19893508	     -1.82181028	      0.06863683	      0.58058538	     -0.53313770	     -1.09369958	     -0.47368050	     -0.20644566
      0.18500000	     44.84596230	    120.98000383	      2.28878879	   -112.34209189	    955.75630176	   -123.22559274	    176.36520999	     69.93239767	    -35.39775976	    -47.51916589	    -16.80394954	      6.38830821	    -38.93073904	     34.12742913	    -63.92257559	    -58.54219433	     31.88520155	     -0.11784649	     16.52878026	    -13.61072847	     -0.05937261	    -20.27764092	      3.78923927	      0.44432571	     -2.74719311	    -21.76089404	     -3.50686615	      8.96415468	      3.60928622	     -3.30092355	      6.45042814	      0.09867256	     -0.30165925	      0.00474777	     -1.64490051	      0.11677353	      0.53166724	     -0.54312763	     -1.07714805	     -0.47949892	     -0.21525984
      0.19000000	     29.47535209	    103.51052768	     -7.87092366	   -126.32655102	   1046.76334198	   -127.16800413	    168.73959074	     65.28685417	    -35.85385584	    -43.04100259	     -9.35251860	      4.58896398	    -40.74693271	     30.56825451	    -64.86890713	    -56.71431856	     32.40467887	     -0.11525354	     15.16605893	     -9.68057023	     -0.05661944	    -20.09802240	      4.15500537	      0.65146350	     -3.68544195	    -21.80914265	     -3.57935360	      8.74007454	      3.51772973	     -2.84917042	      6.26559191	      0.10037754	     -0.29413790	      0.18254754	     -1.40461580	      0.16375528	      0.47814223	     -0.54605447	     -1.06210508	     -0.48269949	     -0.21830530
      0.19500000	     12.46137453	     83.44297185	    -17.01976284	   -141.27066917	   1136.29507737	   -123.89568437	    159.86855249	     59.03260182	    -35.41655942	    -38.87684499	     -1.11152366	      2.43815553	    -42.23145822	     27.33859281	    -65.21191498	    -54.59617008	     32.08022673	     -0.11027863	     13.95920775	     -5.42461305	     -0.05401056	    -19.77560478	      4.45976044	      0.83850270	     -4.43794373	    -21.77723388	     -3.62245234	      8.48063447	      3.35339390	     -2.38402811	      6.11885739	      0.10084486	     -0.28492593	      0.32196779	     -1.11832396	      0.20764094	      0.42159993	     -0.54060901	     -1.04988460	     -0.48365811	     -0.21868089
      0.20000000	     -5.30482771	     62.20143854	    -24.65302816	   -157.37689891	   1222.03574067	   -113.42953053	    150.20535805	     51.48742903	    -34.05676378	    -35.08813061	      7.30623089	      0.06411769	    -43.26240034	     24.85618559	    -64.96039735	    -52.32867298	     30.87623406	     -0.10303108	     12.87291802	     -1.09614515	     -0.05109594	    -19.33151108	      4.68672764	      0.99643584	     -4.97575062	    -21.64409724	     -3.63233691	      8.20983398	      3.12967514	     -1.92129185	      6.02118759	      0.09994733	     -0.27423611	      0.41161972	     -0.80516753	      0.24682361	      0.36359974	     -0.52570703	     -1.04157026	     -0.48296787	     -0.21430294
      0.20500000	    -22.85100421	     41.29309488	    -30.38123899	   -174.77343910	   1301.59891342	    -96.07209507	    140.23432685	     43.06443823	    -31.80198762	    -31.67882720	     15.33147271	     -2.37851429	    -43.72400561	     23.50460527	    -64.11882116	    -50.04837864	     28.81005495	     -0.09375472	     11.87314279	      3.06346387	     -0.04817827	    -18.78456361	      4.82141783	      1.11858079	     -5.28242945	    -21.38395988	     -3.60529446	      7.95484199	      2.86965359	     -1.47451414	      5.97952748	      0.09760566	     -0.26224775	      0.44197441	     -0.48585208	      0.28006733	      0.30555834	     -0.50043111	     -1.03775068	     -0.48140936	     -0.20794020
      0.21000000	    -39.20023145	     22.19615042	    -33.95967394	   -193.36517883	   1372.65986385	    -72.68462659	    130.44317371	     34.25376027	    -28.74506508	    -28.61965931	     22.45097203	     -4.72252666	    -43.51530412	     23.56997319	    -62.68344412	    -47.87002390	     25.96139293	     -0.08278791	     10.93532474	      6.83025140	     -0.04555523	    -18.14840560	      4.85564162	      1.20225492	     -5.35649378	    -20.96951256	     -3.53807148	      7.74416490	      2.58972931	     -1.05339195	      5.99595486	      0.09381929	     -0.24910531	      0.40638555	     -0.17979346	      0.30673741	      0.24861701	     -0.46414713	     -1.03843123	     -0.47992014	     -0.19826804
      0.21500000	    -53.42292944	      6.26084020	    -35.27763527	   -212.85139245	   1433.18422771	    -44.40585616	    121.29521170	     25.57289877	    -25.03759894	    -25.85204888	     28.25153815	     -6.80787039	    -42.55314668	     25.24354165	    -60.63183463	    -45.87425248	     22.46725936	     -0.07053292	     10.03981999	     10.01862062	     -0.04349293	    -17.43077535	      4.78491428	      1.24771538	     -5.21356566	    -20.36884332	     -3.42736496	      7.60551233	      2.31133991	     -0.66298005	      6.06637550	      0.08863509	     -0.23486144	      0.30146158	      0.09505482	      0.32672006	      0.19352547	     -0.41645986	     -1.04287308	     -0.47952915	     -0.18756547
      0.22000000	    -64.69511568	     -5.38530711	    -34.35231394	   -232.62531347	   1481.46472947	    -12.78917790	    113.21064165	     17.53659951	    -20.88479381	    -23.31679124	     32.41360907	     -8.49376998	    -40.78028973	     28.58014825	    -57.92396552	    -44.09866563	     18.51846755	     -0.05742822	      9.17587874	     12.48076853	     -0.04219938	    -16.63248747	      4.61093010	      1.25869377	     -4.88551023	    -19.54895218	     -3.26991648	      7.56379500	      2.04814962	     -0.30346464	      6.18079217	      0.08216635	     -0.21948615	      0.12748099	      0.32428307	      0.34047763	      0.14062135	     -0.35726630	     -1.04963315	     -0.48129382	     -0.17478014
      0.22500000	    -72.34674157	    -11.91909184	    -31.30547365	   -251.82517548	   1516.44924491	     20.39040537	    106.54378681	     10.60989183	    -16.52872726	    -20.95695868	     34.72597008	     -9.67200867	    -38.16197077	     33.49774195	    -54.50361369	    -42.53156077	     14.34438274	     -0.04391253	      8.33584398	     14.11701673	     -0.04181579	    -15.74933903	      4.33960195	      1.24096363	     -4.42139019	    -18.47734672	     -3.06264439	      7.63899620	      1.81512802	      0.02976431	      6.32315181	      0.07455603	     -0.20286647	     -0.11172138	      0.49671209	      0.34888377	      0.08979424	     -0.28681215	     -1.05657770	     -0.48621227	     -0.16135621
      0.23000000	    -75.89250915	    -12.88383327	    -26.34321696	   -269.40140686	   1537.68869422	     53.14455250	    101.57047918	      5.18078969	    -12.23225020	    -18.74070174	     35.07590289	    -10.27309787	    -34.68430192	     39.76353159	    -50.30801529	    -41.11518837	     10.19774520	     -0.03039740	      7.51676506	     14.87264134	     -0.04240218	    -14.77419090	      3.98184951	      1.20179207	     -3.88334583	    -17.12617705	     -2.80270488	      7.84461739	      1.62118041	      0.34466637	      6.47277174	      0.06598561	     -0.18483515	     -0.40897662	      0.60543950	      0.35310066	      0.04061222	     -0.20570822	     -1.06106715	     -0.49514265	     -0.14723945
      0.23500000	    -75.07189667	     -8.23296551	    -19.73222912	   -284.11074678	   1545.56634087	     83.40789385	     98.47815406	      1.53107488	     -8.25715166	    -16.65440491	     33.44881737	    -10.27133104	    -30.36308509	     46.99875130	    -45.28121542	    -39.74864565	      6.33269755	     -0.01724830	      6.71559949	     14.73989910	     -0.04394197	    -13.69895634	      3.55215518	      1.14868345	     -3.34382799	    -15.47820154	     -2.48821331	      8.18644558	      1.47176988	      0.65187566	      6.60599883	      0.05663946	     -0.16523132	     -0.75439099	      0.64765099	      0.35439222	     -0.00764450	     -0.11503421	     -1.06019903	     -0.50872418	     -0.13251160
      0.24000000	    -69.85804273	      1.65660786	    -11.78228461	   -294.80836076	   1541.20627377	    109.15500728	     97.35050099	     -0.17998468	     -4.84447442	    -14.71149175	     29.92507617	     -9.68469402	    -25.22894205	     54.69676207	    -39.38904774	    -38.29930051	      2.98446110	     -0.00476886	      5.92947606	     13.75572042	     -0.04634177	    -12.51945114	      3.06800955	      1.08832697	     -2.87990705	    -13.53026993	     -2.11852905	      8.66173164	      1.37010240	      0.96210414	      6.69800727	      0.04670960	     -0.14393730	     -1.13594964	      0.62433902	      0.35391282	     -0.05574593	     -0.01634798	     -1.05105088	     -0.52729947	     -0.11819698
      0.24500000	    -60.48322617	     15.99794927	     -2.82689849	   -300.47468513	   1526.53312504	    128.52816215	     98.16172065	      0.07347620	     -2.19366463	    -12.93951304	     24.67382009	     -8.57265906	    -19.33830041	     62.24865336	    -32.63563658	    -36.61103148	      0.34736891	      0.00679700	      5.15507551	     11.99781319	     -0.04944449	    -11.23685740	      2.54855390	      1.02583890	     -2.56772756	    -11.29934187	     -1.69528214	      9.25902492	      1.31305715	      1.28523957	      6.72525692	      0.03636784	     -0.12095675	     -1.54038769	      0.54047772	      0.35256792	     -0.10444145	      0.08823540	     -1.03101528	     -0.55086349	     -0.10353124
      0.25000000	    -47.43065591	     33.64143924	      6.78834875	   -300.52944442	   1504.02298863	    139.99432580	    100.76246041	      2.18171297	     -0.44511319	    -11.37461298	     17.95238670	     -7.03063381	    -12.76437016	     68.98970890	    -25.07558047	    -34.51924227	     -1.44281412	      0.01726288	      4.38783883	      9.58230909	     -0.05303584	     -9.86116014	      2.01352767	      0.96421856	     -2.47544732	     -8.82386093	     -1.22282372	      9.95844184	      1.29692262	      1.62797027	      6.66745321	      0.02577454	     -0.09644769	     -1.95398572	      0.40399163	      0.35087473	     -0.15422920	      0.19607920	     -0.99805157	     -0.57902341	     -0.08928445
      0.25500000	    -31.43434612	     53.14776519	     16.72087934	   -294.86091648	   1476.58277102	    142.45073099	    104.87610427	      5.90138609	      0.33690053	    -10.04323872	     10.09385561	     -5.18164851	     -5.60596399	     74.24617088	    -16.82227373	    -31.85972310	     -2.32510859	      0.02648232	      3.62238932	      6.65665634	     -0.05686165	     -8.41071532	      1.48226130	      0.90442696	     -2.65746083	     -6.16607006	     -0.70927100	     10.73257883	      1.31482849	      1.99342907	      6.50950051	      0.01506486	     -0.07077607	     -2.36358482	      0.22548509	      0.34895366	     -0.20531998	      0.30401035	     -0.95093849	     -0.61099445	     -0.07571936
      0.26000000	    -13.45266522	     72.89244535	     26.63986124	   -284.14153074	   1447.21117272	    135.44137868	    110.08693613	     10.85780804	      0.17794879	     -8.96338836	      1.50116830	     -3.16640529	      2.02964727	     77.41065398	     -8.04637131	    -28.48374348	     -2.32425653	      0.03433874	      2.85772817	      3.39312403	     -0.06064230	     -6.91427564	      0.97160872	      0.84518500	     -3.14976741	     -3.40776786	     -0.16671195	     11.54779679	      1.35733773	      2.37971616	      6.24232675	      0.00435623	     -0.04450177	     -2.75747586	      0.01761440	      0.34648511	     -0.25748908	      0.40844257	     -0.88936993	     -0.64561424	     -0.06260285
      0.26500000	      5.37374245	     91.17017009	     36.23585177	   -269.61324866	   1418.66048879	    119.21661140	    115.85280383	     16.55457100	     -0.79433385	     -8.11889436	     -7.37436754	     -1.13139363	     10.00638081	     77.99042608	      1.03098093	    -24.26419278	     -1.55909285	      0.04071474	      2.09313323	     -0.01939186	     -0.06408902	     -5.40598313	      0.49538918	      0.78389671	     -3.96505208	     -0.64722096	      0.38846180	     12.36616630	      1.41587415	      2.78096182	      5.86403022	     -0.00625679	     -0.01838222	     -3.12661886	     -0.20598093	      0.34285395	     -0.31016421	      0.50550475	     -0.81404396	     -0.68139484	     -0.05078974
      0.27000000	     23.77739191	    106.33090896	     45.21514493	   -253.28570074	   1393.13862105	     94.84584577	    121.51556155	     22.38816715	     -2.35037314	     -7.47472225	    -16.05356859	      0.78330003	     18.18315916	     75.67895214	     10.15152271	    -19.11856970	     -0.23848875	      0.04547943	      1.33646139	     -3.38663109	     -0.06692648	     -3.92628498	      0.06322894	      0.71699994	     -5.09217561	      2.00745783	      0.93550260	     13.14801276	      1.47965277	      3.18696787	      5.37990269	     -0.01668515	      0.00666955	     -3.46521305	     -0.43100958	      0.33723380	     -0.36237668	      0.59119039	     -0.72666106	     -0.71662130	     -0.03994288
      0.27500000	     40.46172925	    116.85088547	     53.30598013	   -237.43282636	   1371.92996143	     64.13507382	    126.33042613	     27.65591149	     -4.15468688	     -6.95241098	    -24.06542030	      2.45687919	     26.40560164	     70.36295842	     19.04537859	    -12.99073761	      1.33586797	      0.04839981	      0.59815592	     -6.52064011	     -0.06890738	     -2.51384760	     -0.31967503	      0.64096042	     -6.49630022	      4.45041179	      1.45110197	     13.85339947	      1.53946371	      3.58558326	      4.80058634	     -0.02685517	      0.02969875	     -3.77210878	     -0.64382237	      0.32877258	     -0.41298790	      0.66171784	     -0.62953443	     -0.74940227	     -0.03033713
      0.28000000	     54.18387713	    121.52450012	     60.22509426	   -224.68558182	   1355.37973027	     29.69084271	    129.54775106	     31.61391516	     -5.80850243	     -6.46522961	    -30.96330901	      3.79443199	     34.50841371	     62.20178652	     27.43766318	     -5.92906390	      2.80848157	      0.04978863	     -0.10277215	     -9.24688216	     -0.06984349	     -1.20837420	     -0.65265344	      0.55279510	     -8.11942017	      6.57539175	      1.90797997	     14.44769064	      1.58749779	      3.96251569	      4.14546484	     -0.03667750	      0.04965049	     -4.04973326	     -0.83169431	      0.31674018	     -0.46063538	      0.71351462	     -0.52611477	     -0.77794547	     -0.02252807
      0.28500000	     63.86944357	    119.32096983	     65.69337100	   -217.11358334	   1342.34697258	     -5.46734972	    130.36023374	     33.42819263	     -6.83214413	     -5.86840561	    -36.37779589	      4.73927397	     42.35067567	     51.48819548	     35.10734961	      2.06416728	      3.74213250	      0.05012740	     -0.74759432	    -11.42145450	     -0.06958968	     -0.03453764	     -0.94146417	      0.44994746	     -9.89144567	      8.31437440	      2.28406488	     14.89570499	      1.61583961	      4.30609331	      3.43034141	     -0.04612048	      0.06583226	     -4.30662847	     -0.98400418	      0.30053501	     -0.50427643	      0.74423231	     -0.41893933	     -0.80028468	     -0.01600010
      0.29000000	     68.69785818	    109.98134370	     69.34748743	   -217.04408946	   1331.55747259	    -37.98358475	    128.24252626	     32.44409595	     -6.84958964	     -5.09493609	    -40.02144260	      5.26706112	     49.75403824	     38.89044918	     41.81880265	     10.67016745	      3.78202573	      0.04955831	     -1.30715504	    -12.93208458	     -0.06814087	      0.97226563	     -1.18889128	      0.33312442	    -11.71923091	      9.57346229	      2.54726022	     15.18244845	      1.62065745	      4.60149244	      2.69153155	     -0.05500222	      0.07714987	     -4.54987743	     -1.09209863	      0.28017862	     -0.54239743	      0.75132845	     -0.31352047	     -0.81534240	     -0.01148456
      0.29500000	     68.14182660	     92.83889745	     70.86696783	   -224.21674477	   1318.46587300	    -64.67900185	    122.28844985	     27.75039003	     -5.35988906	     -3.86533804	    -41.71360311	      5.39623652	     56.65271381	     24.76480077	     47.52299327	     20.08460757	      2.41323767	      0.05020687	     -1.77497837	    -13.70199188	     -0.06541163	      1.83397107	     -1.41764328	      0.19922546	    -13.53469030	     10.40029358	      2.69948389	     15.26747145	      1.59701252	      4.84917218	      1.92457286	     -0.06352837	      0.08412647	     -4.79698345	     -1.15057310	      0.25523957	     -0.57537705	      0.73604098	     -0.20845390	     -0.82073586	     -0.00844241
      0.30000000	     62.37162241	     69.76269525	     69.77750122	   -241.11427693	   1304.01335476	    -82.76327004	    113.17524286	     19.47267079	     -2.48605762	     -2.43271851	    -41.46181748	      5.17097381	     62.80393944	     10.58391139	     51.94932978	     29.10948711	     -0.33463806	      0.04993475	     -2.10215158	    -13.73450311	     -0.06209567	      2.47332206	     -1.61028932	      0.05901246	    -15.20166533	     10.62212017	      2.68317577	     15.19926358	      1.54722641	      5.02345514	      1.22101858	     -0.07096468	      0.08463098	     -5.04488280	     -1.15745262	      0.22754168	     -0.60009400	      0.69542859	     -0.11732014	     -0.81836643	     -0.00703449
      0.30500000	     51.03589568	     38.05330419	     65.85854163	   -259.97576792	   1273.58196560	    -90.38408296	     98.18058456	      5.97322392	      2.56639272	      0.26933678	    -39.10499889	      4.65054466	     68.44140820	     -4.85973811	     55.53351046	     39.83449002	     -5.37086684	      0.04713922	     -2.35680865	    -12.92491004	     -0.05753580	      3.09705876	     -1.85639490	     -0.10869274	    -16.78201740	     10.69526025	      2.61434017	     14.82279511	      1.46147325	      5.17906349	      0.42654217	     -0.07905101	      0.08403772	     -5.32831582	     -1.10870694	      0.19418804	     -0.62371586	      0.64033145	     -0.01472518	     -0.80054238	     -0.00720284
      0.31000000	     38.92496995	     15.26593695	     58.51175476	   -306.57704685	   1277.42933805	    -86.92905324	     90.07683529	     -6.13604075	      6.07991885	     -0.20445399	    -36.21601680	      4.00633156	     72.39480088	    -12.32783070	     56.55708423	     41.52900963	     -9.33673078	      0.03979648	     -2.23565216	    -12.03121766	     -0.05555179	      2.85751715	     -1.82078571	     -0.19243059	    -17.57343906	      8.88345771	      1.98047073	     14.81212909	      1.39927933	      5.07115926	      0.33805415	     -0.07964406	      0.06108287	     -5.52226225	     -1.04066358	      0.17244974	     -0.61455157	      0.53885350	     -0.02323516	     -0.79843883	     -0.00806971
