DataType=double
version=3
OpenSimVersion=4.5
endheader
time	pelvis_tilt_moment	pelvis_list_moment	pelvis_rotation_moment	pelvis_tx_force	pelvis_ty_force	pelvis_tz_force	hip_flexion_r_moment	hip_adduction_r_moment	hip_rotation_r_moment	hip_flexion_l_moment	hip_adduction_l_moment	hip_rotation_l_moment	lumbar_extension_moment	lumbar_bending_moment	lumbar_rotation_moment	knee_angle_r_moment	knee_adduction_r_moment	knee_angle_r_beta_force	knee_angle_l_moment	knee_adduction_l_moment	knee_angle_l_beta_force	arm_flex_r_moment	arm_add_r_moment	arm_rot_r_moment	arm_flex_l_moment	arm_add_l_moment	arm_rot_l_moment	ankle_angle_r_moment	ankle_angle_l_moment	elbow_flex_r_moment	elbow_flex_l_moment	pro_sup_r_moment	pro_sup_l_moment	subtalar_angle_r_moment	subtalar_angle_l_moment	wrist_flex_r_moment	wrist_dev_r_moment	wrist_flex_l_moment	wrist_dev_l_moment	mtp_angle_r_moment	mtp_angle_l_moment
0	0.06078989895289766	-85.30620354783653	-26.68620371835788	0.04190918453264203	0.01248280877882735	44.25399001953746	-12.00471846517932	-44.76421360826178	9.654580417975332	-24.99137659124646	19.82552343564429	-7.604814619666134	32.85848271105201	4.688302709147806	-12.95277343427968	29.06599684009998	-18.4889888760628	-0.01570211413840953	21.33619570285211	8.824543429686331	0.03931945049522934	-5.667469233941681	3.652901630539697	1.229527888575666	5.10173362789639	1.789437715819809	1.616350326241515	-0.01545330434266678	2.736300117888578	-2.599492560474306	3.043226694533339	0.07768373977789456	-0.000580866882232689	-1.336250649040607	-0.5989509173494809	0.0620002393798428	0.3563157771986573	0.4633247507311384	-0.2800398617332814	0.01521885382504657	-0.1201503163526702
0.0004542507337261803	0.01898753929889807	-82.92575047332943	-25.0681665800469	0.02175921518730206	0.01640703208124705	41.24454562832275	-11.15210703402487	-42.95584866047616	9.475645953572156	-27.89061416701331	19.28969712423759	-7.14404221960982	34.20920417405822	5.010977723003534	-12.82315054235377	29.33984667436883	-17.73453753334336	-0.01653780495463471	22.70909128257753	8.260790999922769	0.03925794945480866	-5.621266372647242	3.640278305721789	1.225878190431348	5.177508962427169	1.867326086432524	1.641715299969991	-0.06090988182142498	2.697220326174602	-2.571997569407483	3.061532781470297	0.07677534756217447	-8.694078679549744e-05	-1.283038853400578	-0.6302594732314194	0.06214309768926242	0.3517982373781535	0.4692885024431798	-0.2819225617767484	0.01807228429802828	-0.1174979923171798
0.001515784775164009	0.05815318610312659	-77.53346306713681	-23.15972380010103	0.03244235506120674	0.005271018496017632	34.45145573068994	-11.39611840161568	-40.214498507652	9.18447142801838	-28.78817161079012	17.144591773174	-6.305323450975523	34.69427517175588	5.278383740115713	-12.83716801873511	29.57048757979254	-16.57292307567468	-0.01641973383701067	22.66906861038153	7.13007584289064	0.03870373242855982	-5.589133511178842	3.622583859847424	1.219804481145901	5.327892928163868	1.895818245670224	1.678567268884814	-0.08328085848245659	2.709302216631912	-2.560993524389708	3.112620050282251	0.07617603000243206	0.0007691663667640514	-1.208179904741913	-0.6951805034848076	0.06147143734583407	0.3498444937858174	0.4786805220874956	-0.2868029945747913	0.01762422055933203	-0.1163549900251745
0.003164446411839883	0.08306898637044924	-69.19722363229327	-20.5482369353176	0.03002020744290235	0.003124541107418111	24.7573145762761	-12.21278980335399	-36.32452413074315	8.801935822799589	-29.39853297053765	13.82625781274861	-5.113807519907631	35.17086114805085	5.836140065085977	-12.87856823063168	29.87582133076453	-14.93971531815013	-0.01579190904548593	22.3713875414648	5.458458760636207	0.03748062727028713	-5.531852037916849	3.588490930751893	1.208130384818329	5.5349204659507	1.863762307516546	1.713528327395385	-0.09518647942905178	2.742007797537931	-2.549310177615575	3.193279878120047	0.07533256080264455	0.001077283862056078	-1.102540423586045	-0.7945447055034397	0.06004485608803387	0.3474594024462208	0.488435454203084	-0.2955016257372447	0.01495948229572959	-0.1151731765214077
0.005374104194047435	0.1059000929148368	-57.0391117579565	-17.11763308729599	0.01463826402968493	0.005222971808990451	13.63926161569713	-14.15994037383496	-31.45651109169274	8.490666844684188	-29.42150787687269	9.094813648771272	-3.604225736837882	35.70066664184212	7.419590990862702	-12.98365668873346	30.60912550671071	-12.97087527258144	-0.01478115484840334	21.73258447132545	3.193822684175787	0.03565048389407404	-5.436811828943787	3.510526021137753	1.18099682927737	5.761797208826865	1.573757243199615	1.690299378607573	-0.1093361602879055	2.8029653906393	-2.543495681514051	3.331009030084292	0.0740914754034534	-0.002962497031633315	-0.9613893003138796	-0.9359050268025467	0.05681609684084749	0.3448102124341986	0.4868818184228891	-0.3144906335724482	0.01049845612884542	-0.114090719554998
0.008109887166813518	0.1362290640847945	-40.60698551134234	-12.96337616129919	-0.01871710785617609	0.004733737706089869	5.0518755972628	-17.41707173130234	-25.97693548732622	8.427884230874756	-29.05676794811792	3.872680456969834	-2.056724396892716	36.35400904125538	11.36388396827603	-12.79165473879342	31.85071103195532	-10.91025581203682	-0.01316656862847353	21.70802198536968	0.6875875335440357	0.03256347453427094	-5.342805114408117	3.374902516901095	1.133220752521781	5.659475043827449	0.8927809468283416	1.499985084712605	-0.09237953363618279	2.885882595137072	-2.583298130505701	3.405427930573963	0.07315929394051723	-0.01324314132621196	-0.7923447642086422	-1.111062970148382	0.05061309832401024	0.3461313818423277	0.4470991139309626	-0.3346058804132271	0.0007154343835880025	-0.1128173567303373
0.01132864367758793	0.1674864497256436	-21.03391339605055	-8.086349261187156	-0.07664182470198	0.003643923955060302	-4.235052788677672	-21.28665722216579	-19.91261105946241	8.396329682019516	-28.36669583604625	-2.592449511949064	-0.3351736124940725	36.74576050610248	16.28685984897651	-12.52102428136857	33.30745414099918	-8.701306261382321	-0.01138712556546388	21.50664418245176	-2.36247567054735	0.03055254196540645	-5.261724881257075	3.213367706103252	1.072485083577054	5.485679495446051	0.0531320597995513	1.257907526520457	-0.05848251138843136	2.965850280636138	-2.655176434827827	3.484127240929481	0.07237487532388859	-0.02601348483807886	-0.6077617452487389	-1.315772817556594	0.04211016630287608	0.3508611068802934	0.3957459394946689	-0.3582590133967309	-0.01110670127322055	-0.1106028251788428
0.01497960949210789	0.2846910360516119	0.4918559127653451	-2.504490484081061	-0.115374650269743	-0.01166150344577233	-16.74529991387275	-25.24825718618622	-13.3912591639144	8.204736782463232	-27.17678050127512	-10.80260931226474	1.555695057883445	36.53569961420062	20.99457060207286	-12.23429961694708	34.75229656990533	-6.332534931286379	-0.009719239082074435	20.45934364497225	-6.106801143860163	0.02896180824807502	-5.201987825370022	3.060072985007528	1.008786073361313	5.407505970876608	-0.7011753401481797	1.059672562222735	-0.008118571252513446	3.041352472654049	-2.750610844426223	3.585114408001762	0.07177043112083364	-0.03681628056395514	-0.4228292249778337	-1.547516422209527	0.03212441352238716	0.3589888984178612	0.354065778434523	-0.3826206291662049	-0.02340173803773977	-0.1080145866243593
0.01900520557876997	0.1688271565771018	23.10760467482221	3.015607051060975	-0.2697130738535947	0.005784149571553598	-26.9106155305851	-29.62608086317426	-7.21268097868145	8.113404448992732	-25.94634224282988	-19.16792641112177	3.220751986789635	36.09964304602222	26.60117687269259	-11.81644482408439	36.26801003216002	-4.249417971848884	-0.007765401808163597	19.75766868212176	-9.947693901554752	0.02683996419550866	-5.145636882539105	2.881516128257416	0.930970404105346	5.245202913561746	-1.628415854017051	0.804596443711767	0.07184194166944946	3.076527684574933	-2.879856120359487	3.690460883658601	0.07124848012979784	-0.05053695297041871	-0.25234755986563	-1.777652416617765	0.01949369609820806	0.3707246097875341	0.299300605395473	-0.4109989037283208	-0.03765648132674321	-0.103210209563384
0.02334194532480019	0.1752029541677018	45.63273659307959	8.402238238991753	-0.3671114285180153	-0.001724426734426743	-35.78623979189812	-34.04171380172082	-1.891975143532635	8.070131290959896	-24.03378875932981	-28.14840376461736	4.631889211885644	35.04601547933814	32.37099446376516	-11.3255545265642	37.64047331648632	-2.624291025608352	-0.005666258452668854	18.43806105512996	-13.95677385959983	0.02499154620821954	-5.114297405955555	2.695180088047543	0.8439611747338607	5.063718506307808	-2.618478684530492	0.536320845917182	0.183846005165147	3.075816318577593	-3.040522183766594	3.803180117440667	0.07090277079718332	-0.06497417240106795	-0.1170870822827237	-2.00118280738916	0.004642438982227196	0.3867569536330773	0.2410891069769525	-0.4413223222775999	-0.05269203700171978	-0.09723825628372333
0.02792143545395889	0.1535543749254913	66.16521188203197	13.1335883081518	-0.4560703008654343	-0.01027812227196989	-41.87580824574569	-38.12598325915357	2.148988228989379	8.106949766617495	-22.07070603168431	-36.6515729146183	5.621338536436052	33.75108391238377	37.95357391361257	-10.72120792600865	38.6710893764019	-1.629240391539731	-0.003270895118107062	17.07718811070228	-17.74524747312559	0.02095184366260806	-5.082967727525046	2.503251150337988	0.7490704138163728	4.87665566184169	-3.635778897002509	0.2660970588879645	0.3370725366467202	3.009631746664328	-3.212824608575342	3.919500657908142	0.07035902430458119	-0.07955161965179802	-0.03305247804444408	-2.1927989849372	-0.0118888865160056	0.4046991612034148	0.1816953500699754	-0.4726941638261659	-0.06864035525197909	-0.08896150234276755
0.0326714545037473	0.1033307439981002	83.33750701461591	16.66087549126309	-0.5298391036195937	-0.02256980068518999	-43.34557736335229	-41.75893673536661	4.494916862047199	8.305198911277312	-19.30821724361504	-43.87968209796477	6.048983206175722	31.65457590767452	43.14152178509684	-10.08330823163621	39.29860299710067	-1.413168615668008	-0.0006389366372646088	15.41405796135447	-20.88434163801328	0.01672752356918755	-5.092734968867926	2.316929173883217	0.6508811121836865	4.683747347512785	-4.70027455011422	-0.008400462846980705	0.5220091133684965	2.887054158434169	-3.416854843393589	4.039217347787557	0.07025565826451119	-0.09432377512715506	-0.009781956062872355	-2.32973442174526	-0.02995732655553068	0.4276028577206272	0.120403499506199	-0.5048204490791419	-0.08430346330425299	-0.07934956473721555
0.03751709174442691	0.0459524041149848	94.85350098623131	18.59114447095934	-0.5821137165065977	-0.03276889911280989	-40.92267247084369	-44.62234731783279	5.343247999466358	8.659053778139857	-17.88846277859821	-48.45380722685235	6.025902207631382	30.9171470949497	47.08432738728849	-9.306231975377516	39.3703496432844	-1.901204912755895	0.002524932903082262	14.77045593867565	-23.0980942480428	0.0127994271441287	-4.979040346889851	2.114560919341022	0.5433650441363371	4.616309230181557	-5.722807008792836	-0.2443545809094654	0.734491594396232	2.649832431001863	-3.542435800378409	4.191934339753395	0.06808254275582531	-0.1083563275442305	-0.04746618673132973	-2.389005157781472	-0.04788492156017048	0.4410303405852345	0.06775275529359794	-0.540017253843311	-0.09935362690924483	-0.06560737603506538
0.04238192853981579	-0.01922157240775135	101.681028228698	19.11146170169468	-0.6176499297896214	-0.04358371885531653	-33.62471397354542	-46.50366564266572	4.778866966879326	9.183995111217724	-15.88224629071429	-50.70010772298476	5.597766479646159	29.45425289070458	50.1645222017284	-8.557949549064844	38.8576904122678	-2.978995659339479	0.005265322656165126	13.98461134587426	-24.24258289422355	0.009952589768445666	-4.92003747700156	1.929433639725455	0.4396684291035021	4.571172575810039	-6.746210569935831	-0.4679437776389874	0.9611713550791408	2.352398899782988	-3.685516639612206	4.344166261472134	0.0663832697917397	-0.1216090107093566	-0.1359812442299042	-2.370850690217611	-0.0659591280628041	0.4582514259957876	0.01700983305501938	-0.5743306076041192	-0.1127053741253472	-0.05038204794133996
0.04718924350439309	-0.06379099433731028	103.9875328319667	18.78853712665804	-0.6374744792946814	-0.05709806744488333	-23.63971631394305	-47.2011374516011	3.226090287897595	9.833793252686535	-13.81513166838111	-51.03737335975522	4.975047471683852	27.72410237196332	51.93913596634511	-7.860092612078484	37.73920819329003	-4.426698857349637	0.007830067202166953	13.12505435789572	-24.51562908830046	0.008415584341436574	-4.870106361336032	1.760433070267102	0.3421253774927775	4.589203890351803	-7.74382253962515	-0.6652770981552889	1.186628755524232	2.027358987744391	-3.811399475336505	4.503573156318867	0.06460118939827708	-0.1336259526367327	-0.2594465180856644	-2.297153576906089	-0.08303981901285673	0.4749830976081022	-0.02827633776562002	-0.6079296852962184	-0.1233820525044491	-0.034953803728289
0.0518632224455918	-0.127132258799584	101.7478745470191	16.97366070492511	-0.6488323966792393	-0.05638312408996171	-9.531505530943846	-46.66901821353985	1.463967818556874	10.49061056276472	-12.57087636744213	-47.87711212987659	4.277435443250191	26.3531544511998	52.80000950172474	-7.167674756955186	36.07618076949286	-5.90929998609217	0.01052057264462989	13.36943481838614	-23.49241957009288	0.006080818230322169	-4.822126565255133	1.607941232381051	0.2520591886217582	4.668368616657148	-8.674318467031055	-0.8337494085992414	1.388095032698264	1.632370540239847	-3.911514695215283	4.663462462364355	0.06251764997358911	-0.1443605786284363	-0.3917345578154449	-2.137171310568923	-0.09863823225069966	0.4894443089904486	-0.0674940304806195	-0.6400947558321962	-0.130420325559818	-0.0167829825599066
0.05633015401013977	-0.1897999150266827	95.64685001373745	14.42469681696093	-0.6501428470931074	-0.04575941564571906	5.798224784094444	-44.96684673209771	-0.344517001520126	11.10940063881558	-11.86487923198424	-42.54599368770547	3.670042711328411	25.21994196674615	52.31628771138359	-6.579060345932984	33.98842975384421	-7.308535521476267	0.01313690020541132	14.11195412685661	-21.63490677007434	0.00354718506172657	-4.764326231341381	1.473495976242049	0.1715917088642646	4.844818382408892	-9.543129330243135	-0.9658743593893464	1.585159869420194	1.220108807744374	-3.973904071128314	4.834884768276546	0.06015809376738046	-0.1535431513462862	-0.5271803606619659	-1.928547538383885	-0.1120908581129163	0.5003953729619081	-0.0984708395968287	-0.6714196973706117	-0.1361512084180138	0.001766145689384852
0.06051959218465776	-0.2288818528659462	87.40064833629629	11.56702795871199	-0.6402363444822612	-0.03448217100721251	21.60294719794705	-42.16854039801654	-1.786272946020367	11.58903958209598	-11.84711263468363	-35.68408984395326	3.244583331018707	24.23723502293147	51.06561402612115	-6.100696509725685	31.54830757560444	-8.437058073601101	0.0156433742753937	15.36147424467642	-19.22485994064912	0.0009687557880372205	-4.714973418060833	1.358159413281827	0.1019281910640424	5.073966282618658	-10.34474184495172	-1.072217333392082	1.76738032596991	0.8082160449351148	-4.012411136111806	5.007116089334916	0.05777251494348112	-0.1615765165955305	-0.6490336919110568	-1.690552900695156	-0.1234729608145462	0.5091268376116389	-0.1234899214578818	-0.7010746704035316	-0.1402598156256613	0.02013885073349027
0.06436546733510043	-0.2146682984220263	77.3853158688414	8.808682985265694	-0.6164204889408325	-0.03894047664223876	35.95889166421943	-38.5227220829376	-2.912675131156512	11.92884630153084	-12.49271251045133	-28.18995270196006	3.020566152164904	23.61447828297369	48.79406453773601	-5.754307821961467	28.9110773336982	-9.307072510806723	0.01891701638381891	16.93091620354378	-16.6258197083486	-0.001361209072259102	-4.651568197814446	1.259825115735577	0.04284102636097353	5.381206030527619	-11.06617643787333	-1.145190545077457	1.950271082664966	0.4260777316963394	-4.011737261239952	5.185326564110077	0.05519747415784071	-0.168089770285264	-0.7591386385263348	-1.450794103805737	-0.1323576467556063	0.5135958745403071	-0.1405669383873876	-0.7292225173264717	-0.1444792591310535	0.03712198287337898
0.06780712831226307	-0.2174184323505699	67.40454265711749	6.502686667859937	-0.5904910773898564	-0.05845529926895665	48.62516223599913	-34.22252111299647	-3.416043356543638	12.05494805664705	-14.17815892808921	-20.63041765674458	2.997208757849008	23.41449894625491	46.33168581661549	-5.498238285433921	26.28541732132089	-9.803594878962032	0.02130029887549396	18.89621344215589	-14.12121240182342	-0.003222505226694296	-4.579522672924463	1.175110717652876	-0.007622776671528331	5.701802543651038	-11.6985364430865	-1.199200077631129	2.121517768613007	0.0763290292283455	-3.986254321319677	5.353337378829409	0.05248402815818631	-0.1736729283062282	-0.8451913872105796	-1.224241560256791	-0.1393581322400006	0.5147864729547518	-0.1530351488635516	-0.7547796734446924	-0.1485191077225798	0.05258972671585074
0.07079029933648544	-0.1696846926162578	-59.13593690599055	0.9823916823723682	-0.5524523491371269	-0.108614113267862	-11.71021095691011	-29.70762794669356	-25.74892187288443	17.77310891291664	-28.00387595019545	-6.870813546283022	2.808092111942408	68.72335191090124	-19.03504434244037	-7.004620596857777	24.00863006873323	-18.74395449877061	0.01739294696396009	21.86586247605731	-11.26821960146166	0.009257920957279224	1.921853125649641	0.3352944908915747	-0.3700708910551647	13.75327146059337	-12.80754501316672	0.1824734827342196	2.464131340411739	-0.07089565744181731	-0.3719324233221134	7.666303907802295	-0.02188837957987669	-0.1552217528477708	-1.463355738090753	-1.070650331215248	-0.1122604821636909	0.06653202644699928	0.2107164898841674	-0.9674226331927999	-0.14705009670313	0.04534745124597979
0.07326793709552543	-0.153674486091198	45.60891966252407	3.856308168163753	-0.481456961676983	-0.06827981283058193	62.33662042919393	-25.72383303020218	-4.467682932951355	12.19391357319963	-18.35679869671493	-8.656806653446194	3.21949584538284	24.74262190000938	38.32841435451016	-5.345733966072082	21.6795512932059	-10.52859847177319	0.02398151539901254	22.31012978020452	-10.39985247864511	-0.004841342296946986	-4.302570917689676	1.036509527219057	-0.08392342638711225	6.669831254649283	-12.66834286423394	-1.184524309739116	2.451949025905408	-0.4138110839770356	-3.786400448046051	5.735751671164456	0.0460787325595573	-0.1794875149793036	-0.9988756438716266	-0.8982359493259471	-0.1457761697849929	0.4990018289211129	-0.1475071357556239	-0.8036740741274648	-0.1574577247393696	0.07408374884466902
0.07520097689840965	-0.1246453762736763	37.29603612183289	3.114124808713318	-0.3902103908140333	-0.04839862412926266	66.65395684422651	-22.19358263651995	-4.705461578324024	12.18160202000014	-20.51461214098845	-4.206708664161507	3.380266889604194	25.73398290346752	35.19290363593626	-5.360169981027935	19.75843537757049	-10.70545241193541	0.02473052081290353	23.74168319971548	-9.088388237321237	-0.005069479154065333	-4.136537945759729	0.9796614391272526	-0.11379154039217	7.082054247032485	-13.02873969528884	-1.171431365215596	2.573317908980439	-0.585753702799702	-3.677470985436095	5.895575938647627	0.0429042502941096	-0.181985051525825	-1.048794465246031	-0.781798741848754	-0.1476576137089585	0.4884300606569249	-0.1428394207930747	-0.8235080163903122	-0.1606040645646963	0.08145078037157277
0.0765589714577417	-0.1195406090094906	30.69620581257006	2.824233020644185	-0.279162196748743	-0.01701439474923916	68.5632114816658	-19.54111152760217	-5.005632256347738	12.19698172333781	-22.20681214650217	-1.300756157291497	3.506510405853518	26.68948880038915	32.39690395041559	-5.406589182932041	18.31657910916914	-10.87157767413737	0.02518945527393789	24.71032249811397	-8.278354848694327	-0.004987920665564026	-3.990165713524822	0.9374622322588669	-0.1347793075412396	7.44344657828078	-13.28227171610225	-1.148050893771417	2.670111241936547	-0.6938345663291204	-3.576032548325237	6.027779584811535	0.04031981496852055	-0.1833895773459244	-1.08944446392704	-0.7097190155515677	-0.1483417868654496	0.4782097476738026	-0.1358203752129686	-0.8390490769834589	-0.1633622777643737	0.08601613356084341
0.07732081165962061	-0.1008536582980142	26.41205992696363	2.966208122545315	-0.1442469784146709	0.004331508826922459	68.49193287135202	-17.77213597824819	-5.140033614416864	12.1869820865834	-23.90567853248313	0.2180888029064429	3.606336109355697	27.88088460885754	30.43535963205731	-5.445024000474374	17.52099970706822	-10.9383566805245	0.0251145522539867	25.45279766969166	-7.982462195366778	-0.004579730234956688	-3.856331995106006	0.9058691452534011	-0.1498743476927579	7.726395069850295	-13.42398006227617	-1.120803461423716	2.728237845936488	-0.7539865777317557	-3.485597946479816	6.125541340663915	0.0381299216524898	-0.1841064830316539	-1.111493338530793	-0.6784104830432807	-0.1483971952097745	0.4681674696753109	-0.1280048821783372	-0.8500812166182625	-0.1650853738046361	0.08839882371731332
0.0775	-0.008643652431857163	26.51219852583957	3.409443887362439	-0.03501776787736333	-0.01903327600118132	64.81634887964094	-17.96028784825731	-3.763635090859394	11.87941981560878	-26.50715652169279	0.4959867856826059	3.727641606189094	30.24239465936726	30.09716981520107	-5.316084269732314	19.07921395445589	-10.38501110609887	0.02288636006716115	26.47561214716198	-8.321212492022449	-0.003691373680432793	-3.773040777524969	0.8907883289902385	-0.1590027769779874	7.939785320023304	-13.37335196398829	-1.080157908018212	2.648366716195087	-0.7915523646726708	-3.421864078749581	6.175345471556716	0.03645813591407021	-0.1835419515574077	-1.067977163740803	-0.6893062104228006	-0.1480649927042439	0.459119241441434	-0.1180795842128769	-0.8552539481812078	-0.1614572460145788	0.08982552206817535
0.07795425073372618	-0.1583043385255465	24.74266649788911	2.525523967170554	-0.2288147910227991	0.01580126989070152	71.95946329734292	-16.50181934968576	-5.152156461300286	12.14278572119356	-23.75237999369952	1.878424917288104	3.647016253000558	26.91901958528071	30.11209807828222	-5.470373455082083	16.65259203454222	-10.9546199991626	0.02559699142622296	25.72596661819448	-7.344367103336097	-0.005193785369541014	-3.908555654938804	0.9034216209560675	-0.152630196179854	7.716453767931341	-13.54469885586278	-1.142723553879329	2.770686331095324	-0.8050390447168543	-3.512717484930902	6.13585244296955	0.03852719133265226	-0.1851072157385343	-1.125499059488212	-0.6285831158157968	-0.1494442835718445	0.4728864657064815	-0.1335147893459493	-0.8523868329678501	-0.1658885750047021	0.09081658352678533
0.07901578477516402	-0.117150756246545	22.4577267001152	1.608253279136587	-0.3300545588004837	-0.02446601743989163	77.66185227683587	-14.66709736533231	-4.832484482903719	11.99957810041476	-23.52457166894668	4.816489742349656	3.731717163059017	25.49740500645325	29.81525435631536	-5.488760116665614	15.5494761352632	-10.85449345177594	0.02609571821612745	26.28675309833945	-6.22957156396946	-0.006286054850747732	-4.006386154772882	0.9014332094848447	-0.1569673720880282	7.697055203195045	-13.72868572964862	-1.178523780990329	2.818720394995034	-0.8975732211590904	-3.563223712798458	6.149137989161963	0.03923959379077213	-0.1867408155861268	-1.137541139970926	-0.5406447195101619	-0.1512605481311307	0.4810949130033419	-0.1427300265564255	-0.8558772945222477	-0.1663800246537341	0.09524582043631399
0.08066444641183987	-0.1217019450601597	17.91249809035378	0.7404723205811562	-0.4188890612511074	-0.03640776345669394	85.03649665940547	-11.17869355449991	-4.470257440308559	11.77451224428007	-24.14693076454014	9.099659975903187	3.90458662756236	23.93353257374282	28.6902428819428	-5.562491977734971	13.57849624791252	-10.72525441620617	0.0265908593004738	27.362791442123	-4.751093799219246	-0.007484141435945025	-4.094280691822478	0.8882920208001359	-0.1673098181667253	7.760252199433783	-14.02051929096134	-1.217123357430546	2.924145025059614	-1.032331894591298	-3.596790252604357	6.199073360564152	0.03944217114818571	-0.1891557792072251	-1.164187287423773	-0.4204866386104956	-0.1534801824510634	0.48835989496478	-0.1522760715495942	-0.8640653439337477	-0.1688452627157812	0.1015029984106581
0.08287410419404742	-0.1385213822522218	11.66114238754376	-0.1601260581001114	-0.4867359988258499	-0.03649444971388505	94.93757040506495	-6.088660978294343	-4.035260574829787	11.44357629902866	-24.57772234949654	14.60595817048019	4.127823666837433	21.13831777466513	26.97058306916717	-5.792535743101269	10.9075679513679	-10.52711201854427	0.02647701041741463	28.48997704354389	-2.761917891658941	-0.009077942718785186	-4.278173021808166	0.8856132693923029	-0.175324580338073	7.833649172287027	-14.42423889037262	-1.271963610657066	3.078647605914985	-1.188389211463814	-3.67207985148304	6.262315706482588	0.04067244128821457	-0.192358529246393	-1.201306306401531	-0.2638249475809158	-0.1562923977874689	0.5024318732461708	-0.1660291057442167	-0.8742608791275731	-0.1729291950961983	0.1087257231330881
0.08560988716681352	-0.2043147214139651	3.356254041746042	-0.4383044302301752	-0.5453000815928775	-0.02424735054743365	102.2791781462993	0.5392121312381444	-2.845872689361615	10.86547905244584	-28.6391862765996	21.1010732590036	4.573354102145883	20.932982065469	24.07117732198992	-5.979362703766492	7.694593821320796	-10.05166017221288	0.02601715354164959	31.22620719970148	-1.061186559597564	-0.0098704991273755	-4.258338324649306	0.8366478986597667	-0.2026314365579609	8.196857594076468	-14.86850781494953	-1.284738503556547	3.260586754313024	-1.399270371314009	-3.604608705603437	6.421139824108054	0.03832429658455738	-0.195984822859705	-1.233738248433276	-0.1078435441731965	-0.1581916236718282	0.4984184476590214	-0.1677818818060684	-0.8951568420796492	-0.1775218604591288	0.1182323161311033
0.08882864367758794	-0.288208981689742	-5.422602168808879	-0.5196211674345427	-0.5830845867009202	0.006958474644434887	110.6766897330345	8.397994219494237	-1.303854227975615	10.10458260566186	-32.44016603402494	28.10078715082482	5.054831346920985	19.47645321750353	20.80412421803038	-6.408063368582703	4.176237095181206	-9.396605392359053	0.02472902621375149	33.82518854487346	0.8914345477705156	-0.01095478872378792	-4.366891768981232	0.8068282116309942	-0.2240253950175746	8.581494175761271	-15.39164866032014	-1.308160439707407	3.465841527466958	-1.60337916198651	-3.588606104279079	6.594303545194512	0.03736525308098682	-0.2002431310683956	-1.26519258286161	0.06545849605164139	-0.16024227160513	0.5021265254222019	-0.1723116972345637	-0.9177917208997145	-0.1825569963867095	0.1274532520757953
0.09247960949210787	-0.3441866764496027	-14.32847304207569	0.240083114590606	-0.607518537104724	0.03495801435467172	118.7297608121109	18.01496580488718	0.6158971807613027	9.133681293820327	-37.2608808341048	35.05774319713785	5.596479661508948	17.56581034869983	17.17580575402054	-7.077934654971333	-0.08694421450410827	-8.566204124452316	0.02281376753133581	36.68089651243928	2.658480005969127	-0.01201014035920172	-4.533151325007702	0.7798325598809401	-0.2454422121181281	9.023076197192134	-15.97172713291334	-1.332297171672123	3.717536189043392	-1.791105797616544	-3.576419665673395	6.796682576548362	0.03661901524424871	-0.2052029667792274	-1.2999857174451	0.2305861566058709	-0.1619701340198259	0.5070995412915235	-0.1763977677212701	-0.943813977032951	-0.1888105596983145	0.1358082292638286
0.09650520557876997	-0.2893806924282885	-22.06858765717571	1.781737777812022	-0.5956249127294839	0.08509724491305093	124.8785449272466	28.53497202862823	3.19401025432402	7.909513785244437	-42.97336074312561	41.33743114808318	6.152040808918583	15.5209868549075	13.54205561595311	-8.020109244614833	-4.290968524584153	-7.470496732212323	0.01976074316379245	39.61843277983387	4.025350265822503	-0.01300665594896992	-4.775530849110263	0.7619075827008772	-0.2655999610866251	9.555426898689781	-16.56682366494604	-1.347682497728415	3.97626008280264	-1.94657952890776	-3.575513833605242	7.033777195730245	0.03626509532451483	-0.2106700878981875	-1.325762615718633	0.3725424701725656	-0.1632656950616218	0.5135698948374205	-0.1777657366078244	-0.9735815818085305	-0.1950531443489837	0.1425259060341514
0.1008419453248002	-0.2761654453172895	-27.74474095459242	4.841333028686075	-0.5890990024601166	0.1111942654589129	130.4011528209474	41.07137291557151	6.115780837546652	6.478703903079021	-49.68121376001839	46.33281280709081	6.672085983147601	12.20767816128055	10.39508290099368	-9.346002803962618	-9.418191191600148	-6.237183713525421	0.01584079734788059	42.50774394056347	4.759914411186935	-0.01420384900792896	-5.161187827980189	0.7581978501034529	-0.2826503499064894	10.02723947190684	-17.18809936586416	-1.379414206471195	4.293189466205124	-2.043332166307564	-3.62162145895494	7.271245081794659	0.03712820676795814	-0.2170925949664195	-1.358110374557008	0.4738026595648051	-0.1644998305282822	0.526309957578241	-0.182488211401542	-1.003835188119995	-0.2026314087236286	0.146251451233503
0.1054214354539589	-0.3278737227697022	-29.83176759524881	9.491801261845369	-0.5887946382727662	0.1380903213397993	134.4068727073009	55.16309941772796	9.561332141265936	4.827455405773719	-57.33939247041748	49.35331520783555	7.113547815004867	7.587799100276656	8.265713947772504	-11.10798875170412	-15.15095385970135	-4.831395320225795	0.0109631750862539	45.18293097320196	4.622806457698389	-0.01563723707985505	-5.732877366762041	0.775866455467329	-0.295443289140338	10.40327561116542	-17.80765968221171	-1.429779901785725	4.663654555815957	-2.065385582621046	-3.734558628074242	7.500194575137651	0.03962653531687377	-0.2245398309006492	-1.394217934678796	0.5169362613084995	-0.1658092594623035	0.5473615764984896	-0.191121311260835	-1.03377777660162	-0.2124010088380846	0.1460867789865805
0.1101714545037473	-0.3278018946613495	-27.88635686701748	15.3746566877632	-0.5708291177255163	0.1568256080499424	135.8071954557061	69.95036172884302	13.55648192606611	2.991553989096751	-65.62432463717556	50.1008443003024	7.451415452580522	2.057752081060023	7.285886047587073	-13.30575084371555	-20.82517375511424	-3.267315271460582	0.004665963553941404	47.47808765886754	3.565097416304574	-0.01735003406124893	-6.457619849789544	0.8152311510530621	-0.3058006119030181	10.72269510778898	-18.39260679250509	-1.488045655302158	5.075830305099393	-2.00790314323626	-3.903404706493833	7.727866732802736	0.0434835159568836	-0.2327413153125071	-1.432899695716898	0.4959643354525759	-0.1672124538266303	0.5745274489608568	-0.201025276572224	-1.063938332441123	-0.225404273226778	0.1416832577182141
0.1150170917444269	-0.2620400894501367	-21.37219193308187	22.12677440833114	-0.5264527696882872	0.1866923474938496	133.7675865205611	84.75794552062442	18.11517217197541	0.9849014342054581	-74.27335856454906	48.3189443464986	7.692677199965942	-4.157602814175245	7.661025097490395	-15.93676724768358	-26.07144769974137	-1.543500967787947	-0.003047894116227039	49.26309020050729	1.548843514219025	-0.01929081710355127	-7.331263464310214	0.8811195436433464	-0.3128403656493481	10.9848375498319	-18.9230678921776	-1.551155441402088	5.509261556602529	-1.865702646230842	-4.128350250164194	7.952960885823961	0.0487175848008351	-0.2415727327469366	-1.468331784952049	0.4045443047594082	-0.1685876300846616	0.6074393177998906	-0.2113923749106482	-1.094179146328959	-0.241164864429966	0.1325256494694346
0.1198819285398158	-0.1724616766181875	-10.31458246650809	29.37043259469987	-0.4712091667074922	0.190587682391417	129.0032665202858	99.45339335140163	23.11782743235594	-1.159569550073112	-82.6942956283896	44.17936478532782	7.864528919288121	-11.50158901895305	9.501598509321335	-19.0047402843617	-31.04297020193794	0.3021106853599157	-0.01182212953666497	50.38975405876405	-1.244177296591942	-0.02156935053080254	-8.369625429383017	0.9812887103652208	-0.3142313486639035	11.11004185330422	-19.4045009957598	-1.630457106667182	5.957332098022465	-1.64034982806162	-4.424397732557293	8.152976230002153	0.0557372459117802	-0.2510153227719158	-1.498680084244851	0.2503813259620259	-0.1700045681558598	0.6481023607558681	-0.2252630593213389	-1.122212050261164	-0.2587828379846142	0.1186753201940953
0.1246892435043931	-0.0896228337781757	4.101314672647954	36.50984809996548	-0.4037098502868375	0.2021641867752848	120.7151655696977	113.5755996597679	28.54189900569053	-3.441678755291463	-91.49539051270614	38.24304586867082	8.060667287986298	-18.76181748966465	12.49940834253239	-22.37381579372001	-35.57837506300303	2.286962510647835	-0.02138315969641046	51.22421198180571	-4.729351375979627	-0.02390567767293793	-9.472990422404454	1.097528152908972	-0.3154160842648257	11.12871860659434	-19.81858014823996	-1.714974910378553	6.399103973111199	-1.323150370590599	-4.729619657505379	8.333397013389721	0.06308605683732915	-0.2606514704732574	-1.516045161129592	0.07888142649098132	-0.1707183999796727	0.6885256490697117	-0.2395273305182505	-1.148667718998227	-0.277253182343222	0.1010606692847569
0.1293632224455918	-0.02405073609618569	18.40596382056702	42.02311600532678	-0.3323444913671807	0.2061124734783704	111.5549305472355	126.8534609363576	33.77392300401097	-5.704409811814486	-100.7179325072665	32.25337245850875	8.272295454564709	-25.29328828563456	16.56170841059362	-25.96598368565887	-39.71903341655407	4.243388980199127	-0.03166900392884164	51.60143256870455	-8.109298492419882	-0.0271968367553667	-10.71880071949779	1.187080391481705	-0.3381188865448816	10.70313947511511	-20.15827558586937	-1.843093261894497	6.836646424995077	-0.6567634855119719	-5.006181585422346	8.395335577154887	0.06953153394609768	-0.2700172133505716	-1.526725079078714	0.2486887415075003	-0.1714451103556358	0.7251940883357489	-0.2640734794218056	-1.164308055915098	-0.2964728305300526	0.07967669968433364
0.1338301540101398	0.03345961256757235	32.16177290301624	45.79659175793415	-0.2575513247722938	0.1898214951886317	101.2840847009929	138.9245830025347	38.95451346038335	-7.987839188939418	-109.7168843685161	26.67750413794928	8.500670732655777	-31.05622930028201	21.02942915996583	-29.62686720284351	-43.44055411096392	6.235213251870293	-0.04208529373497219	51.58422544318975	-11.15407809434581	-0.03064114868755481	-11.97083612622937	1.274671303912529	-0.3651522412341084	10.05827863759622	-20.44010243926572	-1.985809732247198	7.252859811912963	0.2122625018412332	-5.241391535562673	8.395548157442338	0.07522282357953602	-0.2788036160555747	-1.523394224341008	0.6028565459384673	-0.1708198778428862	0.7561756769474341	-0.2918284362508641	-1.173999982676431	-0.3159565683739164	0.05636252003039913
0.1380195921846578	0.07449153924933682	45.55561520052407	47.90082759945302	-0.1884770740439237	0.1666372032057168	90.32044951311666	149.4790638479658	44.11512676124063	-10.30606472282204	-117.3539511234655	21.6671390178095	8.718291912434889	-36.7145635326366	25.54419833211324	-33.24186681589048	-46.69177563886892	8.291914200399308	-0.05189536620150298	51.07933408458	-13.67586125962269	-0.03371596053380591	-13.17065494596109	1.393174553472697	-0.378070906384369	9.345253784459718	-20.68674842235925	-2.128208177540527	7.627660786047695	1.130821061317587	-5.464755150573612	8.369034487116599	0.08121433531189581	-0.2868673391601537	-1.50039853025235	0.9814765638532723	-0.1682227337627549	0.7851228662948311	-0.3196924231647992	-1.180437094582402	-0.3346287994809947	0.0327731418362883
0.1418654673351004	0.09581844098012482	57.67014184536424	48.37055974481553	-0.1313362837585075	0.1396955343842876	79.22609315990043	158.3519171981555	49.0378452033215	-12.58793634188774	-123.2865294723518	17.55053674644902	8.879835415522901	-42.20541434324474	29.7099580592053	-36.67745955565487	-49.44789572173269	10.34640385277891	-0.06078852106045433	50.10017040108863	-15.51326212157862	-0.03633300625913911	-14.27247759564139	1.541476000672267	-0.3742452495925619	8.619764616871043	-20.90629528071954	-2.263725224744872	7.949440508388603	2.054580194702678	-5.669387696712302	8.32489722868106	0.08740421987018787	-0.2939441857575502	-1.459291309530624	1.363404143329555	-0.1635895672124879	0.8114315600138781	-0.3463484845659958	-1.184147150627838	-0.3516184652887704	0.01005156829789788
0.1453071283122631	0.09865810554284593	67.7819850105797	47.43102992769138	-0.08905639314590275	0.1108851992520528	68.65451176727447	165.5120861773601	53.50557247378046	-14.74484224121805	-127.481655618762	14.52768144262539	8.93931402745819	-47.36130408366479	33.2671481377089	-39.81106199119717	-51.70991613996905	12.31129916744094	-0.06854117839689033	48.73950334441916	-16.61809988192514	-0.03839845081263177	-15.24301280276181	1.709826531845788	-0.3554909764120122	7.92371529156903	-21.10081175253458	-2.387258070083697	8.212094616757289	2.951565003384535	-5.847348085064175	8.269834811329517	0.09351242065558307	-0.299853083189769	-1.404693066548641	1.725588423489715	-0.1572651703958265	0.8343019087109677	-0.3707578062449007	-1.185575836359108	-0.3662233651179619	-0.01089748087332302
0.1482902993364854	0.08682047166774964	73.86517201740411	45.11871892239958	-0.06215229911687459	0.08249703632355931	59.92203386032919	171.0481359488137	57.13893621444981	-16.62230041180579	-131.131036984185	13.12691507333946	8.883706148226649	-50.90561375767503	35.94519677956204	-42.49177183602608	-53.49768279583907	14.02807382239403	-0.07512107545965303	47.0941713696303	-17.14994252680002	-0.04024847644699543	-16.04931061174996	1.846150551997215	-0.3419384911196026	7.198638920430682	-21.24999368532083	-2.500214096435294	8.421489461729124	4.051543239863381	-5.93683341219636	8.185208308525608	0.09764076450759229	-0.3042842935512093	-1.347472121014247	1.980247887400353	-0.1499104121687569	0.8463284119036901	-0.3929590967814216	-1.183273831576888	-0.3784322822903661	-0.02955330827054215
0.1507679370955254	0.06606273897413217	74.09650627443673	41.22280408311558	-0.04718082774560273	0.04999605441204835	55.65800420392686	175.1277270497934	59.58830305164898	-18.07007335378925	-134.95075437198	14.15408169282267	8.616975630034007	-52.2381558894355	37.83563613137223	-44.65391366840478	-54.85073603296852	15.33991245472225	-0.08058778315419364	44.94078900535993	-17.02618351821745	-0.04258040476056989	-16.75346451967546	1.90720368969862	-0.35539786221918	6.276355005174176	-21.34334665123169	-2.621276881962834	8.593537279258921	5.646963057635249	-5.916904875475754	8.023039428425179	0.09870898914643389	-0.3071640538242912	-1.300946220812125	2.041318133909932	-0.1431022624249969	0.8454077351269623	-0.4177312124222976	-1.173033597304056	-0.388996730047888	-0.04607766654493533
0.1527009768984096	0.05211011838910906	73.29037865571068	38.13934701645994	-0.0358751497853973	0.01597752658673812	51.35965125218949	177.950267636443	61.24354079060572	-19.15746149041581	-137.3844591363675	14.61680001349616	8.194107077594953	-53.22418051499403	38.9343117819847	-46.32805092510259	-55.81539021193983	16.32396112707932	-0.0847536865362804	42.11783261522329	-16.75280678942352	-0.04390614548729502	-17.2910690711562	1.949893875701046	-0.3672432139102426	5.466165581318666	-21.42398039741276	-2.724247448597683	8.714692965355679	7.065532809789016	-5.87240424560083	7.871029225573991	0.0990798485012403	-0.3091075869844935	-1.261558179892182	2.04296623940172	-0.1369785268680966	0.8415827966475194	-0.4390053853705073	-1.162505429822388	-0.3966397990910026	-0.06166422061525398
0.1540589714577417	0.05562639059718322	68.20392597222249	33.21484632330699	-0.01975423837399859	-0.01799808443902862	53.30404506758808	179.7095481819004	62.40694870628175	-19.95042036166081	-139.8252409272311	19.40871345410979	7.60039837020782	-52.6557033810399	39.55218418962737	-47.39995627306335	-56.42557432209185	17.05030557436971	-0.08756478081432718	41.73258748076506	-15.01743639416704	-0.04569106405979625	-17.61346468499601	1.967673961514759	-0.3775190032569888	4.942455361508373	-21.44212071463879	-2.782736788708418	8.787200968020686	7.878894274929015	-5.794612331820039	7.771104711339818	0.09830555381034234	-0.3099523721392237	-1.227745913874431	2.228856910590916	-0.131646324134783	0.8326042480045894	-0.4502306945154103	-1.155832260609289	-0.4013773128844058	-0.0689801900767826
0.1548208116596206	0.05510379574441515	64.74381735023654	30.51470440033139	-0.0005258446884184309	-0.03953458688911837	53.74767734670946	180.5514738511841	62.90233991560573	-20.35450068930953	-141.051071431964	21.96674207241753	7.123741176467852	-52.20594026851836	39.68675502968863	-47.99082297029216	-56.66470332976525	17.4165711333839	-0.08918055319393604	41.11122671270977	-13.88973517079855	-0.04645427248561973	-17.78601284342827	1.970368781193726	-0.3858855584453069	4.61705597137713	-21.45354440737645	-2.817881489874069	8.815524063555586	8.28575831946339	-5.734340696430209	7.705928139419946	0.09752497579018926	-0.3102829060728149	-1.207785565426372	2.39718198319401	-0.1284544193081036	0.8257127114218524	-0.4570004723383569	-1.151177259390865	-0.4031640848592211	-0.07491321550205576
0.155	0.04834229800204071	59.3265698613827	31.4219832375684	0.004653135795827268	-0.05318745235072697	43.96845750655586	180.527492488785	62.89450771160498	-20.35945052624793	-148.8222391605078	21.83553128383488	7.579452194595888	-43.59976407215241	36.86933443608179	-47.44233403456294	-55.88838881653557	17.42470904326694	-0.0899837637538629	43.42937377532851	-15.29378478730925	-0.04386310884115118	-17.01774095542013	1.815448428867758	-0.4002424557945825	5.368223615639272	-21.30341473913657	-2.67815315265186	8.783121974040839	8.290663030498639	-5.264317455289183	7.926087562558818	0.08723835554996173	-0.3085876407648422	-1.197987195968629	2.358471346221353	-0.1192724527260058	0.7647585983452162	-0.4161097566536303	-1.173826202840553	-0.4020525900732751	-0.07320255370077418
0.1554542507337262	0.0614701861453355	61.35613473798934	27.76433731953764	-0.008710844208394519	-0.03616030106132939	55.38152191341851	181.3361224325611	63.4009051229263	-20.71789488037729	-142.308156086255	24.96912054038107	6.636163871264076	-51.70197341842832	40.02082594102746	-48.47307886492258	-57.0075057298169	17.74955511948959	-0.09038605317025407	40.93538965646977	-12.63229921680862	-0.0472140054535509	-17.94306466773642	1.971040521047005	-0.3938334131499155	4.318843909027721	-21.45827406926105	-2.850506482880271	8.866306465343659	8.564296332741435	-5.685164039796133	7.645109323387455	0.09681361874055694	-0.3106298096536169	-1.195393989683995	2.582753525836198	-0.1258175750050788	0.8200143280507628	-0.4634570152439487	-1.146883449634484	-0.4069697446203935	-0.07931666819880441
0.156515784775164	0.04419806775831603	54.52467998115927	22.42394709394092	-0.03016461161099215	-0.01313012085628884	59.44431804340539	182.5617918435451	64.27170662462454	-21.35724482491052	-144.5680479198124	31.28354191566472	5.602741262904439	-50.60811790446763	40.64352041123736	-49.25851670927925	-57.50421342829161	18.34029464905988	-0.09241242157300687	41.10925753747796	-9.991283760676252	-0.04857426622161343	-18.20850354069886	1.974368044491331	-0.4062327052272541	3.824600191823466	-21.45505649863421	-2.902796292535378	8.946854272288126	8.922745996148517	-5.600578831634344	7.542647994631281	0.09559025847719838	-0.3110884282938224	-1.171094408578513	2.921722857886496	-0.1211648851692082	0.8100368345632696	-0.4737169323903053	-1.139655454738105	-0.4133192818324961	-0.0868423835205835
0.1581644464118399	0.03223327219572525	41.68883214804887	12.32439137865425	-0.04516617700845416	0.007757649277408518	69.34578716711121	184.1778261187054	65.7174497221141	-22.4231077963881	-147.9071377414517	44.10399210185361	3.424161996522398	-48.83897603816956	41.77937222516644	-50.44947700979991	-58.15097113050375	19.33692644403174	-0.09539619932072475	43.08514616920574	-4.797931191782969	-0.05140236001294426	-18.64827115212321	2.008149645499969	-0.4155510225714294	3.114456424814879	-21.4247347704107	-2.974953858146754	9.046289783235919	9.025870734836836	-5.501087067404052	7.389343128469576	0.09461950111745332	-0.3114221322175275	-1.122234933389566	3.355579265723572	-0.1135933631352406	0.7979586516509136	-0.4880278966879736	-1.128594860285207	-0.4216500949338233	-0.1011143979934291
0.1603741041940474	-0.008927383308602543	36.17554928803968	2.937756811600869	-0.07853700705025091	0.01708584823853698	69.90521699415228	185.9302195701608	68.32957056496335	-24.15091125557615	-157.7202230775446	51.82895119367927	2.981545489550875	-43.73739729271015	43.64040470052636	-51.76895731653964	-58.90180071677977	20.99239841414414	-0.0989144548335717	50.42899426786622	-5.356075784939267	-0.0578127669555949	-19.12825130807321	2.105432405012023	-0.3993335839143475	2.622165689538165	-21.23928865245133	-2.997258924906603	9.13855545228153	7.694586416975783	-5.371050291661088	7.280262440558078	0.09387765892130395	-0.3104217420849971	-1.028262652437545	3.238565364567018	-0.1006871631530507	0.7790995942353682	-0.4893933152272979	-1.122307111610646	-0.4307581341205693	-0.1277435367097572
0.1631098871668135	0.2063492154125584	81.01177013801309	15.26477395228275	-0.01622482973179729	-0.03690737111679709	10.17197232161386	187.5769324850524	72.38896946827467	-26.67156083033688	-180.3614026406565	11.77833442703941	13.85774610794457	-34.36021824983592	46.93626831922186	-53.04321432427479	-59.6533125553261	23.45011912164897	-0.1026964466417361	55.59889161009179	-33.73981117629749	-0.06705643469859587	-19.54383671021981	2.273534327824356	-0.3409578178796235	2.447096476420056	-20.87250499347168	-2.957781653174846	9.20799692043855	5.774369858364844	-5.191605211521043	7.249189996608139	0.09302490873990632	-0.3084367120477221	-0.8749631227148802	2.251278548217586	-0.08025915494152455	0.7501819028714822	-0.4743419033866396	-1.124838934384099	-0.4402434131266755	-0.1616840321653506
0.1663286436775879	0.03987495528210161	170.7778592652055	54.12706903145338	-0.05917580767032149	0.03079745909673193	-116.3428057050151	188.6974981203767	74.25965084063526	-28.59102449632593	-198.9546808354848	-83.13066777589681	36.08424084586083	-31.54053414846732	46.28358292371559	-55.01116800332317	-60.28919879851993	25.26876467705629	-0.107158437528924	38.56861341120884	-86.00807495144034	-0.07279854566936149	-19.976748907749	2.495763078774619	-0.2596794707434409	1.856294514695832	-20.79593073169949	-2.991136793742362	9.275762051294302	7.242071347107529	-4.991244649229643	7.139936708969721	0.09428507437732525	-0.3066475015045855	-0.7497693311596735	1.053369313321161	-0.05598716077174125	0.7248152219329542	-0.4755370570830015	-1.118099540793439	-0.4497463309106012	-0.1894594730226585
0.1699796094921079	-0.01304625499028589	249.1449029985412	86.2538683189165	-0.0576873945505838	0.02147166697375269	-234.0503274054679	188.7455671612441	75.33376381101917	-30.55395805544946	-218.0435965972196	-169.9997110831312	59.4576972308374	-25.59381387819181	45.75981605270483	-56.88502646640168	-60.71879465515708	27.14146396439037	-0.111408253021444	17.68177428162028	-134.6656348991399	-0.0783312009893404	-20.44383365978957	2.642368929467342	-0.2010721332938865	0.6146938569619804	-20.68684765848988	-3.086826380883174	9.333088068698894	9.18581056137517	-4.583385490374153	6.872165094957617	0.09099898760428715	-0.3042185062186686	-0.6034243473331504	0.3241377663947872	-0.02600792032738693	0.6748533423643117	-0.4893774353489839	-1.098964675865853	-0.4609826515407797	-0.2015349473859685
0.17400520557877	-0.07372905452074008	310.0309347025012	113.0933287685802	-0.04755214293116694	0.003044741942971996	-344.1490361604417	187.3003018283723	74.30094743496338	-32.05348221876667	-232.7967975336361	-247.8927376980613	80.36758525906038	-19.32568848455809	43.98182708853395	-58.77433543242066	-60.81730791485381	28.55956341488323	-0.1152022703743632	-9.529810594937207	-176.2400577629996	-0.08115962104509952	-21.12348813897707	2.731041116023261	-0.1779247425326815	-1.528266102161205	-20.63276774906905	-3.282387760178358	9.369969375838568	9.384586862561239	-4.037927438507251	6.363644759362509	0.08497541811548681	-0.3003847897352676	-0.4625713281254477	0.390430165225554	0.006519291110976294	0.6112257682719647	-0.52636955066541	-1.057796840478115	-0.4730181147261449	-0.22565809308428
0.1783419453248002	-0.1657717354568149	336.7963038089521	120.598593267029	-0.0325265422440566	-0.01113406013780605	-411.4927196433923	184.0436145014059	72.8475596737461	-33.60445487089537	-237.8794092347954	-289.0098944314027	94.59009311643132	-15.56366090150382	41.52901994099917	-60.49788825853587	-60.47434782913984	30.07504744727557	-0.1174002997347394	-31.80555169344659	-197.9743799865089	-0.08229847875825612	-21.55739931317784	2.97483732098892	-0.06852503741950144	-3.123412698794208	-20.60004436696624	-3.417273222779134	9.311466627814148	9.413330606255606	-3.571487558343104	5.998140726346573	0.08323072033092349	-0.2955154589997255	-0.2855182994295877	1.351611924938646	0.04557052824991366	0.5562205221718428	-0.5479267330243298	-1.028416707094818	-0.4814850793372115	-0.2372030464896673
0.1829214354539589	-0.2403592900353217	344.2965347054764	118.6742088517089	0.009546623848464719	-0.01523777907857493	-455.996612052293	178.916023321384	70.18920103869851	-34.82895521174087	-236.5870982444004	-311.4034142613147	104.6356541985032	-13.2455629517222	38.36037641392276	-61.90843568300151	-59.60181377525631	31.30914275209729	-0.1177850653256727	-52.20102720774511	-209.2984694496974	-0.08172457872199695	-21.80949855312007	3.309420229539207	0.09181428430384253	-4.361659443674278	-20.54683384980832	-3.506647833242783	9.166215023680182	8.225696983721104	-3.147344810312535	5.714003878102683	0.08405541890135737	-0.288851940867306	-0.09569868352845071	2.623909576328505	0.08846845501034639	0.5055250161089617	-0.5579303451249397	-1.00499544936718	-0.486492042342245	-0.245340787810559
0.1876714545037473	-0.322037955737656	341.4908110796484	114.456586712218	0.06164511535645545	-0.01372199705690491	-492.9798496170308	171.9470088096506	65.66160124730023	-35.3481357224985	-235.6412045004554	-328.1160177294322	112.7224539925411	-7.769663822595998	34.47268879732458	-62.63568190180093	-58.17945338417186	31.88629390520711	-0.1159981314926524	-71.77171180717178	-217.7441751881038	-0.08082172772619978	-21.83243474860211	3.592206626365497	0.2506090315642564	-5.457298611835679	-20.36251414743848	-3.554163662195554	8.958933809603995	3.58925194420654	-2.588649987683765	5.453679226804466	0.0820090085445277	-0.2796645483154814	0.08013438687642781	4.682375686498784	0.1346512907299511	0.4364646390756692	-0.5555495024539758	-0.9838685181475944	-0.4893337286631899	-0.2459682363831548
0.1925170917444269	-0.3959042892669089	324.8007128579029	104.4521155558814	0.1130084310219672	0.009964730757474172	-508.1607731963	163.4127451113318	59.8222732340994	-35.18929880548279	-226.6242417070936	-330.1340440581754	115.7539496447398	-6.001518647480491	30.79210258610319	-63.02696170000305	-56.32281520888137	31.83386958869709	-0.1118878747452659	-90.48680272200868	-216.421065359714	-0.07679243772099803	-21.69955880490338	3.939386231895176	0.4407268307686034	-6.16281255120184	-20.18989433468119	-3.566582159327903	8.687185625093109	-1.95771532231659	-2.169285806233585	5.287163185804751	0.0835919437558445	-0.2693560871531397	0.236636441060585	7.549627204704183	0.1786578175800472	0.3837022382534855	-0.5450239691931749	-0.9692411863456969	-0.4887746043684712	0.1266509971385941
0.1973819285398158	-0.4661893813069753	293.0896005510878	87.69074043985231	0.1564392983800786	0.03577617598421057	-498.9572409554482	153.9451039511862	53.31887698308328	-34.37755046320456	-222.9612625966513	-315.8192679860809	115.022477040921	2.246524871886021	27.34132164084694	-62.35287938746447	-54.26028927144594	31.18052201826926	-0.1052686655359412	-97.06983317395574	-209.6098759055077	-0.0787663414800566	-20.92783539132337	4.209126707185908	0.661890680396235	-5.860771604031473	-19.69437331164588	-3.416870886610522	8.380274114175986	-11.31374136860651	-1.585893496281199	5.389044638589609	0.08144434751227048	-0.257025340909605	0.3653393298030631	10.89574250970257	0.2284378656098306	0.3049479162513136	-0.4920866340949511	-0.9809207535284017	-0.4857872879881905	1.064806535930108
0.2021892435043931	-0.5287132797595717	271.4412840977444	81.39601184263799	0.1851354181397511	0.08752005884730352	-499.7798887245696	144.1245838985699	44.84628031948705	-32.33450083177956	-209.2104410271248	-316.2528674241969	113.5849426044797	2.407913575716971	24.57443427561353	-61.80796327261648	-52.23174554831753	29.31790619003005	-0.09703418213010506	-116.3555473363267	-205.3985065439492	-0.06844606257068032	-20.590196806766	4.418128809921866	0.7981645033825659	-6.324677325074679	-19.44701838858058	-3.402227020070125	8.123419022746821	-22.21472459111274	-1.216112261420899	5.286873921551458	0.0816738415458971	-0.2450889052276344	0.4086887095880004	13.28277165600931	0.2620090103272594	0.2564392327546232	-0.4730325761767748	-0.970979763974256	-0.484102085230279	2.320947582609334
0.2068632224455918	-0.5762882887512788	231.1303893752187	66.75340539866133	0.1968272461968184	0.1537013274436276	-469.0802836749995	134.4710847562417	36.57841748223805	-29.72977010039023	-200.9683796813442	-295.7478886116069	107.0217293373446	9.045915279238383	22.48575876988084	-60.23937292491102	-50.34217468609788	26.92471259499958	-0.08689843483675183	-125.0275520900586	-192.5202780097353	-0.06102549982327858	-19.57496717499779	4.470172474155595	0.9437081287399074	-5.984197762126886	-18.92927733860925	-3.257074763722843	7.889251215091061	-34.97507398873021	-0.6176463821458211	5.42852035688676	0.07587515897864108	-0.2330536685994931	0.4065027539057877	16.41594746932364	0.3004469626910876	0.1753999543499833	-0.4185047993003945	-0.9863531143183359	-0.4815760500131797	4.541768378970353
0.2113301540101398	-0.6045025650626101	194.3104142855418	54.09445715087559	0.2043876046302557	0.2008654108479959	-430.6102158045871	125.6692352343185	28.63397489410062	-26.66610535318066	-193.4980546660138	-275.5034251431495	99.69362296240178	15.01679384051483	22.19550257698727	-58.30967701706697	-48.59748946664637	24.06512338492777	-0.07612996012982913	-130.2031716902616	-180.6219058859043	-0.05545025911121254	-18.62221579811727	4.459435133971602	1.053877342208854	-5.626117658620228	-18.33443280928295	-3.112491485340506	7.729305168101543	-49.36960360056231	-0.1310500168377153	5.568957002333822	0.07062049681739679	-0.2212395880236253	0.3448542348034351	18.44223343790423	0.3306216928602323	0.1069880346982388	-0.3654229078624738	-1.00086076194263	-0.481004531485385	6.722218582512535
0.2155195921846577	-0.6063827587215478	153.8817117429354	38.36809298939716	0.2275098307637506	0.2126227324617957	-374.2649965119896	118.0391261585331	21.84716180970292	-23.54850305427951	-180.3679660729495	-244.5966775669952	89.09924842619291	15.75562351373489	23.55201981473606	-56.37516615424508	-46.90474445128402	21.12665645996109	-0.06547022133409056	-133.3312007747577	-161.6795925246396	-0.04844992747667168	-17.60790688839903	4.450897594386238	1.161214675354313	-4.955930432772981	-17.79033266406905	-2.955346683853876	7.620814820769485	-58.85116665251012	0.1587187697064332	5.80299565604466	0.06865939889280229	-0.2110276513862983	0.2463074802401058	20.70649531357218	0.3523187546852151	0.06355482507983687	-0.3113780762791599	-1.021965952861115	-0.4804179751021845	8.070143545355537
0.2193654673351004	-0.5816132138600949	115.1583929448792	22.45181259957671	0.2548096609735921	0.2181331106767175	-310.6434767338513	111.8484649742203	16.43427748411242	-20.60296293804355	-164.5012324937021	-209.3566184922485	77.21908966856849	12.8529254234639	26.15340151800244	-54.42636373815197	-45.26767591659198	18.32378895830601	-0.05560212277551041	-134.2737106318447	-139.6650421097518	-0.0413818254915669	-16.54844107257644	4.429959628321302	1.260469099446432	-4.065032472084085	-17.25755334336346	-2.785371065645059	7.564958277637936	-63.93276211274133	0.3095419613995865	6.096738452850067	0.06874311156495314	-0.2020279945058996	0.1230828984907438	23.04259428572793	0.3670579787734004	0.03807747990911661	-0.2567829526557456	-1.046603968027877	-0.4800398506102789	8.771503811753004
0.2228071283122631	-0.5452352765389392	78.92454732261521	7.291231335941353	0.2537655236028371	0.188837336259553	-245.0349333589045	107.0922698145585	12.27510103099736	-17.94516597489339	-148.4677293221084	-172.9525092025816	64.93569312150622	8.131811412555388	29.63626836982628	-52.54639862186146	-43.79104596194117	15.77325390079962	-0.04683551164757037	-133.8404418660386	-116.8295941592853	-0.03525861032371976	-15.66903270071952	4.386869353635745	1.327127478998457	-3.220927408553711	-16.71974874912478	-2.624851556044477	7.567094931875686	-66.56767711877525	0.3429595323530389	6.366805238602351	0.07001305440449751	-0.1937016596932968	-0.01562578198935531	25.44647004799517	0.3740037476656635	0.02815441419763698	-0.2071290947970781	-1.067360293192395	-0.480911011224175	9.115255906975477
0.2257902993364854	-0.4842301097125414	46.98064364685744	-6.003151891813969	0.2414068996736916	0.1464560623818443	-183.0899660913036	103.670882909164	9.246345520064823	-15.67424326341649	-134.1773059507149	-138.6859851084396	53.38761830416152	3.069208520422071	33.54765229140281	-50.6686482527334	-42.56495966388531	13.57989265851646	-0.0393773747061377	-132.3042255350109	-95.41212657366604	-0.03073341066747965	-14.8787798260264	4.310164000005581	1.37076802608816	-2.533326972737762	-16.18065386776384	-2.482926884517336	7.615526494535633	-68.10323278344067	0.3483207623383611	6.579235406793748	0.07086338991647656	-0.1859395863652802	-0.1563674112078965	27.82730298880815	0.3770758652902497	0.02257973032217636	-0.1645465245715704	-1.081698368410756	-0.4829008069779502	9.296263232339811
0.2282679370955254	-0.3969462023803558	19.65544774735121	-17.27487314095487	0.2207599699278546	0.1118763804951186	-128.0921720250143	101.3439978313858	7.147282972767399	-13.8322954230792	-122.358822389178	-108.2140592037919	43.14255289227961	-1.584940954234897	37.40320933786517	-48.98683205333279	-41.6133529671335	11.79260002055286	-0.03328334045765054	-130.2256453886526	-76.50043060565964	-0.02785090462584847	-14.33284009671756	4.226126869722735	1.386316051325757	-2.036677976795751	-15.66818737321362	-2.364321767299771	7.694782077893095	-69.15399542848867	0.3039405458840051	6.725195351662896	0.07189270252774921	-0.1788560801037726	-0.2879758473512473	30.07967446123481	0.3758434483222088	0.02414427213281393	-0.1299076843519473	-1.089417665919345	-0.4859217461205243	9.412276841135217
0.2302009768984097	-0.3084978395714231	-2.720618185652813	-26.51167916565887	0.1741717211316853	0.08210903957933624	-82.01207034529034	99.92078996274743	5.81524669616797	-12.45188500694527	-113.2129121322703	-82.44975642496823	34.57039204914615	-5.567086271901518	40.92422986450507	-47.57571746550107	-40.91932721138048	10.44766669805005	-0.02865911691219103	-127.8856102586868	-60.67344838719553	-0.0263973780309222	-13.9811752345314	4.148634682085575	1.386080389727095	-1.727612676098281	-15.22380180730539	-2.274700777708374	7.786406054485351	-70.02648636235438	0.2352911450941614	6.80802585574372	0.07295170423604433	-0.1728064164859071	-0.3997651938746284	32.13232671876337	0.3725254260374613	0.02960927615883875	-0.104384720513143	-1.091509297881203	-0.4895591901987562	9.508360131402863
0.2315589714577417	-0.2009361671778862	-18.47616343887866	-33.06199244442593	0.1143273296692087	0.0510310146678421	-48.23882734088392	99.17786761766632	5.064438666546645	-11.52773622881345	-106.8646175883916	-63.65474855907298	28.3456582333265	-8.664710997510328	43.80435731915916	-46.53916408313228	-40.41906072664799	9.541878285294814	-0.02555374900233807	-125.8630099662565	-49.21563113578423	-0.02601380339139745	-13.80894674716199	4.091993512208981	1.377471714621665	-1.572576242097636	-14.88144478718498	-2.214899427894149	7.869820680247717	-70.68343804126924	0.1526861202190198	6.840157753257069	0.07411424590281759	-0.1680979511846803	-0.4834924822587181	33.67961221250728	0.3683695790642389	0.03764618058758593	-0.08791998544328064	-1.089758235997163	-0.4931476806094416	9.582990905338963
0.2323208116596206	0.03496668657966495	-27.59479963159476	-37.21415760474486	0.09197103923958139	-0.02329993223861493	-27.6626515505884	98.75616382600997	4.727172524379447	-11.06034058586491	-102.7854083168165	-52.18353429047077	24.5554532640673	-10.91188240209322	45.83193035194418	-45.97441775567697	-40.02071741191848	9.076814477552794	-0.02387884637870012	-124.598464100533	-42.23967412558353	-0.02631555220776686	-13.8074561542654	4.06906656558551	1.366161342687297	-1.540342142930065	-14.67731933144697	-2.187603385294486	7.919495539680584	-71.09888405750095	0.05708507000320034	6.834203831356252	0.07559040665009095	-0.1651056379239719	-0.5304484277879651	34.65925114968115	0.3640818512456172	0.04814308263838583	-0.08087324355020389	-1.085881969029053	-0.4956030567710709	9.631681983601503
0.2325	0.00107486569611126	-29.67750659561679	-37.95802906919928	0.01392492137088652	-0.01406603439465925	-23.23541215954518	98.89214063372252	4.624565775602523	-10.99083337620871	-102.7717954028034	-49.40511211247418	23.73873225405966	-11.18327176505158	46.65266000629687	-45.81886254692728	-38.99384652354784	8.958836783684811	-0.02439659318173767	-123.8440914150215	-40.70554441380001	-0.02629042429523336	-13.86103559697665	4.072586710657145	1.362489376581823	-1.540849224226842	-14.59305525070333	-2.177949715752107	7.90481468809235	-71.21121211347864	0.004388424825738507	6.821734979870802	0.07650246423788923	-0.1640298553596042	-0.5403042419917702	34.87832893826731	0.3623637567536169	0.05385967071952583	-0.07922609736304573	-1.083673883295472	-0.495404047534292	9.64358054753939
0.2329542507337262	-0.08349065898302399	-36.39652943673406	-39.96160143213006	0.1041425875108359	0.005545169092442848	-12.6384262498097	98.59803921614679	4.376913025342903	-10.57420258184935	-101.2273266485151	-43.09020979542196	21.66220495880101	-10.93518581592674	46.47915868509089	-45.34292223676248	-39.92720022432123	8.606166324832195	-0.02240569383815552	-123.1546706178728	-36.85629273554206	-0.02550247145437904	-13.53465036688077	4.012200028221806	1.371437044073312	-1.369669396527616	-14.49428406577154	-2.13944381150284	7.96094790322209	-71.48680530809349	0.1235253497204234	6.890166771638013	0.07418138262284379	-0.1632536101555351	-0.5728922676768717	35.46302255711614	0.3658114307247923	0.03905517502516326	-0.06736100560003724	-1.089757703093002	-0.4966387869681759	9.675893252163
0.234015784775164	-0.2207391437734003	-51.59085459868905	-44.60999536236379	0.1700585521371352	0.03435207675170204	12.44491232515148	98.26006219978447	3.799717425734959	-9.770715736028249	-98.8120494367739	-27.62199522276665	16.76433417076657	-10.61064415634537	47.44948047251273	-44.23110767271648	-39.6576560926523	7.823622431331557	-0.01991446585269981	-120.6053516487895	-27.73365986926287	-0.02419916786858968	-13.04424356422968	3.909380343829413	1.381005740711141	-1.074697335964021	-14.17355363337068	-2.054334561017232	8.023980131139762	-72.20795397586977	0.2542183651605322	6.988145840621948	0.07142909826673177	-0.1601757087292044	-0.6435464199176808	36.87459202869378	0.3692774896770917	0.02143171065816168	-0.04364913582068511	-1.096734558260006	-0.4979198878882461	9.76007551105695
0.2356644464118399	-0.2895458850078683	-74.76526107520121	-51.95002089022061	0.2490294271259046	0.02839224355204806	52.74016306368229	97.90807234746589	3.097671480970527	-8.599539152916408	-94.63055959150122	-3.113784904589144	8.99455346522533	-10.84753258529641	49.52976005193219	-42.50048398471294	-39.21864413018878	6.678060908740669	-0.01614964736109306	-116.4787443397026	-13.29504761865044	-0.02319280597390596	-12.43273103677665	3.758157292355705	1.383176390686475	-0.7372563227166459	-13.65600386450676	-1.934951729395158	8.14318082785932	-73.478566286164	0.387300966623468	7.09392460598117	0.0682352560308957	-0.1548780750712457	-0.7574844752028171	39.19064292370663	0.3714940981381758	0.002666942615849432	-0.01100879548932121	-1.102158130558462	-0.5013210732023545	9.915120304112055
0.2378741041940474	-0.3768664744976604	-105.996697264595	-61.76613646852706	0.3022198995209635	0.01658478579389566	107.8753036756361	97.66762567628386	2.466377341225527	-7.135967775608801	-89.49209269999139	30.52481055509724	-1.563569549368108	-11.13070904910432	52.66725192294408	-40.06127071862809	-38.70283903767647	5.245407839477279	-0.01107516603067851	-110.1736835480063	6.317117280593576	-0.02325588971496232	-11.70786662556394	3.549301075139247	1.374360905097509	-0.3984367732709651	-12.91308071163796	-1.778973414079016	8.335005754433791	-75.53017654947064	0.5339242881888333	7.194669545104523	0.06425679510442972	-0.1472661937388966	-0.9169595979431104	42.51034280191308	0.3724125589696443	-0.01853512023851392	0.03068029025155855	-1.104620735384596	-0.5076611968060539	10.17659792632922
0.2406098871668135	-0.4699307969737632	-142.6750128236405	-72.73776610999484	0.3344191838516224	0.0202623245274367	174.2039873923131	97.67800844698817	2.13830941601926	-5.49479136319227	-84.1680531218792	70.82843719884785	-14.08336179707256	-11.15564404853535	56.8428714385453	-36.81870229961432	-38.17298560787913	3.638294987458637	-0.004695711695727162	-101.5951831334214	29.57351383121029	-0.02524285635904962	-10.90382145030189	3.276104069932289	1.349034797435313	-0.1372657527445272	-11.91493407331499	-1.587215164055082	8.620232958736867	-78.51353300746229	0.6941391811498703	7.26312780795565	0.05933140500166642	-0.1370784416264796	-1.124068153344479	46.69111036052767	0.3714652440837702	-0.04203931574620559	0.08038002828762456	-1.100985581035793	-0.5182134732804878	10.57495500124119
0.2438286436775879	-0.5345451961643448	-178.6553330335356	-81.8992176030256	0.364922920128663	0.05525693068182136	242.4666534557295	98.22057137964782	2.380385003082008	-3.824017707703852	-80.46009667831026	111.5839128803112	-26.48365621563544	-9.952288201588047	61.72727807885327	-32.62521753332493	-37.54187084975269	1.994448411460238	0.002755251824117816	-91.04472203116131	52.73929359539879	-0.02945044741028999	-9.985899828150115	2.930076253523647	1.308694695608007	-0.001159927334702604	-10.62799594194135	-1.353559227386237	9.009480398206158	-82.30937348032955	0.9035678141133991	7.286282321893849	0.05278288049317437	-0.1243275908212187	-1.377917318918999	51.17807142786108	0.3698356317698398	-0.07207703192662879	0.1387406109354427	-1.089887323420391	-0.5334814813379501	11.1107460457063
0.2474796094921079	-0.615666534058299	-204.7560233549802	-85.11698361718794	0.3499619820879332	0.05231491035942781	299.0870971428565	99.95212666108894	3.396771301635626	-2.283411639881123	-80.23150983003656	143.5314803675972	-35.77170676675194	-7.122841583586307	66.96858069781918	-27.39118637531245	-36.25535749500174	0.437255268226162	0.010258013340226	-80.09228023659014	70.57223530362668	-0.03481532026936696	-8.970785827220334	2.514694400944617	1.2526629416213	-0.07802056097097615	-9.040690054929502	-1.079038536031497	9.495854930710507	-86.35119724914465	1.170705846152936	7.235870543091306	0.04449113142391414	-0.1089514084625982	-1.675997827345086	55.13070568888138	0.3676881569814144	-0.1093868676951485	0.2042388654205035	-1.068116203167787	-0.5528456776859231	11.73371310178731
0.25150520557877	-0.656314540935746	-218.8191082441138	-81.89480528414281	0.3376801976934942	0.04183643369202628	338.8147146019375	102.7945903256444	5.327221021145038	-1.056881743945169	-83.25760353710633	164.2205158464989	-41.15563118093997	-2.654097297935566	71.85199872402886	-21.10420919726577	-34.32350737729045	-0.8492572674884933	0.01779926428399001	-69.85950604995001	81.8748074054062	-0.04030725193413061	-7.842277766977726	2.040711153242193	1.183984427292007	-0.4324464328166202	-7.193576083545922	-0.7693899645934729	10.07825480674205	-90.25817388996656	1.514334795199507	7.097162096419819	0.03428848186231509	-0.09142302994474472	-2.009735741521467	58.3715892212655	0.3656501071138728	-0.1556210361821795	0.2746529937651931	-1.034037839394622	-0.5765510624944452	12.41411603852172
0.2558419453248002	-0.6573112791379145	-222.1543869352167	-73.09994515313811	0.3473516816583384	0.03272776031747071	360.8542636460655	106.847898302406	8.227375392530188	-0.3036430995572701	-88.7147279101148	174.5868869185753	-43.00027883690055	2.757390111082321	75.75951285896116	-13.88633056358289	-31.62769626838999	-1.713348401770319	0.02495581106379088	-60.83549342484	87.37949471079853	-0.04510207273872106	-6.681847275565108	1.534420218612049	1.099572213325474	-1.129853209739806	-5.137410417514315	-0.4320100248538716	10.75927935826665	-93.79320855803084	1.898633581783273	6.844542628123454	0.02297562445743107	-0.07181654529403048	-2.372974627714117	60.97499687593101	0.3620939695500444	-0.2059249785585713	0.3465897722859544	-0.9843648246257031	-0.605509715074542	13.13105255949012
0.2604214354539589	-0.6369787830644427	-220.8781706259035	-61.22241114756757	0.3600764132460199	0.04011606088477038	369.5376041228425	111.9597372309762	12.11081146571438	-0.1822000565743878	-96.5650166292703	180.0121868302005	-42.85237219651489	9.608704476117417	77.96086919351377	-5.830966051403937	-28.15755576831337	-1.994249287657481	0.03143007340093926	-51.48027440368178	89.91780083027058	-0.0491013398852959	-5.440826531855864	1.021102395035536	1.010594322522705	-2.142116848211942	-2.925353500367784	-0.06633845263185068	11.5142427412735	-97.23361528373525	2.338799260452671	6.487538805259495	0.01064923566728504	-0.05098195218030366	-2.748374739996508	63.36515986097861	0.3585124926876346	-0.2622228466085216	0.4186977331069588	-0.9206328469405324	-0.6388111968911543	13.91796726479645
0.2651714545037473	-0.6091013747337115	-215.4562959751366	-47.07223954941514	0.3507798672154436	0.05370781811535608	364.205713654029	117.7150597031143	16.68695553513624	-0.7052313349001373	-105.2433619887275	180.484192567674	-40.90568956528893	16.68584195009513	77.9838988000036	2.714083907753494	-23.92836010378355	-1.670449935674141	0.03696590230462055	-42.35932690161211	89.66370546271973	-0.05216766662019474	-4.248127950508655	0.5317037543232008	0.9101995031358772	-3.476280564169701	-0.6496215342929378	0.3161085082685424	12.31633717605462	-100.4935308181351	2.767294018170268	6.01288720058198	-0.001422934922989505	-0.02911975565164981	-3.122858937730009	65.46316209222169	0.3518894088166603	-0.3161416218424807	0.4867680046523503	-0.8411215960501368	-0.675763615498386	14.76534792241028
0.2700170917444269	-0.5776264078224145	-218.2536873654417	-35.03679475792011	0.3125549182734346	0.06890634750828895	357.0705811765906	123.422752616807	22.18497846690012	-2.112282047062955	-118.9373824054842	188.1414257830708	-39.70303308458341	28.96376229482449	75.73898647071873	11.95630591523406	-18.91546882291209	-0.4882397269782484	0.04146905825817396	-26.87118916340271	91.66973031915319	-0.05631195737089732	-2.571053507818344	0.08607226516218187	0.8646386347811577	-4.86144352236292	1.63451051254769	0.7191254456868355	13.08470376231548	-104.6833955820227	3.394931271654808	5.543393099187776	-0.01574156469522442	-0.01083305687352709	-3.453891583172304	68.05968620768982	0.3566531543374357	-0.3949743608939103	0.5520535061334814	-0.7647346576715288	-0.7124946699383264	15.79517759117046
0.2748819285398158	-0.3898817509951584	-217.7552772077219	-21.72094451619148	0.3273006291053449	0.03755811170617562	335.2876452800961	128.0914537018076	26.6022665236918	-3.539587908460089	-125.3855420756117	188.676028880402	-37.27005939738923	35.78630728001917	70.36950086395248	20.49859578123801	-13.03213439890351	0.7212463495287964	0.04430771657958849	-16.69270714230512	91.45923417674332	-0.05711714580189126	-1.531856976080965	-0.3025129216847506	0.7471656908893958	-6.682727153623767	3.687229280449405	1.075617601485899	13.79316615996837	-109.0088769635959	3.750635464287619	4.876729096142669	-0.02609740783822978	0.00960232576413822	-3.770295813300313	70.48563205977464	0.342629591753265	-0.4389578672027635	0.5991784950018442	-0.6620061282543599	-0.7472291903708564	16.95160438927806
0.2796892435043931	-0.3521506861763157	-215.8937692045415	-9.224622936783437	0.2561700635686677	0.0313800776127664	303.4810319107769	131.0275333407828	30.31586391958394	-5.109800602122405	-132.2427544483657	185.8594527283758	-33.36129445911394	44.02996352389111	62.77063340303373	28.66970850699514	-6.368495965895807	2.11487389441456	0.04603335971336189	-5.612733692017365	88.69034174521489	-0.05781276026202125	-0.3152636874924397	-0.6283705684496146	0.6556993676624002	-8.449017223872209	5.480907396020104	1.400696970598968	14.37037105226279	-113.2993223725842	4.1635912713237	4.230138688698562	-0.03675558843665744	0.02568008733879967	-4.035363898664064	72.40191495207068	0.3321765808067407	-0.4901647859150881	0.6346043506796991	-0.5644576335462786	-0.7768020353666414	18.16338258634129
0.2843632224455918	-0.2787660904076077	-218.7956325329765	0.5707273441655174	0.2037412339194873	0.02537309164790713	270.5746619709722	131.6020189780235	32.32332405192558	-6.26197221554003	-136.3030075209186	184.2654049630918	-29.62020830413244	51.81532422706694	53.2869205751507	36.04958793732952	1.100179889979656	3.167375790651681	0.04679015558727428	5.871553273357231	86.43626404153362	-0.05830294546023356	0.8286415636842914	-0.9034184897355741	0.5619028385589325	-10.19113127802965	6.960712791289391	1.669247799968708	14.76958901626633	-118.2351710705403	4.52933078273173	3.568107558538852	-0.04643368602784959	0.0384497670881131	-4.258150740152311	74.39434110569862	0.3189033248349235	-0.5360329825930353	0.6542425131619987	-0.4675409971700654	-0.7978697609725525	19.51258901953953
0.2888301540101398	-0.2315643600642119	-215.3358866253932	9.373319280928165	0.1513890923024874	0.04860789114104591	228.3668835002334	130.0080687363059	32.22832021753325	-6.686425298202131	-137.5188117709936	173.9378033797596	-23.87267539239154	57.78776751318514	42.7607352813173	42.2447200537449	8.83551074114118	3.583221926889848	0.04639855333920972	14.73890752668789	79.64458207838044	-0.05798980850238701	1.790834039090484	-1.12835961506095	0.4609887694001786	-11.80886899706259	8.021166034260499	1.854238655142474	15.00839961249194	-123.0276651518078	4.80620094902938	2.934532365676897	-0.0545636216134599	0.04736792241742172	-4.449660249326635	75.55590444775207	0.3015390487449637	-0.5711531076763641	0.6569775388085705	-0.3771110634767172	-0.8110678700470515	20.87726836682148
0.2930195921846577	-0.1695544728303133	-193.5017885816159	18.58685994762422	0.1029535346922401	0.05999774113649892	167.28725798331	125.6181487731648	29.59765966006681	-6.040173561210196	-137.7032926672242	144.223957567361	-14.21866199549346	62.55913313261684	31.76482876591502	47.38103276248842	16.90797627555697	3.01850785079534	0.04675081522968541	19.95836448356788	62.3850667051831	-0.05760681182518852	2.602653072335918	-1.336710384222478	0.3502183827870967	-13.29517976465022	8.815077263673571	1.983365613926064	15.06647360661904	-127.1536531887671	5.011221592115403	2.303143159400153	-0.06165386721465371	0.05403240374781171	-4.625592240430294	74.64273268896984	0.2805625513287069	-0.5981189978019625	0.6473562100202837	-0.2887519456703042	-0.8151904874089344	22.15456377029735
0.2968654673351004	-0.06241834942636615	-130.4310603912145	32.37803072737039	0.07277035119811615	0.03130679292263494	67.34669892116082	120.0436548029455	25.34617746107882	-4.747368815282602	-140.4981860331583	76.02638806075119	1.249318653087132	65.43797760441156	21.73299784162089	51.2191606263805	24.13857112797907	1.839603460646833	0.04648930262908232	17.94111488524441	24.61158601569662	-0.05690499246106312	3.231003776941678	-1.497008591212558	0.2483500598051013	-14.48876515209867	9.181842512067085	2.015274768246108	15.02176707310606	-128.8076660245887	5.128157827924468	1.783205697526786	-0.0668646836906992	0.0564085127861401	-4.774924573664635	68.8543064672123	0.2590410498920968	-0.6142993825169122	0.6248240456987826	-0.218037020566852	-0.8140244119346869	23.05621670000262
0.3003071283122631	-0.04301416664084456	-36.52844945233116	51.031033318745	0.02811286929479451	0.03269057466241065	-58.52889622985026	113.0674362202622	19.4655709265911	-2.685295473495025	-145.0476415872677	-21.93123365906506	17.43196605014525	66.79933421949545	12.62302398826272	54.07322219538631	30.62876018395559	-0.1126438972862339	0.04601332775172662	9.149027095800896	-28.36910933972521	-0.05630941558275997	3.706911801274067	-1.651965907822738	0.1444097868984551	-15.47854975460229	9.377451261920816	2.011624770437191	14.88653373558369	-127.2835369378596	5.18186397698596	1.307102366302319	-0.0710428139864292	0.05767545484850586	-4.919522105372256	57.63063134701186	0.2362377430014121	-0.6229302834313097	0.5976469920004691	-0.1535613124062473	-0.807999984688103	23.42856828636108
0.3032902993364854	-0.01920350014095362	44.86366894003478	68.11613678930725	-0.004327159188786567	0.04049493586171593	-167.7489684678875	104.2764486251282	12.21797734698321	0.124077521387516	-149.3153836449735	-110.7509154068407	27.8839637681724	70.44951649718122	3.381795607538756	56.60476598199945	36.87152267751686	-2.841989375023221	0.04593679992803446	0.6846177050190718	-76.40342496408056	-0.0560567989796002	4.256614134952295	-1.825205716969137	0.04778915744955903	-16.411565197826	9.622805877400934	2.013254609941001	14.64881966688774	-124.282257431679	5.311389741710872	0.8003241408036419	-0.07645503902525097	0.05904523394368294	-5.069916973099343	45.22230459225722	0.2172721196110238	-0.6416646930432215	0.5697324910632032	-0.086327056139198	-0.7970057862203173	23.4569161047585
0.3057679370955254	0.008303800693049368	103.5134832583246	78.67627621324445	-0.01906844516518547	0.06186014358047487	-241.1474460441069	97.1438321793662	6.038841366683554	2.254302036685228	-146.9751209573638	-174.5512161650543	32.50068186212567	68.4362840800021	-2.049375756662805	57.62956420437658	41.08680367607384	-4.974016449947847	0.04323936068274843	-8.648626124570148	-109.2294123223077	-0.05482820004243649	4.37931811817389	-1.926267424438496	-0.03549683444945129	-16.91938966116152	9.38874442184807	1.911493633722651	14.44631163452049	-121.4947899507733	5.241694386153743	0.5310547743000567	-0.07783977565219202	0.05681784835123244	-5.160832571670141	35.76810208340111	0.1970416206928169	-0.6343418685883736	0.5377460341713527	-0.05083946901608133	-0.7875188067025362	23.43501161428472
0.3077009768984096	-0.06252510345827744	136.4286757758887	83.41352667472259	-0.06684740213229645	0.07218368151376353	-280.9924110709317	93.14930480479471	1.852625791356176	3.46924145928266	-144.3746238400723	-210.6477269004341	33.73810691462948	66.05154824697283	-4.783920305087873	57.8942594761378	42.79036603972959	-6.258370395653539	0.04023125235417037	-14.33356780060986	-127.6169918923394	-0.05398501490480756	4.470270408203178	-1.927675248346008	-0.06424809139657339	-17.01976213505273	8.802044340718629	1.722670851784409	14.35124763564272	-119.4669458116181	5.176797871369993	0.5143277523399592	-0.07765440665828724	0.04962839520059731	-5.20426067031394	29.8873799734851	0.1869435464800863	-0.6264176010808791	0.5050619474590821	-0.05189470245711557	-0.7828235684517699	23.41948065656896
0.3090589714577417	0.01249287228601759	150.3671565176114	84.79980296904641	-0.03187243636315173	0.06369927909571516	-298.874310196769	91.125548360449	-0.8285693863908872	4.17867149244454	-143.514133299893	-226.9827149151305	33.53299326505215	65.72389618840954	-6.273673094358756	58.10856757903695	43.22428162850571	-7.054649041276128	0.03796964917148309	-15.77672303777074	-136.2706936181651	-0.05358784913091208	4.677692990348614	-1.899927930148115	-0.05854123862071736	-16.98486464389844	8.250518154582737	1.53843306552883	14.31664641904327	-118.6095882665242	5.197773774099907	0.5793391919533326	-0.07803118908350085	0.04159032462658113	-5.229005740211606	26.79104322166021	0.1856803879498791	-0.628977989344468	0.4778582626720954	-0.06526054322361928	-0.7807839104735693	23.49374678215547
0.3098208116596206	0.1015366901764239	155.5059142673367	84.71087731935334	0.01768374404553441	0.06849143882874387	-306.4296755336242	89.32373273516824	-2.352092632123349	4.557098569866785	-142.7420589998495	-233.6025801809514	33.14334315338155	66.28895599209332	-7.008013541392049	58.30945039108938	43.87476256091222	-7.475923996681629	0.03667548554304861	-16.26079731095987	-139.7732801443901	-0.05323659772843104	4.910629607152226	-1.876430390511347	-0.04209337480310671	-16.92278591301217	7.897541254869895	1.41508881532854	14.26029370439568	-118.2249422307983	5.259466648502968	0.6439488047860804	-0.07883301398233571	0.035732239173701	-5.233054921138895	25.40693687907384	0.1882311110411632	-0.6364913818171187	0.4607108441681348	-0.077479071409836	-0.778067211909151	23.54597747107968
0.31	-0.365851215518866	156.4882305723926	84.68737798669089	-0.4289269847702855	-0.003110439574584234	-307.9926241812569	88.84997139314278	-2.714482268498226	4.646644394938154	-142.977419963603	-234.8885331865764	33.05212919109013	66.479529553285	-7.175204629089084	58.36535250345757	44.05864014764624	-7.575286483906332	0.03636400505428544	-16.10917996336068	-140.5515313997696	-0.05313579618316965	4.976233147915232	-1.870490114097244	-0.03717170127319558	-16.90525614186306	7.810710325701127	1.384122336039157	14.24390462435316	-118.1722932540248	5.278548786548422	0.6611399905864265	-0.07908134522146147	0.03423802612477178	-5.233308531278511	25.10001046586201	0.1891003374788562	-0.6388114587049865	0.4564768245716208	-0.08069739018209679	-0.7772846959276406	23.56393799921737
