DataType=double
version=3
OpenSimVersion=4.5
endheader
time	bflh_r	bfsh_r	gasmed_r	glmax2_r	iliacus_r	recfem_r	soleus_r	tibant_r	vasmed_r
0	0.05960486867969642	0.04497772250059977	0.02122308042158524	3.102540487333636e-16	0.1348479856129251	3.224869228132425e-16	8.300591448544067e-16	0.07600127359391923	5.20154116855878e-16
0.005	0.06956464907934366	0.04103937772189654	0.02354675932760835	2.606370300620596e-16	0.131706486403816	-0.0006179650938361855	8.389336000986015e-16	0.07503374510769877	5.76179490401046e-16
0.01	0.08213433086515035	0.03735320560722344	0.02601266483991968	2.125474376996673e-16	0.1263847320717694	-0.0005570455887032567	8.538398220050246e-16	0.07501361405726957	6.394988498499984e-16
0.015	0.09616792782090924	0.03397699492254744	0.02842051062945466	1.669814507267696e-16	0.1190389380463231	-6.364079650076664e-05	8.705994045208446e-16	0.07562328154907969	7.039236927609457e-16
0.02	0.1105194537304131	0.03096853443383549	0.03057001036714868	1.249352482239495e-16	0.1098253197570151	0.0006158499708714066	8.850339415932303e-16	0.07654514868957722	7.632655166920982e-16
0.025	0.1240429223774548	0.02838561290705457	0.03226087772393717	8.74050092717897e-17	0.09890009263338327	0.001235027401513388	8.929650271693506e-16	0.07746161658521024	8.113358192016662e-16
0.03	0.1355923475458271	0.02628601910817164	0.03329282637075552	5.538691295087314e-17	0.08641947210496552	0.0015474921835253	8.902142551963742e-16	0.07805508634242682	8.4194609784786e-16
0.035	0.1441273178044189	0.02471911526937435	0.03349401694398701	2.985447692886719e-17	0.07261093314281389	0.001353007541876518	8.732890946753403e-16	0.07804321951545398	8.498057302770892e-16
0.04	0.1493876853682196	0.02367198627163761	0.032902850934028	1.16137368686101e-17	0.05822860326698322	0.0007925067005857265	8.437660599272988e-16	0.07740427440538504	8.362599891626106e-16
0.045	0.1514630189278497	0.02310380410279236	0.03165196040432089	1.395662502657348e-18	0.04426265722879373	0.0001598362870510033	8.054936263892458e-16	0.0762333095465811	8.056283749698412e-16
0.05	0.1504231272440669	0.02297254347655266	0.02987060560757464	-1.177698740056736e-19	0.03169722342364076	-0.000266957613252907	7.621839459828748e-16	0.07461625428070752	7.620783523360387e-16
0.055	0.1461167952684449	0.02322517816396931	0.02764864884003401	7.253282071655135e-18	0.02144251536892854	-0.0003803939456406091	7.160311830252194e-16	0.07253910393835754	7.080629926353002e-16
0.06	0.1382624157646486	0.02380219197020111	0.02505270971761223	2.339242857820444e-17	0.01436514077010902	-0.0001736158715574485	6.683339705974649e-16	0.06992889814576694	6.450239672059293e-16
0.065	0.1265653726687821	0.0246491826223432	0.0221435926979369	4.814578889658471e-17	0.01130065514148236	0.0003360791749707905	6.202125752846012e-16	0.06670925612801959	5.741632460489265e-16
0.07000000000000001	0.1105616163746336	0.02578952239227886	0.01889958523476925	8.085579551882126e-17	0.01262841431224464	0.0007894343903751674	5.702915627347361e-16	0.06276401945207143	4.932917555996263e-16
0.075	0.08965666699960498	0.02730645455047826	0.01523545302889414	1.204771418725255e-16	0.01837659069063321	0.0005639519712651534	5.15274303072784e-16	0.05794640876488383	3.976099902415755e-16
0.08	0.06340132154127592	0.02928087504490396	0.01109013830876481	1.660835442408147e-16	0.02857819490483241	-0.0008821396543190875	4.526110179496703e-16	0.05216003884028339	2.832771175792913e-16
0.08500000000000001	0.03476491299326263	0.03170426933593995	0.006996225440967479	2.197156464736431e-16	0.0435852907558171	-0.00207816486415452	3.980661699868111e-16	0.04648570592716391	1.700462249829848e-16
0.09	0.01013531034521808	0.03447871239639159	0.004079940930221372	2.863810199878014e-16	0.06406899521735253	0.0004589991581647905	3.857184627761137e-16	0.04318138774948642	1.012643195885616e-16
0.095	-0.004083817417554188	0.03750413803501743	0.003468559458015677	3.710864762942536e-16	0.0906864802256911	0.01022188711287237	4.496774458648436e-16	0.04450742232746089	1.203485786755883e-16
0.1	-0.00665264547213726	0.04074836546932373	0.005326719311688033	4.737945329927405e-16	0.1230135351623722	0.02766744743731004	5.942967567179424e-16	0.05082621159609332	2.335651903414347e-16
0.105	-0.003039365206560084	0.04426739946387187	0.008568560054340613	5.879149914767839e-16	0.1592211952221052	0.04930929464532038	7.852760505455005e-16	0.06003467138613772	3.989198937136709e-16
0.11	0.0008732821699258159	0.04812182974906919	0.01203116973070853	7.064514249640777e-16	0.1973950727535335	0.07141886376720326	9.859302161697283e-16	0.06987671262074349	5.714474607899656e-16
0.115	0.001814439333861797	0.05227099743274584	0.01505620077020048	8.248601153099527e-16	0.2362752746895458	0.09192023331274196	1.174935589008858e-15	0.07900671587246146	7.258625836412066e-16
0.12	0.0009405734422071378	0.05650262017967533	0.01784057725666731	9.427548557559933e-16	0.2757113217125829	0.1115388272014146	1.357007222717853e-15	0.08762237096637066	8.702387848692945e-16
0.125	-0.00016567441059512	0.06058798744245672	0.02066345966210977	1.060150664330133e-15	0.3156589752019582	0.1312697820084276	1.539365545405785e-15	0.09606997199397475	1.01585879802378e-15
0.13	-0.0004898533138049475	0.06433997094753693	0.02367474132175143	1.176745879973083e-15	0.3558147226043126	0.1517604512372286	1.725653782246023e-15	0.1045073799386382	1.169319749148587e-15
0.135	-0.0002852197005102307	0.0676642179663158	0.02673590351564776	1.291532288756423e-15	0.3952965769787661	0.1728822384245566	1.911533946201605e-15	0.112672036632075	1.326764555088755e-15
0.14	2.353065188801075e-05	0.07047892892215041	0.02966942081546746	1.4034059799391e-15	0.4331442791572532	0.1944015614082817	2.091588487809637e-15	0.1202445279846451	1.482922075808857e-15
0.145	0.0001308237677897487	0.07270232106790235	0.03232076855704741	1.511136209776786e-15	0.46839644031599	0.2160920265622019	2.26086151331325e-15	0.1269446464587853	1.633139739186566e-15
0.15	8.503990256806613e-05	0.07425266166301704	0.03460376571836135	1.613115367507875e-15	0.5000883150128876	0.2377486000168338	2.415768876091129e-15	0.1326086814535104	1.774602963515044e-15
0.155	6.600033187253186e-16	0.07504822721238738	0.03644486696470668	1.707666165460898e-15	0.5272545372188042	0.2591701969928911	2.552980044450134e-15	0.1370944608580118	1.904836983220573e-15
0.16	-3.452819175799347e-05	0.07500292779073484	0.03775684328176509	1.793063372447003e-15	0.5488493696696617	0.2801455067927173	2.668788058358106e-15	0.1402398476753101	2.020996588909962e-15
0.165	-2.49897070462984e-05	0.07401320775209516	0.03839773093675502	1.867389983207793e-15	0.5635055901616328	0.3004223150451756	2.757980244426795e-15	0.1418028453637447	2.118754795912135e-15
0.17	-1.882775825879206e-06	0.07197114502033267	0.0382118825172791	1.928681048967489e-15	0.5697756052559529	0.3197381814607587	2.814967500928926e-15	0.1415214924954845	2.193414175736546e-15
0.175	8.992801974337133e-06	0.06879421430638843	0.03707440584693406	1.975155773596367e-15	0.5664732688980115	0.3378235606610127	2.835060392413183e-15	0.1391834124995005	2.24096384390668e-15
0.18	7.249996821754716e-06	0.06453725593360954	0.03502675702849992	2.006029401957015e-15	0.553826546193303	0.3543704774105307	2.818435579623176e-15	0.1348444223443683	2.261106280894366e-15
0.185	1.054339750841349e-06	0.05930134004214802	0.03216637597568142	2.020852392302026e-15	0.5325393153869261	0.3690580230678261	2.766907387428988e-15	0.1286505984019236	2.254793684464467e-15
0.19	-2.306387335562631e-06	0.05318089886486493	0.02859522385343145	2.019494867328912e-15	0.5033927991412828	0.3816572322708679	2.682714246871938e-15	0.1207536479316571	2.223458561840045e-15
0.195	-2.079150042458565e-06	0.04622104887761933	0.02444836490165524	2.004187602828048e-15	0.4677371931410726	0.3926187299889724	2.571219877820093e-15	0.1113463912792937	2.172076247128759e-15
0.2	-4.39807149609751e-07	0.03844480308801581	0.01987570025643133	1.978219426293169e-15	0.4271777084636542	0.4026977355894379	2.43918876384399e-15	0.1006400757974961	2.107209979934117e-15
0.205	5.806843054173619e-07	0.02992900981329569	0.01504722770160865	1.945006935604318e-15	0.383503988771395	0.4125670184088679	2.293979391390536e-15	0.08891074611927095	2.03555219916132e-15
0.21	5.8990336219299e-07	0.02130736874650426	0.01033969257671521	1.909234257737717e-15	0.3403972704517945	0.4220333327774624	2.149014291999849e-15	0.07710249173631595	1.965051822466137e-15
0.215	1.62077426607163e-07	0.01354209201334824	0.006251810185643128	1.876333293824318e-15	0.302654728102687	0.4303925306395477	2.021293458437612e-15	0.06655351276156668	1.904399022548095e-15
0.22	-1.428538538272493e-07	0.007548443794861444	0.003254529821848043	1.851874703402125e-15	0.2748670482274632	0.43707360390628	1.927311589653783e-15	0.05854517893390086	1.862184155387713e-15
0.225	-1.656819946345565e-07	0.003475675591722829	0.001379750737558322	1.843360767903309e-15	0.2583194279010432	0.4435965183212444	1.875310832524985e-15	0.05343229059295721	1.845360668841364e-15
0.23	-5.568215417212558e-08	0.0008833608264176936	0.0003213905938597065	1.859780735119175e-15	0.2517524918907879	0.4530908754247732	1.867180503000102e-15	0.05085637312005004	1.859621915650055e-15
0.235	3.408796695855181e-08	-0.0006499909376359137	-0.0002201643073149664	1.909944642299863e-15	0.2539371621611217	0.4686024236381542	1.904780760803167e-15	0.05047530912369532	1.910468519442325e-15
0.24	4.608341931052133e-08	-0.0007614618332265983	-0.0001957855394362291	1.997660935663322e-15	0.2658466666416876	0.4902959649289009	1.993059760559645e-15	0.05274519934265432	1.999713856771898e-15
0.245	1.827200459137073e-08	0.001696274310650293	0.000792397448621987	2.121736470395315e-15	0.2906565392273481	0.5154553548107523	2.140053651796433e-15	0.05892036264593351	2.125484057117682e-15
0.25	-7.795264205918631e-09	0.007881566804040717	0.003149031798100861	2.280750399205046e-15	0.3315666491877497	0.5412854554919446	2.353728074704353e-15	0.07026340796679507	2.285739529954332e-15
0.255	-1.270734846137022e-08	0.01805546893026574	0.006952754586892624	2.472883717172484e-15	0.3890005276439138	0.5667896902288766	2.634088236347701e-15	0.08701005832065077	2.478230568722974e-15
0.26	-5.813819351451433e-09	0.03131341469677185	0.01185870428969651	2.69580019853446e-15	0.4597751442633384	0.5933078766942094	2.970798459600675e-15	0.1080620755949	2.700434518705418e-15
0.265	1.677702651163193e-09	0.04667966303350521	0.0174949678072321	2.94696293379324e-15	0.5404554029362344	0.6222811303600198	3.352694891651749e-15	0.1322344130314053	2.949615309173291e-15
0.27	3.516768188499801e-09	0.06369880568211561	0.02358646496525087	3.210982480018937e-15	0.6267525644033294	0.650907005215318	3.758007982214742e-15	0.158523242450161	3.207936151827344e-15
0.275	1.855677025205223e-09	0.08279743461701619	0.03002225411872303	3.450683458004376e-15	0.7129309050145811	0.6691899239846171	4.14699078762974e-15	0.1862319137396939	3.431963493926748e-15
0.28	-3.440822995129129e-10	0.1044846158637307	0.03670681530450949	3.626839420521336e-15	0.7931181001670033	0.6664582916600953	4.478203128652255e-15	0.2146921781004072	3.57585807486381e-15
0.285	-1.127167998179428e-09	0.1286416496896565	0.04344336787920808	3.712781329965938e-15	0.8621968872150851	0.6364388836117361	4.720412600427494e-15	0.2429488274509481	3.609411436952536e-15
0.29	-7.830845737412689e-10	0.1537492080433547	0.0498092052476981	3.709857388132046e-15	0.9167346464656148	0.5826718204392481	4.865161690960708e-15	0.2694064096520878	3.537289508270909e-15
0.295	9.492105523728273e-11	0.1780984486822536	0.05535105155289262	3.623206712926532e-15	0.9535267014578253	0.5100250326677154	4.907074480525731e-15	0.2923828433474635	3.368876949854406e-15
0.3	9.136019701919492e-10	0.1999805293637821	0.05961563093770475	3.457968422256262e-15	0.96936837573095	0.4233664508222206	4.840775049396395e-15	0.3101960471807123	3.113558422738501e-15
0.305	1.07971125255843e-09	0.2176866078453682	0.06214966754504751	3.219281634028112e-15	0.961054992824222	0.3275640054278491	4.660887477846536e-15	0.3211639397954713	2.780718587958673e-15
0.31	1.98377245041544e-15	0.2295078418844406	0.06249988551783398	2.912285466148951e-15	0.9253818762768747	0.2274856270096838	4.36203584614999e-15	0.3236044398353777	2.379742106550397e-15
