DataType=double
version=3
OpenSimVersion=4.5
endheader
time	mtp_angle_l	Rotation1	Rotation2	Rotation3	Translation1	Translation2	Translation3
1.5	-0.2795119674015679	-0.09581140416930715	-0.08539532831143616	-0.5645614819110443	0.5880025226598122	0.1671233086544941	0.4331850243206946
1.505	-0.2795286010976367	-0.1010829975592725	-0.08635050836764278	-0.5319999946997573	0.5991761477845757	0.1596178502496793	0.4331371773921647
1.51	-0.2791325616402917	-0.10650025835421	-0.08715647738448205	-0.499564607487644	0.6106521101558254	0.1520791798632871	0.4330181066878903
1.515	-0.2783688682597146	-0.11204827876242	-0.08773434367282727	-0.4672327761298851	0.62242659283043	0.1445371047912025	0.4328285925164082
1.52	-0.2772861010825944	-0.1177063991403837	-0.08800475378672415	-0.4349789474935384	0.6344939919643587	0.1370226462668667	0.4325711661271475
1.525	-0.2759343279497364	-0.1234481911194145	-0.08788900136821166	-0.4027763616865869	0.6468466058842953	0.1295680478399114	0.4322501112963642
1.53	-0.2743632969220629	-0.1292414625064809	-0.08731013142268494	-0.3705987700912977	0.659474293350492	0.1222066859288655	0.4318714378338763
1.535	-0.2726209231913634	-0.1350482930577906	-0.08619408652166408	-0.3384220611855686	0.6723641093875166	0.1149728771076037	0.4314428244932905
1.54	-0.2707520857885368	-0.1408251272669176	-0.08447093893247895	-0.3062257672235123	0.6854999361407724	0.107901575649686	0.4309735258692636
1.545	-0.26879773515657	-0.1465229624425922	-0.08207624428546734	-0.2739944322530238	0.6988621257293171	0.1010279617553825	0.4304742362105665
1.55	-0.2667943014255567	-0.1520876787540159	-0.07895253572875069	-0.2417188212326116	0.7124271742022552	0.09438692568349255	0.4299569025472543
1.555	-0.2647733819201041	-0.1574605601132111	-0.07505095507757079	-0.2093969533239549	0.7261674463486927	0.0880124586903063	0.4294344803676233
1.56	-0.262761679750515	-0.1625790501056682	-0.0703329912962012	-0.1770349488164571	0.7400509707553675	0.08193696700847852	0.4289206278832365
1.565	-0.2607811619349678	-0.1673777756224087	-0.06477226939725304	-0.1446476887622869	0.7540413229676753	0.0761905309525287	0.4284293391139321
1.57	-0.2588494043911521	-0.1717898537638905	-0.05835630778268019	-0.1122592986304446	0.7680976119991708	0.07080013490162063	0.4279745227621817
1.575	-0.2569800907259132	-0.1757484770589238	-0.05108813910092658	-0.07990347217970925	0.7821745854694417	0.06578889753515095	0.4275695408379351
1.58	-0.2551836314273453	-0.1791887445576545	-0.0429876779790206	-0.0476236929636045	0.7962228517910501	0.06117533776620614	0.4272267290518842
1.585	-0.2534678700603469	-0.1820496911469248	-0.03409270333263392	-0.01547335280282914	0.8101892416754689	0.05697270451762324	0.4269569269200298
1.59	-0.2518388437290804	-0.1842764333022684	-0.02445933741979642	0.01648413797001732	0.8240172860971737	0.05318841107764564	0.4267690510183358
1.595	-0.2503015666221485	-0.1858223408780873	-0.01416190929585256	0.04817523241197188	0.8376478140119334	0.04982360253978929	0.4266697451796533
1.6	-0.2488608076231717	-0.1866511296316821	-0.003292117709386414	0.07951610444290601	0.8510196623961237	0.04687288524363309	0.426663138875367
1.605	-0.2475218355265258	-0.1867387555573154	0.00804254435555361	0.1104124321619042	0.8640704609193619	0.04432424571395767	0.4267507382822253
1.61	-0.2462911065199431	-0.1860750053435637	0.01972110953706177	0.1407591849947855	0.8767374935088771	0.04215917256326418	0.4269314634042451
1.615	-0.2451768694814367	-0.1846646717667582	0.03161213624520424	0.1704404238612421	0.888958589446584	0.04035299418627603	0.4272018316946894
1.62	-0.2441896644685466	-0.1825282276247557	0.04357728356960922	0.199329237869543	0.90067303256913	0.03887543076527126	0.4275562744594407
1.625	-0.2433426902468198	-0.179701926367228	0.05547529632968533	0.2272879220919805	0.9118224551728829	0.03769135190572326	0.4279875583520482
1.63	-0.2426520175719748	-0.1762372864722145	0.067166195588621	0.2541685371569595	0.9223516961933513	0.03676172022133409	0.4284872737487332
1.635	-0.2421366262443912	-0.1721999475701223	0.07851543681501351	0.2798139797922527	0.9322096023688532	0.03604469175410254	0.4290463447663216
1.64	-0.2418182466962186	-0.1676679245979659	0.08939778659821808	0.3040596815755685	0.94134975884406	0.03549683543808278	0.4296555140881667
1.645	-0.2417209913471753	-0.1627293244452616	0.09970067436395491	0.3267359923491072	0.9497311341008613	0.03507442637811439	0.4303057598146695
1.65	-0.241870767473581	-0.1574796306578495	0.1093268143823318	0.3476712718368009	0.9573186378168227	0.03473476306954973	0.4309886107481207
1.655	-0.242294472695198	-0.1520186918065968	0.1181959437484748	0.3666956218606435	0.9640835836784336	0.03443745496402493	0.4316963389963163
1.66	-0.2430189820961894	-0.146447573005266	0.1262456005723132	0.3836451574047091	0.9700040653821922	0.03414562763556672	0.4324220238626574
1.665	-0.2440699488889478	-0.1408654330639259	0.1334309362182569	0.3983666072923164	0.9750652316495152	0.03382699159293777	0.4331594951329673
1.67	-0.2454704490215001	-0.1353665870305855	0.1397236544263373	0.4107220801292028	0.9792594842279394	0.03345473073124837	0.4339031784174354
1.675	-0.2472395117521688	-0.1300378847538309	0.1451102246304901	0.4205937299486803	0.9825865836352025	0.03300816821981099	0.4346478742121472
1.68	-0.2493905885092786	-0.1249565059507629	0.1495895840154735	0.4278881104358337	0.9850536687849548	0.03247318046653659	0.435388509110421
1.685	-0.2519300225612018	-0.120188231884742	0.1531705739751897	0.4325400147102492	0.9866751879053561	0.03184234052545735	0.4361198985934255
1.69	-0.2548555891702885	-0.1157862152652756	0.1558693637664436	0.4345156253887576	0.9874727325104067	0.03111478472937813	0.436836557376497
1.695	-0.2581551875038702	-0.111790240930064	0.1577071009770652	0.4338148631860232	0.9874747742275374	0.03029581217028813	0.4375325862246591
1.7	-0.2618057612631552	-0.1082264475483449	0.1587079756000565	0.4304728107648279	0.9867162791297786	0.02939623559442659	0.4382016523669198
1.705	-0.2657725331031722	-0.1051074761068437	0.158897838421815	0.4245601888219518	0.9852382026486417	0.0284315211783575	0.4388370698931924
1.71	-0.2700086277667558	-0.1024330109096895	0.1583034405629849	0.416182881502517	0.9830868642825132	0.02742076451447725	0.4394319738166493
1.715	-0.2744551511222115	-0.1001906793579918	0.1569522701610363	0.4054804527760226	0.9803131676903584	0.02638555171005081	0.4399795681545144
1.72	-0.2790417683694032	-0.09835728848370767	0.1548729271350392	0.3926237887453097	0.9769717128947804	0.0253487744345441	0.4404734238797403
1.725	-0.2836878208388148	-0.09690036577762307	0.1520958885665635	0.3778118702121327	0.9731197846046959	0.02433345532343546	0.440907793736268
1.73	-0.2883039509587498	-0.09577996567506321	0.1486544978121291	0.3612677972178742	0.9688162498796221	0.02336164542789439	0.4412779119238402
1.735	-0.2927942210482384	-0.09495068537519494	0.144585993489478	0.3432342087900249	0.9641204052240616	0.02245344790993922	0.4415802496334666
1.74	-0.2970586364731539	-0.09436381069035564	0.1399323962492256	0.3239682396414844	0.9590908089784849	0.02162621007451578	0.4418127026681239
1.745	-0.3009959736616921	-0.09396949331953137	0.134741103802483	0.3037361956133141	0.9537841502633563	0.02089391489628268	0.441974696251168
1.75	-0.3045067870801085	-0.09371884584879753	0.1290650868688589	0.2828081222526888	0.9482541999570446	0.02026678791054599	0.4420672007352638
1.755	-0.3074964592089672	-0.09356583795087152	0.1229626362817226	0.2614524422651934	0.9425508879343296	0.01975112129006056	0.4420926607587486
1.76	-0.3098781597090076	-0.09346888812540832	0.1164966726354388	0.2399308280672498	0.9367195449795701	0.01934930360018428	0.4420548484111531
1.765	-0.3115755860332829	-0.09339206949404011	0.1097336830379782	0.2184934442489402	0.9308003322431987	0.01906003190106714	0.4419586561071756
1.77	-0.3125253752018085	-0.09330588446479265	0.1027423942223363	0.1973746823475618	0.9248278746591302	0.0188786751537811	0.4418098494335613
1.775	-0.3126790943331184	-0.09318760321257162	0.0955923129479179	0.1767894747684983	0.9188310984254034	0.01879775245544584	0.4416148011666325
1.78	-0.3120047402230557	-0.09302119992870921	0.08835226806846791	0.1569302513774903	0.9128332629321819	0.01880748803754433	0.4413802270478563
1.785	-0.3104877005061447	-0.09279695132879975	0.08108907205489224	0.1379645748052765	0.9068521671666238	0.01889640595969681	0.4411129409835395
1.79	-0.3081311547271139	-0.0925107789459368	0.07386638750231023	0.1200334580867647	0.900900499255703	0.01905193074726159	0.4408196426204187
1.795	-0.3049559104112771	-0.09216342677182635	0.06674385144606644	0.1032503792957298	0.8949863075034452	0.019260965265037	0.4405067460964357
1.8	-0.3009996984937437	-0.09175955120129368	0.05977646014890808	0.0877009375129065	0.8891135449549697	0.01951042256026896	0.4401802514013358
1.805	-0.2963159663047497	-0.09130679751828243	0.05301419517693327	0.07344314858922367	0.8832826706604912	0.01978769464424258	0.4398456572194139
1.81	-0.2909722303408931	-0.09081490976250081	0.04650183473287863	0.06050830076741152	0.8774912626091922	0.02008104712380267	0.4395079076801948
1.815	-0.2850480563765633	-0.09029491544905445	0.0402788975814108	0.04890235369716546	0.8717346342850969	0.02037993354381852	0.4391713663207421
1.82	-0.2786327563554644	-0.08975840544295748	0.03437965678912553	0.03860779321541603	0.8660064229499048	0.02067522785226909	0.4388398070844755
1.825	-0.2718228916939771	-0.08921692598144056	0.02883318121131645	0.02958589283848886	0.8602991438232191	0.02095937752795085	0.438516415450242
1.83	-0.2647196719777596	-0.08868148645448028	0.02366337139956239	0.02177928007395082	0.8546046881926123	0.0212264829908922	0.4382037926808816
1.835	-0.2574263435472553	-0.08816218994597763	0.0188889885847299	0.01511476346314824	0.8489147766473708	0.02147230958059421	0.4379039621360973
1.84	-0.2500456480273429	-0.08766797596256784	0.01452367904603246	0.009506297040509081	0.8432213475508907	0.0216942421180325	0.4376183759226842
1.845	-0.2426774304737639	-0.08720646678370488	0.01057601977995565	0.004858012620201946	0.8375168886596398	0.02189119087472501	0.4373479250207751
1.85	-0.2354164642870547	-0.08678389935417352	0.007049612274128195	0.001067225611242274	0.8317947088798762	0.0220634588563657	0.437092956279249
1.855	-0.2283505456284007	-0.08640512302751212	0.003943252184950249	-0.00197266703400803	0.826049151232522	0.02221257972516889	0.4368533005669448
1.86	-0.2215588991584341	-0.08607364163301566	0.001251196176827638	-0.004369470725586443	0.8202757475722634	0.02234113513413089	0.4366283155291827
1.865	-0.2151109234506619	-0.08579168171488845	-0.001036462127029831	-0.006229722646702385	0.8144713153268942	0.02245255960339766	0.4364169453269843
1.87	-0.2090652914947518	-0.08556027259254251	-0.002933306769266662	-0.007656513230219022	0.8086339983851857	0.02255093996838853	0.4362177978492072
1.875	-0.2034694111348931	-0.08537932695045401	-0.004456019943393502	-0.008747648159642988	0.8027632490244012	0.02264081726343723	0.4360292364422431
1.88	-0.1983592376593952	-0.08524772274941181	-0.005623727874890815	-0.009594148489308653	0.7968597602864153	0.02272699452326162	0.435849484254789
1.885	-0.1937594192807989	-0.08516338312498882	-0.006457310027141361	-0.01027912398900465	0.7909253465580782	0.02281435897566889	0.4356767326287453
1.89	-0.1896837439778712	-0.08512336339201759	-0.006978703764058653	-0.01087698987658978	0.7849627812353267	0.02290772050829888	0.4355092486742859
1.895	-0.1861358511074775	-0.08512395050419987	-0.007210242194994356	-0.01145301378529463	0.7789756040893724	0.02301167133556876	0.4353454740198671
1.9	-0.1831101655065606	-0.08516077912185689	-0.007174060420434144	-0.01206317194891544	0.7729678995373757	0.02313046977602402	0.4351841072789881
1.905	-0.1805930005773443	-0.08522897354770059	-0.006891590420441165	-0.01275424776830769	0.7669440745173417	0.02326794747378434	0.4350241667310478
1.91	-0.1785637863517828	-0.08532330941213467	-0.00638317362778184	-0.01356416862643503	0.7609086308574593	0.02342744395103234	0.4348650272392644
1.915	-0.176996366698964	-0.08543839796501231	-0.005667794140602382	-0.01452250640892857	0.7548659558790232	0.02361176486853865	0.4347064311558144
1.92	-0.1758603219979772	-0.08556888813836161	-0.004762934622600809	-0.01565109273947878	0.7488201475645108	0.02382316153709579	0.4345484758596952
1.925	-0.1751222711748376	-0.08570966951380428	-0.003684555301027167	-0.01696474551577648	0.7427748636623552	0.02406333277505541	0.4343915772795445
1.93	-0.1747471170602388	-0.08585607400817456	-0.002447172510452677	-0.01847202713941297	0.7367332206733181	0.02433344122086165	0.4342364174746228
1.935	-0.1746992027173702	-0.08600405919602133	-0.001064021928265739	-0.0201760306993951	0.7306977327270419	0.02463414339097466	0.4340838798084324
1.94	-0.1749433535799643	-0.08615036440642732	0.0004527192843748234	-0.02207516105711117	0.7246702932414735	0.02496562893219336	0.4339349780542013
1.945	-0.1754457882161004	-0.08629263048649262	0.002091675939317846	-0.02416389438821235	0.718652194817285	0.02532766605544491	0.4337907846518495
1.95	-0.1761748865202007	-0.08642947711175564	0.00384200711174586	-0.02643350480173943	0.7126441809786367	0.02571965052395717	0.4336523625011874
1.955	-0.1771018117461691	-0.08656053446079164	0.005693147850051045	-0.02887275125060338	0.7066465220240772	0.02614065611943042	0.4335207038609498
1.96	-0.1782009859787664	-0.08668642920720873	0.007634576700215918	-0.0314685223739327	0.700659106153787	0.02658948521837538	0.4333966785602496
1.965	-0.1794504224825521	-0.08680872719081974	0.009655621802097045	-0.0342064388490964	0.6946815371969834	0.02706471861283374	0.4332809929013616
1.97	-0.1808319208589251	-0.08692983726408143	0.01174531443735726	-0.03707141433677671	0.6887132307976286	0.02756476420553164	0.4331741593848336
1.975	-0.1823311333680701	-0.08705288177490846	0.0138922963153994	-0.04004817661148684	0.682753502068275	0.02808790459952298	0.4330764767972161
1.98	-0.183937513102109	-0.08718154028849599	0.01608478396327458	-0.04312175018535563	0.6768016392976612	0.0286323437922482	0.4329880195983594
1.985	-0.1856441563152232	-0.08731987390228671	0.01831059009058508	-0.04627790081080378	0.6708569600902758	0.02919625340647734	0.4329086353762596
1.99	-0.1874475522122089	-0.08747213828731946	0.02055719734853538	-0.04950354076403899	0.6649188482181333	0.02977781856990444	0.4328379491452284
1.995	-0.1893472538247689	-0.0876425943716064	0.02281187546600771	-0.05278709212906227	0.6589867713407035	0.03037528356382525	0.4327753734409275
2	-0.1913454835510686	-0.08783532503966548	0.02506182946688713	-0.05611880380261604	0.6530602814630159	0.03098699691221218	0.4327201232007477
2.005	-0.1934466867422952	-0.08805406565886498	0.02729436590315732	-0.05949101702698283	0.647139001354304	0.03161145532995362	0.4326712347592739
2.01	-0.1956570466463725	-0.08830205489781148	0.02949706474862833	-0.06289837343887239	0.6412226012863594	0.03224734559340069	0.4326275884092974
2.015	-0.1979839727091408	-0.08858191052320111	0.031657946003442	-0.06633796233328629	0.6353107697846498	0.03289358355202115	0.432587934063288
2.02	-0.2004355773361512	-0.0888955351844163	0.03376562362168655	-0.06980939684366458	0.6294031854303681	0.03354934825386869	0.4325509203051752
2.025	-0.2030201507686095	-0.08924405338971973	0.03580943956501513	-0.07331482200446439	0.6234994909843008	0.03421411082626707	0.4325151265436784
2.03	-0.2057456489716138	-0.0896277819039685	0.03777957613696292	-0.07685884729438927	0.6175992755985893	0.03488765605781532	0.4324790974666118
2.035	-0.2086192060030644	-0.0900462329924249	0.03966714731147351	-0.08044840508368707	0.6117020668745703	0.03557009571195523	0.4324413809841338
2.04	-0.2116466832182192	-0.09049814907488292	0.04146427267779871	-0.0840925362500469	0.6058073344288907	0.03626187243971624	0.4324005675507158
2.045	-0.2148322679584063	-0.09098156603703121	0.04316414010478825	-0.08780210692846206	0.5999145053020838	0.03696375345948198	0.4323553309124228
2.05	-0.2181781356077315	-0.0914939012823039	0.0447610625084643	-0.09158946268567297	0.5940229904831043	0.03767681346288023	0.4323044687901917
2.055	-0.22168419036577	-0.0920320616738794	0.04625053270316106	-0.09546802898684975	0.5881322208299906	0.0384024066352	0.4322469421987404
2.06	-0.2253479008586843	-0.09259256600104468	0.04762927824354135	-0.09945186924300244	0.582241689957308	0.03914212816933231	0.4321819119817356
2.065	-0.2291642465644639	-0.09317167631994998	0.04889531637412892	-0.1035552147124487	0.5763510007256816	0.03989776636404507	0.4321087710247714
2.07	-0.2331257903046268	-0.09376553320925261	0.05004800872224428	-0.1077919771367858	0.5704599148185263	0.04067124576214153	0.4320271709134572
2.075	-0.2372228908162456	-0.09437028787005847	0.05108811125830668	-0.1121752719968419	0.5645683965389074	0.04146456563469528	0.4319370407559417
2.08	-0.2414440674100864	-0.09498222827715104	0.05201781782799342	-0.1167169570921441	0.5586766549260503	0.04227973309083377	0.4318385976960833
2.085	-0.2457765252319563	-0.09559789368892145	0.05284079065796485	-0.1214272145392608	0.5527851770107417	0.04311869587032738	0.431732347343677
2.09	-0.250206843351983	-0.09621417474864045	0.05356217225608619	-0.1263141953299574	0.5468947492501974	0.04398327767555141	0.4316190733260363
2.095	-0.2547218235194524	-0.09682839921448057	0.05418857453415998	-0.1313837334043372	0.5410064712030764	0.04487511736474196	0.4314998163451713
2.1	-0.2593094830436278	-0.09743840098769639	0.05472803624212245	-0.1366391618798549	0.5351217511787714	0.0457956184679516	0.4313758418952465
2.105	-0.2639601730888253	-0.0980425771221841	0.05518994519970231	-0.1420812275475709	0.5292422919835407	0.04674590899175934	0.4312485984655365
2.11	-0.2686677884301857	-0.09863993445960995	0.05558491779274241	-0.1477081236445729	0.5233700622812445	0.04772681609812081	0.4311196668371847
2.115	-0.2734310283473059	-0.09923013022801318	0.05592463125652421	-0.1535156453523849	0.5175072563413816	0.04873885747012803	0.4309907023424554
2.12	-0.2782546581487904	-0.09981351013280149	0.05622160551527732	-0.1594974730893652	0.5116562432719646	0.0497822513495708	0.4308633720794753
2.125	-0.2831507120424011	-0.1003911467305974	0.05648893372911167	-0.1656455847245284	0.5058195099647956	0.05085694656995467	0.4307392893830343
2.13	-0.2881395715046423	-0.1009648794298337	0.05673996250805783	-0.1719507941432956	0.4999995972236079	0.05196267323286505	0.4306199479600537
2.135	-0.2932508509732913	-0.1015373553543089	0.05698792361087289	-0.17840341014145	0.4941990365736027	0.05309901392103913	0.4305066579903951
2.14	-0.298524024806251	-0.1021120677695039	0.05724551945602039	-0.1849940065054556	0.4884202883292019	0.05426549454497504	0.4304004862201961
2.145	-0.3040087346795203	-0.102693386321222	0.05752446576045227	-0.1917142912062138	0.4826656860550892	0.05546169316215074	0.4303022017393292
2.15	-0.3097647247109072	-0.1032865714702599	0.057834996206859	-0.1985580600780775	0.4769373905075951	0.05668736445543476	0.4302122287848712
2.155	-0.3158613526574532	-0.1038977662808577	0.05818533732014937	-0.2055222099408918	0.4712373592255104	0.05794257567475053	0.4301306081696863
2.16	-0.3223766542142957	-0.1045339548071504	0.05858116108548821	-0.2126078049298192	0.4655673282241152	0.0592278535963555	0.4300569671595498
2.165	-0.3293959172801613	-0.1052028868788792	0.05902503275528764	-0.2198211437202013	0.4599288194211611	0.06054433343479668	0.4299905005844917
2.17	-0.337009762665777	-0.1059129607905674	0.05951586630295057	-0.2271748276615745	0.4543231637622822	0.06189391152619855	0.429929962037302
2.175	-0.3453117313360126	-0.1066730712282919	0.06004841219675208	-0.2346887661252951	0.4487515546867021	0.06327939104416823	0.4298736684366676
2.18	-0.3543954023219458	-0.1074924215829786	0.06061279631410373	-0.2423911084534195	0.4432151230681295	0.06470462132708267	0.4298195175493536
2.185	-0.3643510869266303	-0.1083803108796429	0.06119413794462943	-0.2503190491234285	0.4377150410966383	0.06617462291069404	0.4297650226605521
2.19	-0.3752621690283814	-0.1093459010487949	0.06177226674482059	-0.2585194680996426	0.4322526548846136	0.06769569358799828	0.4297073623385581
2.195	-0.3872011842994024	-0.1103979704093177	0.06232156839803991	-0.2670493779071055	0.4268296412054002	0.06927549359573097	0.4296434538277494
2.2	-0.400225753033389	-0.1115446577009099	0.06281097366740229	-0.2759761223192735	0.4214481933902491	0.0709231019303522	0.4295700463301165
2.205	-0.4143744979085101	-0.1127931932970087	0.06320410965854727	-0.2853773032006913	0.4161112282496651	0.07264904326576288	0.429483839433899
2.21	-0.4296630881060231	-0.114149611279421	0.06345962224971631	-0.2953403860336659	0.4108226172715677	0.07446527866564484	0.4293816266005062
2.215	-0.446080556118933	-0.1156184264969571	0.06353167116956406	-0.3059619648751631	0.4055874276235431	0.07638516145300631	0.4292604624388905
2.22	-0.4635860347334989	-0.1172022567153639	0.06337059607574738	-0.3173466330097603	0.4004121844799889	0.07842334751347814	0.4291178525958423
2.225	-0.4821060642828462	-0.1189013587686606	0.06292373961670499	-0.3296054870593608	0.3953051217163206	0.08059567126951572	0.4289519574438126
2.23	-0.5015326156966355	-0.120713060587211	0.0621364241547957	-0.3428541931122274	0.390276442016309	0.08291896858408321	0.4287618048829155
2.235	-0.5217219689948795	-0.1226310570667798	0.06095306680790299	-0.3572106791562039	0.385338552235573	0.08541085977025385	0.4285474969009435
2.24	-0.5424945667739031	-0.1246445617609542	0.05931843189066413	-0.3727924418621728	0.3805062765743646	0.08808948254989979	0.4283103980416568
2.245	-0.5636359358287015	-0.1267373145626402	0.05717901946532934	-0.3897135248403473	0.3757970277398393	0.09097317866860245	0.4280532879210157
2.25	-0.5848987401585343	-0.1288864730159625	0.05448459738349998	-0.4080812176999633	0.3712309253721338	0.09408013105536324	0.4277804611730298
2.255	-0.6060059854604849	-0.1310614432645549	0.05118988789519287	-0.4279925559791982	0.3668308445324492	0.0974279529126631	0.4274977573147058
2.26	-0.6266553724909546	-0.1332227421297321	0.04725642157959632	-0.4495307164094803	0.3626223779151529	0.1010332300497941	0.4272125056432053
2.265	-0.6465247491704871	-0.1353210192295437	0.04265456539453001	-0.472761408854331	0.3586336965765738	0.1049110183534797	0.4269333741303876
2.27	-0.6652785730680019	-0.1372964005909883	0.03736571488304299	-0.4977293784922773	0.3548952930823838	0.1090743020553495	0.426670116916567
2.275	-0.6825752586389786	-0.1390783393329763	0.03138460707279069	-0.5244551419843783	0.35143958848538	0.1135334252226864	0.4264332227520004
2.28	-0.6980752392139193	-0.140586172231902	0.02472167250070969	-0.5529320179365217	0.3483004073027842	0.118295497226173	0.4262334756866238
2.285	-0.7114495453046443	-0.1417305583132671	0.01740528142199647	-0.583123593230469	0.3455122953857969	0.1233638070383327	0.4260814471976342
2.29	-0.7223886609152359	-0.1424159445604409	0.009483687835182671	-0.6149616444261298	0.3431096993428854	0.1287372566072743	0.4259869490113864
2.295	-0.7306114087454295	-0.1425441274854715	0.00102641782656068	-0.6483445536156742	0.3411260203475612	0.1344098401976541	0.4259584817178913
2.3	-0.7358735893406302	-0.1420188744192945	-0.007875188795567332	-0.6831362832410978	0.339592554932094	0.1403702146615755	0.4260027192212499
2.305	-0.7379761049628573	-0.1407514506733536	-0.01710857487086651	-0.7191658636027396	0.3385373817004412	0.1466013726202197	0.426124069742247
2.31	-0.7367722868056168	-0.1386667484238526	-0.02654195758130432	-0.7562274841284218	0.3379842263201537	0.1530804701779113	0.4263243512497771
2.315	-0.7321741657524076	-0.1357095855612386	-0.03602787628660196	-0.7940812073443645	0.3379513799077282	0.1597788230529818	0.4266026114884125
2.32	-0.724157425846009	-0.1318506289007369	-0.04540831409327934	-0.8324544109232674	0.3384507390877048	0.1666620908111018	0.4269551116568707
2.325	-0.7127648055015156	-0.1270913343405286	-0.05452122331481762	-0.8710441240550401	0.3394870336023788	0.1736906638679321	0.4273754797369854
2.33	-0.69810772973177	-0.1214673102677647	-0.0632080771864092	-0.9095203974595591	0.3410573175501442	0.1808202360275576	0.4278550238036231
2.335	-0.6803659998208357	-0.1150495988831853	-0.07132187777729362	-0.9475308951844625	0.3431507711800405	0.1880025507612045	0.4283831824248337
2.34	-0.6597854058185116	-0.1079435543498931	-0.07873490650024043	-0.9847067838711693	0.3457488564403477	0.1951862786625243	0.4289480773074327
2.345	-0.63667318589556	-0.1002852368400618	-0.08534544585833481	-1.020669947317698	0.348825827143593	0.2023179975558331	0.4295371267677325
2.35	-0.6113913459880636	-0.09223553361831625	-0.09108275355652755	-1.055041278130914	0.3523495974930756	0.2093431955143169	0.4301376727161473
2.355	-0.5843479346497751	-0.08397247583629019	-0.09590973305764307	-1.087449830939704	0.3562828987933151	0.2162072921023482	0.430737582137762
2.36	-0.5559864891876334	-0.07568244531296624	-0.09982300609195796	-1.11754225457829	0.3605846838390652	0.2228565941185794	0.4313257832243821
2.365	-0.5267739563129715	-0.06755106853688139	-0.1028504071701524	-1.14499197646375	0.3652116862475708	0.2292391617222805	0.4318927100002525
2.37	-0.4971875631614546	-0.05975458819659252	-0.105046236434587	-1.169507618059039	0.3701200343595722	0.2353055793405849	0.4324306412420323
2.375	-0.4677011488265126	-0.05245238931585612	-0.1064848779462564	-1.190840088861202	0.3752668379840098	0.2410095956001902	0.4329339252727217
2.38	-0.4387715959767172	-0.04578115146909963	-0.1072535600468808	-1.208788037420618	0.3806116528021008	0.2463086456382275	0.433399094807725
2.385	-0.4108260039492595	-0.03985086525762466	-0.107445087918549	-1.223201476631301	0.3861177486590828	0.2511642691151691	0.4338248808832731
2.39	-0.3842502234718867	-0.03474272945351007	-0.1071513141054794	-1.23398352139331	0.3917531248790158	0.2555424274795271	0.4342121363139325
2.395	-0.3593792834167591	-0.03050876816002734	-0.106457948634027	-1.241090346228115	0.3974912434740699	0.2594137420861297	0.4345636806926967
2.4	-0.336490106082217	-0.02717289910347796	-0.1054410823214926	-1.244529546325134	0.4033114590453258	0.2627536656271266	0.4348840781908361
2.405	-0.3157967299059024	-0.02473314286241939	-0.1041655488944344	-1.244357092633565	0.4091991637224325	0.265542580479996	0.4351793554349626
2.41	-0.2974481055411015	-0.02316466902361313	-0.1026850067059215	-1.240673196352708	0.415145659163455	0.2677658524839041	0.4354566714531539
2.415	-0.2815283752116307	-0.02242341942028068	-0.1010434353473067	-1.233617235459636	0.4211478092221221	0.2694138009988463	0.435723944618327
2.42	-0.2680593957956365	-0.02245009049801741	-0.09927760193114347	-1.223362056546517	0.4272075070439673	0.2704816098147782	0.4359894510442958
2.425	-0.2570052140958543	-0.02317429845470323	-0.09741999909960439	-1.210107837262634	0.4333310144291154	0.2709691563899307	0.4362614059873225
2.43	-0.2482781230651782	-0.02451877123286449	-0.09550176310735885	-1.194075743797072	0.4395282219470756	0.2708807618357001	0.4365475449902073
2.435	-0.2417458827791108	-0.02640341891608649	-0.0935551490129676	-1.17550159556645	0.4458118775022105	0.2702248630550947	0.436854722993451
2.44	-0.2372397102472873	-0.02874913374601471	-0.09161524956200078	-1.154629739884138	0.4521968246310035	0.2690136154747186	0.4371885507422012
2.445	-0.2345626339679513	-0.03148117224424254	-0.08972077720942248	-1.131707312825814	0.4586992853531263	0.2672624382456421	0.4375530869394756
2.45	-0.2334978457946408	-0.03453198256872086	-0.08791386516688346	-1.106979036875622	0.4653362133932313	0.2649895202913541	0.4379506023236702
2.455	-0.2338167316971954	-0.03784336534859468	-0.08623896701203601	-1.080682663121825	0.4721247361987025	0.2622153067099454	0.4383814276923699
2.46	-0.2352863118210211	-0.04136789416939714	-0.08474103191447552	-1.053045144205256	0.4790816924572753	0.2589619942756897	0.4388438932637526
2.465	-0.2376758933284354	-0.04506957222593991	-0.08346319725760225	-1.024279536811515	0.4862232735127118	0.2552530462005952	0.4393343594786865
2.47	-0.240762801072078	-0.04892375321218399	-0.08244426858543268	-0.994582641169086	0.4935647628968737	0.2511127521266677	0.4398473350612758
2.475	-0.2443371192011019	-0.05291640459787145	-0.08171625312331487	-0.9641333501707682	0.5011203640861375	0.2465658533244847	0.4403756728796192
2.48	-0.248205434966008	-0.05704283265326525	-0.08130218074102828	-0.9330916296677999	0.5089031096630495	0.2416372366894144	0.4409108289538705
2.485	-0.2521936177612942	-0.06130601568234038	-0.08121439317574145	-0.9015980769056895	0.516924835070803	0.2363517109809392	0.4414431683772297
2.49	-0.2561486966047894	-0.06571470531379195	-0.08145341651972689	-0.869773982111512	0.5251962017589983	0.2307338678392963	0.441962300161283
2.495	-0.2599399132587709	-0.07028145229863866	-0.08200746291659683	-0.8377218119450833	0.5337267551553261	0.2248080241557433	0.4424574227157534
2.5	-0.2634590385686545	-0.07502069386970654	-0.08285254541545607	-0.8055260511447949	0.5425249991585264	0.2185982446220505	0.4429176632347593
2.505	-0.2666200438390348	-0.07994700986011354	-0.08395313883780448	-0.7732543153227267	0.5515984761730272	0.2121284300508536	0.4433323953394922
2.51	-0.2693582259163821	-0.08507361648542008	-0.08526328849181336	-0.7409586959383637	0.5609538318838275	0.2054224703776603	0.4436915234217293
2.515	-0.2716288788688646	-0.09041113207981764	-0.08672804735491119	-0.7086772536245125	0.5705968582078688	0.1985044406824454	0.4439857239641511
2.52	-0.273405618837293	-0.09596661653793118	-0.08828512068675086	-0.6764356133453785	0.5805325019603453	0.1913988289832759	0.4442066391177279
2.525	-0.2746784496830079	-0.101742862459873	-0.08986660303216028	-0.6442486191086785	0.5907648290607399	0.1841307824854492	0.4443470218922915
2.53	-0.2754516637856044	-0.1077379021262586	-0.09140070733797392	-0.6121219836615055	0.6012969451474087	0.1767263487073657	0.4444008352540586
2.535	-0.2757416598034188	-0.1139446827222396	-0.09281340848082226	-0.5800539439642453	0.612130855866281	0.169212710198602	0.4443633131802073
2.54	-0.2755747514717968	-0.1203508670856213	-0.09402994436506054	-0.5480368403621926	0.6232672828447058	0.1616183783634243	0.4442309912469409
2.545	-0.2749850312814417	-0.1269387166656551	-0.09497614559834981	-0.5160586424289993	0.6347054251784711	0.153973344225965	0.4440017186714845
2.55	-0.2740123414392306	-0.133685026131348	-0.09557958533531705	-0.4841043902903959	0.6464426778829914	0.1463091645790004	0.443674662627992
2.555	-0.27270039601691	-0.1405610887483162	-0.09577056287329477	-0.4521575620152278	0.6584743104653037	0.1386589742213168	0.4432503152469665
2.56	-0.2710950854778738	-0.1475326867197118	-0.09548294870359615	-0.4202013582068653	0.6707931194146025	0.1310574093461364	0.4427305107926472
