DataType=double
version=3
OpenSimVersion=4.5
endheader
time	Fx	Fy	Fz	Mx	My	Mz	ECx	ECy	ECz
1.5	0.03710926204738822	-0.1269146388709825	-0.01052055847901253	5.38434442636337e-05	-0.00107233276565254	0.01271924659224481	0.7431372596432024	0.006637299061187014	0.4092430026517281
1.505	0.03767406612306006	-0.1251636984708933	-0.005299032859324772	-1.208835292742136e-05	-0.0005225897422376463	0.01227827183285927	0.7548138306556479	0.006637299061187014	0.408737637476027
1.51	0.03653328628603633	-0.1204249831647983	-0.002260805187279603	-4.434607904793059e-05	-0.0002131125570063002	0.01161219174860107	0.7666226061638404	0.006637299061187014	0.408161048085699
1.515	0.03446944690063722	-0.1134307894668581	-0.0006621158782550722	-5.399425421423915e-05	-5.383246073629106e-05	0.01078788876188058	0.7785617340395534	0.006637299061187014	0.4075166303531917
1.52	0.0318896542959727	-0.1049242529714694	2.607605633635942e-05	-5.145612987749826e-05	1.366433631774798e-05	0.009864901487585107	0.7906272765417353	0.006637299061187014	0.4068090334181118
1.525	0.02905432706839549	-0.09559702984402613	0.0001648242096539245	-4.494821264574208e-05	2.65400826293087e-05	0.008893799575140733	0.8028127953192148	0.006637299061187014	0.4060441327536867
1.53	0.02615244383336625	-0.08604656170431411	4.998532265210143e-06	-3.99315043562795e-05	9.560934902367941e-06	0.007915559410163565	0.8151089620438899	0.006637299061187014	0.4052289888301986
1.535	0.0233261417141515	-0.07675141416420746	-0.0002774582676933045	-3.925379651881786e-05	-2.004030290208952e-05	0.006961656423205662	0.8275032018717849	0.006637299061187014	0.4043717879824402
1.54	0.02067968158151218	-0.06806240966604159	-0.0005610353440318636	-4.367540753056293e-05	-5.013284795553828e-05	0.006054665863206347	0.839979385698931	0.006637299061187014	0.4034817596541634
1.545	0.0182837444886032	-0.06020631168532983	-0.0007660785750336878	-5.253323948479492e-05	-7.257561414984611e-05	0.005209174804132209	0.8525175861685859	0.006637299061187014	0.4025690631698887
1.55	0.01617449322308786	-0.05328781568823154	-0.0008555400720818806	-6.430173825345256e-05	-8.355950090784952e-05	0.004432198193854884	0.8650939139152436	0.006637299061187014	0.4016446373521886
1.555	0.01435277753076796	-0.04730087441071566	-0.0008419967054512386	-7.714196105328326e-05	-8.431845141235154e-05	0.00372384010251874	0.8776804503272487	0.006637299061187014	0.4007200077800735
1.56	0.01280105175712872	-0.04218910160527652	-0.0007626200342428509	-8.962215892591945e-05	-7.861661683206041e-05	0.003080709676198341	0.8902452916442858	0.006637299061187014	0.3998070497062498
1.565	0.01149847776885455	-0.03788918915956769	-0.000648947735144414	-0.0001008708584999076	-6.979117338318689e-05	0.00249869887621751	0.9027527162924414	0.006637299061187014	0.3989177088828778
1.57	0.01042451852249331	-0.03433878525718208	-0.0005224456523655422	-0.0001104391093213061	-6.024530083084655e-05	0.001973517267849542	0.9151634831286026	0.006637299061187014	0.3980636887345007
1.575	0.009559557650895372	-0.03147715462820411	-0.0003964512108594132	-0.0001181481417321632	-5.155555224702524e-05	0.001500762553071751	0.9274352660180041	0.006637299061187014	0.3972561180283353
1.58	0.008885130265310414	-0.02924568518060977	-0.0002781766826178737	-0.0001239680359373659	-4.461764805218075e-05	0.001075978315742424	0.9395232128994077	0.006637299061187014	0.3965052195520813
1.585	0.00838395262186154	-0.02758829764439487	-0.0001705449198472457	-0.00012792536746716	-3.980020743734281e-05	0.0006947031055630044	0.9513806358220711	0.006637299061187014	0.3958200031470315
1.59	0.008039871660025516	-0.02645176433864205	-7.375888434938977e-05	-0.0001300370654452467	-3.708866789086702e-05	0.0003525133498550397	0.9629597966210264	0.006637299061187014	0.3952080098577531
1.595	0.007837800405697431	-0.02578592879503418	1.342332656042829e-05	-0.0001302673480544915	-3.620928475110248e-05	4.506306280235183e-05	0.9742127741200226	0.006637299061187014	0.3946751309530703
1.6	0.007763663565413768	-0.02554381063567099	9.268894345663746e-05	-0.0001285044125914319	-3.672850223186097e-05	-0.0002318764491118591	0.9850923877660636	0.006637299061187014	0.394225520782288
1.605	0.007804804163510979	-0.02568308688062657	0.0001656774686497747	-0.0001245712658574565	-3.813335338750015e-05	-0.0004824433038370216	0.995553127303628	0.006637299061187014	0.3938616152416581
1.61	0.007952455928108101	-0.02617440381946113	0.0002348890600337318	-0.0001183157377039303	-3.994151022863296e-05	-0.0007111479191881482	1.00555207222955	0.006637299061187014	0.393584255399941
1.615	0.008202588852798606	-0.02700434749869997	0.0003039578273305315	-0.0001096042996201095	-4.180928061106063e-05	-0.0009234102144353799	1.015049745539874	0.006637299061187014	0.3933929061492427
1.62	0.008554404163144687	-0.02817042331171707	0.000376418824111736	-9.824270237129512e-05	-4.354335925995853e-05	-0.001125482913580092	1.024010879169191	0.006637299061187014	0.3932859479146854
1.625	0.009009906135831091	-0.02967952342735346	0.000455305446980645	-8.39573961150303e-05	-4.506777247912831e-05	-0.001324244995676513	1.032405054217261	0.006637299061187014	0.3932610110533743
1.63	0.00957433390776549	-0.03154932909232798	0.0005435240129249058	-6.64041064859652e-05	-4.640317896494412e-05	-0.001527124035181273	1.040207194635889	0.006637299061187014	0.393315317592173
1.635	0.01025621496772376	-0.03380851850791326	0.0006442008123583121	-4.516077648846698e-05	-4.765029922488527e-05	-0.00174197891792813	1.047397897669502	0.006637299061187014	0.3934459942355114
1.64	0.01106696386737328	-0.03649550998924314	0.0007609699852115871	-1.971314074067105e-05	-4.897702013523669e-05	-0.001976909102589711	1.053963595650273	0.006637299061187014	0.3936503242210099
1.645	0.01201998739514324	-0.03965560296153246	0.0008981988852001639	1.055535923707966e-05	-5.060965871715824e-05	-0.002239974888866452	1.059896548662815	0.006637299061187014	0.3939259139501972
1.65	0.01312922598605048	-0.04333627775750924	0.001061137933543116	4.635633413183082e-05	-5.282852050366349e-05	-0.002538824205676059	1.065194682737382	0.006637299061187014	0.3942707606269208
1.655	0.01440711076637053	-0.0475805755165207	0.001255970234283425	8.845818185554958e-05	-5.596603588036061e-05	-0.002880202516194621	1.069861287964544	0.006637299061187014	0.3946832194167588
1.66	0.01586112031665233	-0.05241585363389974	0.001489673419797892	0.0001375985417938189	-6.040271230288625e-05	-0.003269120883881264	1.073904606380191	0.006637299061187014	0.395161879840409
1.665	0.01747785927321738	-0.05780148280756545	0.001769088558267275	0.0001942319272447858	-6.656700770793752e-05	-0.003704965653701404	1.077337325165146	0.006637299061187014	0.39570537156755
1.67	0.01920541686798391	-0.06357101902759099	0.002099732182202011	0.0002580786994963569	-7.499094888753312e-05	-0.004176786900446701	1.080176019838294	0.006637299061187014	0.3963121257366814
1.675	0.02096407325468908	-0.06946777446781711	0.002485956862299783	0.000327863397939384	-8.638743768948966e-05	-0.004665587145024232	1.082440562873987	0.006637299061187014	0.3969801223266778
1.68	0.02266392032799091	-0.07520306216707286	0.002931243050828906	0.0004013277584389568	-0.0001016412319672874	-0.005149027275081043	1.084153527630556	0.006637299061187014	0.3977066532518887
1.685	0.024210517146475	-0.08047497919523415	0.003437530416839628	0.00047532248595207	-0.0001217174664341105	-0.005603382459587076	1.085339608713885	0.006637299061187014	0.3984881273953185
1.69	0.02550910545434684	-0.08498224709370482	0.00400401647500389	0.000545993754493199	-0.00014750400084527	-0.006005212256463908	1.086025072854244	0.006637299061187014	0.3993199379450679
1.695	0.02646752970634495	-0.08843340579006348	0.004625423625953811	0.000609058838712156	-0.0001796099562574185	-0.006333522213480061	1.08623725670896	0.006637299061187014	0.4001964045922337
1.7	0.0269817550055774	-0.09049794088273425	0.005288520934951093	0.0006600716736975792	-0.0002182632941108368	-0.006576729629372934	1.086004106105389	0.006637299061187014	0.4011107955802967
1.705	0.02669131685149586	-0.08999655118951182	0.00594866122325798	0.0006937404385892524	-0.0002651171887071199	-0.00680343495050727	1.08535376759462	0.006637299061187014	0.4020554265017484
1.71	0.0209555107817814	-0.07159120119608536	0.00613069967593368	0.000690627334991503	-0.0003608352100979381	-0.008301618181181173	1.084314235896233	0.006637299061187014	0.403021826359624
1.715	-0.07584962291546957	0.2490264029453571	-0.004521362398719742	0.0004481827607733358	-0.001458261658377827	-0.03580113434469587	1.082913031466718	0.006637299061187014	0.4040009571568219
1.72	-1.453414758996422	4.911752315715827	-0.2247321752852387	-0.001084705755024664	-0.02155900005139915	-0.4497785563440144	1.081176935130562	0.006637299061187014	0.4049834690390784
1.725	-5.882915057210376	21.76530531044421	-1.399034897736755	0.002790983548299201	-0.1279346278944188	-1.994470423089027	1.079131755101019	0.006637299061187014	0.4059599732225822
1.73	-8.224014784822879	42.03827695730094	-3.577915981342435	0.0246078224132804	-0.3307861998874601	-3.940094245991153	1.076802130380458	0.006637299061187014	0.4069213148292485
1.735	-4.710301840223456	61.65924289654916	-6.044811322000341	0.05765746263271155	-0.5767519398041109	-5.924310415532423	1.074211373321547	0.006637299061187014	0.4078588301043215
1.74	2.389205432913217	83.87388917206101	-8.449507350198703	-0.06321582237223708	-0.8371260311744158	-8.239065827215395	1.071381345571375	0.006637299061187014	0.4087645755860737
1.745	10.35303449827757	123.9620061454506	-12.60301430668801	-0.9608992487160789	-1.22791662172269	-12.3498531972649	1.068332369430444	0.006637299061187014	0.4096315201204199
1.75	17.83305205139389	169.7814684856413	-17.43682989877004	-2.144012489928131	-1.641324018768597	-17.19230811275038	1.065083171343936	0.006637299061187014	0.410453693909794
1.755	22.1901865150953	210.8516904686353	-21.99687136622771	-3.16050856706839	-2.075080812365425	-21.71699483819452	1.061650854976494	0.006637299061187014	0.4112262913839486
1.76	22.37746882906606	253.4253355271746	-26.87559606069319	-3.894032319935863	-2.611376766492519	-26.25670234517996	1.058050901495718	0.006637299061187014	0.4119457270871749
1.765	17.98669024259304	296.7755452725868	-31.4380375890623	-4.35311938854044	-3.196513157203837	-30.75677215355448	1.054297189896829	0.006637299061187014	0.4126096451024616
1.77	9.416912384990049	332.6980361857897	-34.23050720923858	-4.668099166966054	-3.672406382861891	-34.63317318897887	1.050402034268901	0.006637299061187014	0.4132168844753325
1.775	-1.654364478477088	365.4403329561749	-35.17230627445009	-5.015950899790759	-3.974294898665344	-38.13245219388154	1.046376232634952	0.006637299061187014	0.4137674043902742
1.78	-13.92889991645658	403.0459687294144	-34.58161151726187	-5.607044653936447	-4.103557050960585	-41.80132381358442	1.042229124945496	0.006637299061187014	0.4142621744630502
1.785	-25.60226416843697	439.4369027723937	-31.86213407393956	-6.139556150135761	-3.975587197172314	-45.19474100879985	1.037968659393306	0.006637299061187014	0.4147030369026748
1.79	-36.2081792152683	475.9823117050036	-27.14990699104163	-6.336714614817456	-3.56277981404329	-48.21549973721438	1.033601464961488	0.006637299061187014	0.4150925484528646
1.795	-45.3748160072274	511.1671400051161	-20.70335139967258	-6.239989126714875	-2.899577294856088	-50.83270773984647	1.029132940963982	0.006637299061187014	0.4154338106139132
1.8	-52.62792083062298	540.7649387874079	-12.89173892615745	-6.049625055323756	-2.053926378990911	-52.90819148035146	1.024567355369818	0.006637299061187014	0.415730296949865
1.805	-58.45138239380315	567.8329457135072	-4.265274359670325	-5.876607407982594	-1.096753978125846	-54.54556154411482	1.019907967543496	0.006637299061187014	0.4159856853176263
1.81	-63.0188485290336	593.2788447804369	4.702064754365913	-5.6317127538786	-0.06992937801463778	-55.74065741286618	1.015157164793079	0.006637299061187014	0.4162037014944573
1.815	-66.63350828309477	617.6896497770053	13.5142831647864	-5.163457888418888	0.9922246335543443	-56.43589839189102	1.010316626681341	0.006637299061187014	0.4163879793872339
1.82	-69.56023576662726	640.5513750109518	21.70310247512332	-4.550864343984548	2.024745412780821	-56.65224404003736	1.005387505303465	0.006637299061187014	0.4165419403956649
1.825	-72.10665572145018	661.9923261983054	28.88646368128672	-3.991737432513753	2.957400236842316	-56.40656222334661	1.000370624545822	0.006637299061187014	0.4166686937013874
1.83	-74.70782592803081	684.3756126322645	34.6588747104815	-3.645513370825168	3.751661939437504	-55.63772758635742	0.9952666820823028	0.006637299061187014	0.4167709575658438
1.835	-77.58475392550595	709.5062308114282	38.66940223153937	-3.497421380563497	4.416668934774899	-54.23684304728005	0.9900764606241143	0.006637299061187014	0.4168510024889734
1.84	-80.51862125253876	734.2560585869129	41.32703455840146	-3.485771889692641	4.951991474938865	-52.3218962072668	0.9848010256825908	0.006637299061187014	0.4169106162561391
1.845	-83.31551778681975	755.8284656881633	43.26533029915067	-3.591424620197871	5.351428324766146	-50.08052203976889	0.9794419083322868	0.006637299061187014	0.4169510919375758
1.85	-85.77139234809199	771.7733604213626	44.97603463638364	-3.694294763329109	5.624672690806844	-47.71612275987515	0.974001261729731	0.006637299061187014	0.4169732396956961
1.855	-87.87010769735356	782.2143814466209	46.61932485628644	-3.741790051124694	5.793798373355502	-45.27730191716316	0.9684819839759399	0.006637299061187014	0.4169774229254116
1.86	-89.74386151221273	789.7309150274873	48.06670191261072	-3.752231584967225	5.893662847867239	-42.64994473230122	0.9628878006963858	0.006637299061187014	0.4169636181027954
1.865	-91.53929454580812	796.6467715921902	49.29023681084919	-3.69993205341936	5.946927748270645	-39.77994071256313	0.9572233021579466	0.006637299061187014	0.4169314962246112
1.87	-93.29806743690503	803.319889450077	50.52328504788633	-3.492979594272844	5.953023315755472	-36.78920195403069	0.9514939332196785	0.006637299061187014	0.4168805220228907
1.875	-94.87114492556955	809.0965361968031	51.95435083336751	-3.111844948906926	5.90978737016249	-33.79994150388308	0.945705932050494	0.006637299061187014	0.4168100646062623
1.88	-95.97764284171379	812.9532259255307	53.61907090959923	-2.612938504282117	5.819773390481173	-30.88560884967748	0.9398662249850412	0.006637299061187014	0.4167195138280633
1.885	-96.39289163601612	814.4217030627578	55.40434845593597	-2.050877250316648	5.69334448452135	-28.06317013836313	0.933982277849595	0.006637299061187014	0.4166083926204595
1.89	-96.01538708921474	813.7470203994412	57.11982049362665	-1.458231247783195	5.544197361263739	-25.29819299872593	0.92806191215728	0.006637299061187014	0.4164764586498589
1.895	-94.88823251595564	811.5221214576414	58.61427022454674	-0.8549024241483459	5.378817708737553	-22.53042828524018	0.9221131003932075	0.006637299061187014	0.4163237874880307
1.9	-93.13322999597322	808.1454814524077	59.83388461410885	-0.2554816167711582	5.193448319499174	-19.72281020885243	0.9161437430717305	0.006637299061187014	0.4161508311350958
1.905	-90.83693473972804	803.4519056801896	60.77733157976201	0.3280468485608763	4.980601200577854	-16.89173646675537	0.9101614546015391	0.006637299061187014	0.4159584491064331
1.91	-88.06730586935468	797.0791222906496	61.44752850679306	0.8887894212395475	4.734550154431405	-14.0746519098607	0.90417335526669	0.006637299061187014	0.415747909735015
1.915	-84.92978355968648	788.9808155304755	61.83968159672568	1.427545403643284	4.453305645384527	-11.28856815465213	0.8981858901695094	0.006637299061187014	0.415520862857347
1.92	-81.56965780747936	779.5090873516979	61.95203306506137	1.950317022841798	4.138320960843132	-8.527350548652878	0.8922046898481708	0.006637299061187014	0.4152792888970037
1.925	-78.13152907656371	769.1565079003381	61.79997864482606	2.457994630021003	3.793242371458811	-5.788747811258339	0.8862344629508678	0.006637299061187014	0.4150254273124176
1.93	-74.71643035554544	758.2499186713816	61.42109385793503	2.934909553911368	3.423148566896279	-3.103988939317405	0.8802789421960553	0.006637299061187014	0.4147616927698872
1.935	-71.38346495477434	746.9205403836064	60.86607478555963	3.351910554881892	3.034882877837065	-0.5356216077905177	0.8743408737667009	0.006637299061187014	0.4144905848682764
1.94	-68.181498976829	735.2513216512176	60.17505750905223	3.682782742505598	2.636031004063784	1.857945073013136	0.8684220508381821	0.006637299061187014	0.4142145981693477
1.945	-65.16247878975879	723.306233911529	59.35333647774796	3.916987152595765	2.231953374001398	4.055363256661344	0.8625233854294285	0.006637299061187014	0.41393613803698
1.95	-62.3533269261964	711.1283272791927	58.38623588753424	4.059973677269702	1.826124202831411	6.073230168894075	0.8566450111293566	0.006637299061187014	0.4136574464852933
1.955	-59.73662819678488	698.8294462759542	57.28090749540503	4.124404425281334	1.423489991016288	7.938622094087622	0.8507864081407395	0.006637299061187014	0.4133805410991034
1.96	-57.28356798904962	686.6783707399683	56.08012733745441	4.123251093613177	1.031771520713262	9.663551449432182	0.8449465412534733	0.006637299061187014	0.413107168511571
1.965	-54.97772387558059	675.0840351602249	54.84896912173159	4.068719392708371	0.6605277566358585	11.23938195757044	0.8391240016605118	0.006637299061187014	0.4128387729827903
1.97	-52.80491236222295	664.4478406829598	53.64706208052073	3.972652106010881	0.3181496633834797	12.65147404800287	0.8333171441987005	0.006637299061187014	0.412576479320848
1.975	-50.73806518180309	654.9665347516757	52.49704656767371	3.845593893090384	0.007812817561077295	13.90422534741683	0.8275242128410686	0.006637299061187014	0.4123210888264071
1.98	-48.73368998821284	646.5849166206905	51.38298239076643	3.695531598178693	-0.2729289374569641	15.02936196715476	0.8217434488835417	0.006637299061187014	0.4120730863491274
1.985	-46.7445256001226	639.1683543826229	50.28184357802061	3.528422450553192	-0.5279728436967713	16.06557336374885	0.8159731780697543	0.006637299061187014	0.4118326564530361
1.99	-44.73174373077093	632.6810935780813	49.1880860739186	3.349395093736105	-0.7591590080933904	17.03607993021706	0.8102118747718742	0.006637299061187014	0.4115997067957306
1.995	-42.66544775772797	627.2114622771863	48.11185517647456	3.16288927147581	-0.9661398260037342	17.94435211214676	0.8044582031736414	0.006637299061187014	0.4113738970663905
2	-40.51689569761064	622.8678022475575	47.06320515077158	2.971542963254913	-1.148081435245983	18.78433169005938	0.7987110370932915	0.006637299061187014	0.4111546720167234
2.005	-38.25989017800585	619.6467777920873	46.03985043295718	2.774938275553886	-1.305313160399975	19.55382832838147	0.7929694614279333	0.006637299061187014	0.4109412974535454
2.01	-35.88840204258781	617.3996972679737	45.02867427062632	2.570168128375208	-1.439769930773515	20.26028723185522	0.7872327593356351	0.006637299061187014	0.4107328982070552
2.015	-33.41575456100787	615.910235001022	44.01589336943901	2.354066829605251	-1.55391531548634	20.91691386456461	0.7815003888036455	0.006637299061187014	0.4105284972380316
2.02	-30.86005748206577	614.9716513573435	42.99403861322753	2.124622371701087	-1.649644730025574	21.53597362998954	0.7757719551711639	0.006637299061187014	0.4103270554768912
2.025	-28.24182748581873	614.4227285085116	41.9631893125231	1.88127567179786	-1.72820742065432	22.12596233223233	0.7700471812484	0.006637299061187014	0.4101275118979021
2.03	-25.58344126295137	614.1549876430881	40.92956607381563	1.624650123601591	-1.790482790166767	22.69164887449439	0.7643258805109894	0.006637299061187014	0.4099288223726289
2.035	-22.90787806189222	614.1107066798221	39.90380494909469	1.356240762840432	-1.837238664268474	23.23482193416873	0.7586079353848084	0.006637299061187014	0.4097299981312471
2.04	-20.23730754396096	614.2794575764367	38.89956337540059	1.078237407650495	-1.869309121892108	23.75492091236946	0.7528932825219659	0.006637299061187014	0.4095301413989888
2.045	-17.59162909378945	614.6921116065361	37.93244015254136	0.7934016603708123	-1.887708049204186	24.24959131920256	0.7471819058032094	0.006637299061187014	0.4093284780856587
2.05	-14.9871087774364	615.4073334677715	37.01905547643656	0.5048232883682799	-1.893696844819437	24.71552567493991	0.7414738369007956	0.006637299061187014	0.4091243861920135
2.055	-12.43559583133511	616.4865352053883	36.17624066825034	0.2154243539458864	-1.888801152343471	25.14990196127211	0.7357691624208201	0.006637299061187014	0.4089174191100769
2.06	-9.941466675886037	617.9616498903491	35.42000024251274	-0.07270206255944722	-1.874761459191269	25.5522051664226	0.730068036102939	0.006637299061187014	0.4087073231637847
2.065	-7.487586517412055	619.8117332181441	34.76254233805111	-0.358756929828425	-1.853405878561444	25.92531177980722	0.7243706938120075	0.006637299061187014	0.408494048841011
2.07	-5.035065436240405	621.9636888389884	34.21111968167428	-0.6432412236309859	-1.826402400042566	26.27480136436342	0.7186774717343185	0.006637299061187014	0.4082777554507651
2.075	-2.542013382614728	624.3140660401389	33.77058171251378	-0.9274954036445191	-1.795095882180586	26.60759835438398	0.712988820794884	0.006637299061187014	0.4080588084939521
2.08	0.02795682985119075	626.7584085727913	33.4441617627154	-1.213032729522265	-1.760503096815716	26.93039276217561	0.7073053219446788	0.006637299061187014	0.4078377700261914
2.085	2.705455415145045	629.2124182272103	33.23255114962824	-1.50104835449824	-1.72335239496975	27.24841562336365	0.7016276969501896	0.006637299061187014	0.4076153817100042
2.09	5.515124300621159	631.619699626801	33.13301340332116	-1.792230597027527	-1.684115274977681	27.56496080196563	0.6959568129037352	0.006637299061187014	0.4073925406856827
2.095	8.475181693844972	633.9501216719218	33.13870064181756	-2.086779822255238	-1.643023146847756	27.88144939678658	0.6902936849138324	0.006637299061187014	0.4071702689773784
2.1	11.59675904551449	636.1944776392701	33.23823256726352	-2.384506650041972	-1.600076183757976	28.19772206876254	0.6846394682930734	0.006637299061187014	0.4069496764958357
2.105	14.88318581262436	638.3590406083023	33.41557137141621	-2.684931020527418	-1.555053094160242	28.51235405239915	0.6789954477838109	0.006637299061187014	0.4067319188397587
2.11	18.32939561004089	640.4613942369755	33.65020240261433	-2.987353972562878	-1.507528553415571	28.82290927811833	0.6733630198243066	0.006637299061187014	0.4065181504848552
2.115	21.92073583627194	642.5277117879904	33.91761810291399	-3.290911965018372	-1.456935082605838	29.12614031907636	0.6677436700705761	0.006637299061187014	0.4063094744957091
2.12	25.6233426741445	644.5921905900257	34.19104412402774	-3.594764393577876	-1.403051423337748	29.41839620748026	0.6621389465706859	0.006637299061187014	0.4061068899859911
2.125	29.38171689265724	646.6947191608264	34.44798688408554	-3.898544578937816	-1.346657513433473	29.6964580257293	0.6565504317774715	0.006637299061187014	0.4059112387810785
2.13	33.13881436839674	648.8748108879736	34.67632687325023	-4.202564294609138	-1.289336836617972	29.95791648268522	0.6509797115691518	0.006637299061187014	0.4057231529411441
2.135	36.85113148803956	651.1667907921413	34.87429593554734	-4.507681892016715	-1.232957712207069	30.20096520045139	0.6454283473077898	0.006637299061187014	0.4055430049757223
2.14	40.49029633742132	653.5966315516937	35.048560455522	-4.815273165389355	-1.179509327076302	30.42436798034404	0.639897849968063	0.006637299061187014	0.4053708627085011
2.145	44.04297321992912	656.1795611810719	35.21200529218292	-5.127218916363866	-1.130977899649236	30.62744480637907	0.6343896599185501	0.006637299061187014	0.4052064508198405
2.15	47.5107184664186	658.9189000511932	35.38153841912337	-5.445896811155994	-1.089216848459912	30.81003820741646	0.6289051339345424	0.006637299061187014	0.4050491210667269
2.155	50.91011233865008	661.8064410830567	35.57617846601084	-5.774176878996863	-1.055810778490315	30.97245219633608	0.6234455438286775	0.006637299061187014	0.4048978332712747
2.16	54.27343508568012	664.8242325527837	35.81560438427027	-6.11541217166494	-1.031931574324537	31.11536213937547	0.6180120823552764	0.006637299061187014	0.4047511482251074
2.165	57.65008155087848	667.9473801501372	36.11925714608331	-6.473409195814622	-1.018184322291321	31.2396980978036	0.6126058873682623	0.006637299061187014	0.404607234519416
2.17	61.10841132701488	671.1475295188117	36.50572098115519	-6.852355728955078	-1.014415758173684	31.34649536570546	0.6072280738811238	0.006637299061187014	0.404463889133001
2.175	64.71631469369565	674.3913685145084	36.97919347459819	-7.256564045996015	-1.018323219846214	31.43639066711344	0.6018797856981509	0.006637299061187014	0.4043185728443981
2.18	68.48450891052073	677.6164067160986	37.49659084896496	-7.689890953102326	-1.022627171227345	31.50797763554253	0.596562256935133	0.006637299061187014	0.4041684594741837
2.185	72.36768973955981	680.7037078368611	37.97561455053273	-8.155269512508251	-1.016381370568756	31.55608369588878	0.591276888200116	0.006637299061187014	0.4040105001409251
2.19	76.32251869603219	683.5018287019999	38.33385887006217	-8.654326919739441	-0.9888700265740952	31.57192023743326	0.5860253350922506	0.006637299061187014	0.4038414982109582
2.195	80.32789001230825	685.8585402358857	38.50182500807275	-9.18659737202357	-0.9310917273116764	31.54311380658186	0.5808096023173129	0.006637299061187014	0.4036582006390438
2.2	84.38833823262416	687.6471582592142	38.42635332387471	-9.748639350262611	-0.83646681128753	31.45394294243608	0.5756321454259473	0.006637299061187014	0.4034573993109128
2.205	88.53071039347536	688.7685560609112	38.07661805431369	-10.33365643120688	-0.7014232911920639	31.28703479791124	0.5704959700390352	0.006637299061187014	0.4032360459943477
2.21	92.78861668457904	689.1075430154674	37.45682769714192	-10.93204966754209	-0.5255500989007228	31.02769364562672	0.5654047292754859	0.006637299061187014	0.4029913796063079
2.215	97.17982430342924	688.472384760128	36.62408477215804	-11.53217874826417	-0.3113096294994223	30.66977758526286	0.5603628039045303	0.006637299061187014	0.402721065296291
2.22	101.6919641564108	686.5792820152755	35.69842260274373	-12.12038947260154	-0.06377195540331723	30.21777209117125	0.5553753759989348	0.006637299061187014	0.4024233458274143
2.225	106.2731357695196	683.0381813232042	34.85489457428221	-12.6827951610171	0.2095529647067454	29.67918784962577	0.5504484661498256	0.006637299061187014	0.4020972015030408
2.23	110.8033420632446	677.2620876795208	34.28715447533964	-13.21111375544426	0.4995104184192088	29.05071486675407	0.5455889581418254	0.006637299061187014	0.4017425173145962
2.235	115.0582353820064	668.5156786040548	34.06537088060945	-13.70485168689917	0.7984158534110181	28.31546159131351	0.5408045862131324	0.006637299061187014	0.4013602504416574
2.24	118.8086635715739	656.4098104947122	34.06578991562623	-14.15775997270185	1.100297261372589	27.45880477845089	0.5361038983357004	0.006637299061187014	0.4009525923068374
2.245	122.052508475712	641.9454058766109	34.10926239929238	-14.51815107376934	1.393133293824534	26.48538823882348	0.5314961922069932	0.006637299061187014	0.4005231151021308
2.25	125.1013175136799	628.3166727065593	34.06572106496081	-14.65510633307448	1.654857078408858	25.41876516807016	0.5269914336672081	0.006637299061187014	0.4000768920838237
2.255	127.8992333983284	616.3573091788877	33.80691244663975	-14.52531131508977	1.87909156839908	24.2561756209159	0.5226001652197457	0.006637299061187014	0.3996205783556389
2.26	129.9281217110986	602.9519895701151	33.17199707582871	-14.23473287996386	2.078811818970653	22.97477021289669	0.5183334163790727	0.006637299061187014	0.3991624382397222
2.265	130.9391365264982	586.3151215432542	32.02995272609737	-13.84243417701723	2.257828683384427	21.57674451060921	0.5142026303382282	0.006637299061187014	0.3987123049869741
2.27	130.8799268115067	565.9583175465721	30.28146249532529	-13.35932214315429	2.412262378945332	20.07996738137247	0.5102196200058668	0.006637299061187014	0.3982814598425163
2.275	129.7232297355679	541.6629687434304	27.84761505572495	-12.78491813055109	2.535685282159628	18.50814464544192	0.5063965601252475	0.006637299061187014	0.3978824206741318
2.28	127.4003762462308	513.204647306565	24.674363382825	-12.11651341620999	2.620199229596177	16.88912476763903	0.5027460380877595	0.006637299061187014	0.3975286341085998
2.285	123.7518491078662	480.295291930263	20.7609758299666	-11.350285859026	2.656344133869206	15.25511598181487	0.4992811451267504	0.006637299061187014	0.39723407205377
2.29	118.4037534069525	442.5391195702037	16.33986538676199	-10.48140624250013	2.628810327730862	13.64207005510498	0.4960156188576347	0.006637299061187014	0.3970127400420538
2.295	110.8297409571752	399.5893327313883	11.95045652969592	-9.515821295604148	2.522456123097026	12.08707906053774	0.4929640246001206	0.006637299061187014	0.3968781128676956
2.3	101.6051641536946	354.6696194949491	8.178885206957631	-8.643350027347358	2.385113843403348	10.58113924511407	0.4901419413859244	0.006637299061187014	0.3968425224540215
2.305	93.37191426278618	317.992138169276	5.673647635187882	-8.209290843937451	2.325359112915951	8.965388696465695	0.4875661477933804	0.006637299061187014	0.3969165285827037
2.31	87.11623540554659	293.0818335505896	4.495563110072244	-7.802680372495916	2.254764683391295	7.107347915027812	0.4852547557969954	0.006637299061187014	0.3971083118617125
2.315	79.52605715962859	265.8252957522471	3.640811336227796	-7.306789611641261	2.144149859874663	5.187426710766725	0.4832272743864495	0.006637299061187014	0.3974231301270014
2.32	69.78934356625177	232.3952680501525	2.785197383118342	-6.722371463777752	1.997302346795954	3.351384048224956	0.4815045729496731	0.006637299061187014	0.3978628808726964
2.325	58.32788878191129	193.7194500680068	1.792723251052352	-6.051979906514423	1.815888812075281	1.737561640809507	0.4801087162326343	0.006637299061187014	0.3984258099126332
2.33	47.56566565688124	157.9118927056606	0.8352639055382739	-5.269979508947159	1.586591580796067	0.5141943461067153	0.4790626716303303	0.006637299061187014	0.3991063977343112
2.335	38.50497985327805	129.7852225525737	0.1384492958643319	-4.370068415957686	1.296552801718672	-0.3207429248865578	0.4783898829749429	0.006637299061187014	0.3998954456883115
2.34	26.79504092604905	101.9622139453908	-0.8426768670355222	-3.419685012351549	0.8912087481605936	-0.8350500089452906	0.4781137372110029	0.006637299061187014	0.4007803687571014
2.345	1.202972115266212	73.5142228112703	-2.391308367508889	-2.455643841951133	0.006648804604500252	-1.016901074737768	0.4782569401613211	0.006637299061187014	0.4017456876452395
2.35	-12.47533105627952	45.00723110163128	-1.565091492392337	-1.498330090886385	-0.4456704179066394	-0.8680936891785577	0.4788408660978183	0.006637299061187014	0.4027736922251808
2.355	-5.068809203165284	16.77144129210635	-0.444444081759829	-0.5573971306934533	-0.1794070222327856	-0.4087415876122024	0.4798848872642583	0.006637299061187014	0.403845241361402
2.36	-0.04792957813234549	0.1583284644856788	-0.005078313731882876	-0.006831962540540713	-0.00223161757578527	-0.0007954370983689428	0.4814057601703338	0.006637299061187014	0.404940643395336
2.365	0.01897300310044669	-0.06242681577706834	-4.134346374515086e-05	0.0001891311234713796	5.002127069984129e-05	0.006321716387042856	0.4834170946530807	0.006637299061187014	0.4060405595754522
2.37	0.022025397719213	-0.07247108025253911	9.239701948085445e-05	0.0002056874225990539	6.627791446965292e-05	0.007303744783295494	0.4859289224625046	0.006637299061187014	0.4071268715601208
2.375	0.02528059516798186	-0.08318486884938997	0.0002403459531681	0.0002092627979265767	8.051140657259305e-05	0.008359310570893421	0.4889474014638259	0.006637299061187014	0.4081834520560036
2.38	0.02869981980841145	-0.09444079534643275	0.0004042352095797092	0.0002028682683484124	9.347082169449608e-05	0.009465520678804679	0.4924746508863688	0.006637299061187014	0.409196790298356
2.385	0.03217680144678498	-0.1058888092010629	0.0005787528371127848	0.0001849661081392232	0.0001041148412688907	0.01058985441588831	0.4965087128827106	0.006637299061187014	0.410156434868867
2.39	0.03559223323529696	-0.1171356063106553	0.0007549146592567155	0.0001551179833835158	0.0001114231580868414	0.01169679420780561	0.5010436309160329	0.006637299061187014	0.4110552295031066
2.395	0.03882139619932446	-0.1277696143533017	0.0009201475436767055	0.0001142922819958819	0.0001144886635499581	0.01274931552248182	0.5060696334861273	0.006637299061187014	0.4118893346082397
2.4	0.04174664376444296	-0.1374021214228434	0.001059238643468078	6.502947266035815e-05	0.0001126456001385522	0.01371197496833184	0.5115733977623436	0.006637299061187014	0.4126580434288336
2.405	0.04430068902231264	-0.1458103052789894	0.00116036712546365	1.134820001446471e-05	0.0001060021574138488	0.01456450567764953	0.51753839256111	0.006637299061187014	0.4133634136602377
2.41	0.04649277470538816	-0.1530239974825103	0.001220404676134956	-4.211765310241613e-05	9.568582249661795e-05	0.01531046530141739	0.5239452664130888	0.006637299061187014	0.4140097533122482
2.415	0.04837224007297117	-0.1592056247520641	0.001241445978893551	-9.105248361164104e-05	8.324059810648614e-05	0.01596546211596376	0.5307722955750738	0.006637299061187014	0.414603000945757
2.42	0.04999714411852987	-0.164546647983144	0.001227159848501711	-0.0001318084127206091	7.017787130663971e-05	0.0165470305846245	0.5379958607515942	0.006637299061187014	0.4151500535237188
2.425	0.05142947014999238	-0.1692517454651219	0.001182864002952497	-0.0001615388412032565	5.794581746541436e-05	0.01707337220571118	0.5455909553278825	0.006637299061187014	0.4156580902669086
2.43	0.05273264188330721	-0.17353059641268	0.001115913786827861	-0.000178249431785757	4.795364512669553e-05	0.0175628084290865	0.5535317113518825	0.006637299061187014	0.4161339399708001
2.435	0.05396937673682485	-0.1775907301558747	0.001036101765989032	-0.0001807946223180496	4.161055855787923e-05	0.01803327200620292	0.5617919320760284	0.006637299061187014	0.416583531424341
2.44	0.05519971541644133	-0.1816309160878991	0.0009560207251681858	-0.000168847493924925	4.036335696041245e-05	0.01850178545975232	0.5703456170594932	0.006637299061187014	0.417011456820692
2.445	0.05647900342372973	-0.1858343886014271	0.0008913163004156632	-0.000142872093509834	4.57133266994704e-05	0.01898387052010815	0.5791674659642464	0.006637299061187014	0.4174206663803346
2.45	0.05785554043338988	-0.1903610368174597	0.0008607267698302755	-0.0001041268120522569	5.919049264168808e-05	0.01949283083742288	0.5882333453028956	0.006637299061187014	0.4178123007133089
2.455	0.05936642526095786	-0.1953337902930488	0.0008854819210875703	-5.472334811247763e-05	8.223312289929425e-05	0.02003847800813491	0.5975207043837485	0.006637299061187014	0.418185656271788
2.46	0.0610045987480197	-0.2007300983001833	0.0009805641272145206	2.252864050594994e-06	0.0001152210007005924	0.02061646268704912	0.607008922661562	0.006637299061187014	0.4185382705349455
2.465	0.0626711699074763	-0.2062245570632685	0.00113869638364128	6.285483766464367e-05	0.0001558763634053526	0.02119268563866054	0.6166795867768851	0.006637299061187014	0.4188661053730723
2.47	0.06420778205548906	-0.2112950833178002	0.001333223796430257	0.0001227744594677942	0.0001997590524163575	0.02171395647462264	0.6265166862809469	0.006637299061187014	0.4191638042524553
2.475	0.06545586274371698	-0.2154179403854298	0.001532175072861723	0.000177642530289901	0.0002418611191427487	0.02212782410470885	0.6365067225354855	0.006637299061187014	0.4194249973130211
2.48	0.06627239534533121	-0.2181196734850181	0.001702240062372603	0.0002234736257460983	0.0002772294981261386	0.02238796860732375	0.6466387384838743	0.006637299061187014	0.4196426283209811
2.485	0.06653665001870114	-0.2189996001669847	0.001810548948072538	0.0002571860549635021	0.0003013726383015276	0.02245640533727538	0.6569042694737818	0.006637299061187014	0.4198092812699816
2.49	0.06615691531567587	-0.2177526406029077	0.00182665501118531	0.0002770739256736314	0.0003106419150385258	0.02230544956958029	0.6672972226091471	0.006637299061187014	0.4199174880238914
2.495	0.06507654863939313	-0.2141901698584112	0.001724523001941339	0.000283123898001115	0.0003025292257036825	0.02191921580415258	0.6778136952937407	0.006637299061187014	0.4199600027710118
2.5	0.06327857634796744	-0.208256297674166	0.001484245528035871	0.0002770955027408454	0.0002758315812867361	0.02129444688983406	0.6884517392492837	0.006637299061187014	0.4199300342013821
2.505	0.06078799656397957	-0.2000367475454811	0.001093130735875774	0.0002623267269957977	0.0002306492247351195	0.02044050292167076	0.6992110843900855	0.006637299061187014	0.4198214301085052
2.51	0.05767100523838706	-0.1897577963893781	0.0005458182790604216	0.0002432803957852299	0.0001682122096520381	0.01937843361601875	0.7100928221888709	0.006637299061187014	0.4196288142989963
2.515	0.05405701186874447	-0.1778603941342441	-0.0001448332348054464	0.0002249639501471375	9.177544290054214e-05	0.01814761830858416	0.7210990626151683	0.006637299061187014	0.4193476779648949
2.52	0.05021835661480283	-0.1652586841315857	-0.0009050996914070003	0.0002119823171536959	1.059708630151214e-05	0.016831468210301	0.7322325673456077	0.006637299061187014	0.4189744314593976
2.525	0.04650628616070621	-0.1531122860117681	-0.001607211853677802	0.0002064178136707518	-6.143381194754306e-05	0.01553901275859187	0.7434963611770147	0.006637299061187014	0.4185064246499425
2.53	0.04320558268140737	-0.1423358053623885	-0.002127829261352941	0.0002076064690081958	-0.0001118888352086092	0.01435879867425265	0.7548933324382957	0.006637299061187014	0.4179419445378589
2.535	0.04049700015363781	-0.1334815285986322	-0.002369632656721697	0.0002131823287683963	-0.0001320261402237344	0.01334694782142697	0.766425810257839	0.006637299061187014	0.4172802017495372
2.54	0.0384634423560801	-0.1267818713816132	-0.002262430101728461	0.0002198537571208463	-0.000117103443529235	0.01253111015004795	0.7780951405014581	0.006637299061187014	0.4165213146136933
2.545	0.03707810324875832	-0.1221415116894334	-0.001767767477785006	0.0002236426784064638	-6.692647427171981e-05	0.01191191254648271	0.7899012506372349	0.006637299061187014	0.4156663012077756
2.55	0.03616643218153803	-0.119034344807197	-0.0008895067658820214	0.0002197274134111088	1.364612424691316e-05	0.01146023539057493	0.801842216168241	0.006637299061187014	0.4147170868100293
2.555	0.03533624013097462	-0.1162643909439796	0.00030404835028951	0.0002023276179927888	0.0001144871457574882	0.01110981983500079	0.8139138311464502	0.006637299061187014	0.4136765321952497
2.56	0.03386629111137604	-0.1115480812718928	0.001637490801725169	0.0001655129408247812	0.0002203740210301094	0.01074561054025589	0.8261091959519558	0.006637299061187014	0.4125484844334224
