DataType=double
version=3
OpenSimVersion=4.5
endheader
time	Fx	Fy	Fz	Mx	My	Mz	ECx	ECy	ECz
1.5	0	0	0	0	0	0	0.7431372596432024	0.006637299061187014	0.4092430026517281
1.505	0	0	0	0	0	0	0.7548138306556479	0.006637299061187014	0.408737637476027
1.51	0	0	0	0	0	0	0.7666226061638404	0.006637299061187014	0.408161048085699
1.515	0	0	0	0	0	0	0.7785617340395534	0.006637299061187014	0.4075166303531917
1.52	0	0	0	0	0	0	0.7906272765417353	0.006637299061187014	0.4068090334181118
1.525	0	0	0	0	0	0	0.8028127953192148	0.006637299061187014	0.4060441327536867
1.53	0	0	0	0	0	0	0.8151089620438899	0.006637299061187014	0.4052289888301986
1.535	0	0	0	0	0	0	0.8275032018717849	0.006637299061187014	0.4043717879824402
1.54	0	0	0	0	0	0	0.839979385698931	0.006637299061187014	0.4034817596541634
1.545	0	0	0	0	0	0	0.8525175861685859	0.006637299061187014	0.4025690631698887
1.55	0	0	0	0	0	0	0.8650939139152436	0.006637299061187014	0.4016446373521886
1.555	0	0	0	0	0	0	0.8776804503272487	0.006637299061187014	0.4007200077800735
1.56	0	0	0	0	0	0	0.8902452916442858	0.006637299061187014	0.3998070497062498
1.565	0	0	0	0	0	0	0.9027527162924414	0.006637299061187014	0.3989177088828778
1.57	0	0	0	0	0	0	0.9151634831286026	0.006637299061187014	0.3980636887345007
1.575	0	0	0	0	0	0	0.9274352660180041	0.006637299061187014	0.3972561180283353
1.58	0	0	0	0	0	0	0.9395232128994077	0.006637299061187014	0.3965052195520813
1.585	0	0	0	0	0	0	0.9513806358220711	0.006637299061187014	0.3958200031470315
1.59	0	0	0	0	0	0	0.9629597966210264	0.006637299061187014	0.3952080098577531
1.595	0	0	0	0	0	0	0.9742127741200226	0.006637299061187014	0.3946751309530703
1.6	0	0	0	0	0	0	0.9850923877660636	0.006637299061187014	0.394225520782288
1.605	0	0	0	0	0	0	0.995553127303628	0.006637299061187014	0.3938616152416581
1.61	0	0	0	0	0	0	1.00555207222955	0.006637299061187014	0.393584255399941
1.615	0	0	0	0	0	0	1.015049745539874	0.006637299061187014	0.3933929061492427
1.62	0	0	0	0	0	0	1.024010879169191	0.006637299061187014	0.3932859479146854
1.625	0	0	0	0	0	0	1.032405054217261	0.006637299061187014	0.3932610110533743
1.63	0	0	0	0	0	0	1.040207194635889	0.006637299061187014	0.393315317592173
1.635	0	0	0	0	0	0	1.047397897669502	0.006637299061187014	0.3934459942355114
1.64	0	0	0	0	0	0	1.053963595650273	0.006637299061187014	0.3936503242210099
1.645	0	0	0	0	0	0	1.059896548662815	0.006637299061187014	0.3939259139501972
1.65	0	0	0	0	0	0	1.065194682737382	0.006637299061187014	0.3942707606269208
1.655	0	0	0	0	0	0	1.069861287964544	0.006637299061187014	0.3946832194167588
1.66	0	0	0	0	0	0	1.073904606380191	0.006637299061187014	0.395161879840409
1.665	0	0	0	0	0	0	1.077337325165146	0.006637299061187014	0.39570537156755
1.67	0	0	0	0	0	0	1.080176019838294	0.006637299061187014	0.3963121257366814
1.675	0	0	0	0	0	0	1.082440562873987	0.006637299061187014	0.3969801223266778
1.68	0	0	0	0	0	0	1.084153527630556	0.006637299061187014	0.3977066532518887
1.685	0	0	0	0	0	0	1.085339608713885	0.006637299061187014	0.3984881273953185
1.69	0	0	0	0	0	0	1.086025072854244	0.006637299061187014	0.3993199379450679
1.695	0	0	0	0	0	0	1.08623725670896	0.006637299061187014	0.4001964045922337
1.7	0	0	0	0	0	0	1.086004106105389	0.006637299061187014	0.4011107955802967
1.705	0	0	0	0	0	0	1.08535376759462	0.006637299061187014	0.4020554265017484
1.71	0	0	0	0	0	0	1.084314235896233	0.006637299061187014	0.403021826359624
1.715	0	0	0	0	0	0	1.082913031466718	0.006637299061187014	0.4040009571568219
1.72	0	0	0	0	0	0	1.081176935130562	0.006637299061187014	0.4049834690390784
1.725	8.729781417	21.87503671	0.148960638	-0.8496393715109221	0.6794807018114957	-2.261483189228472	1.079131755101019	0.006637299061187014	0.4059599732225822
1.73	14.90453151	40.09496928	-1.507126373	-1.390567265356355	0.7375793331754029	-4.305968014105764	1.076802130380458	0.006637299061187014	0.4069213148292485
1.735	21.92894065	64.09420329	-4.258913161	-2.068671685015522	0.6232708171840855	-7.235166763061815	1.074211373321547	0.006637299061187014	0.4078588301043215
1.74	27.85037564	93.25241355999999	-8.252077808999999	-2.854124311450369	0.3058851208345397	-10.90970455391331	1.071381345571375	0.006637299061187014	0.4087645755860737
1.745	30.37748791	126.0704278	-13.24792372	-3.748367962848345	-0.1512384153218705	-15.05550670660781	1.068332369430444	0.006637299061187014	0.4096315201204199
1.75	28.53957119	161.0224228	-18.50844324	-4.768641051116747	-0.6018531573531856	-19.37188407297529	1.065083171343936	0.006637299061187014	0.410453693909794
1.755	22.97668676	197.5431785	-23.27428243	-5.882531819483086	-0.9933374050056275	-23.71366363192856	1.061650854976494	0.006637299061187014	0.4112262913839486
1.76	14.83218561	235.9079265	-27.39833159	-7.042047151988585	-1.350437032743852	-28.07346247562198	1.058050901495718	0.006637299061187014	0.4119457270871749
1.765	5.203254569	276.5031434	-31.4533607	-8.166780432714432	-1.690965690466349	-32.33270991792224	1.054297189896829	0.006637299061187014	0.4126096451024616
1.77	-4.776088129	318.9639838	-35.71719554	-9.177289527887819	-2.094136064330256	-36.26478206627389	1.050402034268901	0.006637299061187014	0.4132168844753325
1.775	-14.20169536	361.8329044	-39.21038896	-10.04031254861475	-2.50784520054815	-39.8634669573539	1.046376232634952	0.006637299061187014	0.4137674043902742
1.78	-22.68892373	403.1745504	-40.15246901	-10.73880913970251	-2.693153034631232	-43.23288565097829	1.042229124945496	0.006637299061187014	0.4142621744630502
1.785	-30.17363734	441.5394099	-37.38188806	-11.26088675692776	-2.541955477056592	-46.22137299992461	1.037968659393306	0.006637299061187014	0.4147030369026748
1.79	-36.66068132	476.5879145	-31.29201413	-11.55557207959484	-2.133440417321113	-48.62266608573266	1.033601464961488	0.006637299061187014	0.4150925484528646
1.795	-42.23239896	508.7102689	-23.1129555	-11.60190687945276	-1.601794247919056	-50.62577146237597	1.029132940963982	0.006637299061187014	0.4154338106139132
1.8	-46.98906836	538.4114305000001	-13.68588879	-11.4472036258993	-1.05718914207879	-52.53453377592613	1.024567355369818	0.006637299061187014	0.415730296949865
1.805	-51.14512573	566.2296099	-3.280672447	-11.13096555931967	-0.4576551982568486	-54.25344659162979	1.019907967543496	0.006637299061187014	0.4159856853176263
1.81	-55.28018651	592.7948092	7.62716569	-10.66392774273665	0.2696425767919796	-55.45610967654978	1.015157164793079	0.006637299061187014	0.4162037014944573
1.815	-59.94946883	618.6003459999999	17.78794961	-10.06773121639502	1.097437203016124	-56.05456719093583	1.010316626681341	0.006637299061187014	0.4163879793872339
1.82	-64.95949318	643.6690265	25.74242487	-9.410718496175301	1.918750816837744	-56.21417353028571	1.005387505303465	0.006637299061187014	0.4165419403956649
1.825	-69.63080474	667.7143559	30.96781983	-8.773478546211701	2.592146565631452	-56.05548112476396	1.000370624545822	0.006637299061187014	0.4166686937013874
1.83	-73.81296168	690.5816182	34.20704996	-8.157772181836346	3.141410495436225	-55.53703858167439	0.9952666820823028	0.006637299061187014	0.4167709575658438
1.835	-77.97266499	712.16276	36.66828788	-7.504124637225828	3.708030282557465	-54.50568379723006	0.9900764606241143	0.006637299061187014	0.4168510024889734
1.84	-82.2535031	732.00611	39.09672344	-6.800728639761374	4.308514859371397	-52.86683004454515	0.9848010256825908	0.006637299061187014	0.4169106162561391
1.845	-86.16247734	749.4869956	41.50765924	-6.087843257246153	4.862177764224183	-50.76804438375774	0.9794419083322868	0.006637299061187014	0.4169510919375758
1.85	-89.35110040000001	764.312768	43.6130425	-5.396191793854692	5.325481291613956	-48.46959712562671	0.974001261729731	0.006637299061187014	0.4169732396956961
1.855	-92.07078896	776.7832866	45.31538593	-4.693704916858232	5.713519359642265	-46.02900159516661	0.9684819839759399	0.006637299061187014	0.4169774229254116
1.86	-94.57827322	787.3896667	46.83733956	-3.928513880710192	6.089140847870569	-43.29142791438807	0.9628878006963858	0.006637299061187014	0.4169636181027954
1.865	-96.55750783000001	796.3108575	48.5164972	-3.109691066987527	6.439000839905373	-40.23642692229696	0.9572233021579466	0.006637299061187014	0.4169314962246112
1.87	-97.55523843	803.4698393	50.43956455	-2.283061821060487	6.69336842715288	-37.15654640464022	0.9514939332196785	0.006637299061187014	0.4168805220228907
1.875	-97.5963744	808.8245704	52.36306417	-1.475114090642553	6.86836076359466	-34.25809056770458	0.945705932050494	0.006637299061187014	0.4168100646062623
1.88	-97.0228698	812.5021513	54.0168326	-0.6746982667819701	6.990676189944642	-31.37813771903863	0.9398662249850412	0.006637299061187014	0.4167195138280633
1.885	-96.02352867	814.6273190000001	55.44278992	0.1250472160929608	7.058632471735809	-28.30008241331765	0.933982277849595	0.006637299061187014	0.4166083926204595
1.89	-94.59147969999999	815.1604535	56.86740263	0.9107212604967732	7.069040682447913	-25.1804864254206	0.92806191215728	0.006637299061187014	0.4164764586498589
1.895	-92.68511857999999	813.8719177	58.35443159	1.63724873218267	7.003800277690124	-22.28016139520335	0.9221131003932075	0.006637299061187014	0.4163237874880307
1.9	-90.36837989	810.6261314	59.65461641	2.291502709353235	6.854880011036549	-19.49912858410575	0.9161437430717305	0.006637299061187014	0.4161508311350958
1.905	-87.91867333	805.498632	60.5336796	2.900184431895749	6.662105441935663	-16.59124745761374	0.9101614546015391	0.006637299061187014	0.4159584491064331
1.91	-85.57529391	798.6587509	61.07390899	3.482288010221083	6.464479081717368	-13.61321355374591	0.90417335526669	0.006637299061187014	0.415747909735015
1.915	-83.16635973	790.2191551	61.48183856	4.029846541037587	6.239830315598544	-10.76147448672305	0.8981858901695094	0.006637299061187014	0.415520862857347
1.92	-80.43322836999999	780.2849623	61.77686403	4.513553434315158	5.954271839353835	-8.073348840230043	0.8922046898481708	0.006637299061187014	0.4152792888970037
1.925	-77.55534609	769.1971015	61.75807473	4.934347059296989	5.630921037501501	-5.477950670618119	0.8862344629508678	0.006637299061187014	0.4150254273124176
1.93	-74.86770677	757.4687833	61.30845305	5.311178941578481	5.346008757435432	-2.963392929976248	0.8802789421960553	0.006637299061187014	0.4147616927698872
1.935	-72.26523127	745.4855734	60.54943658	5.650048263536494	5.08617376966606	-0.5539254266835258	0.8743408737667009	0.006637299061187014	0.4144905848682764
1.94	-69.45494887	733.3570899	59.7258528	5.926170487524635	4.786062003023266	1.70992070567997	0.8684220508381821	0.006637299061187014	0.4142145981693477
1.945	-66.52937492	721.1569330999999	58.97110362	6.121665991982166	4.471760237177648	3.80409981194082	0.8625233854294285	0.006637299061187014	0.41393613803698
1.95	-63.77914071	709.1214344	58.20894292	6.257653914974599	4.193846233155281	5.814386678757249	0.8566450111293566	0.006637299061187014	0.4136574464852933
1.955	-61.22041091	697.4795865999999	57.33099837	6.350933404023563	3.957672747130086	7.858248468449046	0.8507864081407395	0.006637299061187014	0.4133805410991034
1.96	-58.69502771	686.3083245	56.32334722	6.402679217085606	3.743555471650877	9.810510998404421	0.8449465412534733	0.006637299061187014	0.413107168511571
1.965	-56.13658286	675.5444671	55.31425517	6.383435888605819	3.526389222243791	11.47675440143692	0.8391240016605118	0.006637299061187014	0.4128387729827903
1.97	-53.56574199	665.3044462	54.36887981	6.303094991879286	3.298600659153303	12.92964340304666	0.8333171441987005	0.006637299061187014	0.412576479320848
1.975	-51.07405215	655.8334073	53.42119962	6.19155700367833	3.087887519536119	14.37048456610012	0.8275242128410686	0.006637299061187014	0.4123210888264071
1.98	-48.76234268	647.2499964	52.3813799	6.044721275154854	2.90166245628931	15.76034000544434	0.8217434488835417	0.006637299061187014	0.4120730863491274
1.985	-46.51837814	639.5415673	51.22604652	5.845338121487085	2.721385630696352	16.93010044486465	0.8159731780697543	0.006637299061187014	0.4118326564530361
1.99	-44.14720597	632.7226547	50.06763658	5.582201250337278	2.510914647130181	17.89044456573332	0.8102118747718742	0.006637299061187014	0.4115997067957306
1.995	-41.74152633	626.8965320999999	49.00128239	5.276765276087801	2.264674383500345	18.80630460183146	0.8044582031736414	0.006637299061187014	0.4113738970663905
2	-39.55190127	622.137595	48.02234916	4.945447629224244	2.065541595686741	19.72658340185248	0.7987110370932915	0.006637299061187014	0.4111546720167234
2.005	-37.48554071	618.4534768	47.01147431	4.597157721986578	1.913274729637936	20.55272212506093	0.7929694614279333	0.006637299061187014	0.4109412974535454
2.01	-35.2087058	615.7489495	45.8818354	4.228310065758503	1.752553217299137	21.19421866270333	0.7872327593356351	0.006637299061187014	0.4107328982070552
2.015	-32.7022285	613.903989	44.6789399	3.839603635330905	1.587066578943623	21.67956212757993	0.7815003888036455	0.006637299061187014	0.4105284972380316
2.02	-30.25170357	612.8415982	43.51960041	3.445696240524786	1.429423517415147	22.1116609634497	0.7757719551711639	0.006637299061187014	0.4103270554768912
2.025	-27.92237168	612.4367136	42.46482222	3.047952337379577	1.29431607713932	22.57547164627273	0.7700471812484	0.006637299061187014	0.4101275118979021
2.03	-25.50765003	612.545038	41.43000396	2.648676541362187	1.164232140184655	23.03539440421515	0.7643258805109894	0.006637299061187014	0.4099288223726289
2.035	-22.9596267	613.0162617	40.35312803	2.23455321010119	1.022190802216055	23.37157881681924	0.7586079353848084	0.006637299061187014	0.4097299981312471
2.04	-20.43330123	613.7997121	39.27328347	1.818599643754917	0.8903849952966969	23.59740087806642	0.7528932825219659	0.006637299061187014	0.4095301413989888
2.045	-17.97357277	614.8681682	38.32940504	1.418546898983127	0.7715727417270601	23.92550178913073	0.7471819058032094	0.006637299061187014	0.4093284780856587
2.05	-15.52918087	616.2276035	37.61018558	1.043031349224258	0.6467116450575194	24.43465333237996	0.7414738369007956	0.006637299061187014	0.4091243861920135
2.055	-13.08161361	617.8925733	37.02503551	0.6942394939510077	0.5444000917664163	24.95587658790939	0.7357691624208201	0.006637299061187014	0.4089174191100769
2.06	-10.56697777	619.7865578	36.43277627	0.3530347770763775	0.4799964030091551	25.38218571208835	0.730068036102939	0.006637299061187014	0.4087073231637847
2.065	-7.904275548	621.8236596	35.77595995	0.02210204960413442	0.4244426410669472	25.81930786000168	0.7243706938120075	0.006637299061187014	0.408494048841011
2.07	-5.181294614	623.9348502	35.18374094	-0.2941299613684096	0.3893310618800621	26.33133038308995	0.7186774717343185	0.006637299061187014	0.4082777554507651
2.075	-2.508027028	626.0585328	34.77130786	-0.6006616592452936	0.3639658676493024	26.84115858995347	0.712988820794884	0.006637299061187014	0.4080588084939521
2.08	0.234237902	628.0732313	34.47688049	-0.9212979261726018	0.3200612613469085	27.29047795737637	0.7073053219446788	0.006637299061187014	0.4078377700261914
2.085	3.182274073	629.8938193	34.1611294	-1.272376507246446	0.2622636249580169	27.69465221391492	0.7016276969501896	0.006637299061187014	0.4076153817100042
2.09	6.223954983	631.5748624	33.80992321	-1.638947372602257	0.1928116293744276	28.06691509448111	0.6959568129037352	0.006637299061187014	0.4073925406856827
2.095	9.238464584999999	633.1739439	33.56931778	-2.011245351654574	0.1090982506375659	28.448925540664	0.6902936849138324	0.006637299061187014	0.4071702689773784
2.1	12.31535241	634.72104	33.51762885	-2.386772477015496	-0.008942539320236892	28.87898356517741	0.6846394682930734	0.006637299061187014	0.4069496764958357
2.105	15.53926577	636.2398194	33.58773218	-2.778161456308001	-0.1638165916896374	29.28414245415782	0.6789954477838109	0.006637299061187014	0.4067319188397587
2.11	18.85389797	637.8578291	33.63206221	-3.177661489263826	-0.3056184702640331	29.5707118865361	0.6733630198243066	0.006637299061187014	0.4065181504848552
2.115	22.22868984	639.7141076	33.60356005	-3.571627810974169	-0.408674467771931	29.77172557868544	0.6677436700705761	0.006637299061187014	0.4063094744957091
2.12	25.69053951	641.8598776	33.60905581	-3.963144607766485	-0.5099286559221479	29.96734028878687	0.6621389465706859	0.006637299061187014	0.4061068899859911
2.125	29.19723306	644.2999174	33.74438455	-4.355619278786496	-0.6121342598680878	30.12712321152646	0.6565504317774715	0.006637299061187014	0.4059112387810785
2.13	32.71320688	647.0239994	34.00654774	-4.76288002720889	-0.7119442536489955	30.18067752937984	0.6509797115691518	0.006637299061187014	0.4057231529411441
2.135	36.29397284	650.1072053	34.28886465	-5.173210383528957	-0.8233694056952012	30.14836589734283	0.6454283473077898	0.006637299061187014	0.4055430049757223
2.14	39.94148492	653.5216684	34.55691585	-5.583523716324392	-0.9164995082529972	30.09165631912394	0.639897849968063	0.006637299061187014	0.4053708627085011
2.145	43.55567601	657.1526717	34.89562396	-6.002078612778661	-0.9969265704246955	30.04663655703099	0.6343896599185501	0.006637299061187014	0.4052064508198405
2.15	47.09636456	660.9442311	35.36766676	-6.422054653132282	-1.08850281551122	30.03258693002739	0.6289051339345424	0.006637299061187014	0.4050491210667269
2.155	50.65395162	664.8386017	35.92060858	-6.843168610365917	-1.181527512129294	30.03958598046617	0.6234455438286775	0.006637299061187014	0.4048978332712747
2.16	54.31128687	668.7072418	36.39619508	-7.270293419499001	-1.267648189255917	30.04376169126741	0.6180120823552764	0.006637299061187014	0.4047511482251074
2.165	58.03397146	672.3906095	36.71325514	-7.713126330258987	-1.310198662433246	30.05758694108778	0.6126058873682623	0.006637299061187014	0.404607234519416
2.17	61.75977446	675.8696723	36.90212132	-8.153046975757002	-1.307742393943817	30.1250076437412	0.6072280738811238	0.006637299061187014	0.404463889133001
2.175	65.51413759	679.1236709	37.04394448	-8.584843100421367	-1.30656924274007	30.22753978261178	0.6018797856981509	0.006637299061187014	0.4043185728443981
2.18	69.38146841	682.0065876	37.11814824	-9.020152518163385	-1.314644989264238	30.29296005196455	0.596562256935133	0.006637299061187014	0.4041684594741837
2.185	73.37830167	684.3638979999999	37.05050002	-9.466884166536902	-1.319879947186031	30.29290518728773	0.591276888200116	0.006637299061187014	0.4040105001409251
2.19	77.43541075	686.1827868	36.85263383	-9.912320024585364	-1.314843733726922	30.3414023485341	0.5860253350922506	0.006637299061187014	0.4038414982109582
2.195	81.46818254999999	687.4842738999999	36.59532644	-10.32719810326399	-1.28548917239073	30.52090187785591	0.5808096023173129	0.006637299061187014	0.4036582006390438
2.2	85.47310458	688.0858526	36.39116854	-10.73577696496241	-1.248662574223115	30.69099521063995	0.5756321454259473	0.006637299061187014	0.4034573993109128
2.205	89.57422013999999	687.8287711	36.22007768	-11.15105117773055	-1.210937251764869	30.71112888660547	0.5704959700390352	0.006637299061187014	0.4032360459943477
2.21	93.8246412	686.7100109	36.01038412	-11.55992055223845	-1.132556313964302	30.61192821216695	0.5654047292754859	0.006637299061187014	0.4029913796063079
2.215	98.05451632	684.7542357	35.7531687	-11.94820621855536	-1.000255364437365	30.46053259497673	0.5603628039045303	0.006637299061187014	0.402721065296291
2.22	102.1250648	681.8583640000001	35.49574011	-12.32014624602322	-0.8176853827244854	30.19705576897546	0.5553753759989348	0.006637299061187014	0.4024233458274143
2.225	106.1782463	677.8210522000001	35.29212935	-12.69998674797933	-0.6269010479990076	29.69977612091	0.5504484661498256	0.006637299061187014	0.4020972015030408
2.23	110.3619248	672.5697668	35.10190973	-13.07910906753877	-0.4662873206987925	28.94847106690201	0.5455889581418254	0.006637299061187014	0.4017425173145962
2.235	114.5319717	666.070343	34.83059831	-13.43452305677406	-0.2825843195688047	28.06424322544058	0.5408045862131324	0.006637299061187014	0.4013602504416574
2.24	118.4606398	658.1861897	34.39939592	-13.74497755950297	-0.03919199768759696	27.20331422803738	0.5361038983357004	0.006637299061187014	0.4009525923068374
2.245	122.1237311	648.6074137000001	33.81137664	-14.0065610798174	0.2356991954999952	26.34268483747991	0.5314961922069932	0.006637299061187014	0.4005231151021308
2.25	125.6160077	636.9687259	33.1007919	-14.22027413063871	0.5004574180057042	25.33785138925772	0.5269914336672081	0.006637299061187014	0.4000768920838237
2.255	128.8443854	622.9889314	32.19152198	-14.35486992893826	0.7413830754514734	24.16269070117056	0.5226001652197457	0.006637299061187014	0.3996205783556389
2.26	131.4761773	606.353466	30.97672548	-14.38182900843707	0.998095086954593	22.94349606090373	0.5183334163790727	0.006637299061187014	0.3991624382397222
2.265	133.1855055	586.7307862	29.41020463	-14.27163717698664	1.269774005405516	21.78310215887867	0.5142026303382282	0.006637299061187014	0.3987123049869741
2.27	133.7872563	563.7453528999999	27.56454342	-14.0210267846131	1.494731093738878	20.56875679204553	0.5102196200058668	0.006637299061187014	0.3982814598425163
2.275	133.1272037	537.1501562	25.50331122	-13.6354163235106	1.628364055379357	19.16126162736225	0.5063965601252475	0.006637299061187014	0.3978824206741318
2.28	130.9311281	507.0059946	23.17257211	-13.10875115057472	1.673446768722934	17.6337988276094	0.5027460380877595	0.006637299061187014	0.3975286341085998
2.285	126.8595574	473.6696115	20.49648255	-12.44379066936917	1.670732595135675	16.17742784495505	0.4992811451267504	0.006637299061187014	0.39723407205377
2.29	120.7781565	437.8343895	17.47964544	-11.64257087625656	1.639269702869691	14.86730376227207	0.4960156188576347	0.006637299061187014	0.3970127400420538
2.295	112.9253794	400.3897478	14.2421248	-10.72534378410973	1.568504861511706	13.59529280214611	0.4929640246001206	0.006637299061187014	0.3968781128676956
2.3	103.7483885	362.2849052	10.90694418	-9.723690984459921	1.461477351483816	12.32055710249973	0.4901419413859244	0.006637299061187014	0.3968425224540215
2.305	93.61826659	324.4385594	7.5760305	-8.671882480851917	1.370665744521861	11.1275879823254	0.4875661477933804	0.006637299061187014	0.3969165285827037
2.31	82.93349834	287.6894613	4.415905859	-7.596486736714995	1.333200844681514	10.09029141688723	0.4852547557969954	0.006637299061187014	0.3971083118617125
2.315	72.34214593999999	252.7098765	1.646429802	-6.517253902154261	1.301612733722161	9.159058327995954	0.4832272743864495	0.006637299061187014	0.3974231301270014
2.32	62.46409205	219.8470482	-0.542656135	-5.476428444700105	1.220545919181971	8.203051824014212	0.4815045729496731	0.006637299061187014	0.3978628808726964
2.325	53.46132965	189.2702168	-2.112208857	-4.503911643596224	1.107482546034436	7.177760623855788	0.4801087162326343	0.006637299061187014	0.3984258099126332
2.33	45.25536306	161.1405017	-3.114073343	-3.605160506379623	1.003013033274158	6.177674605272112	0.4790626716303303	0.006637299061187014	0.3991063977343112
2.335	37.94212929	135.5308153	-3.597191582	-2.791979198276631	0.8850987805358627	5.258976223317652	0.4783898829749429	0.006637299061187014	0.3998954456883115
2.34	31.64066092	112.3189586	-3.607645181	-2.099416478693175	0.7144874429156418	4.290926522834058	0.4781137372110029	0.006637299061187014	0.4007803687571014
2.345	26.199824	91.42083537000001	-3.244061871	-1.542869731077125	0.5140342877528257	3.193466276080239	0.4782569401613211	0.006637299061187014	0.4017456876452395
2.35	21.33416662	72.95276706	-2.660222553	-1.09295906960578	0.3327539257371653	2.183801588361871	0.4788408660978183	0.006637299061187014	0.4027736922251808
2.355	16.88607263	56.99724289	-1.995038723	-0.7215739845979668	0.1866587836314975	1.50192469816614	0.4798848872642583	0.006637299061187014	0.403845241361402
2.36	12.84850273	43.30050532	-1.342015401	-0.439335563583757	0.06962382598064543	1.019184225418918	0.4814057601703338	0.006637299061187014	0.404940643395336
2.365	9.292750204000001	31.50217547	-0.727120888	-0.2735674983614863	-0.04280484382574072	0.4730774802855559	0.4834170946530807	0.006637299061187014	0.4060405595754522
2.37	6.277781705	21.65140669	-0.198946344	-0.1838343124919843	-0.1579562693009485	-0.0329451741774508	0.4859289224625046	0.006637299061187014	0.4071268715601208
2.375	3.729839674	13.93622964	0.179606561	-0.1165465994057638	-0.2326041953608656	-0.2462652378993803	0.4889474014638259	0.006637299061187014	0.4081834520560036
2.38	0	0	0	0	0	0	0.4924746508863688	0.006637299061187014	0.409196790298356
2.385	0	0	0	0	0	0	0.4965087128827106	0.006637299061187014	0.410156434868867
2.39	0	0	0	0	0	0	0.5010436309160329	0.006637299061187014	0.4110552295031066
2.395	0	0	0	0	0	0	0.5060696334861273	0.006637299061187014	0.4118893346082397
2.4	0	0	0	0	0	0	0.5115733977623436	0.006637299061187014	0.4126580434288336
2.405	0	0	0	0	0	0	0.51753839256111	0.006637299061187014	0.4133634136602377
2.41	0	0	0	0	0	0	0.5239452664130888	0.006637299061187014	0.4140097533122482
2.415	0	0	0	0	0	0	0.5307722955750738	0.006637299061187014	0.414603000945757
2.42	0	0	0	0	0	0	0.5379958607515942	0.006637299061187014	0.4151500535237188
2.425	0	0	0	0	0	0	0.5455909553278825	0.006637299061187014	0.4156580902669086
2.43	0	0	0	0	0	0	0.5535317113518825	0.006637299061187014	0.4161339399708001
2.435	0	0	0	0	0	0	0.5617919320760284	0.006637299061187014	0.416583531424341
2.44	0	0	0	0	0	0	0.5703456170594932	0.006637299061187014	0.417011456820692
2.445	0	0	0	0	0	0	0.5791674659642464	0.006637299061187014	0.4174206663803346
2.45	0	0	0	0	0	0	0.5882333453028956	0.006637299061187014	0.4178123007133089
2.455	0	0	0	0	0	0	0.5975207043837485	0.006637299061187014	0.418185656271788
2.46	0	0	0	0	0	0	0.607008922661562	0.006637299061187014	0.4185382705349455
2.465	0	0	0	0	0	0	0.6166795867768851	0.006637299061187014	0.4188661053730723
2.47	0	0	0	0	0	0	0.6265166862809469	0.006637299061187014	0.4191638042524553
2.475	0	0	0	0	0	0	0.6365067225354855	0.006637299061187014	0.4194249973130211
2.48	0	0	0	0	0	0	0.6466387384838743	0.006637299061187014	0.4196426283209811
2.485	0	0	0	0	0	0	0.6569042694737818	0.006637299061187014	0.4198092812699816
2.49	0	0	0	0	0	0	0.6672972226091471	0.006637299061187014	0.4199174880238914
2.495	0	0	0	0	0	0	0.6778136952937407	0.006637299061187014	0.4199600027710118
2.5	0	0	0	0	0	0	0.6884517392492837	0.006637299061187014	0.4199300342013821
2.505	0	0	0	0	0	0	0.6992110843900855	0.006637299061187014	0.4198214301085052
2.51	0	0	0	0	0	0	0.7100928221888709	0.006637299061187014	0.4196288142989963
2.515	0	0	0	0	0	0	0.7210990626151683	0.006637299061187014	0.4193476779648949
2.52	0	0	0	0	0	0	0.7322325673456077	0.006637299061187014	0.4189744314593976
2.525	0	0	0	0	0	0	0.7434963611770147	0.006637299061187014	0.4185064246499425
2.53	0	0	0	0	0	0	0.7548933324382957	0.006637299061187014	0.4179419445378589
2.535	0	0	0	0	0	0	0.766425810257839	0.006637299061187014	0.4172802017495372
2.54	0	0	0	0	0	0	0.7780951405014581	0.006637299061187014	0.4165213146136933
2.545	0	0	0	0	0	0	0.7899012506372349	0.006637299061187014	0.4156663012077756
2.55	0	0	0	0	0	0	0.801842216168241	0.006637299061187014	0.4147170868100293
2.555	0	0	0	0	0	0	0.8139138311464502	0.006637299061187014	0.4136765321952497
2.56	0	0	0	0	0	0	0.8261091959519558	0.006637299061187014	0.4125484844334224
