DataType=double
version=3
OpenSimVersion=4.5
endheader
time	mtp_angle_l	Rotation1	Rotation2	Rotation3	Translation1	Translation2	Translation3
1.5	-0.2798146241345246	-0.09797674037258899	-0.085231043006411	-0.5655837292769031	0.5889938907426148	0.1661417962260585	0.435354502449169
1.505	-0.2793742243950049	-0.1001035493972989	-0.08672798915556595	-0.5311743142719274	0.5971967277444922	0.1594155653190074	0.4324233780445239
1.51	-0.2788286485204927	-0.104276643244777	-0.08758155471645115	-0.4981254448290491	0.6075283274976836	0.1522423107271	0.4310675985778152
1.515	-0.2781194561094987	-0.1098529276206377	-0.0879125038024674	-0.4659689246601386	0.6193956554677383	0.1447807839851971	0.4307604724759833
1.52	-0.2772042005061384	-0.116281392942106	-0.08780846385958697	-0.4343117113781229	0.6322930755676499	0.1371712744600375	0.4310582256904282
1.525	-0.2760564288001316	-0.1231031143380174	-0.08732392566635373	-0.4028359164969857	0.6458023501578573	0.1295356093502376	0.4316000016970103
1.53	-0.2746656818268032	-0.1299512516488179	-0.08648024333388309	-0.3712988054317675	0.6595926400462446	0.1219771536862915	0.4321078614960502
1.535	-0.2730374941670828	-0.136551049426564	-0.08526563430586205	-0.3395327974985658	0.6734205044881406	0.1145808103305713	0.4323867836123289
1.54	-0.2711933941475047	-0.1427198369349225	-0.08363517935854915	-0.3074454659145346	0.6871299011863192	0.1074130199773269	0.4323246640950871
1.545	-0.2691709038402078	-0.1483670281491711	-0.08151082260077445	-0.2750195377978852	0.7006521862909988	0.1005217611526857	0.4318923165180263
1.55	-0.267023376412157	-0.1534934042369974	-0.07878178533208581	-0.2423123270039977	0.7140054168701394	0.09393666134768906	0.4311428218768463
1.555	-0.2648135653874301	-0.1581627449407045	-0.07532092878756069	-0.2094333101184634	0.7272667726180517	0.08767339089460327	0.4301858254328012
1.56	-0.2625991938223857	-0.1624381682986547	-0.0710214727717625	-0.1764938061157931	0.7405106690999489	0.08174352299577181	0.4291298578327883
1.565	-0.26042946400475	-0.1663667334984702	-0.0658058765843367	-0.1435948056668061	0.7537937895570167	0.07615691851229486	0.4280683846491651
1.57	-0.2583450386204516	-0.1699793577962275	-0.05962588694021782	-0.1108269054673113	0.7671550041401719	0.07092173883200907	0.4270797311050585
1.575	-0.2563780407536211	-0.1732908165164568	-0.05246253796962924	-0.07827030823810609	0.7806153699100622	0.06604444586948735	0.4262270820743642
1.58	-0.2545520538865914	-0.1762997430521422	-0.04432615121808337	-0.04599482272497701	0.7941781308370653	0.06152980206603888	0.4255584820817463
1.585	-0.2528821218998974	-0.1789886288647215	-0.03525633564638147	-0.01405986369869917	0.8078287178012893	0.05738087038970908	0.425106835302638
1.59	-0.2513747490722767	-0.1813238234840867	-0.02532198763061383	0.01748554804496313	0.8215347485925732	0.05359901433527977	0.4248899055632416
1.595	-0.2500279000806688	-0.1832555345085833	-0.0146212909621597	0.04860278568525676	0.8352460279104863	0.050183897924269	0.4249103163405279
1.6	-0.2488310000002152	-0.1847178276050109	-0.003281716847687223	0.07926361637643968	0.8488945473643279	0.04713348570493108	0.4251555507622367
1.605	-0.2477649378437076	-0.185628634778167	0.008539985038961188	0.1094501933328118	0.862394490451041	0.04444404221896098	0.4255979555416134
1.61	-0.2468039277504241	-0.1858941028409989	0.02066249184768607	0.139150893808489	0.8756448501481866	0.04210985157244047	0.4261968100255763
1.615	-0.245925511017916	-0.1854319621001643	0.03290519379305274	0.1683379523940549	0.8885434958628033	0.04012171040965407	0.4269094452628828
1.62	-0.2451161843391786	-0.1841846761347476	0.0451024229594088	0.1969548750626388	0.9009950890355654	0.03846607989530945	0.4276975008081556
1.625	-0.2443716173569277	-0.1821199500887318	0.05710400330211883	0.2249159526715653	0.9129113891111047	0.03712505293519856	0.4285271665728265
1.63	-0.2436966526635992	-0.1792307306709996	0.06877525064756487	0.2521062609623563	0.9242112535380111	0.03607635417619758	0.4293691828251365
1.635	-0.2431053058013493	-0.1755352061553321	0.07999697269314628	0.2783816605607298	0.9348206377688308	0.03529334000626685	0.4301988401901352
1.64	-0.2426207652620544	-0.17107680638041	0.09066546900727948	0.3035687969765998	0.9446725952600686	0.03474499855445101	0.4309959796496816
1.645	-0.242275392487311	-0.1659242027498127	0.1006925310293982	0.3274651006040766	0.9537072774721858	0.03439594969087886	0.431744992542443
1.65	-0.2421107218684362	-0.160171308232019	0.1100054420699535	0.3498387867214672	0.961871933869602	0.03420644502676349	0.4324348205638968
1.655	-0.2421774607464669	-0.1539372773604064	0.1185469773104137	0.3704288554912746	0.9691209119206934	0.03413236791440215	0.4330589557663282
1.66	-0.2425354894121604	-0.1473665062332517	0.1262754038032642	0.3889450919601982	0.9754156570977941	0.03412523344717636	0.4336154405588322
1.665	-0.2432531181866826	-0.1406274497803525	0.1331641977458519	0.4050706833403392	0.9807248483940602	0.03413254194905594	0.4341067498202986
1.67	-0.2443958618335104	-0.1338947505386239	0.1391977724587522	0.4185017664005372	0.9850264459973983	0.03410312023778533	0.4345380096143686
1.675	-0.2460123164773883	-0.1273267545961726	0.1443661036911686	0.428997182633582	0.9883102674997981	0.03399384154834716	0.4349147561279578
1.68	-0.2481324304073957	-0.1210627586971998	0.148664071555926	0.4363845701622473	0.9905783033223649	0.03377044830463757	0.4352426612809434
1.685	-0.2507675039346258	-0.115223010015426	0.1520914604753087	0.440560364240678	0.9918447167412794	0.03340755218718365	0.43552753270358
1.69	-0.2539101893921861	-0.1099087061540914	0.1546529591810611	0.441489797254391	0.9921358438877982	0.03288863413314345	0.4357753137365001
1.695	-0.2575344911351982	-0.1052019951459558	0.1563581607143871	0.4392068987202747	0.9914901937482536	0.03220604433630599	0.4359920834307141
1.7	-0.2615957655407981	-0.1011659754532984	0.1572215624259505	0.4338144952865896	0.9899584481640533	0.03136100224709124	0.4361840565476098
1.705	-0.2660307210081359	-0.09784469596791799	0.1572625659758747	0.425484210732968	0.9876034618316817	0.03036359657255019	0.4363575835589532
1.71	-0.270757417958376	-0.09526315601113311	0.1565054773337431	0.414456465970414	0.9845002623026985	0.02923278527636477	0.436519150646888
1.715	-0.2756752688346968	-0.0934273053337816	0.1549795067785988	0.4010404790413031	0.9807360499837386	0.02799639557884781	0.4366753797039354
1.72	-0.280665139055761	-0.09232408182380959	0.1527187606271621	0.3856139260635669	0.9764101240086728	0.02669107853655654	0.4368330234193679
1.725	-0.2855959824954827	-0.09192388995442292	0.1497616975452996	0.3686006557361149	0.9716290099564873	0.02535932364657571	0.4369986423158717
1.73	-0.2903437400836487	-0.09218765968614369	0.1461495800612858	0.350407217717121	0.9664925830379817	0.02404095610017149	0.4371776849132499
1.735	-0.2947972137936613	-0.09306904048662153	0.1419259932713254	0.3314031346274662	0.9610897549599514	0.02277049399305138	0.4373742018285696
1.74	-0.2988581328781107	-0.09451442607058234	0.1371368394124369	0.3119206795962175	0.9554984252899119	0.02157711852504853	0.4375908425523323
1.745	-0.3024411538687752	-0.09646295439982837	0.1318303378624525	0.2922548762606273	0.9497854814560978	0.02048467400012166	0.4378288554484732
1.75	-0.3054738605766198	-0.09884650768323805	0.126057025140018	0.2726634987661343	0.9440067987474628	0.01951166782635516	0.4380880877543617
1.755	-0.3078967640917979	-0.1015897123767663	0.1198697549045934	0.2533670717663631	0.9382072403136814	0.01867127051595904	0.4383669855808011
1.76	-0.3096633027836502	-0.1046099391834441	0.1133236979564522	0.2345488704231239	0.9324206571651467	0.0179713156852689	0.4386625939120284
1.765	-0.3107398423007052	-0.1078173030533791	0.1064763422366817	0.216354920406413	0.9266698881729711	0.01741430005474599	0.438970556605715
1.77	-0.311105675570679	-0.1111146631837548	0.09938749282718305	0.1988939978944125	0.9209667600689875	0.01699738344897719	0.4392851163929661
1.775	-0.3107530226167577	-0.1143976236460699	0.09211927191522362	0.1822376303504967	0.9153120877714529	0.01671238896234416	0.4395991149416051
1.78	-0.3096865001560595	-0.1175563442546905	0.08473601645529652	0.1664223397801886	0.9096966147126491	0.01654628125421198	0.4399041755614416
1.785	-0.3079193672052011	-0.1204883586194469	0.07730355377878589	0.1514655214019724	0.9041076688540902	0.01648455211375831	0.440191996465299
1.79	-0.3054708647032537	-0.1231076570625965	0.06988868828843971	0.1373766953290451	0.8985338791622112	0.01651361948306887	0.44045526717831
1.795	-0.3023660668683959	-0.1253451941089842	0.06255917277843039	0.1241581352349536	0.8929654391321907	0.0166209614978449	0.4406877197404861
1.8	-0.2986358811979142	-0.1271488884860421	0.05538370843435515	0.1118048683535947	0.8873941067879508	0.01679511648740312	0.4408841287067189
1.805	-0.2943170484682028	-0.1284836231237901	0.0484319448332358	0.1003046754792147	0.8818132046821581	0.01702568297467577	0.4410403111467794
1.81	-0.2894521427347637	-0.1293312451548353	0.04177447994351875	0.08963809096640966	0.8762176198962219	0.01730331967621057	0.4411531266453179
1.815	-0.2840895713322064	-0.1296905659143722	0.03548286012507502	0.07977840273012536	0.8706038040402959	0.01761974550217075	0.4412204773018643
1.82	-0.2782835748742485	-0.1295773609401829	0.02962958012920037	0.07069165224565725	0.8649697732532777	0.01796773955633503	0.441241307730828
1.825	-0.272094227253715	-0.1290243699726368	0.02428808309861508	0.06233663454865061	0.859315108202808	0.01834114113609762	0.441215605061498
1.83	-0.2655874356425387	-0.1280812969546909	0.01953276056746413	0.05466489823510029	0.8536409540852716	0.01873484973246826	0.4411443989380428
1.835	-0.2588347865309416	-0.1268144011117969	0.01543861518329241	0.04762092777353631	0.8479499874291252	0.01914481159241093	0.441029744236932
1.84	-0.2519102514646713	-0.1252977473866217	0.01207404404993069	0.04114604439518869	0.842245705793653	0.01956773219642473	0.4408743512757471
1.845	-0.2448849712295725	-0.1235993532279153	0.009489412574142032	0.03518458238427462	0.8365313031470258	0.02000062102349504	0.4406810003217589
1.85	-0.2378264086914951	-0.1217789385324392	0.007715198613694215	0.02968489223976959	0.8308094872036197	0.02044071761117547	0.4404524464955854
1.855	-0.2307983480177477	-0.1198879235771437	0.006761990771815578	0.02459934159732193	0.8250824792561491	0.02088549148763642	0.4401914196837984
1.86	-0.2238608946770965	-0.117969429019167	0.006620488397194959	0.01988431522925267	0.8193520141756645	0.02133264217166506	0.4399006245389223
1.865	-0.2170704754397664	-0.1160582758958363	0.007261501583981756	0.01550021504455566	0.8136193404115548	0.02178009917266537	0.4395827404794351
1.87	-0.2104798383774398	-0.1141809856246669	0.00863595117178589	0.01141146008889751	0.8078852199915451	0.02222602199065807	0.4392404216897674
1.875	-0.2041380528632578	-0.1123557800033626	0.01067486874567777	0.007586486544617617	0.8021499285216984	0.02266880011628071	0.4388762971203034
1.88	-0.198090509571819	-0.1105925812098158	0.01328939663618848	0.003997747730728015	0.7964132551864147	0.02310705303078761	0.4384929704873806
1.885	-0.1923789204791807	-0.1088930118021071	0.01637078791930945	0.0006217141029137572	0.7906745027484314	0.02353963020604985	0.4380930202732889
1.89	-0.1870413156028329	-0.1072504094742345	0.01979045619874342	-0.002561132792706197	0.7849324885847754	0.02396561121263706	0.4376789997219919
1.895	-0.1821116363255033	-0.1056516677792237	0.02340618575936776	-0.005567054565712423	0.779185673917966	0.02438431920261807	0.4372534363051892
1.9	-0.1776182540488147	-0.1040839410911533	0.02708475248338628	-0.008411803375414568	0.7734326345496685	0.0247953700216005	0.4368188297774114
1.905	-0.1735833837747769	-0.1025372988891116	0.03071087876082358	-0.01111170953788998	0.7676722472093693	0.0251986916506455	0.4363776514060969
1.91	-0.1700230724529482	-0.1010047785010001	0.03418741143433267	-0.0136837031380395	0.7619036932573466	0.0255945245926018	0.4359323439562901
1.915	-0.1669471989804344	-0.09948238510353404	0.03743532179919497	-0.01614531402958746	0.7561264586846692	0.02598342187210571	0.4354853216906421
1.92	-0.1643594742018901	-0.09796909172224205	0.04039370560332035	-0.01851467183508169	0.7503403341131991	0.02636624903558115	0.4350389703694112
1.925	-0.1622574409095175	-0.09646683923146637	0.04301978304724708	-0.0208105059458935	0.7445454147955893	0.02674418415123962	0.4345956472504625
1.93	-0.1606324738430673	-0.09498053635436285	0.04528889878414184	-0.02305214552221769	0.7387421006152851	0.02711871780908025	0.4341576810892674
1.935	-0.1594697796898383	-0.0935180596629008	0.04719452191979983	-0.02525951949307265	0.7329310960865233	0.02749165312088978	0.433727372138905
1.94	-0.1587483970846772	-0.0920902535778632	0.0487482460126445	-0.02745315655630011	0.7271134103543326	0.0278651057202425	0.4333069921500605
1.945	-0.1584411966130439	-0.09071093036708563	0.04997978906612496	-0.0296541851774227	0.721290357194353	0.02824150376226333	0.432898784370947
1.95	-0.158515371145113	-0.08939658842376899	0.05093577710757256	-0.03188415076886693	0.7154635261056256	0.02862355000698636	0.4325049509050435
1.955	-0.158937074084702	-0.08816374735839058	0.05166823761739665	-0.03416328632162166	0.7096345088667653	0.02901386315202775	0.432127533123331
1.96	-0.1596755544890411	-0.08702657216370736	0.05222434112140507	-0.03650897062830288	0.7038046557536596	0.02941465807131868	0.4317683050486841
1.965	-0.1607034787870322	-0.08599668837138101	0.05264560307195072	-0.03893560833069296	0.6979750565728603	0.0298277209372193	0.4314287650610253
1.97	-0.1619969307792479	-0.08508318205197747	0.05296788384793157	-0.04145462991974102	0.6921465406615787	0.03025440922051883	0.4311101358973233
1.975	-0.1635354116379322	-0.08429259981496715	0.05322138875479069	-0.04407449173556269	0.6863196768876891	0.0306956516904355	0.4308133646515946
1.98	-0.1653018399070001	-0.08362894880872482	0.05343066802451621	-0.04680067596744017	0.6804947736497277	0.03115194841461657	0.4305391227749021
1.985	-0.1672825515020378	-0.08309369672052967	0.05361461681564132	-0.04963569065382236	0.6746718788768911	0.03162337075913833	0.4302878060753558
1.99	-0.1694672997103028	-0.08268577177656537	0.05378647521324433	-0.05257906968232469	0.668850780029039	0.03210956138850609	0.430059534718113
1.995	-0.1718492551907236	-0.08240156274191993	0.0539538282289486	-0.05562737278972927	0.6630310040966921	0.03260973426565424	0.4298541532253777
2	-0.1744250059738999	-0.08223491892058579	0.05411860580092256	-0.05877418556198468	0.6572118176010332	0.03312267465194611	0.4296712304764009
2.005	-0.1771945081614292	-0.08217717697744678	0.0542771426213696	-0.0620101687272774	0.6513922308529553	0.03364674735922941	0.4295100614941655
2.01	-0.1801595224260241	-0.08221801155898227	0.05442207547924349	-0.06532462141482552	0.6455711330226582	0.03418015845188947	0.4293697241075188
2.015	-0.1833204932448873	-0.08234713314354106	0.05454613038162148	-0.06870860144028698	0.6397475617403664	0.03472147760763921	0.4292491920495463
2.02	-0.1866758858064325	-0.08255464879664319	0.05464292723249987	-0.07215558829679067	0.6339207603804647	0.03526974910753243	0.429147358988452
2.025	-0.1902221837731893	-0.08283106338806935	0.05470698254755987	-0.07566148539168663	0.6280901782547609	0.03582449221041365	0.4290630386086324
2.03	-0.1939538892818033	-0.08316727959186113	0.05473370945416767	-0.07922462004654612	0.6222554706124845	0.03638570115291821	0.4289949646106769
2.035	-0.197863522943036	-0.08355459788632075	0.05471941769137431	-0.08284574349716138	0.6164164986402874	0.03695384514947209	0.4289417907113669
2.04	-0.201941623841765	-0.08398471655401128	0.0546613136099158	-0.08652803089354616	0.6105733294622433	0.03752986839229215	0.4289020906436763
2.045	-0.2061767495369834	-0.08444973168175646	0.05455750017221304	-0.09027708129993484	0.6047262361398485	0.0381151900513859	0.4288743581567717
2.05	-0.2105554760618006	-0.08494213716064078	0.05440697695237187	-0.09410091769478321	0.5988756976720214	0.03871170427455164	0.4288570070160119
2.055	-0.2150623979234421	-0.08545482468600964	0.05420964013618308	-0.09800998697076849	0.5930223989951023	0.03932178018737847	0.4288483710029483
2.06	-0.2196801304473416	-0.08598108379735647	0.05396628294686832	-0.1020171576396373	0.5871672308049377	0.03994826142218771	0.4288467039711601
2.065	-0.2243900045854771	-0.08651461370130284	0.05367872183967488	-0.1061370395306534	0.5813112368210102	0.04059432649246303	0.4288501963963174
2.07	-0.2291753369459852	-0.08704957891499188	0.05335039042115027	-0.1103827820353524	0.5754553655915825	0.04126283166234845	0.4288570532670087
2.075	-0.234023068073603	-0.0875806371433541	0.05298663700190036	-0.1147644700324707	0.5696003461484092	0.04195598172515086	0.428865533107941
2.08	-0.2389238141083406	-0.08810294015814013	0.0525947339790979	-0.1192890733078449	0.563746684085847	0.04267531962224437	0.4288739492104291
2.085	-0.2438718667854802	-0.08861213379792078	0.05218387783648275	-0.1239604465544111	0.5578946615608587	0.04342172644307033	0.4288806696323955
2.09	-0.2488651934355779	-0.08910435796808713	0.0517651891443617	-0.1287793293722062	0.5520443372930092	0.04419542142513753	0.4288841171983708
2.095	-0.2539054369844616	-0.08957624664085037	0.05135171255960858	-0.1337433462683663	0.5461955465644682	0.04499596195402186	0.4288827694994929
2.1	-0.2589979159532326	-0.0900249278552419	0.05095841682566422	-0.1388470066571281	0.5403479012200092	0.04582224356336661	0.4288751588935081
2.105	-0.264151624458265	-0.09044802371711338	0.05060219477253646	-0.1440817048598283	0.5345007896670096	0.04667249993488237	0.4288598725047703
2.11	-0.2693792322112051	-0.09084365039913658	0.05030186331680011	-0.1494357201049033	0.5286533768754506	0.04754430289834694	0.428835552224241
2.115	-0.2746970845189735	-0.09121041814080356	0.05007816346159702	-0.1548942165278901	0.5228046043779169	0.04843456243160552	0.4288008947094896
2.12	-0.2801252042731706	-0.09154753137027923	0.04995352537052433	-0.1604396050534403	0.5169532151939096	0.04933959334043867	0.4287546775102158
2.125	-0.285687317520417	-0.0918560755939158	0.04994904880755503	-0.1660561947492269	0.5110980741878324	0.0502559723104535	0.4286960948656779
2.13	-0.2914108821438871	-0.09214046086445697	0.05008111618041302	-0.1717354101203527	0.5052385274056448	0.05118149923837102	0.4286251343593367
2.135	-0.2973270908953885	-0.09240857437778222	0.05036103448727288	-0.1774763426574485	0.4993744400622608	0.0521152988594985	0.4285426167370322
2.14	-0.3034708713953819	-0.09267178047386077	0.05079503531452205	-0.1832857508401204	0.4935061965417861	0.05305782074836472	0.4284501959072325
2.145	-0.309880886132979	-0.09294492063675143	0.05138427483676074	-0.189178060136949	0.4876347003975194	0.05401083931871978	0.4283503589410342
2.15	-0.3165995324659445	-0.09324631349460252	0.05212483381680202	-0.1951753630054902	0.4817613743519507	0.05497745382353523	0.4282464260721617
2.155	-0.323672942620695	-0.09359775481965218	0.05300771760567173	-0.2013074188922748	0.4758881602967626	0.05596208835500404	0.4281425506969679
2.16	-0.3311509836922999	-0.09402451752822805	0.05401885614260862	-0.2076116542328089	0.4700175192928292	0.05697049184454069	0.4280437193744336
2.165	-0.3390872576444798	-0.09455535168074738	0.05513910395506414	-0.2141331624515732	0.4641524315702176	0.0580097380627809	0.4279557518261681
2.17	-0.3475391013096081	-0.09522248448171711	0.05634424015870258	-0.2209247039620234	0.4582963965281865	0.05908822561958193	0.4278853009364086
2.175	-0.3565675266198426	-0.09606156001252356	0.05760498064136099	-0.2280466529732542	0.4524534318468608	0.06021567220477528	0.4278398418143683
2.18	-0.3662342127932384	-0.09710860633892923	0.05888759120973813	-0.2355643205837413	0.4466280287830469	0.06140282475929253	0.427827121366842
2.185	-0.3765939083230511	-0.09839237414951491	0.06015543645354647	-0.2435411926733343	0.4408250392434066	0.06266072734114095	0.4278537678686813
2.19	-0.3876923450846586	-0.09993223347079556	0.06136940495747132	-0.2520370734917752	0.4350496447824874	0.06400052013157047	0.427924909246128
2.195	-0.3995662216144822	-0.101738156806726	0.06248791270978345	-0.2611080707772055	0.429307356354205	0.06543343782385307	0.4280441700168704
2.2	-0.4122432031099895	-0.1038107191387013	0.06346690310233932	-0.2708065957561687	0.4236040143118411	0.06697080962328308	0.4282136712900439
2.205	-0.4257419214296912	-0.106141097925556	0.0642598469305808	-0.2811813631436084	0.4179457884080442	0.06862405924717691	0.4284340307662305
2.21	-0.4400719750931448	-0.1087110731035654	0.06481774239353559	-0.2922773911428703	0.41233917779483	0.07040470492487338	0.4287043627374598
2.215	-0.4552339292809515	-0.1114930270864443	0.06508911509381674	-0.3041360014457	0.4067910110235804	0.07232435939773341	0.4290222780872073
2.22	-0.4712193158347564	-0.1144499447653474	0.06502001803762292	-0.3167948192322437	0.4013084460450449	0.07439472991914002	0.4293838842903963
2.225	-0.4880106332572517	-0.1175354135088701	0.06455403163473844	-0.3302877731710503	0.395898970209339	0.07662761825449879	0.4297837854133966
2.23	-0.5055813439774047	-0.1206936241777656	0.06363226498355894	-0.3446450964873083	0.3905704004508362	0.07903492072417195	0.4302150822792989
2.235	-0.523892898571287	-0.1238604752695983	0.06219475414481856	-0.3598944893469718	0.3853310844730992	0.08162867492210731	0.4306695523078496
2.24	-0.5428764144139695	-0.1269703709428393	0.06018907106657892	-0.3760682754510085	0.3801911394090577	0.08442134735420193	0.4311387567582345
2.245	-0.5624211040785575	-0.129960514588589	0.057575760904896	-0.3932079220768495	0.3751632341477926	0.08742601510814112	0.4316147400538018
2.25	-0.5823737345253096	-0.1327711094951474	0.05432859614269289	-0.4113642513272619	0.3702626258973959	0.0906563743439289	0.4320900624657357
2.255	-0.6025386271016357	-0.1353453588480136	0.05043457658976021	-0.4305974401303462	0.3655071601849711	0.09412674029388785	0.4325578001130557
2.26	-0.6226776575420997	-0.1376294657298856	0.04589392938275558	-0.4509770202395387	0.3609172708566331	0.09785204726265932	0.4330115449626167
2.265	-0.6425102559684159	-0.1395726331206606	0.04072010898520403	-0.4725818782336089	0.3565159800775084	0.1018478486272031	0.4334454048291093
2.27	-0.6617134068894499	-0.1411270638974349	0.03493979718749838	-0.4955002555166599	0.3523288983317351	0.1061303168367975	0.4338540033750595
2.275	-0.6799216492012226	-0.1422479608345039	0.02859290310689787	-0.5198297483181318	0.3483842244224626	0.1107162434130397	0.434232480110829
2.28	-0.6967270761869039	-0.142893526603362	0.02173256318752995	-0.5456773076927962	0.344712745471852	0.1156230389498452	0.434576490394615
2.285	-0.7116793355168171	-0.1430249637727029	0.01442514120038883	-0.5731592395207609	0.3413478369210756	0.1208687331134482	0.43488220543245
2.29	-0.724288501576707	-0.1426066084953801	0.00674990983251145	-0.6023994959666524	0.3383253491239174	0.1264717071987514	0.4351463279249318
2.295	-0.7340764835958223	-0.1416083232002467	-0.00120664814091696	-0.6334990964939335	0.3356815776307416	0.1324459074976692	0.4353663721080152
2.3	-0.7406495741566428	-0.1400088732221486	-0.009358882193180316	-0.6664929739917091	0.3334503987995591	0.1387940902779617	0.4355410589539829
2.305	-0.7437086984752446	-0.1377964038348447	-0.01762311022599035	-0.701343878217443	0.3316628651298871	0.1455068674685821	0.4356703720034049
2.31	-0.7430494179513911	-0.1349684404162397	-0.02591761896303127	-0.737942373685272	0.3303472051225859	0.1525627063291281	0.4357555573844789
2.315	-0.7385619301685311	-0.1315318884483841	-0.03416266394995784	-0.7761068396659963	0.3295288232798564	0.1599279294498396	0.4357991238130293
2.32	-0.7302310688938001	-0.1275030335174734	-0.04228046955439708	-0.8155834701870873	0.3292303001052415	0.1675567147516004	0.4358048425925075
2.325	-0.7181363040780183	-0.1229075413138488	-0.05019522896594825	-0.8560462740326885	0.3294713921036259	0.1753910954859384	0.4357777476139919
2.33	-0.7024517418556934	-0.1177804576319972	-0.0578331041961812	-0.8970970747436068	0.3302690317812357	0.1833609602350237	0.4357241353561878
2.335	-0.6834461245450186	-0.1121662083705508	-0.06512222607863823	-0.9382655106173213	0.3316373276456387	0.1913840529116706	0.4356515648854275
2.34	-0.6614828306478733	-0.1061185995322874	-0.07199269426883294	-0.9790090347079783	0.3335875642057445	0.1993659727593365	0.4355688578556704
2.345	-0.6370196086632564	-0.09970080651054487	-0.07837659939046221	-1.018713243726516	0.3361281882733687	0.2072002351642365	0.4354860915548619
2.35	-0.6105849707895629	-0.09298442397335271	-0.08420998703403849	-1.056721045982045	0.3392635941410432	0.2147736646730589	0.4354139822332624
2.355	-0.5827022434993735	-0.08604640902008559	-0.08943917660320228	-1.092426504491392	0.3429902150891158	0.2219837461507147	0.4353619010625984
2.36	-0.5538629009684954	-0.07896800789447163	-0.09402297992221136	-1.125307786194075	0.3472951510764413	0.2287447169380869	0.4353371775203084
2.365	-0.5245261593656148	-0.07183473965539927	-0.09793273499026196	-1.154927663248017	0.3521561478618027	0.2349876595392923	0.4353450887910975
2.37	-0.4951189768522891	-0.06473639617691555	-0.1011523059814899	-1.18093351302955	0.3575415970039106	0.2406605016216825	0.4353888597669361
2.375	-0.4660360535829485	-0.05776704214822621	-0.1036780832449701	-1.203057318133414	0.3634105358614051	0.2457280160158446	0.435469663047061
2.38	-0.4376398317049003	-0.05102501507369707	-0.1055189833047164	-1.221115666372754	0.369712647592853	0.2501718207155991	0.4355866189379746
2.385	-0.4102604953583238	-0.04461292527285246	-0.106696448859682	-1.235009750779126	0.3763882611567501	0.2539903788780022	0.4357367954534455
2.39	-0.3841959706762729	-0.03863765588037612	-0.1072444487837592	-1.244725369602488	0.3833683513115198	0.2571989988233442	0.4359152083145079
2.395	-0.3597119257846743	-0.0332103628461106	-0.1072094781257796	-1.250332926311212	0.3905745386155148	0.2598298340351505	0.4361148209494624
2.4	-0.3370417707314805	-0.02844647476330329	-0.1066505580327021	-1.251987429113736	0.3979190895754808	0.2619318830042167	0.4363265445199704
2.405	-0.3163857966712937	-0.02446360604057436	-0.1056383024851153	-1.249922679173273	0.4053067205163765	0.2635690942526079	0.4365395549801919
2.41	-0.2979041452229259	-0.02136451289678063	-0.1042472959322628	-1.24440380330476	0.4126493305473811	0.2648048892650232	0.4367438826325503
2.415	-0.2817112202343869	-0.01922354610595237	-0.1025500347323514	-1.235689525069221	0.419877711910884	0.2656898606973557	0.4369324704099367
2.42	-0.2678753179485659	-0.01808575442801564	-0.1006165261917321	-1.224029667841553	0.4269423249836999	0.2662609582332959	0.43710131009464
2.425	-0.2564186270032284	-0.017966884608792	-0.09851428856489997	-1.209665154810512	0.4338132982770696	0.2665414885843312	0.4372494423183464
2.43	-0.2473172284310198	-0.01885338137999894	-0.09630835105449458	-1.192828008978728	0.4404804284366595	0.2665411154897466	0.4373789565621399
2.435	-0.2405010956594641	-0.02070238745924959	-0.09406125381129958	-1.173741353162695	0.4469531802425608	0.2662558597166237	0.4374949911565014
2.44	-0.2358540945109633	-0.02344174355005276	-0.09183304793424298	-1.152619409992777	0.4532606866092909	0.2656680990598417	0.43760573328131
2.445	-0.2332139832027982	-0.02696998834181336	-0.08968129547039677	-1.129667501913201	0.4594517485857932	0.264746568342077	0.4377224189658425
2.45	-0.2323724123471279	-0.03115635850983154	-0.08766106941497746	-1.105082051182066	0.4655948353554358	0.2634463594138028	0.4378593330887726
2.455	-0.2330749249509904	-0.03584078871530339	-0.08582495371134573	-1.079050579871338	0.4717780842360128	0.2617089211532901	0.4380338093781721
2.46	-0.2350219592743772	-0.04083478048787412	-0.08422293589988769	-1.051751687063307	0.4781087440556618	0.2594625241444383	0.438266093071206
2.465	-0.2378947932667263	-0.0459438806488258	-0.08289962989126082	-1.023354458911787	0.4846987750113951	0.2566342821230812	0.43857578785226
2.47	-0.2414016508468465	-0.05100762808240707	-0.08188934051157226	-0.994017420252237	0.491639257943567	0.253171515484671	0.4389755416489149
2.475	-0.2452862814090928	-0.05590698707402074	-0.081215145107636	-0.9638883395162557	0.4989956323861302	0.2490457266287748	0.4394698716780682
2.48	-0.2493279761391287	-0.06056436144630375	-0.08088889180044895	-0.9331042283605799	0.5068076875107738	0.2442526075190404	0.4400551622115084
2.485	-0.2533415680139254	-0.06494359455912588	-0.08091119948519121	-0.9017913416670912	0.515089562126921	0.2388120396831966	0.4407196645759155
2.49	-0.257177431801763	-0.06904996930959079	-0.08127145783122593	-0.8700651775428104	0.523829744681732	0.2327680942130528	0.4414434971528605
2.495	-0.2607214840622294	-0.07293020813203588	-0.08194782728209932	-0.8380304773198964	0.5329910732601022	0.2261890317644983	0.4421986453788053
2.5	-0.2638951831462206	-0.07667247299803152	-0.08290723905554062	-0.8057812255556539	0.5425107355846619	0.2191673025575043	0.4429489617451033
2.505	-0.2666555291959413	-0.08040636541638208	-0.08410539514346224	-0.7734006500325247	0.5523002690157779	0.211819546376122	0.4436501657979992
2.51	-0.2689950641449038	-0.08430292643312499	-0.08548676831195949	-0.7409612217580939	0.5622455605515516	0.2042865925684838	0.4442498441386283
2.515	-0.2709418176823943	-0.08857451021888271	-0.08698461816356437	-0.708524651822153	0.5722069571495382	0.1967333704824839	0.4446874902605877
2.52	-0.272549292990254	-0.09345135634583322	-0.08852396791229732	-0.6761413089260209	0.5820397113595996	0.1893323107469518	0.4449018875417881
2.525	-0.2738550622674726	-0.09908472668746816	-0.09003391200997793	-0.6438478111281261	0.5916785148222226	0.182194717033043	0.4448616345959394
2.53	-0.2748623158568259	-0.1055037407901676	-0.09145310073339061	-0.6116659526654116	0.601175168516885	0.175340183588767	0.4445787481352617
2.535	-0.2755393955723012	-0.1126142841228058	-0.09272987890435287	-0.5796026768097393	0.6106995355446949	0.1686958217255809	0.4441090070237354
2.54	-0.275819794699098	-0.1201990080767515	-0.09382228588971543	-0.5476500758678911	0.6205395411283905	0.1620962598183901	0.4435519522771024
2.545	-0.275602157993627	-0.1279173299658674	-0.09469805560136206	-0.5157853911815667	0.6311011726123392	0.1552836433055479	0.4430508870628649
2.55	-0.274750281683511	-0.1353054330265109	-0.09533461649620965	-0.4839710131273857	0.6429084794625386	0.1479076346888554	0.4427928767002862
2.555	-0.2730931134675845	-0.1417762664175332	-0.09571909157620831	-0.4521544811168863	0.6566035732666158	0.1395254135335617	0.4430087486603904
2.56	-0.2704247525158938	-0.14661954522028	-0.09584829838834122	-0.4202684835965276	0.6729466277338275	0.1296016764683643	0.4439730925659623
