Coordinates
version=1
nRows=63
nColumns=42
inDegrees=yes
"Units are S.I. units (second, meters, Newtons, ...)"
"If the header above contains a line with 'inDegrees', this indicates whether rotational values are in degrees (yes) or radians (no)."
endheader
time	pelvis_tilt	pelvis_list	pelvis_rotation	pelvis_tx	pelvis_ty	pelvis_tz	hip_flexion_r	hip_adduction_r	hip_rotation_r	knee_angle_r	knee_adduction_r	knee_angle_r_beta	ankle_angle_r	subtalar_angle_r	mtp_angle_r	hip_flexion_l	hip_adduction_l	hip_rotation_l	knee_angle_l	knee_adduction_l	knee_angle_l_beta	ankle_angle_l	subtalar_angle_l	mtp_angle_l	lumbar_extension	lumbar_bending	lumbar_rotation	arm_flex_r	arm_add_r	arm_rot_r	elbow_flex_r	pro_sup_r	wrist_flex_r	wrist_dev_r	arm_flex_l	arm_add_l	arm_rot_l	elbow_flex_l	pro_sup_l	wrist_flex_l	wrist_dev_l
0	-30.64448964	-0.074912178	-9.115584147	-0.161255059	0.940379774	0.377467526	25.28830052	-4.034117535	-10.44178936	20.37033307	5.85288448	0.355529381	2.814343826	13.00099995	0	51.7144537	-12.03907151	-8.373232242	44.75968837	4.7086539	0.781203934	14.5043531	-6.43948707	-0.02727	-7.497477047	5.082679185	3.871044634	0.098697191	-15.60070678	-22.49096466	88.0002286	90.00000001	0	0	-59.27353382	-44.30319721	-55.48346754	33.40263412	90.00000001	0	0
0.005	-30.52162644	-0.055151413	-9.42989846	-0.153250655	0.944051641	0.376051473	24.65381429	-4.545474326	-11.27347267	20.77219136	5.85288448	0.362543131	1.261550217	12.97383838	0	51.27588786	-11.95296719	-9.192435984	41.55648788	4.7086539	0.725297539	14.61738597	-5.257636657	-0.025898	-7.620941103	4.902135687	4.160773147	0.286157649	-15.76245603	-22.33728118	88.24518392	90.00000001	0	0	-59.67055027	-42.85888171	-55.56079695	33.33633077	90.00000001	0	0
0.01	-30.33139702	-0.062245349	-9.762278475	-0.145111706	0.947521166	0.374612903	24.02880777	-5.068880767	-12.02808785	21.44414604	5.85288448	0.374270953	-0.214551649	12.83455548	0	50.74008953	-11.88828936	-10.08678489	38.34931673	4.7086539	0.669321843	14.73193382	-3.975668898	-0.024578	-7.783403324	4.74879608	4.463516839	0.465819905	-15.92626437	-22.17706698	88.46109125	90.00000001	0	0	-60.02380678	-41.40293658	-55.59885856	33.26270038	90.00000001	0	0
0.015	-30.07463458	-0.09663585	-10.11029635	-0.136841783	0.95076505	0.373154149	23.40871688	-5.602402128	-12.68901354	22.37967812	5.85288448	0.390599068	-1.600698428	12.5904568	0	50.11722322	-11.84573403	-11.05537299	35.16181982	4.7086539	0.613689527	14.8527678	-2.598991864	-0.02331	-7.982562503	4.624145348	4.777897899	0.636372864	-16.09245178	-22.01102467	88.64781517	90.00000001	0	0	-60.34149576	-39.94119848	-55.60260123	33.18177484	90.00000001	0	0
0.02	-29.75312859	-0.158357298	-10.47105587	-0.128445247	0.95376224	0.371677653	22.7884206	-6.143911948	-13.24114659	23.56796308	5.85288448	0.411338553	-2.885912611	12.2518342	0	49.41858408	-11.82569358	-12.0958398	32.01759342	4.7086539	0.558812424	14.9837981	-1.135479917	-0.022093	-8.215291461	4.529294332	5.102328546	0.796350417	-16.26100476	-21.84030756	88.80502498	90.00000001	0	0	-60.6313844	-38.47976226	-55.57653212	33.09380291	90.00000001	0	0
0.025	-29.36960652	-0.247017522	-10.84122486	-0.119927211	0.956494037	0.370186022	22.1623845	-6.691085364	-13.67128702	24.99415611	5.85288448	0.436230317	-4.061755943	11.83154534	0	48.6564319	-11.82823331	-13.20417087	28.93993201	4.7086539	0.505097099	15.12785977	0.404449881	-0.020926	-8.47766922	4.464932058	5.435015973	0.944141213	-16.4315383	-21.66651325	88.93218811	90.00000001	0	0	-60.90069095	-37.02497616	-55.52467445	32.99920076	90.00000001	0	0
0.03	-28.92769386	-0.361786903	-11.21707574	-0.111293496	0.958944146	0.368682082	21.52481905	-7.241399862	-13.9684666	26.63978749	5.85288448	0.464952003	-5.122495883	11.34449285	0	47.84380505	-11.85307199	-14.37453993	25.95157718	4.7086539	0.452940468	15.28653146	2.00782952	-0.019807	-8.76503318	4.431285204	5.773967279	1.078001373	-16.60326697	-21.49166682	89.02857403	90.00000001	0	0	-61.1559826	-35.58342744	-55.45054875	32.89850125	90.00000001	0	0
0.035	-28.43185334	-0.501395958	-11.59453414	-0.102550567	0.961098675	0.367168908	20.86985063	-7.792144352	-14.12420818	28.48325699	5.85288448	0.497126616	-6.065178915	10.80702949	0	46.99431985	-11.89956704	-15.5992046	23.0744748	4.7086539	0.402725558	15.45999539	3.659206702	-0.018736	-9.072050217	4.428086216	6.116995807	1.196069296	-16.77498671	-21.31819461	89.09326896	90.00000001	0	0	-61.40309491	-34.16191808	-55.35717522	32.79230453	90.00000001	0	0
0.04	-27.88730532	-0.664141463	-11.96923537	-0.093705472	0.962946091	0.365649841	20.19170313	-8.340437054	-14.13270529	30.50041347	5.85288448	0.532332638	-6.889608557	10.23631938	0	46.12196124	-11.96670541	-16.86846643	20.32954611	4.7086539	0.354817515	15.64694591	5.340791402	-0.017711	-9.392805012	4.454551348	6.461730431	1.296381915	-16.94506902	-21.14888936	89.12520072	90.00000001	0	0	-61.64707223	-32.76742996	-55.24709444	32.68123238	90.00000001	0	0
0.045	-27.29993158	-0.847901095	-12.33658838	-0.084765772	0.964477134	0.364128486	19.48488824	-8.883252031	-13.99091542	32.66520251	5.85288448	0.570115334	-7.598230045	9.64968731	0	45.24087072	-12.05310106	-18.17070425	17.73647801	4.7086539	0.309559939	15.84455309	7.032685091	-0.016731	-9.720903552	4.509369885	6.805629149	1.376892191	-17.11146868	-20.98686723	89.12317272	90.00000001	0	0	-61.89212779	-31.40707928	-55.12240299	32.56588835	90.00000001	0	0
0.05	-26.67616527	-1.050156638	-12.69184702	-0.075739474	0.965684707	0.362608682	18.74440201	-9.417453481	-13.69856463	34.95036253	5.85288448	0.6099989	-8.195927813	9.063987081	0	44.36513701	-12.15700016	-19.49248689	15.31353685	4.7086539	0.267271638	16.0484865	8.713192763	-0.015795	-10.04958957	4.590705736	7.145998118	1.435487986	-17.27174563	-20.83551686	89.08590496	90.00000001	0	0	-62.14162177	-30.08805995	-54.98480079	32.44682521	90.00000001	0	0
0.055	-26.02287	-1.2680258	-13.0301877	-0.06663497	0.966563746	0.361094456	17.96592449	-9.939836329	-13.2580652	37.3281475	5.85288448	0.651499077	-8.689745912	8.495017442	0	43.50859435	-12.27629486	-20.81876761	13.07740862	4.7086539	0.228243838	16.25300201	10.35921471	-0.014903	-10.37187164	4.696212572	7.480016818	1.470012874	-17.42310157	-20.69844053	89.01208036	90.00000001	0	0	-62.39805533	-28.81757599	-54.83564673	32.3245209	90.00000001	0	0
0.06	-25.34721103	-1.498302723	-13.34679289	-0.057460984	0.96711109	0.359589958	17.14601872	-10.44717116	-12.67435236	39.77105302	5.85288448	0.694135822	-9.088545111	7.957008747	0	42.68463198	-12.40854636	-22.13315878	11.0430665	4.7086539	0.19273787	16.45109212	11.94671143	-0.014052	-10.68065881	4.823063455	7.804769722	1.478289624	-17.56243092	-20.57938752	88.90039352	90.00000001	0	0	-62.66307807	-27.60276304	-54.67601928	32.19936353	90.00000001	0	0
0.065	-24.65652184	-1.73750715	-13.63693918	-0.048226535	0.967325353	0.35809938	16.28232427	-10.93625135	-11.95464969	42.25252194	5.85288448	0.737445625	-9.402613155	7.462197683	0	41.9060174	-12.55101772	-23.41828031	9.223665135	4.7086539	0.160983326	16.63469714	13.45123103	-0.013242	-10.96890238	4.967995577	8.117284398	1.458147237	-17.68638548	-20.48217982	88.74959986	90.00000001	0	0	-62.93750666	-26.45059957	-54.50677881	32.07164571	90.00000001	0	0
0.07	-23.95816853	-1.981942077	-13.89608859	-0.038940917	0.967206824	0.356626852	15.37373993	-11.40394039	-11.10817639	44.74760617	5.85288448	0.78099306	-9.643246194	7.020500844	0	41.18473411	-12.70071625	-24.65617138	7.630458978	4.7086539	0.133176633	16.79497173	14.84848488	-0.012471	-11.22974221	5.127370243	8.414575632	1.40745238	-17.79145148	-20.41063088	88.55856247	90.00000001	0	0	-63.22135215	-25.36780891	-54.32862819	31.94156788	90.00000001	0	0
0.075	-23.25941491	-2.227759428	-14.11998154	-0.029613693	0.966757385	0.355176343	14.42058943	-11.84721776	-10.14581153	47.23356263	5.85288448	0.824381185	-9.822319624	6.639291814	0	40.5318336	-12.85444527	-25.82875071	6.272740865	4.7086539	0.109479982	16.92259846	16.11495357	-0.011739	-11.45665545	5.297247544	8.693694715	1.324145974	-17.87403701	-20.36845814	88.32629455	90.00000001	0	0	-63.51385427	-24.36075349	-54.14216822	31.80925035	90.00000001	0	0
0.08	-22.56728984	-2.471032972	-14.30472966	-0.020254715	0.965980485	0.35375154	13.42476333	-12.2632222	-9.079732186	49.69036373	5.85288448	0.867260453	-9.95186574	6.323281186	0	39.95729983	-13.00886393	-26.91830784	5.157795757	4.7086539	0.090020519	17.00813762	17.22850308	-0.011045	-11.64360629	5.473474481	8.951782641	1.206285512	-17.93056739	-20.3591906	88.05199548	90.00000001	0	0	-63.8135208	-23.43532355	-53.94794472	31.67475313	90.00000001	0	0
0.085	-21.88845882	-2.707837415	-14.44690621	-0.010874153	0.964881145	0.35235574	12.38983019	-12.6492918	-7.923042367	52.10110566	5.85288448	0.909335837	-10.04367403	6.074494568	0	39.46992364	-13.16055417	-27.90800537	4.290864462	4.7086539	0.074889713	17.04240071	18.16898911	-0.010386	-11.78519533	5.651784673	9.186125595	1.052093403	-17.95758557	-20.38607322	87.73507902	90.00000001	0	0	-64.11817113	-22.59682279	-53.74648417	31.53810258	90.00000001	0	0
0.09	-21.22910063	-2.93433232	-14.54363202	-0.001482547	0.96346602	0.350991735	11.32111026	-13.00300055	-6.689409052	54.45230139	5.85288448	0.950371944	-10.10892777	5.892340267	0	39.07718411	-13.30609285	-28.78237122	3.675112296	4.7086539	0.064142811	17.01683317	18.91882742	-0.0097632	-11.87680706	5.827907196	9.39421089	0.860011216	-17.95185443	-20.4519697	87.37519279	90.00000001	0	0	-64.42498286	-21.84985397	-53.53831597	31.39932397	90.00000001	0	0
0.095	-20.5947904	-3.146849264	-14.59265431	0.007909138	0.961743514	0.349661709	10.22570529	-13.32219114	-5.392719733	56.7340493	5.85288448	0.990195958	-10.15788848	5.773755728	0	38.78513431	-13.44212748	-29.52775979	3.311598525	4.7086539	0.057798299	16.92389098	19.46350813	-0.0091741	-11.91475405	5.997681687	9.573781442	0.628759168	-17.91045768	-20.55926621	86.97222866	90.00000001	0	0	-64.73054094	-21.19820805	-53.32398004	31.25847857	90.00000001	0	0
0.1	-19.99038976	-3.341980355	-14.59241625	0.017289444	0.959723932	0.348367148	9.112479319	-13.60500385	-4.04677347	58.94007279	5.85288448	1.028698331	-10.19963731	5.713420006	0	38.59828925	-13.56545322	-30.13276233	3.199243909	4.7086539	0.055837341	16.75739499	19.79203346	-0.008618	-11.89641593	6.15717637	9.722886871	0.357399636	-17.83089606	-20.70977816	86.52632463	90.00000001	0	0	-65.0308889	-20.64476052	-53.10401988	31.11570416	90.00000001	0	0
0.105	-19.41994529	-3.516665909	-14.54211472	0.026646354	0.957419681	0.347108766	7.991986748	-13.84990129	-2.665014349	61.06763058	5.85288448	1.06583122	-10.24187982	5.704018907	0	38.51951526	-13.67308903	-30.58854894	3.334795505	4.7086539	0.058203162	16.51284702	19.89726041	-0.0080937	-11.8203707	6.302805375	9.839929389	0.045402859	-17.71117565	-20.90466303	86.03785897	90.00000001	0	0	-65.321582	-20.19137897	-52.87896184	30.97125755	90.00000001	0	0
0.11	-18.88659658	-3.668278736	-14.44174409	0.035967237	0.954845494	0.345886448	6.876345571	-14.05568869	-1.260313209	63.11730197	5.85288448	1.101604734	-10.29081769	5.736549877	0	38.54992171	-13.76235048	-30.88912827	3.712790141	4.7086539	0.064800413	16.18769293	19.77613373	-0.0076002	-11.68651555	6.431441359	9.923702765	-0.307287561	-17.54988535	-21.14434201	85.50743809	90.00000001	0	0	-65.59774249	-19.83884594	-52.64928228	30.82555807	90.00000001	0	0
0.115	-18.39249547	-3.79470216	-14.2921238	0.045238799	0.952018669	0.344699221	5.77905617	-14.22152995	0.155199491	65.09265569	5.85288448	1.13608116	-10.35108713	5.800655136	0	38.68875769	-13.83091659	-31.03151536	4.32552021	4.7086539	0.075494571	15.78151915	19.42979824	-0.0071362	-11.49617319	6.540519255	9.973422837	-0.700192217	-17.34626046	-21.42843338	84.93587964	90.00000001	0	0	-65.85411733	-19.58680126	-52.41536491	30.67923076	90.00000001	0	0
0.12	-17.93873879	-3.894398623	-14.09490814	0.054447053	0.94895931	0.34354524	4.714768103	-14.34695937	1.570249471	66.99981487	5.85288448	1.169367367	-10.42576111	5.884973143	0	38.93331852	-13.87688822	-31.01580231	5.16300749	4.7086539	0.090111481	15.29617186	18.86358508	-0.0067007	-11.25217928	6.628126892	9.988748312	-1.132239727	-17.10023001	-21.75570073	84.32419249	90.00000001	0	0	-66.08513904	-19.43370746	-52.17745099	30.53314837	90.00000001	0	0
0.125	-17.52531718	-3.966465601	-13.85257657	0.063577315	0.945690545	0.342421812	3.698999806	-14.43188951	2.974485382	68.84693399	5.85288448	1.201605677	-10.51640938	5.977499954	0	39.27886856	-13.89883552	-30.84513166	6.212992479	4.7086539	0.108437176	14.73579062	18.08687165	-0.0062926	-10.95894587	6.693078264	9.969790919	-1.60172015	-16.81244567	-22.12401888	83.67355523	90.00000001	0	0	-66.2849904	-19.37684185	-51.93558563	30.38847127	90.00000001	0	0
0.13	-17.15108296	-4.010675628	-13.56840392	0.072614219	0.942238699	0.341325436	2.74781822	-14.47661518	4.358500901	70.64360674	5.85288448	1.232963533	-10.62320872	6.065953121	0	39.71858858	-13.89583224	-30.52557666	7.460947829	4.7086539	0.130218106	14.10675146	17.11282036	-0.0059107	-10.62249535	6.734965566	9.917114405	-2.106251208	-16.48429024	-22.53036022	82.98529484	90.00000001	0	0	-66.44767355	-19.41231768	-51.68956381	30.24668425	90.00000001	0	0
0.135	-16.81374019	-4.027497606	-13.24641014	0.081541766	0.938633413	0.340251871	1.877487018	-14.48181342	5.71381827	72.40022518	5.85288448	1.263622308	-10.74509433	6.138131455	0	40.24355625	-13.86747525	-30.06593705	8.890124918	4.7086539	0.155161952	13.41751909	15.95800725	-0.005554	-10.25045976	6.754186778	9.831722275	-2.642760173	-16.11786508	-22.97080372	82.26086678	90.00000001	0	0	-66.56708404	-19.53513623	-51.4388795	30.10962937	90.00000001	0	0
0.14	-16.50985967	-4.018097314	-12.89129001	0.090343395	0.934907683	0.33919623	1.104093266	-14.44853892	7.032840559	74.12731223	5.85288448	1.293765663	-10.87994314	6.18226421	0	40.84276877	-13.81388832	-29.47746199	10.48164216	4.7086539	0.182939168	12.67841161	14.64195613	-0.0052213	-9.852040923	6.751946533	9.715034628	-3.207483779	-15.71595584	-23.44056826	81.50183785	90.00000001	0	0	-66.6370899	-19.73927041	-51.18268165	29.9795336	90.00000001	0	0
0.145	-16.23492108	-3.984315997	-12.50832391	0.099002081	0.931097793	0.338153095	0.443162927	-14.37821371	8.308780545	75.83484978	5.85288448	1.323567816	-11.02477931	6.187343407	0	41.50321517	-13.73570983	-28.77351479	12.21462219	4.7086539	0.213185375	11.90128649	13.1865988	-0.0049115	-9.437927992	6.730229289	9.568854844	-3.795987811	-15.28197729	-23.93407103	80.70987254	90.00000001	0	0	-66.65161558	-20.01777907	-50.91974009	29.85903063	90.00000001	0	0
0.15	-15.9833839	-3.928627068	-12.10327144	0.107500461	0.927243148	0.337116646	-0.090724021	-14.27260981	9.535574053	77.53162488	5.85288448	1.353182128	-11.17599276	6.143433241	0	42.21000452	-13.63406502	-27.96919528	14.06638299	4.7086539	0.245504698	11.09916074	11.61568551	-0.0046235	-9.020170639	6.691745141	9.39532731	-4.403207282	-14.81989874	-24.44501101	79.88672391	90.00000001	0	0	-66.6047304	-20.36295015	-50.64842424	29.7511758	90.00000001	0	0
0.155	-15.74878761	-3.854072102	-11.68225015	0.11582098	0.923385984	0.336080812	-0.48430791	-14.13382372	10.70778516	79.22461553	5.85288448	1.382730389	-11.32956184	6.041950821	0	42.94655355	-13.51052433	-27.08093635	16.01268461	4.7086539	0.27947407	10.28578174	9.954172241	-0.0043561	-8.612007522	6.639850056	9.196887732	-5.023507279	-14.3341522	-24.96647649	79.03422954	90.00000001	0	0	-66.49074031	-20.76646913	-50.36669653	29.65945362	90.00000001	0	0
0.16	-15.52388107	-3.764178279	-11.25160271	0.123946053	0.919570951	0.335039423	-0.726002007	-13.96424142	11.82050985	80.91843683	5.85288448	1.412293148	-11.48127228	5.875912822	0	43.69483517	-13.36704971	-26.12609107	18.02803049	4.7086539	0.314648491	9.475167956	8.227611651	-0.0041084	-8.227651386	6.578443532	8.97620792	-5.650763695	-13.82952637	-25.49107503	78.15431269	90.00000001	0	0	-66.30428155	-21.21960832	-50.07212195	29.58777706	90.00000001	0	0
0.165	-15.30077996	-3.66286021	-10.81775612	0.13185824	0.915844573	0.333986374	-0.80621239	-13.76649358	12.86928375	82.61486632	5.85288448	1.441901428	-11.62692655	5.64014277	0	44.43568572	-13.20593156	-25.12252539	20.086018	4.7086539	0.350567149	8.681138924	6.461573126	-0.0038791	-7.882033652	6.511847722	8.736137313	-6.278462298	-13.31104979	-26.0110832	77.24898875	90.00000001	0	0	-66.04041404	-21.71343122	-49.76189407	29.54047819	90.00000001	0	0
0.17	-15.07115023	-3.554309491	-10.38707737	0.139540438	0.912254598	0.332915782	-0.717614449	-13.54340101	13.8499987	84.31246472	5.85288448	1.471530109	-11.76253956	5.331433874	0	45.14916628	-13.02971874	-24.08823001	22.15973015	4.7086539	0.386760254	7.916853933	4.681113167	-0.0036671	-7.590512908	6.444672704	8.479643761	-6.899813898	-12.78386711	-26.51861294	76.32037616	90.00000001	0	0	-65.69471149	-22.23900551	-49.43287708	29.52228961	90.00000001	0	0
0.175	-14.82641415	-3.442875467	-9.965730499	0.146976063	0.908849239	0.331822142	-0.455376174	-13.29791199	14.75883163	86.00630574	5.85288448	1.501093212	-11.88451913	4.948662618	0	45.81496943	-12.84114395	-23.04096269	24.22215685	4.7086539	0.42275639	7.194376629	2.910311861	-0.0034714	-7.368553227	6.381672851	8.209756422	-7.507882855	-12.25311271	-27.00579048	75.37071108	90.00000001	0	0	-65.26334494	-22.78761752	-49.08166296	29.53831644	90.00000001	0	0
0.18	-14.55797475	-3.332940641	-9.559540351	0.154149247	0.905676342	0.330700462	-0.017319563	-13.03303381	15.59218817	87.68782471	5.85288448	1.530441255	-11.98983149	4.492848818	0	46.41286077	-12.64304637	-21.99792942	26.24663205	4.7086539	0.458090148	6.524280415	1.171884346	-0.0032907	-7.231379493	6.327599246	7.929513685	-8.095725729	-11.72378601	-27.46494298	74.40236402	90.00000001	0	0	-64.74315612	-23.35098062	-48.70464193	29.59399898	90.00000001	0	0
0.185	-14.25745339	-3.228793933	-9.173868441	0.161045029	0.902782485	0.32954639	0.595987018	-12.75176204	16.34666254	89.34479237	5.85288448	1.559360796	-12.07615276	3.967158607	0	46.92314188	-12.43829312	-20.97551018	28.20727182	4.7086539	0.492309767	5.915306531	-0.513130299	-0.0031241	-7.193617942	6.287052799	7.641918865	-8.656536518	-11.20063292	-27.8887874	73.4178569	90.00000001	0	0	-64.1317167	-23.92142994	-48.29808404	29.69506572	90.00000001	0	0
0.19	-13.91693445	-3.134504863	-8.813505801	0.167649538	0.900212061	0.328356311	1.381210623	-12.45701164	17.01901377	90.9614163	5.85288448	1.587576206	-12.1420073	3.376848012	0	47.32712032	-12.22970048	-19.98903179	30.07939794	4.7086539	0.524984532	5.37408392	-2.125605664	-0.0029703	-7.268931023	6.264342382	7.349905874	-9.183794619	-10.68803754	-28.27061568	72.4198781	90.00000001	0	0	-63.42737003	-24.49209584	-47.8582297	29.84747716	90.00000001	0	0
0.195	-13.52921009	-3.053801737	-8.482587013	0.173950186	0.898006354	0.327127422	2.332312076	-12.15155342	17.60615751	92.51856825	5.85288448	1.614753635	-12.18689206	2.729146447	0	47.60757143	-12.01995615	-19.05258753	31.8399333	4.7086539	0.555711671	4.904917768	-3.648496416	-0.0028283	-7.46965649	6.263351974	7.056316103	-9.671411326	-10.18992774	-28.6044695	71.41129344	90.00000001	0	0	-62.62925254	-25.05704944	-47.3813868	30.05736032	90.00000001	0	0
0.2	-13.0880177	-2.989957045	-8.184528216	0.179935839	0.896202648	0.325857787	3.440680326	-11.83795923	18.1051717	93.99413212	5.85288448	1.640507083	-12.21138394	2.033081643	0	47.74917718	-11.81154355	-18.17890087	33.46775718	4.7086539	0.584122557	4.509651903	-5.06694629	-0.002697	-7.806461273	6.287420537	6.763886614	-10.11387041	-9.709697638	-28.8852983	70.39515066	90.00000001	0	0	-61.73729273	-25.61141389	-46.86403231	30.33093434	90.00000001	0	0
0.205	-12.58826195	-2.945683422	-7.921990436	0.185596995	0.894833405	0.324546352	4.695339232	-11.51855795	18.51331336	95.36346346	5.85288448	1.664406423	-12.21722452	1.29925008	0	47.73892767	-11.60667	-17.37922905	34.94401158	4.7086539	0.609888057	4.187608638	-6.368343518	-0.0025752	-8.288020956	6.33923801	6.475248499	-10.50635827	-9.250149047	-29.10909447	69.37467553	90.00000001	0	0	-60.75218706	-26.15143677	-46.30291618	30.67442785	90.00000001	0	0
0.21	-12.02621374	-2.923043477	-7.69686811	0.190925949	0.893925528	0.323192959	6.083220609	-11.19540387	18.82804346	96.59994824	5.85288448	1.685987154	-12.20737449	0.539539594	0	47.5664728	-11.4072004	-16.66330121	36.25235259	4.7086539	0.632722915	3.935607807	-7.54233093	-0.0024618	-8.92073546	6.42076041	6.192933251	-10.84487915	-8.813452996	-29.27300056	68.35325818	90.00000001	0	0	-59.67535328	-26.67452026	-45.69516517	31.09398882	90.00000001	0	0
0.215	-11.39967838	-2.923376681	-7.51030126	0.19591695	0.89349974	0.321798318	7.589495101	-10.87025795	19.0470564	97.67564589	5.85288448	1.70476162	-12.18602915	-0.233186581	0	47.224413	-11.21459912	-16.03928591	37.37914371	4.7086539	0.65238913	3.748064388	-8.580777231	-0.0023557	-9.708490826	6.533146596	5.919384263	-11.12635154	-8.401131476	-29.37538462	67.33442879	90.00000001	0	0	-58.50886333	-27.17920756	-45.03838363	31.59558823	90.00000001	0	0
0.22	-10.70812655	-2.947246324	-7.362708641	0.20056634	0.8935701	0.320363977	9.197950717	-10.54458151	19.16831095	98.56199887	5.85288448	1.720231398	-12.15858637	-1.005432973	0	46.70852058	-11.02988247	-15.51378276	38.31359051	4.7086539	0.668698303	3.617161445	-9.477715376	-0.0022558	-10.65247586	6.676718811	5.656970155	-11.34868218	-8.014058744	-29.41588131	66.32182299	90.00000001	0	0	-57.25535867	-27.6651261	-44.33074771	32.18491893	90.00000001	0	0
0.225	-9.952782274	-2.994409187	-7.253838328	0.204872682	0.894143655	0.318892268	10.89140742	-10.21954108	19.19005983	99.23058951	5.85288448	1.731900506	-12.13156006	-1.763429388	0	46.01788515	-10.85358468	-15.09183346	39.04781809	4.7086539	0.681512992	3.533092434	-10.22925363	-0.0021609	-11.751061	6.850948621	5.407996707	-11.51081514	-7.652480808	-29.39539759	65.31913771	90.00000001	0	0	-55.91795264	-28.13288963	-43.5710888	32.86729158	90.00000001	0	0
0.23	-9.13666381	-3.063810036	-7.182831722	0.208836864	0.89522026	0.317386246	12.65215514	-9.896022447	19.11087582	99.65392266	5.85288448	1.739289063	-12.11243514	-2.493489354	0	45.15497905	-10.68573986	-14.77694785	39.57689449	4.7086539	0.690747117	3.484364482	-10.83346464	-0.0020701	-12.99974507	7.054469183	5.174714608	-11.61275441	-7.316051331	-29.31608358	64.33007928	90.00000001	0	0	-54.50012446	-28.58396343	-42.75896215	33.64752975	90.00000001	0	0
0.235	-8.264574286	-3.153602284	-7.148296856	0.212462172	0.896792544	0.315849614	14.46240189	-9.57465151	18.92967327	99.80621221	5.85288448	1.741947017	-12.10946327	-3.182356513	0	44.1256412	-10.52588212	-14.5711414	39.89880436	4.7086539	0.696365504	3.458152353	-11.29025781	-0.0019821	-14.39117383	7.285113897	4.95932104	-11.65555935	-7.003881854	-29.18126989	63.35830585	90.00000001	0	0	-53.00561033	-29.02049828	-41.89469638	34.52986671	90.00000001	0	0
0.24	-7.343040957	-3.261195183	-7.148387112	0.215754345	0.898846039	0.314286639	16.30471852	-9.255819443	18.64572468	99.66414863	5.85288448	1.73946754	-12.13140329	-3.817527322	0	42.93897965	-10.37306504	-14.47498103	40.01437793	4.7086539	0.698382644	3.440691381	-11.60123974	-0.0018958	-15.91523201	7.539980479	4.76395417	-11.64131365	-6.714604077	-28.99537418	62.40736695	90.00000001	0	0	-51.43829714	-29.44514048	-40.97942043	35.51784646	90.00000001	0	0
0.245	-6.380203208	-3.38332675	-7.180881914	0.218721583	0.901359451	0.312702063	18.16246679	-8.939709895	18.25867332	99.20762496	5.85288448	1.731499699	-12.1872146	-4.387540381	0	41.60719533	-10.22590124	-14.48763752	39.92718085	4.7086539	0.696860767	3.417696838	-11.76956757	-0.0018101	-17.55920866	7.815518334	4.590680623	-11.57306949	-6.446441756	-28.76378006	61.48064316	90.00000001	0	0	-49.80212413	-29.86082623	-40.01506529	36.61423174	90.00000001	0	0
0.25	-5.385651226	-3.51616043	-7.243266566	0.221374527	0.90430508	0.311101011	20.02019789	-8.626326249	17.7685433	98.42039997	5.85288448	1.717760031	-12.28571594	-4.882225192	0	40.1453313	-10.08262111	-14.60694318	39.64336995	4.7086539	0.691907333	3.37479674	-11.79979932	-0.0017239	-19.30803299	8.107635986	4.441476954	-11.45476933	-6.197289689	-28.49269237	60.58128909	90.00000001	0	0	-48.100997	-30.27056939	-39.004339	37.82092157	90.00000001	0	0
0.255	-4.370218785	-3.655402352	-7.332808972	0.223726195	0.907649356	0.309488897	21.86400955	-8.315517446	17.17574978	97.29067819	5.85288448	1.698042666	-12.43522593	-5.292905737	0	38.57095352	-9.941149001	-14.82945476	39.17151997	4.7086539	0.683671997	3.297964988	-11.69774499	-0.0016361	-21.14457619	8.411824377	4.318206825	-11.29114873	-5.964797186	-28.18897323	59.71218298	90.00000001	0	0	-46.33871851	-30.6772518	-37.9506754	39.13888108	90.00000001	0	0
0.26	-3.345735212	-3.796435117	-7.446631537	0.225791889	0.911353494	0.307871324	23.68185124	-8.007001269	16.48111197	95.81158946	5.85288448	1.672227698	-12.64320444	-5.612557011	0	36.90377057	-9.799193916	-15.15052188	38.52242529	4.7086539	0.672343158	3.173941975	-11.47032157	-0.0015456	-23.05001189	8.72329119	4.222595959	-11.08762368	-5.746453464	-27.8599638	58.87588578	90.00000001	0	0	-44.51893808	-31.08342515	-36.8581587	40.56808562	90.00000001	0	0
0.265	-2.324743047	-3.934463372	-7.581776993	0.227589046	0.915374244	0.306253993	25.46376851	-7.70038443	15.68587167	93.9815533	5.85288448	1.640287541	-12.91591531	-5.835914974	0	35.16520156	-9.654350854	-15.56436196	37.70888004	4.7086539	0.658144114	2.990630316	-11.12541427	-0.0014513	-25.00422627	9.037101033	4.156207024	-10.85016637	-5.539672502	-27.51329669	58.07461181	90.00000001	0	0	-42.64512183	-31.49113236	-35.73142794	42.10748124	90.00000001	0	0
0.27	-1.320189119	-4.064665965	-7.735267354	0.229137069	0.919664716	0.304642615	27.20207937	-7.395179307	14.79172029	91.80451714	5.85288448	1.602291092	-13.25813053	-5.959542144	0	33.37790232	-9.504208328	-16.06414289	36.74543956	4.7086539	0.641328906	2.737454299	-10.67174521	-0.001352	-26.98626681	9.348316174	4.120416374	-10.58517314	-5.341875124	-27.15670406	57.31021236	90.00000001	0	0	-40.72054343	-31.90175573	-34.57556636	43.75496287	90.00000001	0	0
0.275	-0.345097634	-4.182349204	-7.90415556	0.230457107	0.924175266	0.30304283	28.89147789	-7.090817848	13.8008363	89.2900614	5.85288448	1.55840556	-13.67289331	-5.98185196	0	31.56526115	-9.346457201	-16.64207509	35.64816552	4.7086539	0.622177861	2.405672912	-10.11875001	-0.0012466	-28.9748171	9.652132681	4.116394172	-10.29932829	-5.150566433	-26.79782615	56.58417244	90.00000001	0	0	-38.74829529	-32.31589722	-33.39598149	45.50737113	90.00000001	0	0
0.28	0.587765582	-4.283095737	-8.085569697	0.231571815	0.928854424	0.301460126	30.52906204	-6.786663892	12.71593477	86.45336887	5.85288448	1.508895936	-14.16135364	-5.903095305	0	29.75087616	-9.178995843	-17.28951453	34.43435723	4.7086539	0.60099291	1.988637853	-9.476461443	-0.001134	-30.94868454	9.94400711	4.145088921	-9.999466772	-4.963407134	-26.44402468	55.89761944	90.00000001	0	0	-36.73131865	-32.73329537	-32.19828124	47.36050831	90.00000001	0	0
0.285	1.466228311	-4.362903766	-8.276749913	0.232505079	0.933649838	0.299899781	32.11428533	-6.482025809	11.54032954	83.31506011	5.85288448	1.454122115	-14.72268474	-5.725312431	0	27.95802643	-9.000026808	-17.99707802	33.12227153	4.7086539	0.578092694	1.481989783	-8.755398944	-0.0010132	-32.88728685	10.21976951	4.207216837	-9.692438874	-4.778277659	-26.10220529	55.25134201	90.00000001	0	0	-34.67245063	-33.15278098	-30.98815139	49.30917364	90.00000001	0	0
0.29	2.279037195	-4.418311802	-8.475078266	0.233281721	0.938509227	0.298366801	33.64883422	-6.176171688	10.27800743	79.90090112	5.85288448	1.394533799	-15.354084	-5.452253378	0	26.20915023	-8.808140658	-18.75477173	31.73083462	4.7086539	0.553807539	0.883787973	-7.966462136	-0.00088287	-34.77112335	10.47571932	4.303256034	-9.384979202	-4.593334343	-25.77865313	54.64581618	90.00000001	0	0	-32.57448546	-33.57227274	-29.77123882	51.34721697	90.00000001	0	0
0.295	3.01616375	-4.44650487	-8.678101799	0.233927189	0.943381311	0.296865876	35.13643567	-5.868349089	8.933712386	76.24139344	5.85288448	1.330663341	-16.05085748	-5.089270263	0	24.52534309	-8.602383304	-19.55213272	30.27934925	4.7086539	0.52847434	0.194570552	-7.120826818	-0.00074206	-36.58221733	10.70870186	4.433445051	-9.08358246	-4.407057083	-25.47888497	54.08123604	90.00000001	0	0	-30.440246	-33.98881181	-28.55304421	53.46760936	90.00000001	0	0
0.3	3.669082258	-4.44539894	-8.883549139	0.234467239	0.948216701	0.295401344	36.58260156	-5.557810673	7.513036516	72.37126062	5.85288448	1.263116781	-16.80658337	-4.643185442	0	22.92588915	-8.382304184	-20.37838271	28.78720191	4.7086539	0.502431456	-0.582655373	-6.229842108	-0.0005896	-38.30451621	10.91616402	4.597785087	-8.794388197	-4.218288054	-25.2075218	53.55754586	90.00000001	0	0	-28.27266165	-34.39863376	-27.33882619	55.66252807	90.00000001	0	0
0.305	4.231011302	-4.413701405	-9.089340841	0.234927609	0.95296873	0.293977161	37.99431918	-5.243846113	6.022512996	68.32884786	5.85288448	1.192563368	-17.61334645	-4.122140311	0	21.42783832	-8.147983696	-21.22259183	27.27357506	4.7086539	0.476013684	-1.442492339	-5.30492806	-0.00042439	-39.92423768	11.0961893	4.79604523	-8.523076745	-4.026261026	-24.96818497	53.07447127	90.00000001	0	0	-26.07484744	-34.79727464	-26.13351726	57.92345264	90.00000001	0	0
0.31	4.69711158	-4.350946472	-9.293593633	0.235333703	0.957594217	0.292596884	39.37969861	-4.925819669	4.469704962	64.1554536	5.85288448	1.119723897	-18.46203204	-3.535430064	0	20.04564117	-7.900039496	-22.07384935	25.75716984	4.7086539	0.44954742	-2.377296322	-4.35747364	-0.00024529	-41.43015137	11.24751304	5.027770045	-8.274778529	-3.830620772	-24.76341944	52.63154765	90.00000001	0	0	-23.85017937	-35.17970744	-24.94165085	60.24126808	90.00000001	0	0
