DataType=double
version=3
OpenSimVersion=4.5
endheader
time	pelvis_tilt	pelvis_list	pelvis_rotation	pelvis_tx	pelvis_ty	pelvis_tz	hip_flexion_r	hip_adduction_r	hip_rotation_r	knee_angle_r	knee_adduction_r	knee_angle_r_beta	ankle_angle_r	subtalar_angle_r	mtp_angle_r	hip_flexion_l	hip_adduction_l	hip_rotation_l	knee_angle_l	knee_adduction_l	knee_angle_l_beta	ankle_angle_l	subtalar_angle_l	mtp_angle_l	lumbar_extension	lumbar_bending	lumbar_rotation	arm_flex_r	arm_add_r	arm_rot_r	elbow_flex_r	pro_sup_r	wrist_flex_r	wrist_dev_r	arm_flex_l	arm_add_l	arm_rot_l	elbow_flex_l	pro_sup_l	wrist_flex_l	wrist_dev_l
0	-0.5348472418112918	-0.001307464155940085	-0.1590969566077488	-0.161255059	0.9403797740000003	0.3774675260000003	0.4153737953444702	-0.07040863339818752	-0.1822436041317114	0.3788448224925253	0.1021521049148762	0.3555293809999998	0.04101095679015349	0.2269102551791182	0	0.902587487935164	-0.2101214367325455	-0.1461404716570466	0.7812039342231141	0.08218151389187185	0.7812039340000003	0.2531487174668465	-0.1123902515111026	-0.0004759512870188535	-0.1308556600628516	0.0887094866008321	0.06756247435495881	0.0017225909454197	-0.2722836989492027	-0.392541385266687	1.53589373157768	1.570796326969429	0	0	-1.034518324451213	-0.7732366604748658	-0.9683691889963992	0.5829859442329988	1.570796326969429	0	0
0.0004927087852480694	-0.53470110575387	-0.001256902095414223	-0.1595818042375098	-0.1605334574760147	0.9407214082794095	0.3773398372667486	0.4142160594046142	-0.0712103467453835	-0.1836140302894385	0.3794203678993017	0.1021521049148762	0.3559707198146012	0.03829176624083092	0.2269494478443515	0	0.9019643935022135	-0.2099696411503597	-0.1473851552238051	0.7761330576921035	0.08218151389187181	0.7761330574663671	0.253327991912156	-0.1105894927592921	-0.0004737384572368383	-0.1310228543483613	0.08840396417027961	0.06801219835046883	0.002025168728845097	-0.272538784638916	-0.3923025352118218	1.536303061076634	1.570796326969429	0	0	-1.035181275283665	-0.7709561941330972	-0.9685212617361741	0.5828860839484939	1.570796326969429	0	0
0.001644115066457508	-0.5343216610219224	-0.00115371929313535	-0.1607254242060807	-0.1588427876791727	0.941513521779235	0.3770406927945413	0.4115155573068214	-0.07309099042856104	-0.1867765473246257	0.380934981992478	0.1021521049148762	0.357154777192474	0.03198666528689759	0.2269768434107148	0	0.9004517985474154	-0.2096267953108558	-0.1503361425991815	0.7642762151284335	0.0821815138918718	0.7642762149102761	0.2537468263146758	-0.1063241910189037	-0.0004685964032215708	-0.1314358652579314	0.08770496561414338	0.06907071582964808	0.002728121861412599	-0.2731359682071364	-0.3917405925838779	1.53724331851651	1.570796326969429	0	0	-1.036704346851657	-0.7656193591981326	-0.968853609846727	0.582648613549351	1.570796326969429	0	0
0.003432356695983019	-0.5336269995070484	-0.001035062419388998	-0.1625309214323657	-0.1562048980799929	0.942726370983634	0.3765740134722481	0.4073372385954425	-0.07603156317389576	-0.191576778709749	0.3837672571856964	0.1021521049148762	0.3594176581759657	0.02233431936153668	0.2268412516577277	0	0.897945911371121	-0.2091273389131893	-0.1550367530601592	0.7458431052374235	0.08218151389187182	0.7458431050679366	0.2543971053531366	-0.09954123126201127	-0.0004606910950053272	-0.1321391858369435	0.08666096693617036	0.07073566628159902	0.003808359286582999	-0.274066447249368	-0.3908573671749617	1.538658359699936	1.570796326969429	0	0	-1.038997302159567	-0.7573096615352558	-0.9693059250354275	0.5822683916963862	1.570796326969429	0	0
0.005829089867451537	-0.532495064043078	-0.0009555246437437613	-0.1650062795747063	-0.1526463177601551	0.944318459507227	0.375944595901317	0.4017675581138153	-0.08001001975291493	-0.1977939619365278	0.3884866136316115	0.1021521049148762	0.3632583083968084	0.009671967695660005	0.2263210018438963	0	0.8942905301952159	-0.2085211019238024	-0.1615608655892537	0.7211079558584801	0.08218151389187184	0.7211079558111431	0.2552693717381626	-0.09014870338918377	-0.0004502501131932599	-0.133199444986151	0.08534147551885199	0.07300688605926421	0.005233924702179381	-0.2753193575355419	-0.3896537358957411	1.540468515658257	1.570796326969429	0	0	-1.04193396369751	-0.7461334153275646	-0.9697914437510764	0.5817370125440575	1.570796326969429	0	0
0.008796491359919972	-0.5307754723905923	-0.0009839500386872712	-0.1681561375451894	-0.1482040405774998	0.9462347328170808	0.3751592324848478	0.3949094165132259	-0.08499248393386441	-0.2051257297557439	0.3957802063672403	0.1021521049148762	0.3692886876817331	-0.005548405357384961	0.2251478659727308	0	0.8893065239748112	-0.2078718015152773	-0.1699932871730149	0.6904669230480278	0.08218151389187188	0.6904669231653405	0.2563570183396541	-0.07804732784089648	-0.0004375688459834667	-0.1346961625226656	0.0838364618932293	0.07588023349046226	0.006961971896900509	-0.2768803689946818	-0.3881327116435182	1.54257248871007	1.57079632696943	0	0	-1.045364035519992	-0.7322417196352806	-0.9702076420167185	0.5810444931844546	1.57079632696943	0	0
0.01228775618942049	-0.5283042291069806	-0.001199200596217025	-0.1719733794077051	-0.1429267524820925	0.9484061669403508	0.3742271334218238	0.3868703761142972	-0.0909273935102972	-0.213166971582283	0.4063746434254388	0.1021521049148763	0.3781675835843681	-0.02274337344163818	0.2230448837675135	0	0.8828328115448755	-0.207254319695943	-0.1804145440708713	0.6544868411357055	0.08218151389187185	0.6544868413055493	0.2576670213523757	-0.06315991721444587	-0.0004229983608751662	-0.1367092763707359	0.08225413729126083	0.07934244394266166	0.008937673221764459	-0.2787323132199356	-0.386301980694655	1.544853161039769	1.570796326969431	0	0	-1.049140773270065	-0.7158434887702728	-0.9704552342864929	0.5801806373960192	1.570796326969431	0	0
0.01624782228925581	-0.5249219918028177	-0.001683194727032778	-0.1764327014752503	-0.1368757688410303	0.9507523093725557	0.3731601356118037	0.3777513466569625	-0.097742080520413	-0.221421719969059	0.4209506314034456	0.1021521049148763	0.3905233699873868	-0.04122291397191626	0.2197657859706167	0	0.8747577112766902	-0.2067492942939595	-0.1928811329999502	0.6139151331252494	0.08218151389187191	0.6139151332729308	0.2592207766931272	-0.04546213644960383	-0.0004069246842600537	-0.1393065920934458	0.08071438716778101	0.08336729757518452	0.01109501959989581	-0.2808543532020886	-0.3841768524040627	1.547184000021721	1.57079632696943	0	0	-1.053136234415278	-0.697209521806023	-0.9704493020624306	0.5791372365308383	1.57079632696943	0	0
0.02061423583687663	-0.5204944785181362	-0.002511746964414252	-0.1814866007039095	-0.1301256697599291	0.9531864907967867	0.371972708615759	0.3676422961385598	-0.1053418646692462	-0.2293469556776182	0.4400554861105666	0.1021521049148763	0.4068721335509211	-0.06024499910165289	0.2151320614516677	0	0.8650384986477974	-0.2064354392036981	-0.2074021719282536	0.569651271858808	0.08218151389187184	0.5696512721159457	0.261044836105518	-0.02501264171683917	-0.0003897510473723147	-0.1425321107833336	0.07933835896926704	0.08791330564462936	0.01335942099463657	-0.283219716629373	-0.3817833697674148	1.549435612275013	1.570796326969428	0	0	-1.057243247920791	-0.6766677792585127	-0.9701220442430767	0.5779107886445641	1.570796326969428	0	0
0.0253181352773377	-0.5149324112138852	-0.00374675151122235	-0.1870583350468092	-0.1227650034893459	0.955618621916612	0.3706821700057746	0.356616410252768	-0.1136062981419543	-0.23636822267634	0.4640147682880514	0.1021521049148763	0.4275344438325859	-0.07904705681102889	0.2090744458534871	0	0.8537350324650576	-0.2063834079041016	-0.223915891903478	0.5227560142836287	0.08218151389187182	0.5227560144266772	0.2631697420046127	-0.001988412720325647	-0.0003718879455932353	-0.1463921042436497	0.07824087019092739	0.09291954096775236	0.01564841699189177	-0.2857943076269246	-0.3791617836546654	1.551482344436359	1.57079632696943	0	0	-1.061391325707062	-0.6546076910911266	-0.9694343858005963	0.5765045182957578	1.57079632696943	0	0
0.03028533698130559	-0.5082089152708923	-0.005427565293939257	-0.1930402774716761	-0.1148962917433108	0.9579607527940229	0.3693085934594385	0.3447339811960056	-0.1223897274505712	-0.2419317976447754	0.4928613141491119	0.1021521049148762	0.4525699338803565	-0.09691486764533545	0.2016562661655244	0	0.8410199626746243	-0.2066482263298749	-0.2422677644635923	0.4744085340132618	0.08218151389187187	0.474408534200229	0.2656173306571115	0.02329165030451211	-0.0003537144382564245	-0.1508464537148115	0.07751964421239058	0.09830454850514023	0.01787500633248681	-0.2885343371062046	-0.37636862408834	1.553208603636578	1.570796326969429	0	0	-1.065543881115134	-0.6314716419903679	-0.9683761210328524	0.5749300653894622	1.570796326969429	0	0
0.03543750502895751	-0.5003713146382399	-0.007564024541190289	-0.1992960098993866	-0.1066353801451058	0.9601328561007391	0.3678745491801541	0.3320467784503645	-0.1315242426834562	-0.2455627639361112	0.5262860096968335	0.1021521049148762	0.4817389352974848	-0.1132318990334207	0.1930774217646586	0	0.8271749509278844	-0.2072626516745739	-0.2621952904376297	0.4258457784515886	0.08218151389187182	0.4258457782483644	0.2683865801537955	0.05035718146970346	-0.0003356077446337442	-0.1558053442236239	0.0772452245216696	0.1039672371253803	0.019952108666386	-0.2913846392553327	-0.3734767509204392	1.554514980417325	1.570796326969429	0	0	-1.069689417846546	-0.6077409863405818	-0.9669626996874703	0.5732081136707967	1.570796326969429	0	0
0.04069338655285454	-0.4915449636136494	-0.01013262254682597	-0.2056659900185004	-0.09811009175757027	0.962067716164462	0.3664046986339011	0.3186125933246781	-0.1408246457662199	-0.2469142657554997	0.5636400067845493	0.1021521049148762	0.5144989084974894	-0.1275301258296619	0.1836573387704825	0	0.8125752685241627	-0.2082328522277574	-0.2833242498108247	0.3782973801144898	0.08218151389187184	0.3782973797844416	0.2714434802130302	0.07859517214061704	-0.0003178999542348811	-0.1611322428105499	0.07745371919471253	0.1097896511708214	0.02179766532157477	-0.2942787871094961	-0.3705727439962845	1.55532418701784	1.570796326969428	0	0	-1.073831732240961	-0.5839188689096477	-0.9652317567517981	0.5713677304551485	1.570796326969428	0	0
0.04597009311582306	-0.4819281115496025	-0.01307612254641298	-0.2119779550825862	-0.08945804410676786	0.9637154017473153	0.3649251439181094	0.30450531702502	-0.1500965691087453	-0.2458118929910493	0.6039416393163594	0.1021521049148762	0.5500392658504163	-0.1395720435641761	0.1737962116837253	0	0.7976581027486838	-0.2095365577718538	-0.3051796341753694	0.3329066909380853	0.08218151389187182	0.3329066910172629	0.2747145679815962	0.1072817846005383	-0.0003008707380746896	-0.1666544780497652	0.07814241049881325	0.1156424654759062	0.02334088163862945	-0.2971412513056191	-0.3677512354796271	1.555586606894521	1.57079632696943	0	0	-1.077975597976195	-0.5605069055065424	-0.9632367831199664	0.5694447614266311	1.57079632696943	0	0
0.05118440789980219	-0.4717781828426165	-0.016307382686186	-0.2180598655523585	-0.08082378989076441	0.9650460210811933	0.3634626170727711	0.2898465166926215	-0.159146092421206	-0.242275388857636	0.645992285695582	0.1021521049148762	0.5873482621607088	-0.1493625611717252	0.1639241551862093	0	0.7828839925489098	-0.2111247202337559	-0.3272124561146887	0.2906607997422618	0.08218151389187185	0.2906607996514926	0.2780898408706803	0.1356335415085592	-0.0002847628509371496	-0.1721794262241151	0.07927016958350407	0.1213921423537792	0.02452836305199022	-0.2998921859638127	-0.3651067708524073	1.55528505102233	1.57079632696943	0	0	-1.082115567664382	-0.5379809225907464	-0.9610420895498512	0.5674795693676908	1.57079632696943	0	0
0.0562540980850057	-0.4613916111101713	-0.01971670851442656	-0.2237540731973436	-0.07235541243337126	0.9660508876526036	0.3620435420070339	0.2748151625198432	-0.1677902074162259	-0.2365186597531345	0.6884814991445278	0.1021521049148762	0.6253006417649233	-0.1571228026651783	0.1544478157567558	0	0.7686950160502664	-0.2129263045954282	-0.3488397059336799	0.2523323725028493	0.0821815138918718	0.2523323723696667	0.281433979224176	0.162871948981207	-0.0002697862482574938	-0.1775141795615404	0.08076228447613085	0.1269092580040469	0.0253296738680871	-0.3024542213857875	-0.3627242659411504	1.554438025057131	1.57079632696943	0	0	-1.086227694907349	-0.5167669245608721	-0.9587181980201536	0.5655146942574333	1.57079632696943	0	0
0.06109921172279988	-0.4510804676789296	-0.02318170956385936	-0.2289301860806921	-0.06420082410209278	0.9667418273541613	0.3606930906752356	0.2596603975226167	-0.1758664449049522	-0.2289261542642336	0.7301109872614103	0.1021521049148762	0.6627502912946868	-0.1631987420535042	0.1457057598716798	0	0.7554775600659629	-0.2148556267721712	-0.369491410395615	0.218444284768441	0.0821815138918718	0.218444284746032	0.2846046039325049	0.1882905891233516	-0.0002560859948673704	-0.1824851403896844	0.08251920350933202	0.1320767001308476	0.02574128730853582	-0.3047602451780959	-0.360669713073119	1.553100737832403	1.570796326969429	0	0	-1.090266564166537	-0.497221128269117	-0.9563385829626713	0.5635928201639352	1.570796326969429	0	0
0.0656433386566332	-0.4411495804128984	-0.02657798907750724	-0.2334946141176232	-0.05650401257829533	0.9671488723591589	0.3594343397554788	0.2446974200372988	-0.1832403729520559	-0.2200118562209497	0.7696880302219057	0.1021521049148762	0.6986128974528869	-0.1679398877120106	0.1379401393709658	0	0.7435346258300666	-0.2168209489551254	-0.3886564434816403	0.1892596831721123	0.08218151389187181	0.1892596832512891	0.2874730528403632	0.2113129752165691	-0.0002437514198908767	-0.1869542363562948	0.08442754907455957	0.1367965814510663	0.02578822785493029	-0.3067605889628859	-0.3589828643248449	1.551363212822814	1.570796326969429	0	0	-1.094167009007625	-0.479616434105916	-0.9539771863783104	0.5617552745729294	1.570796326969429	0	0
0.06981481562497333	-0.4318773995073202	-0.02978896684829323	-0.2373951968504324	-0.04940147770169629	0.967316620299553	0.3582876289342046	0.230301271374995	-0.1898098730346523	-0.2103683278179059	0.806204491823038	0.1021521049148762	0.731927436269814	-0.1716467317207938	0.1312877186844794	0	0.7330713314040047	-0.2187329047895224	-0.4059187230730171	0.1647982292205447	0.08218151389187184	0.1647982294896301	0.2899428032318637	0.2315308362334818	-0.0002328720913216325	-0.190829072760253	0.08637152097099571	0.1409947769283907	0.02552286122585464	-0.3084280755011083	-0.357673349986208	1.549345248136117	1.57079632696943	0	0	-1.09784963690877	-0.4641373312058262	-0.9517064614111804	0.5600410410433778	1.57079632696943	0	0
0.07354785659418331	-0.4235027910706164	-0.03271338979241711	-0.2406203217633446	-0.04301904395148343	0.9672996945240818	0.3572701833588787	0.2168772774464119	-0.1955057485414937	-0.2006144619372721	0.8388521932179082	0.1021521049148761	0.7618914517803198	-0.1745302482878545	0.1257884219324738	0	0.7241943694740269	-0.2205114140414756	-0.4209776105780412	0.1448747088817432	0.0821815138918718	0.1448747092314614	0.2919611529187119	0.2487168033019209	-0.0002234791633175839	-0.1940657047331212	0.08824281779947514	0.1446224487504194	0.02502071528052088	-0.309759763637304	-0.3567210387070224	1.547188449407535	1.570796326969429	0	0	-1.101228351874415	-0.4508837352969793	-0.9495955488751002	0.5584861248627541	1.570796326969429	0	0
0.07678359065557917	-0.4162185501394799	-0.03526968791362207	-0.2431929165298535	-0.03746917609907004	0.9671577338866479	0.3563960209999639	0.2048355566880973	-0.2002888302348196	-0.1913487723220171	0.8670254783802442	0.1021521049148762	0.7878711612168375	-0.1767295244812569	0.1214063140067247	0	0.7169239562927938	-0.2220901957412124	-0.4336500333835933	0.1291539832669328	0.08218151389187184	0.1291539836948072	0.2935217873601267	0.2628108591154054	-0.000215594869371268	-0.1966641725188177	0.08994775661805823	0.1476544546755214	0.02437363484329699	-0.3107749546144437	-0.3560806264358606	1.545046028386252	1.570796326969429	0	0	-1.104218136452212	-0.4398829602194042	-0.9477084568286137	0.5571230717538181	1.570796326969429	0	0
0.07947099168744461	-0.4101710893195946	-0.03739704620366121	-0.2451605510140226	-0.0328488623269796	0.9669503547466752	0.355676087676379	0.1945547079357145	-0.2041442996405599	-0.1831124346480462	0.890278675725968	0.1021521049148762	0.8093919217177563	-0.178353257760311	0.118056677275705	0	0.7112150101090101	-0.2234185762728843	-0.4438558447013409	0.1172148428156848	0.08218151389187184	0.1172148434222367	0.2946582376680966	0.2738850168690541	-0.000209232002446736	-0.1986582457782681	0.09141103812373427	0.1500850936489129	0.02368098223607572	-0.3115098167316175	-0.3556896636792805	1.54307136703623	1.570796326969429	0	0	-1.106741659238608	-0.4311078058068994	-0.9461022550330856	0.5559804907489769	1.570796326969429	0	0
0.08156768768021185	-0.4054647841924048	-0.03905372011059381	-0.2465833841467986	-0.02923805093215698	0.9667324454887203	0.355118553162682	0.1863625664177935	-0.2070743066345725	-0.1763633497265562	0.9083018706878583	0.1021521049148762	0.8261167093726244	-0.179494569081423	0.1156334676449851	0	0.7069834076654573	-0.2244608886524894	-0.4515910897060738	0.1086153365026983	0.08218151389187181	0.1086153373045252	0.2954303359791051	0.2820941627172021	-0.0002043849864663094	-0.2001016370499815	0.09257639774132137	0.1519220633881256	0.02303987449630105	-0.3120096395609974	-0.3554786809830263	1.54140645568689	1.570796326969427	0	0	-1.108733910403588	-0.4244979926261069	-0.9448253955963811	0.5550825253235345	1.570796326969427	0	0
0.08304065359974588	-0.402168924774603	-0.04021358281282261	-0.2475218175383963	-0.02669855353593635	0.9665500809266843	0.3547291761667853	0.1805187330712965	-0.209090109988445	-0.1714601287813231	0.9208874157452438	0.1021521049148762	0.8378202665761486	-0.1802294788892949	0.1140331548222904	0	0.7041330537018187	-0.2251942065111794	-0.4568955654530907	0.1029530239536057	0.08218151389187181	0.1029530248773908	0.2959070337991568	0.2876223786026413	-0.0002010398658000673	-0.2010532112232236	0.09340499014529284	0.1531797325022621	0.02253555460308413	-0.3123201027788702	-0.3553818383382557	1.540171228514087	1.570796326969431	0	0	-1.110144753182364	-0.4199819061207818	-0.9439162713938802	0.554448292452018	1.570796326969431	0	0
0.08386699317952337	-0.400324734967009	-0.04086223123287702	-0.2480256398949761	-0.02527294748759362	0.9664372318892011	0.3545115958920309	0.1772092724940645	-0.2102051791386013	-0.168652865345143	0.9279183448494582	0.1021521049148762	0.8443666518827129	-0.180616918393189	0.1131727077914144	0	0.7025796446322984	-0.2256054705042524	-0.4598219064039258	0.09991431443206948	0.08218151389187184	0.09991431540083907	0.2961492888556871	0.2906342125918467	-0.000199184144481819	-0.2015636224470631	0.09387276654946945	0.1538730009657963	0.02223285889752302	-0.3124790400240113	-0.3553465886912839	1.539454454591292	1.570796326969433	0	0	-1.110940013477097	-0.4174952556214989	-0.9434019542452594	0.5540912629673949	1.570796326969433	0	0
0.08406135207201153	-0.3998915350821736	-0.04101454788628394	-0.2481417453478499	-0.02493754561516207	0.9664095910427278	0.3544605117293225	0.1764277362983842	-0.2104657740280455	-0.1679867982790809	0.9295689548262014	0.1021521049148762	0.8459042131896993	-0.1807052518699034	0.1129742471487948	0	0.7022191234072702	-0.2257021572676935	-0.460504873871848	0.09921404150879828	0.08218151389187184	0.09921404248461339	0.2962035559463262	0.29133307755452	-0.000198749798477872	-0.2016811776903108	0.09398305744691936	0.1540347530276255	0.02215958284619539	-0.3125148006725831	-0.3553403197990991	1.539283374707872	1.570796326969433	0	0	-1.111127437530266	-0.4169153288632381	-0.9432805407663557	0.5540071605844366	1.570796326969433	0	0
0.08455406085725958	-0.3987943750476553	-0.04140021689425152	-0.2484319573456077	-0.02408713353970191	0.9663376488214707	0.3543311693162651	0.1744423278385996	-0.2111235116789683	-0.1662885371593412	0.9337493447897152	0.1021521049148763	0.8497981249730771	-0.1809244815138189	0.112477849929852	0	0.7013135404579294	-0.2259471548646804	-0.4622269890789006	0.09746351728963605	0.08218151389187185	0.09746351827632563	0.2963364105551324	0.2930882767639488	-0.0001976522877110093	-0.2019748758661408	0.09426306685765526	0.1544425446976661	0.02197025750646628	-0.3126026550590388	-0.3553279087773898	1.538845422424737	1.570796326969432	0	0	-1.11160318612786	-0.415453675774327	-0.9429719997217447	0.5537937399738653	1.570796326969432	0	0
0.08570546713846902	-0.3962365676765884	-0.04229865688266854	-0.2490868924812751	-0.02209899652357089	0.9661590815607931	0.3540298074514912	0.1697724915904287	-0.2126442854935463	-0.1622662021316734	0.9434847924987581	0.1021521049148762	0.8588750306546157	-0.1814133139291116	0.1113554579618132	0	0.6992445661107487	-0.2265188666561062	-0.4661986525428816	0.09351117957108225	0.08218151389187188	0.0935111805396636	0.2966199272187071	0.2970966928741834	-0.0001951071921207324	-0.2026367758195449	0.09491947735568551	0.155382714452145	0.02150776511794906	-0.3127920812725454	-0.3553185758041885	1.537798135415027	1.57079632696943	0	0	-1.112718282577886	-0.4120857527052754	-0.9422467997637992	0.5532937863075001	1.57079632696943	0	0
0.08749370876799453	-0.3922832507567914	-0.04368487998733499	-0.2500383944174648	-0.01900915708382847	0.9658528440542924	0.3535643157705685	0.1624351587812005	-0.2149601041653393	-0.1558744451335078	0.9585005188182737	0.1021521049148762	0.8729038806745807	-0.1821179933618866	0.1097172224267546	0	0.696165319300175	-0.2274033793362323	-0.4722151305912105	0.08775882906932629	0.08218151389187184	0.08775882988750963	0.2969824207713502	0.3030566249953937	-0.0001912078680335335	-0.203595178958876	0.09594325061995207	0.1568064768416469	0.02073319652137914	-0.3130410549797309	-0.3553597455148904	1.536105223234199	1.570796326969431	0	0	-1.114458587745844	-0.4069894819352349	-0.9411090793585115	0.5525139488609875	1.570796326969431	0	0
0.08989044193946306	-0.3870276375794265	-0.0455215543653173	-0.2511852755316001	-0.01486454302850593	0.9653875755552613	0.3529454689368961	0.1524435024128277	-0.217973516416169	-0.1470448176362124	0.9784057352746971	0.1021521049148762	0.8915610040198624	-0.1829807568420729	0.1077223870422915	0	0.6923020217210413	-0.2285790073773702	-0.4799732040890583	0.08078967183722702	0.08218151389187187	0.08078967234596994	0.2973110172154291	0.310519476180101	-0.0001860840257087983	-0.2047420191066798	0.09731941109814722	0.158642678797675	0.01958605157865284	-0.3132851748863609	-0.3555241297507117	1.533709149946385	1.570796326969431	0	0	-1.116804738979579	-0.4004204253736607	-0.9395629502731865	0.5514623542183413	1.570796326969431	0	0
0.0928578434319315	-0.3806017065096757	-0.04775381735532595	-0.2523953747656534	-0.009728965045101096	0.9647252904661631	0.3521876097291425	0.1398317246222222	-0.2215558485063351	-0.1357239561587205	1.002660602010744	0.1021521049148762	0.9144010252147983	-0.1839530461288551	0.1055705431399297	0	0.687953210312268	-0.2300117782008696	-0.4890609162909412	0.07334335929604739	0.08218151389187184	0.07334335970366226	0.2974503209001331	0.3188888101286782	-0.0001799103588797835	-0.2059336550437331	0.09902072492898834	0.1607965069217364	0.01798947864305699	-0.3134384797402183	-0.3559070047951163	1.530540072241364	1.570796326969431	0	0	-1.11972545033117	-0.3927117174975133	-0.9376160212907857	0.5501502591182441	1.570796326969431	0	0
0.09634910826143198	-0.3731778801254125	-0.05030724886374915	-0.2535121875311833	-0.003683149632163616	0.9638254532139512	0.3513083042903962	0.1246773850699343	-0.2255516545992272	-0.1219039667400899	1.030593147910343	0.1021521049148762	0.9408617367529886	-0.1850070204650444	0.1034833709541403	0	0.6834772103789083	-0.2316528026929162	-0.4989657401086516	0.06626571040918111	0.08218151389187177	0.06626571128616349	0.2972052659200584	0.3274426547383014	-0.0001728917651141748	-0.206996726360425	0.1010033463963531	0.1631523563563136	0.01585599743576541	-0.3133964615982566	-0.3566213480932858	1.526523740536323	1.570796326969429	0	0	-1.123173180608326	-0.3842590726434509	-0.9352810546003901	0.5485923162272263	1.570796326969429	0	0
0.1003091743612673	-0.3649672057705344	-0.05308751922728958	-0.2543646319734414	0.003175687119551014	0.9626496160634401	0.3503277889828749	0.1071257147607192	-0.2297853688686938	-0.1056512102567186	1.061444542431415	0.1021521049148762	0.9702813491130636	-0.1861387099035537	0.101680569513765	0	0.6792724773254487	-0.2334368700114877	-0.5090936002922308	0.06044645751426675	0.08218151389187178	0.06044645874175446	0.2963496359560688	0.3353713298023853	-0.0001652293229761409	-0.2077382218036631	0.1032038900458928	0.165578640499139	0.01309505508038396	-0.31304137150183	-0.3577903699744342	1.521590879935826	1.570796326969429	0	0	-1.127079648134958	-0.3755001203218916	-0.9325775735728139	0.5468069017626764	1.570796326969429	0	0
0.1046755879088882	-0.3562128506664989	-0.05598262243510728	-0.2547799687100222	0.01073472988399895	0.9611662680531469	0.3492682135726427	0.08742023006253241	-0.2340701763851101	-0.08712848289502091	1.09445289922314	0.1021521049148762	1.001929155792547	-0.1873615551677116	0.1003522719840044	0	0.6757505445934903	-0.2352831535761574	-0.5188011383872566	0.05674863473962399	0.08218151389187182	0.05674863598883498	0.2946420801878005	0.3418323702883914	-0.0001571362109550305	-0.2079602455772908	0.1055391698194744	0.1679347705176565	0.009622367946424281	-0.3122502784537708	-0.3595371905823178	1.515687523052808	1.57079632696943	0	0	-1.131352091552293	-0.3668884696392156	-0.9295332144212891	0.5448165953904607	1.57079632696943	0	0
0.1093794873493492	-0.3471784204505375	-0.05886828909679689	-0.2545992348651482	0.01886701993046271	0.9593554815710386	0.3481527096569834	0.06590862174359269	-0.2382188302537979	-0.06660610464132506	1.128859437568071	0.1021521049148762	1.03504741236078	-0.188716819393297	0.09963206490353189	0	0.6733027338249479	-0.2370986812225535	-0.5274412828752701	0.05593488475294339	0.0821815138918718	0.05593488589877911	0.2918500467452227	0.3460206437449562	-0.0001488333848921146	-0.2074790014750253	0.1079095385953728	0.1700802145654016	0.005370655445372563	-0.3109058737798425	-0.3619719791061026	1.508785452642939	1.570796326969431	0	0	-1.135871488410442	-0.3588636827473148	-0.9261845485621806	0.5426488496668069	1.570796326969431	0	0
0.1143466890533171	-0.3381317550333896	-0.06161655345471933	-0.2536937496166941	0.02743355531905577	0.9572129040144349	0.3470043563841323	0.04305079965903563	-0.2420556982760541	-0.04445924341058465	1.163904514445393	0.1021521049148762	1.068898386533167	-0.1902665463409749	0.09957590343577766	0	0.6722635210437634	-0.2387847203187682	-0.534418693115802	0.05859754092782279	0.08218151389187178	0.05859754143218526	0.2877798692894895	0.3472471914440959	-0.0001405152311015508	-0.2061462615455819	0.1102060810077322	0.1718850536268107	0.0003009487456247168	-0.3089093208781368	-0.3651776130748197	1.500891708466675	1.570796326969429	0	0	-1.140493960997707	-0.3518194626906868	-0.9225771167880383	0.5403367988503889	1.570796326969429	0	0
0.119498857100969	-0.3293260766589529	-0.06410666697716169	-0.2519805463697654	0.03628606172887223	0.9547526360602674	0.3458451639885217	0.01940978662102244	-0.2454289089554295	-0.02115140352623855	1.198886694788738	0.1021521049148762	1.102807943634571	-0.1920656378073534	0.1001520148682395	0	0.6728749898182295	-0.2402455562955471	-0.5392480653042522	0.06510017264911881	0.08218151389187178	0.06510017328337732	0.2823087909145508	0.3450161227060142	-0.0001323624198598153	-0.2038703735347375	0.1123209853816501	0.173240940990065	-0.005586784336748532	-0.3061936912125628	-0.3691956578756017	1.492056054594248	1.570796326969428	0	0	-1.145056284145204	-0.3460733911097456	-0.918764520194473	0.537920014210938	1.570796326969428	0	0
0.1247547386248661	-0.3209813269605308	-0.06623680164121094	-0.2494342455945952	0.04527039202726484	0.9520085948322267	0.3446952209584854	-0.0043581933222967	-0.2482212097508616	0.002793287390221087	1.233241570173847	0.1021521049148762	1.136196899088647	-0.1941255965425004	0.1012450774265012	0	0.6752576898571412	-0.241398464132577	-0.5416058613154149	0.07553796405323657	0.08218151389187177	0.07553796552796783	0.2754128375426328	0.3390866343163337	-0.0001245233649260163	-0.2006330755617442	0.1141594763950236	0.1740710041942531	-0.01224528624552704	-0.3027359372125263	-0.3740149743716861	1.482375440713587	1.570796326969429	0	0	-1.149385766945168	-0.3418421176406051	-0.9148066193078925	0.5354448559397861	1.570796326969429	0	0
0.1300314451878346	-0.3132689153945865	-0.06793450850608952	-0.2460931120806851	0.05423044660857962	0.949034065769262	0.3435721260165081	-0.02755671461455578	-0.2503581389645311	0.02682431178948698	1.266560432388175	0.1021521049148762	1.168594034464441	-0.1964000952512003	0.1026749161007106	0	0.6793930868178589	-0.2421831947097021	-0.541365842550364	0.08972263696237646	0.0821815138918718	0.08972263797190914	0.2671840552464618	0.329508162255343	-0.0001171231659031975	-0.196498402481074	0.115651033292114	0.1743371509038673	-0.01957557240045173	-0.2985651880226666	-0.379565290320143	1.471994826429859	1.57079632696943	0	0	-1.153313913171699	-0.3392256895022438	-0.9107671610180086	0.5329639849277005	1.57079632696943	0	0
0.1352457599718137	-0.306302704071115	-0.06916389931001836	-0.2420578789109437	0.0630124163573008	0.9458993267807732	0.3424908061045598	-0.04950079249198808	-0.2518123987580216	0.0503999994380596	1.298568239838695	0.1021521049148762	1.199629505426519	-0.198797806015868	0.1042265416767117	0	0.685121436853483	-0.2425692046405717	-0.5386113121318096	0.107194696734285	0.08218151389187185	0.1071946975622652	0.2578321960097605	0.3166210594955465	-0.0001102557566468955	-0.191610980060702	0.1167575253069754	0.1740435334148039	-0.02742770597328415	-0.2937655526685223	-0.3857174770890317	1.461104199367785	1.570796326969431	0	0	-1.156692353287899	-0.3382036034768661	-0.9067113831771824	0.5305346434373519	1.570796326969431	0	0
0.1403154501570172	-0.3001378945301755	-0.06992807876300261	-0.2374832405854778	0.07146905631219384	0.9426874887682808	0.341463702647781	-0.06958980500072254	-0.252603831610706	0.07301873656812624	1.329065357801831	0.1021521049148763	1.229012642442086	-0.2012065598945233	0.1056856288113132	0	0.6921564601475987	-0.2425592329391356	-0.5336216247940967	0.1272619504162626	0.08218151389187191	0.127261951454346	0.2476692702873534	0.30102204634867	-0.0001039852280669181	-0.1861829374663467	0.1174764843403258	0.1732355545411814	-0.03560730848256059	-0.2884725561208751	-0.3922911100625236	1.449932099922066	1.57079632696943	0	0	-1.159408808419335	-0.3386432909030954	-0.9027042095573448	0.5282155340910221	1.57079632696943	0	0
0.1451605637948114	-0.2947778163229904	-0.07026635968070825	-0.232563353661439	0.07946366016724703	0.9394890028847335	0.34050125625283	-0.08735352479931741	-0.2527950567149426	0.09424257897168757	1.357880484805729	0.1021521049148763	1.256501988745518	-0.2035153609685322	0.1068723292177136	0	0.7001150523143421	-0.2421885880704718	-0.5268359363940464	0.1490592155986515	0.08218151389187187	0.1490592168184351	0.2370795153099965	0.2835009874301138	-9.835384228983374e-05	-0.1804711123760304	0.1178388755350337	0.1719946015936811	-0.0438872698280232	-0.2828636012644172	-0.3990684190572688	1.438736351554763	1.57079632696943	0	0	-1.161400505094886	-0.3403195779623323	-0.8988094603738893	0.5260624985398449	1.57079632696943	0	0
0.1497046907286447	-0.2901868962136115	-0.07024694945428052	-0.2275138386646746	0.0868733715195936	0.9363955329503603	0.339612542200771	-0.1025037592652246	-0.2524834624632951	0.1137115547806028	1.384812156646139	0.1021521049148762	1.281876594434752	-0.2056270184804884	0.1076669691800078	0	0.7085572573129191	-0.2415204253309081	-0.5188016220872221	0.1716208076386095	0.08218151389187181	0.1716208089788416	0.2264808273124595	0.2649610259833471	-9.338002991894832e-05	-0.1747484935191448	0.1179020638971063	0.1704294501595258	-0.05202305730871394	-0.2771440346098067	-0.4058123743446211	1.427792933604673	1.570796326969431	0	0	-1.162662625618936	-0.3429417730557896	-0.8950901207943368	0.5241236083231043	1.570796326969431	0	0
0.1538761676969849	-0.2863068203934934	-0.06995673770193322	-0.2225533089816356	0.09359153443304243	0.9334940365405161	0.338805884886727	-0.11493942815954	-0.2517907373756645	0.1311486332026426	1.409611824107043	0.1021521049148762	1.304915776736009	-0.207469839824056	0.1080233954513656	0	0.7170296663188207	-0.2406380796065165	-0.5101170413152569	0.1939556313419334	0.08218151389187184	0.1939556325044515	0.2162854176535147	0.2463362130119692	-8.906573436636771e-05	-0.1692752350579199	0.1177397677888679	0.1686657756261633	-0.0597692827606179	-0.2715311766936425	-0.4122858199846812	1.417383990725992	1.57079632696943	0	0	-1.163250063138952	-0.3461839614276547	-0.891609249231767	0.5224346170164853	1.57079632696943	0	0
0.1576092086661948	-0.2830724598318118	-0.06949025657441542	-0.2178872367809422	0.09952889905876822	0.930861891502185	0.3380892986874074	-0.1247466231279866	-0.2508513568713777	0.1463565428199089	1.431968779775771	0.1021521049148762	1.325390890409655	-0.2090061977945313	0.1079687403204281	0	0.7251049875913214	-0.2396359536204879	-0.5013779494215074	0.2151150399677911	0.08218151389187184	0.2151150408463963	0.2068668695458328	0.2285191989306129	-8.540234605974197e-05	-0.1642746213668679	0.1174312931369895	0.166835335963445	-0.06689501397792898	-0.2662388196600884	-0.4182685204365342	1.40778590234555	1.57079632696943	0	0	-1.163271812903873	-0.3497141004486248	-0.8884307873768956	0.5210158203705088	1.57079632696943	0	0
0.1608449427275907	-0.2804245911670221	-0.06893973786324235	-0.2136961182689868	0.1046136489665597	0.9285636698068552	0.337470671194402	-0.1321526852687371	-0.2498013877315755	0.1592082984328882	1.45153628594587	0.1021521049148762	1.343068595687755	-0.210232292104382	0.1075912480914464	0	0.7324118744699758	-0.2386104669837324	-0.4931343772293239	0.2342459745562504	0.0821815138918718	0.2342459754095511	0.1985383215928161	0.212307284329314	-8.237269810950543e-05	-0.159918027909489	0.1170521570492691	0.1650661584582703	-0.0731957620297838	-0.2614642212241117	-0.4235697095188132	1.399258165631682	1.57079632696943	0	0	-1.162878525697615	-0.3532184892658197	-0.8856194797059608	0.5198711882813188	1.57079632696943	0	0
0.1635323437594561	-0.2783176123134367	-0.06838757867455644	-0.2101287269674682	0.1087903888523172	0.9266498093219492	0.3369576688213581	-0.1374858656326359	-0.2487686606830931	0.1696335586871393	1.467949981697631	0.1021521049148762	1.357722128604171	-0.2111696737960437	0.1070198039460327	0	0.7386517906764888	-0.237652218706688	-0.4858612790094284	0.2506256111581631	0.08218151389187184	0.2506256122174124	0.191543215257688	0.1983697968504746	-7.995554464652696e-05	-0.1563206435801866	0.1166674877275756	0.1634745960023146	-0.0785009863961473	-0.2573787558970229	-0.4280349709633898	1.392033629089755	1.57079632696943	0	0	-1.162244821966373	-0.3564197495515253	-0.8832393584099748	0.5189901802096302	1.57079632696943	0	0
0.1656290397522234	-0.2767219146629288	-0.06790170549335557	-0.2073000870383419	0.1120183783424363	0.9251570421065425	0.3365574099030881	-0.1411070847207026	-0.247864911135183	0.1776029544366821	1.480871837697524	0.1021521049148762	1.369145964311193	-0.2118506507273972	0.1063996006457407	0	0.7436029061298574	-0.236839984224346	-0.4799427962216435	0.263677802780596	0.08218151389187187	0.2636778040655898	0.1860570142313777	0.1872349623470189	-7.813051491756217e-05	-0.153547171901601	0.1163286355450508	0.1621595793652029	-0.0826770522079984	-0.2541224125002093	-0.4315476483145244	1.386310387877068	1.57079632696943	0	0	-1.161548699418327	-0.3590880913784715	-0.8813507028126786	0.5183520499472732	1.57079632696943	0	0
0.1671020056717574	-0.2756218833600277	-0.06753356408959378	-0.205292922895122	0.1142694101731748	0.9241100859872592	0.3362759994586453	-0.1433612819189522	-0.2471800297549844	0.1831124544221579	1.490013418522841	0.1021521049148762	1.377169933825074	-0.2123053384834069	0.1058680818908162	0	0.7471138692718493	-0.2362366402486605	-0.4756673726379371	0.2729750627966345	0.08218151389187202	0.2729750642120912	0.1821962699695678	0.179291117795289	-7.68798541561693e-05	-0.1516245886583356	0.1160725660851864	0.1611989204361696	-0.08562656135279058	-0.2518015065982662	-0.4340261259297128	1.382245407673612	1.57079632696943	0	0	-1.160950657478732	-0.3610469382884557	-0.880005860035206	0.5179318511657203	1.57079632696943	0	0
0.1679283452515349	-0.2750112208581887	-0.06731789524137356	-0.2041606420647696	0.1155260639575837	0.9235237604267427	0.3361179930381244	-0.1445182490808289	-0.2467781165539229	0.1861703567846779	1.495166764101292	0.1021521049148763	1.381671542142008	-0.2125533819193623	0.1055342380125647	0	0.7490925815028285	-0.2358866393381251	-0.4732290160804012	0.2782331576043386	0.08218151389187212	0.2782331590681933	0.1800301394266567	0.1747946189446687	-7.618949435502291e-05	-0.1505575300587298	0.1159230032361031	0.1606470875909944	-0.08728599609610621	-0.2504881848070801	-0.4354193137732212	1.379949223543741	1.570796326969431	0	0	-1.160574952736893	-0.3621749792072388	-0.8792445049057095	0.5177068755438152	1.570796326969431	0	0
0.168122704144023	-0.2748681969917888	-0.0672662477891588	-0.2038937291591015	0.11582098	0.9233859840000006	0.3360808120000003	-0.14477927384168	-0.2466817598104732	0.1868861066381879	1.496381269601526	0.1021521049148763	1.382730389000002	-0.212611174418498	0.1054519350700246	0	0.7495587618315591	-0.235803133229301	-0.472651503830516	0.2794740685279243	0.08218151389187212	0.2794740700000001	0.1795207575045115	0.1737330799160726	-7.602828754612502e-05	-0.150307886465418	0.1158872453159299	0.1605159718596739	-0.08767674201645143	-0.2501781513719888	-0.4357472173722574	1.379407527249964	1.570796326969431	0	0	-1.160482340498016	-0.3624432603322625	-0.8790646878013032	0.5176551200115515	1.570796326969431	0	0
0.1686154129292711	-0.2745065893962697	-0.06713378213305619	-0.203216136860251	0.1165674791409874	0.9230369607660434	0.3359865236943599	-0.1454211434273885	-0.2464344004225478	0.1886945785703624	1.499465419233107	0.1021521049148763	1.385414728015368	-0.2127569138485552	0.1052367829558249	0	0.750741704077715	-0.2355894404166755	-0.4711808239817359	0.2826267295814022	0.08218151389187202	0.2826267310686425	0.1782297560209426	0.1710355432523053	-7.562160652463919e-05	-0.1496774405277095	0.1157956461002998	0.1601813572325851	-0.0886679912851988	-0.2493903131213206	-0.436578771633635	1.378031550622047	1.570796326969431	0	0	-1.16024027235555	-0.3631283346483687	-0.8786075510451941	0.5175259348318687	1.570796326969431	0	0
0.1697668192104805	-0.2736664592626941	-0.06681586961395222	-0.2016277415584363	0.1183056013792306	0.9222228765276559	0.3357659772475283	-0.1468118540628417	-0.2458392273882992	0.1928870053365443	1.506697516029915	0.1021521049148762	1.391688559797515	-0.2130909681030617	0.104697211494434	0	0.7535113688368678	-0.2350790121726445	-0.4677078928664216	0.2900310481220763	0.08218151389187181	0.2900310496132849	0.1752154239951553	0.1646970568745774	-7.46822681803594e-05	-0.1482185796017749	0.1155765347757798	0.1593871054803376	-0.090987887005052	-0.2475389722952528	-0.4385232355035901	1.374800783539164	1.570796326969429	0	0	-1.159633483428492	-0.3647565013251468	-0.8775318783412629	0.5172355894169886	1.570796326969429	0	0
0.171555060840006	-0.2723727292456423	-0.06630018568434498	-0.1991492247460248	0.12098706471169	0.9209636879974263	0.3354227626147794	-0.1486650574215814	-0.2448681733542944	0.1993029526396765	1.517999060836261	0.1021521049148762	1.401435542885963	-0.2135850531217266	0.1037551990816443	0	0.7578212814918753	-0.2342563121787876	-0.4622196862056593	0.3016244627651115	0.08218151389187185	0.3016244641891835	0.170545690414989	0.1547650538205535	-7.325357385003738e-05	-0.1459977555793614	0.1152235973364481	0.1581203460841129	-0.09459837661932102	-0.2446368491193755	-0.4415440118920331	1.369741377112174	1.570796326969428	0	0	-1.158575280668052	-0.3673578544161805	-0.8758398283609004	0.5168181113465958	1.570796326969428	0	0
0.1739517940114746	-0.2706521710188066	-0.06557101423332325	-0.195811508232988	0.1245456322929537	0.919288485253705	0.3349611112276663	-0.1505526712932222	-0.2434801783945926	0.207715932878945	1.533278675437962	0.1021521049148762	1.414506851152582	-0.2141868998803573	0.1022891693294444	0	0.7635949345784592	-0.233098759631612	-0.4547013177964426	0.3173159844677591	0.08218151389187181	0.3173159857429814	0.1643230244798971	0.1413110462314766	-7.139485228510173e-05	-0.1431215805595356	0.1147306947555924	0.1563619626479514	-0.09944530340055628	-0.2407009663404069	-0.4455867227151182	1.362882746489554	1.570796326969429	0	0	-1.156931221041102	-0.3709742663145328	-0.8735283766132407	0.5163266521942433	1.570796326969429	0	0
0.176919195503943	-0.2685263598411898	-0.06461631396043109	-0.1916673173460998	0.1288933783364321	0.9172397892210251	0.3343862016834099	-0.1519234034019717	-0.2416300500614721	0.217827731730251	1.552404569138495	0.1021521049148762	1.430703782640472	-0.2148156021803721	0.1001420255098183	0	0.770698231322349	-0.2315834598730382	-0.4451720294064005	0.3369313374493623	0.08218151389187184	0.3369313386451329	0.1567042835997292	0.1244804972053244	-6.917960109740384e-05	-0.1397513131080631	0.114098179982604	0.1540948107318955	-0.1054449918212124	-0.2357651498010364	-0.4505663072361417	1.354272110945405	1.570796326969429	0	0	-1.154527546180399	-0.3756392303480451	-0.870591176867673	0.5158355520539738	1.570796326969429	0	0
0.1804104603334435	-0.2660012354849303	-0.06343475210246738	-0.1867981370897676	0.1339227515356596	0.9148753235531166	0.3337038329082889	-0.1521373146991334	-0.2392770386819461	0.2292784855824056	1.575191297454893	0.1021521049148762	1.449775053349203	-0.2153646335549581	0.09713298094056122	0	0.7789191685664723	-0.2296935246713011	-0.4337133332866898	0.3601773570221956	0.08218151389187185	0.3601773584215245	0.1479101124529596	0.104525127855893	-6.669098479184937e-05	-0.1361121763335261	0.113339231006242	0.1513105824577463	-0.1124773322760669	-0.229887770585059	-0.4563598204134435	1.343980526122937	1.570796326969429	0	0	-1.151161640560966	-0.3813606912023912	-0.8670173301540727	0.5154411285859059	1.570796326969429	0	0
0.1843705264332789	-0.2630579707671572	-0.06204228377450836	-0.1813190945604977	0.1395095988843488	0.9122688961396723	0.3329201912019695	-0.1505122353178321	-0.236393647734365	0.2416607788837356	1.601370005133739	0.1021521049148762	1.47140933364008	-0.2157112087625062	0.09307567198674427	0	0.7879522714966428	-0.2274245061762751	-0.4204932098263467	0.3866127338864619	0.08218151389187188	0.3866127354165952	0.1382282198804913	0.08182750004353101	-6.401746530003062e-05	-0.1324979089402025	0.112485447917874	0.1480164701075336	-0.1203806329052507	-0.2231582821104588	-0.4628016134578224	1.332108719005253	1.57079632696943	0	0	-1.146616617056857	-0.3881055422387004	-0.8627906269214977	0.5152613009638987	1.57079632696943	0	0
0.1887369399808997	-0.2596478022814221	-0.06047680732906845	-0.175379985967921	0.1455170990339018	0.9095097525684063	0.3320418152665723	-0.1463836683625233	-0.2329734483533691	0.2545373202515642	1.630557421967652	0.1021521049148762	1.495222826156734	-0.2157346193443528	0.08780231914008693	0	0.7973933574222066	-0.224789903392533	-0.4057807806619961	0.4156327467681302	0.08218151389187181	0.4156327478649496	0.1280069547598611	0.05691082107457886	-6.124544512906486e-05	-0.1292666994614597	0.1115901738508988	0.1442405475903614	-0.1289500529971092	-0.2157009408723343	-0.4696830322608948	1.318792104765009	1.57079632696943	0	0	-1.140680120813861	-0.3957889192170888	-0.8578900539852629	0.5154331728413422	1.57079632696943	0	0
0.1934408394213607	-0.2556932240329497	-0.05879948703389309	-0.1691610904085108	0.151800567744848	0.9066998405949134	0.3310758133886065	-0.1391729342142839	-0.229036650628334	0.267461514462606	1.662219984375256	0.1021521049148762	1.520744809088759	-0.2153355588600595	0.08119175613965814	0	0.8067496456499101	-0.2218246465053202	-0.3899469116025491	0.446474698223413	0.08218151389187178	0.4464746993506788	0.1176370585196913	0.03042884193438362	-5.84512985032895e-05	-0.1268252906370204	0.1107281067161053	0.1400348626084613	-0.1379413297189477	-0.2076742732937887	-0.4767584619844728	1.304204207851794	1.570796326969429	0	0	-1.13316662518866	-0.4042708879938078	-0.8522923504285786	0.5161076753731227	1.570796326969429	0	0
0.1984080411253286	-0.2510970525489197	-0.05709179102909492	-0.1628633744559101	0.1582129699810642	0.9039487022560914	0.3300303360536503	-0.1284519669139736	-0.2246324573642796	0.2799998437716558	1.695660755717678	0.1021521049148763	1.547406912735245	-0.2144595731526572	0.07319719601891736	0	0.8154680692521925	-0.2185856866671301	-0.3734486286899321	0.4782477243588717	0.08218151389187187	0.4782477253116501	0.1075221560011986	0.00313448528325266	-5.570610922699339e-05	-0.1255998288143201	0.1099903185992997	0.1354755731555388	-0.1470808096864519	-0.1992655334465833	-0.4837585512205982	1.288557795367392	1.570796326969431	0	0	-1.123941533144575	-0.4133618023147219	-0.8459772180350452	0.5174405805916494	1.570796326969431	0	0
0.2035602091729806	-0.2457593125328217	-0.05544811819208451	-0.1566939489480523	0.1646108288681003	0.9013661817542613	0.3289152194786424	-0.113997518345869	-0.2198377653063412	0.2917546605637376	1.730015572740336	0.1021521049148762	1.574543581982587	-0.2131169819826745	0.06386831341497605	0	0.82298111913752	-0.215149297590851	-0.356798443953405	0.5099861505253758	0.08218151389187175	0.509986151229074	0.09804172465657846	-0.0241696791031544	-5.306508912619057e-05	-0.1259947791603087	0.1094747525911541	0.130659981883603	-0.1560816406006475	-0.1906804112967081	-0.4904099549546668	1.272103188871941	1.570796326969428	0	0	-1.112944505590159	-0.4228357737300293	-0.838935335844201	0.5195796847797413	1.570796326969428	0	0
0.2088160906968776	-0.2395999242730611	-0.05396492275080114	-0.1508488687771892	0.1708601142356103	0.8990536409192972	0.3277426585668266	-0.09582964901547392	-0.2147524748186422	0.3023858001067313	1.764288271652856	0.1021521049148762	1.601410605856262	-0.2113762740310886	0.05336223592962969	0	0.8287652995372919	-0.2116053604762032	-0.3405228858521964	0.5407205363099689	0.08218151389187175	0.5407205375344443	0.08951298351759721	-0.05069199106672367	-5.056917643116577e-05	-0.1283444071030093	0.1092734184197492	0.1257008908605372	-0.1646645770194289	-0.1821293558724272	-0.4964592494735225	1.255123461277259	1.570796326969429	0	0	-1.100208902854759	-0.4324498112846957	-0.8311786286881981	0.5226486921578991	1.570796326969429	0	0
0.2140927972598461	-0.2325833337052485	-0.05272820710433263	-0.1454961702149356	0.176841575456757	0.8970948419894023	0.326527753503705	-0.07422712788001001	-0.2094923466776129	0.3116293262203687	1.797400830483888	0.1021521049148762	1.627225284414952	-0.2093582716162971	0.04193967405865834	0	0.8324034437401199	-0.208049574230967	-0.325116833070434	0.5695562763997869	0.08218151389187181	0.5695562775234896	0.08215935537773372	-0.07571375378145173	-4.82494960901045e-05	-0.1328640786770381	0.1094585186139499	0.1207191575273266	-0.1725805635618626	-0.1738127437538895	-0.5016972919646416	1.237926542983936	1.570796326969428	0	0	-1.085874301015594	-0.4419648150978273	-0.8227514599624333	0.5267292047570358	1.570796326969428	0	0
0.2193071120438252	-0.224740132643796	-0.05180182192102757	-0.1407621218316455	0.1824550018750538	0.8955479354338316	0.3252887509461876	-0.04971998994393556	-0.2041807755517626	0.3193117274247043	1.82828708834046	0.1021521049148762	1.651226286780345	-0.2072144624325911	0.0299454431026631	0	0.8336399960086227	-0.2045750297898392	-0.3110010421006011	0.5957473899486218	0.08218151389187184	0.5957473909470781	0.07609225278602663	-0.09864303492512823	-4.612148153391334e-05	-0.1396100027675747	0.1100702474861675	0.115835559727301	-0.1796314910927382	-0.1659074513414087	-0.5059797140256097	1.220834663886345	1.570796326969431	0	0	-1.070189840724191	-0.4511642446737705	-0.8137407978867036	0.5318430492089906	1.570796326969431	0	0
0.2243768022290288	-0.2161808700058185	-0.05121895560969622	-0.1367229711115848	0.1876219831439472	0.8944399120610734	0.3240469026441944	-0.02306184106630849	-0.1989409070456857	0.3253580554885274	1.855994718906725	0.1021521049148762	1.672745087190658	-0.2050984919983108	0.01777623010678005	0	0.8324188362827034	-0.2012647284627339	-0.2984893958086201	0.6187536896146725	0.08218151389187185	0.6187536905824769	0.07131000760296269	-0.1190523857404214	-4.419209191612585e-05	-0.1484553553389153	0.111108791566906	0.1111630523193292	-0.1856855790868499	-0.1585570510263099	-0.5092397470848881	1.204172011216438	1.57079632696943	0	0	-1.053507538263931	-0.459867089150463	-0.804283181075453	0.5379376879928686	1.57079632696943	0	0
0.2292219158668229	-0.2070987495915171	-0.05097848202873485	-0.1334032231194983	0.1922868922431644	0.8937644876741326	0.3228259194014253	0.004825989997032321	-0.1938892190474289	0.3297929039327488	1.879811433796972	0.1021521049148762	1.691276161193946	-0.2031447593511602	0.005841507900562369	0	0.8288963943262179	-0.198186356318419	-0.2877702477952438	0.6382727479329733	0.08218151389187185	0.6382727486139439	0.06771365199760505	-0.1366960418393603	-4.246218135005143e-05	-0.1590879440345067	0.112532144909744	0.1068002946514454	-0.1906847860784935	-0.1518669557294252	-0.5114911136398762	1.188251872423908	1.570796326969431	0	0	-1.036266286622957	-0.4679334660780041	-0.794566621247899	0.5448774810291163	1.570796326969431	0	0
0.2337660428006562	-0.1977603608231448	-0.05104667234941743	-0.1307801057954388	0.1964160557186885	0.8934837726324971	0.3216510781485926	0.03293111033422164	-0.1891311473718332	0.3327337749006721	1.899338258683798	0.1021521049148762	1.706531643964048	-0.2014434441481291	-0.005475001521861656	0	0.8234278188748523	-0.1953900180103144	-0.278903453639043	0.654243027451115	0.08218151389187174	0.6542430281116478	0.06513528264308095	-0.1515060528895227	-4.09288706432301e-05	-0.1710303810432241	0.1142600132677295	0.1028270534584729	-0.1946432380581022	-0.1459046854409307	-0.5128208295728383	1.173364742992969	1.57079632696943	0	0	-1.018968641322329	-0.4752631807382888	-0.7848264036662851	0.5524429832919291	1.57079632696943	0	0
0.2379375197689964	-0.188486239540284	-0.05136353277048589	-0.1287927747757819	0.1999952995117194	0.8935333705497523	0.3205481302958874	0.0602262857269068	-0.1847587780251405	0.3343771993808863	1.914530921033387	0.1021521049148762	1.718468519829035	-0.2000419010858746	-0.01584640448958841	0	0.8165293478427348	-0.192908870211939	-0.2718319845705902	0.6668197990567384	0.08218151389187178	0.6668197994197862	0.06337216120386602	-0.1635701973609004	-3.958720963039257e-05	-0.1836793446839816	0.1161827432118202	0.09930181722196973	-0.1976374240736633	-0.1407043871513254	-0.5133737911629915	1.15976879096018	1.57079632696943	0	0	-1.002153283940969	-0.4817891927274865	-0.7753348728253074	0.5603393637066226	1.57079632696943	0	0
0.2416705607382064	-0.1796250746980527	-0.05185209284486097	-0.127354243997658	0.2030262623383793	0.8938300008452955	0.3195421424035459	0.08573222365386252	-0.1808502170549202	0.3349787904874735	1.925670862144486	0.1021521049148762	1.727281931583035	-0.1989524608489672	-0.02502154763767047	0	0.8088242007451483	-0.1907619406791347	-0.2664049786384803	0.6763297136996709	0.08218151389187182	0.6763297141372363	0.06221921801758096	-0.1730968028294759	-3.843144869340708e-05	-0.1963571944557333	0.1181732788739076	0.09626171344628418	-0.1997903383153289	-0.136274085075218	-0.5133323827640881	1.147683669148212	1.570796326969429	0	0	-0.9863661630426506	-0.4874687074108642	-0.7663864017580443	0.5682136532425687	1.570796326969429	0	0
0.2449062947996022	-0.1715262128980289	-0.0524285953936847	-0.1263640278352111	0.2055219711991992	0.8942804549953131	0.3186564216283783	0.1085679612221718	-0.1774700609125003	0.3348290593194404	1.933301837291098	0.1021521049148762	1.733365143754284	-0.1981559606707339	-0.03283014436568687	0	0.8009812744505314	-0.1889580506398035	-0.2624079771536672	0.683212282208787	0.08218151389187185	0.6832122828579156	0.06149413753318936	-0.1803724728478287	-3.746007234461977e-05	-0.2083678069918282	0.1200998504345517	0.09372458247498111	-0.2012524852294927	-0.1326039759596316	-0.5128947361276605	1.137288056376913	1.570796326969429	0	0	-0.9721328353709211	-0.4922744569964191	-0.7582795201214532	0.5756791887133749	1.570796326969429	0	0
0.2475936958314676	-0.1645146446971256	-0.0530117626233345	-0.1257198960040269	0.2075022019710101	0.8947906714311115	0.3179116170154236	0.1279855533247563	-0.1746704021590687	0.3342271908169911	1.938122075979515	0.1021521049148762	1.73724301631734	-0.1976085339968613	-0.03917548390017035	0	0.7936554590230933	-0.1874997650126528	-0.2595959327181225	0.687956892075036	0.08218151389187189	0.6879568926812307	0.06105196956276435	-0.1857183792324776	-3.667229170700785e-05	-0.2190491684278636	0.1218374248401828	0.09169282459934004	-0.2021826310036343	-0.1296743417148242	-0.5122547448372557	1.128720641145914	1.57079632696943	0	0	-0.9599337635057054	-0.4961879140270851	-0.7512984233964448	0.5823446182121074	1.57079632696943	0	0
0.2496903918242349	-0.1588712374319683	-0.05352996187056246	-0.1253277479580283	0.2089890911570914	0.8952739707581342	0.3173250441495192	0.14338660138754	-0.1724919378970257	0.3334550373265889	1.940885252077921	0.1021521049148762	1.739490033314626	-0.1972582513977644	-0.04401824641588671	0	0.7874360879963023	-0.186386591361719	-0.257725139851525	0.691042760518995	0.08218151389187182	0.6910427609303036	0.06078922584149059	-0.1894496243761486	-3.606753472051526e-05	-0.2278174665614695	0.1232766876892704	0.0901584244401101	-0.2027305522930561	-0.1274621502722404	-0.5115858339463224	1.122083710545622	1.570796326969429	0	0	-0.9501835210073458	-0.4991951321473576	-0.7456958238425694	0.5878443463677517	1.570796326969429	0	0
0.2511633577437689	-0.1548191428052908	-0.05392589763244451	-0.1251092025916203	0.210003351467876	0.8956578482510557	0.3169102272349767	0.1543238788479011	-0.1709649074961787	0.3327533879455587	1.942285628150713	0.1021521049148762	1.740645402304658	-0.1970528950955981	-0.04735598445229686	0	0.7828068707087517	-0.1856170813642859	-0.2565812150602084	0.6928871161758897	0.08218151389187182	0.6928871164343861	0.06063983980505272	-0.1918407167845176	-3.564695967819131e-05	-0.2342003346082257	0.1243301883428582	0.08910840122785957	-0.2030231098929355	-0.125945945898579	-0.5110292151163196	1.117448138224172	1.57079632696943	0	0	-0.9432141637689833	-0.501285023958792	-0.7416784683526481	0.5918673726460493	1.57079632696943	0	0
0.2519896973235464	-0.1525151798417632	-0.05415918988500402	-0.1250069177780851	0.2105614461715075	0.8958891285853506	0.3166765590716558	0.160498458971006	-0.1701095309216372	0.3323021006000913	1.94287274440308	0.1021521049148763	1.741136921518609	-0.1969519332509027	-0.04920324219354572	0	0.7801171114796432	-0.1851897880600709	-0.2560011912775769	0.6938048644466472	0.08218151389187185	0.6938048646446345	0.0605666954993606	-0.1930991053701047	-3.541237576771656e-05	-0.2378603402198343	0.1249361233073151	0.08852975265986271	-0.2031541178747122	-0.1251088615725415	-0.5106862347349209	1.114857865826851	1.570796326969431	0	0	-0.9392616816870893	-0.5024496283735629	-0.7393954158555767	0.5941824787303309	1.570796326969431	0	0
0.2521840562160345	-0.1519701257552053	-0.05421520531157275	-0.1249849654499932	0.2106915763298832	0.8959451825139453	0.3166215017666466	0.1619544830222711	-0.1699084812814263	0.332189928316428	1.942989745753233	0.1021521049148763	1.741235958012735	-0.1969295089946761	-0.04963497738674412	0	0.7794748608934029	-0.1850897387477495	-0.2558712187679918	0.6940085162827763	0.08218151389187185	0.6940085164711067	0.06055048138446704	-0.193386427742394	-3.535733332245338e-05	-0.2387293717358985	0.1250801743252705	0.08839475904763337	-0.2031814909814731	-0.1249133745630001	-0.5106023955468258	1.114249729671751	1.570796326969431	0	0	-0.9383276219372606	-0.5027227543339692	-0.7388553809820059	0.5947331094741483	1.570796326969431	0	0
0.2526767650012827	-0.1505830714861414	-0.05435913511192383	-0.1249328910059977	0.2110195263205744	0.8960900995530614	0.316481764903057	0.1656514136413253	-0.1693990518348484	0.3318952741183823	1.943251808125806	0.1021521049148762	1.741458523216789	-0.1968749176702748	-0.05072463873916828	0	0.7778304169832259	-0.1848368717589355	-0.2555527475974746	0.6945039600941338	0.08218151389187184	0.6945039602675401	0.06051093795593249	-0.194100046324979	-3.521801591110861e-05	-0.2409462737142705	0.1254479380987494	0.08805445337664439	-0.2032450311981334	-0.1244201806784934	-0.5103844934046772	1.112710000204043	1.57079632696943	0	0	-0.9359522352045621	-0.5034138105576722	-0.7374811726599497	0.5961394386272978	1.57079632696943	0	0
0.2538281712824921	-0.1473123701780175	-0.05470609623953376	-0.1248310742048905	0.2117751049791874	0.8964444566674135	0.3161543135709877	0.1743244641904459	-0.1682099405368424	0.3311491005768765	1.943661056028501	0.1021521049148762	1.741817808921547	-0.1967630864339863	-0.05324338407942373	0	0.7738969293916086	-0.1842501511412801	-0.2548701402495228	0.6955453839458632	0.08218151389187181	0.6955453841463396	0.06042637250781106	-0.19568528539036	-3.489360628799882e-05	-0.2462038156755888	0.1263216437703368	0.08727000922072221	-0.203360932094299	-0.1232808304541693	-0.5098455607221906	1.109122804721947	1.570796326969429	0	0	-0.9303595136478382	-0.5050214633042627	-0.7342408247584776	0.5994845601577159	1.570796326969429	0	0
0.2556164129120176	-0.1421535728054738	-0.05527351575769925	-0.1247274904801907	0.2129187065949015	0.8970381020700032	0.3156433303753761	0.1878819139462907	-0.1663670512219496	0.3298300674014633	1.943721215875844	0.1021521049148762	1.741921769158911	-0.1966450187251409	-0.05707433878816684	0	0.7675395320832841	-0.183350235112655	-0.2539811780063803	0.6968401663916821	0.08218151389187181	0.6968401668136434	0.06031221115627423	-0.1979191378089633	-3.439268887189379e-05	-0.2545792133022134	0.1277172341637735	0.08608241870168144	-0.2034512218298136	-0.1215474495283659	-0.5089275644712929	1.103583211477861	1.570796326969429	0	0	-0.9215589766839969	-0.5074990211208963	-0.7291282428692997	0.6048439153213794	1.570796326969429	0	0
0.2580131460834861	-0.1350956896830379	-0.05608560765622617	-0.1246907263372495	0.2143948212295733	0.8979153455598992	0.314954108116838	0.2061974180731972	-0.1639048080332877	0.3277560931656185	1.942677450476309	0.1021521049148762	1.741173492393385	-0.1966194688528643	-0.06204278717401301	0	0.7585555915700501	-0.1821645314145654	-0.2531161915123973	0.6979621452875224	0.08218151389187188	0.6979621461495112	0.06017817663827164	-0.200480144055644	-3.372592013070885e-05	-0.2661938703726991	0.1296582536109317	0.0845514006990721	-0.2034035994563867	-0.1192916328648249	-0.5075475158080858	1.096222435132362	1.570796326969432	0	0	-0.9095491853746672	-0.5107856248975956	-0.7221248201445971	0.6123430487487379	1.570796326969432	0	0
0.2609805475759545	-0.1261459256784688	-0.05716626655781908	-0.1248026201832215	0.2161334908341402	0.8991284866869049	0.3140944138079524	0.2290535954691593	-0.160868982753829	0.3247017064882148	1.939545162880551	0.1021521049148763	1.738795896892321	-0.1968432221347396	-0.06790660624029328	0	0.7467221483485955	-0.1807261172444548	-0.2525618630732028	0.6983847828583001	0.08218151389187191	0.6983847837785901	0.06001265121207856	-0.2029701380371078	-3.290534117242925e-05	-0.2811658964807842	0.1321661094110525	0.08275644639107828	-0.2030831965363498	-0.1166020090017093	-0.5056123702436083	1.08721734593705	1.57079632696943	0	0	-0.8943473664433518	-0.5148069220318967	-0.7132178372192816	0.6221353389210824	1.57079632696943	0	0
0.264471812405455	-0.1153486150486528	-0.05853144861049873	-0.1251486854558568	0.2180550666704142	0.9007307413810746	0.313074955971302	0.2561045042783563	-0.1573155699420387	0.320418034531482	1.933163484742821	0.1021521049148762	1.733874769147917	-0.197529015564123	-0.07435812792193992	0	0.7318420418571121	-0.1790700525904111	-0.2526365038382551	0.6975297656506086	0.08218151389187191	0.6975297658967563	0.05976603130113378	-0.2049489398740905	-3.194270526440526e-05	-0.2995696371215659	0.1352511818330893	0.08079453715775045	-0.2023483427821786	-0.1135769008774061	-0.5030356410411539	1.076787955154135	1.570796326969429	0	0	-0.8760052097240781	-0.5194813098310541	-0.7024122502989751	0.6343842800952532	1.570796326969429	0	0
0.2684318785052903	-0.1028050995834562	-0.06018109245731206	-0.1258076940320148	0.2200757636753526	0.9027681911857524	0.3119097937731032	0.2868463626485473	-0.1533090486523621	0.3146562393910873	1.922269338554787	0.1021521049148763	1.725422084339207	-0.1989366459738322	-0.08103317012528773	0	0.7137950529653591	-0.1772291666329553	-0.2536602023218459	0.6948247896245204	0.08218151389187191	0.6948247900138284	0.05933765301609564	-0.2059747966396	-3.084837174638747e-05	-0.3213920343811608	0.1389035349602458	0.07877647658616414	-0.2010685729624191	-0.1103161082999655	-0.4997552007847325	1.065192356519358	1.570796326969431	0	0	-0.8546244936311663	-0.5247259878563872	-0.6897440362094056	0.6492412886457628	1.570796326969431	0	0
0.2727982920529112	-0.0886913190177589	-0.06209199829088091	-0.1268417056089178	0.2221135171991736	0.9052715788337313	0.3106166093796721	0.3206084381407427	-0.1489202124047165	0.3071929519804624	1.905617842920327	0.1021521049148762	1.712460393954792	-0.2013565738799538	-0.08752910823595614	0	0.6925877457683277	-0.1752300654741659	-0.2559221608466216	0.6897655603481065	0.08218151389187181	0.6897655611303993	0.05857081627380581	-0.2056468898243343	-2.963024817958165e-05	-0.3464916447193863	0.1430847741091571	0.07682167112587168	-0.1991428680428624	-0.106912925234696	-0.4957497118770055	1.052718844316791	1.570796326969429	0	0	-0.8303708035314806	-0.5304613234782194	-0.6752938186237493	0.666819737971265	1.570796326969429	0	0
0.2775021914933722	-0.07326902602221931	-0.06421336311097982	-0.1282879029691318	0.2240936087035732	0.9082490237024123	0.3092167428981689	0.3565721720662067	-0.1442238098233367	0.2978558439360318	1.882108201212183	0.1021521049148762	1.694124578729329	-0.2050704266021341	-0.0934322070967767	0	0.668393924350713	-0.1730903035150388	-0.2596484847997534	0.6819752673612648	0.08218151389187181	0.6819752679041321	0.0572595670343869	-0.2036454309030245	-2.829316062946636e-05	-0.3745675858906674	0.1477228515439003	0.0750513499201791	-0.196515604177473	-0.1034475823100934	-0.4910507738098652	1.03967514123447	1.57079632696943	0	0	-0.80348355484988	-0.5366122930355652	-0.6591987769762511	0.6871670214482427	1.57079632696943	0	0
0.2824693931973402	-0.05688665488825764	-0.06646654602950103	-0.130153412580256	0.2259534712616091	0.9116808049988346	0.3077349147114758	0.3938067344848318	-0.1392963043983337	0.2865472028143312	1.850924413735542	0.1021521049148762	1.669771624998281	-0.2103076527875205	-0.09835208795244639	0	0.6415774025661711	-0.1708176578460208	-0.2649743435709084	0.6712537756418342	0.08218151389187184	0.6712537764449121	0.05516877199419608	-0.1997645875293511	-2.683993474476284e-05	-0.4051455909983609	0.1527114249556682	0.07358049839494056	-0.1931875596081351	-0.09998318492039678	-0.485748133390201	1.026375229742406	1.57079632696943	0	0	-0.7742810780179543	-0.5431064314456245	-0.6416605595790505	0.7102374213501111	1.57079632696943	0	0
0.2876215612449921	-0.0399671550776954	-0.06875000338200328	-0.1324138286568174	0.227646138089494	0.9155171788610751	0.3061986063432983	0.4313326061673617	-0.134214044960541	0.2732633583851691	1.811644267504269	0.1021521049148762	1.639084209051162	-0.2172145171485466	-0.1019589903015223	0	0.6126906481503647	-0.1684121195923194	-0.2719243709776463	0.6576092913287037	0.08218151389187178	0.6576092913849702	0.05206597897371393	-0.1939341167991866	-2.527209168842177e-05	-0.4375863790803101	0.1579146643517031	0.07250910720347967	-0.1892198349341489	-0.09656480314216169	-0.4799862973723598	1.013124881185139	1.57079632696943	0	0	-0.7431602995796374	-0.5498687553859374	-0.6229471865209619	0.7358692151382152	1.57079632696943	0	0
0.2928774427688891	-0.02298246672045957	-0.07094924300064519	-0.135015531226599	0.2291419571671179	0.9196797886940919	0.3046371234511847	0.4681907613497307	-0.1290520499727091	0.2581079549826283	1.764332880502573	0.1021521049148762	1.602150983342411	-0.2258151703026771	-0.1040179818894476	0	0.5824466667536237	-0.1658705647753094	-0.2804044238720357	0.6412672526234214	0.08218151389187171	0.6412672532100478	0.04776020980356625	-0.1862269540996234	-2.359075584895927e-05	-0.471117867283832	0.1631772895514781	0.07191363731989349	-0.1847296216445655	-0.09322172665850192	-0.4739524816445538	1.000207430776686	1.570796326969429	0	0	-0.7105912761022616	-0.5568152765699751	-0.6033877482094692	0.7637696347412395	1.570796326969429	0	0
0.2981541493318576	-0.00641733503878247	-0.0729503780179178	-0.1378812183701238	0.2304283939300595	0.9240666041056881	0.3030804320798945	0.503512378862504	-0.1238834723786938	0.2412975448179644	1.709574904739485	0.1021521049148763	1.559507947381142	-0.2360004853899443	-0.1044142301413881	0	0.5516667773430942	-0.1631932866581138	-0.2902062071897131	0.6226547686255518	0.08218151389187177	0.6226547690084872	0.04214042736058245	-0.1768520912871192	-2.180209793026098e-05	-0.5048878975851001	0.1683383802182674	0.07183976388514519	-0.1798782909095681	-0.08997220105876158	-0.4678576799266255	0.9878714694796488	1.57079632696943	0	0	-0.677107385729578	-0.5638474169144464	-0.5833600302773724	0.79351062090531	1.57079632696943	0	0
0.3033684641158367	0.009272072548223723	-0.07465481167371718	-0.1409175707600492	0.2315080751720464	0.9285596768456482	0.3015578948086168	0.5365626137186545	-0.1187796768051557	0.2231585663091181	1.648489451810456	0.1021521049148762	1.512130647509282	-0.2475260812924496	-0.1031647775587791	0	0.5212120796685867	-0.1603909139947973	-0.301024310370138	0.6023629400080519	0.08218151389187178	0.6023629405451706	0.03520566632743662	-0.1661341807722909	-1.99181262775979e-05	-0.5380296057989519	0.1732465377197328	0.07229742466356909	-0.174853768165337	-0.08682942471632507	-0.4619141836514767	0.9763218646585832	1.570796326969429	0	0	-0.6432921697157837	-0.5708496527883593	-0.5632725699315845	0.8245370050332763	1.570796326969429	0	0
0.3084381543010403	0.02369765624699818	-0.07599214536910273	-0.1440237318145628	0.2323954476480214	0.9330344811417509	0.3000970800037943	0.5667804311965483	-0.1138107428259136	0.2041155042184871	1.582682718124552	0.1021521049148762	1.461375504830583	-0.2600207156986498	-0.100414746618832	0	0.4919100160147142	-0.1574899921992969	-0.3124831925877648	0.5810930540706607	0.08218151389187187	0.5810930541573077	0.02708024405588006	-0.1544831202588842	-1.796099371433696e-05	-0.569728624598448	0.177773625925576	0.07325893644706051	-0.1698502526824687	-0.08380737786395082	-0.4563136606356564	0.9657149643386743	1.57079632696943	0	0	-0.6097637450512757	-0.5776918602595764	-0.5435437221289218	0.8561869378583902	1.57079632696943	0	0
0.3132832679388344	0.03656985693879058	-0.07692878497175691	-0.1470992508940731	0.2331127255565464	0.9373692535345796	0.2987227677674931	0.5937985989962143	-0.1090460837075695	0.1846713840040609	1.514179622405241	0.1021521049148762	1.408880707291322	-0.2730220829039295	-0.09641944927074186	0	0.4644890185033117	-0.1545358604027179	-0.324169457743513	0.559596098106687	0.08218151389187175	0.5595960984830749	0.01801129319171854	-0.1423586899038998	-1.595698511201266e-05	-0.5992805003638018	0.1818246658350311	0.07466047352641277	-0.1650489634047153	-0.08092523782940141	-0.4512097338261135	0.9561581013454528	1.57079632696943	0	0	-0.5771577421046991	-0.5842361070565556	-0.5245809703511832	0.8877219251876508	1.57079632696943	0	0
0.3178273948726678	0.04771449748855005	-0.07747067552567172	-0.1500508186414413	0.233685534218341	0.9414533253795248	0.2974562400440815	0.6174560301369028	-0.1045549348672012	0.165380676227893	1.445276354196411	0.1021521049148762	1.356434897848366	-0.2860237241352027	-0.09151413551463515	0	0.4395295452062036	-0.1515919249906837	-0.335666442653702	0.5386115128122512	0.08218151389187178	0.5386115132101409	0.008347703303386154	-0.1302330948388701	-1.394792576554894e-05	-0.62613100717825	0.18534256650287	0.0764068679833264	-0.1606021564186092	-0.07820959967224297	-0.4467074914221715	0.9477130530940618	1.570796326969429	0	0	-0.5461087602818161	-0.5903474003340606	-0.5067625004581384	0.9183645318521306	1.570796326969429	0	0
0.3219988718410079	0.05707237342152268	-0.07766029035175911	-0.1527962405341464	0.234139702607858	0.9451920983065396	0.2963150021082087	0.6377643029197456	-0.1004060760950674	0.1468223149466454	1.37839055168864	0.1021521049148762	1.305859897398249	-0.2985140183778004	-0.08608279943944737	0	0.4174444113144796	-0.1487362465214137	-0.3465800231699683	0.5188238373537579	0.08218151389187175	0.5188238374993368	-0.001489156061218979	-0.1185625579694206	-1.19834311320017e-05	-0.649889828332242	0.1883071341213994	0.07837873323105521	-0.1566251125059039	-0.07569440677683895	-0.4428617125768685	0.9404021966371849	1.570796326969428	0	0	-0.5172332758739874	-0.5959026545613212	-0.4904253570795473	0.9473335692483145	1.570796326969428	0	0
0.3257319128102178	0.06468686679126201	-0.07756840344688791	-0.1552680202204212	0.2344975239547035	0.9485115053052748	0.2953126575581268	0.6548479001140269	-0.09666735578299357	0.1295629721637825	1.315861319956805	0.1021521049148762	1.258861649661424	-0.3100286124088049	-0.08051621212520484	0	0.398472158780317	-0.1460546739008262	-0.3565680687044986	0.5008157852901977	0.08218151389187187	0.5008157855400871	-0.01105088031156636	-0.1077544807720092	-1.011997028328413e-05	-0.6703304047850137	0.1907301026948049	0.08044204912113305	-0.1531901095209163	-0.07341888361892071	-0.4396809743245716	0.934217266033995	1.570796326969431	0	0	-0.491109358619898	-0.6008033814347481	-0.4758549337502081	0.9738868409283975	1.570796326969431	0	0
0.3289676468716137	0.07067658024912601	-0.07728360740566567	-0.1574124684582644	0.2347773396096929	0.9513563184147247	0.2944593486871588	0.6688750300147975	-0.09340365016371174	0.1141360556379499	1.259825084704103	0.1021521049148762	1.216975888282402	-0.3201828205677051	-0.07519036122734019	0	0.3827090433779685	-0.1436348661400507	-0.3653441974164251	0.4850657883273377	0.08218151389187175	0.4850657887076756	-0.0198916036684071	-0.09816077935278442	-8.419384124601471e-06	-0.6873588442199967	0.1926462287585353	0.08245748304350012	-0.1503333232479809	-0.07142444668060741	-0.4371391233841445	0.92912803974586	1.570796326969428	0	0	-0.4682636714436734	-0.6049760369295978	-0.4632859667972383	0.9973434204241748	1.570796326969428	0	0
0.3316550479034791	0.07520449236114966	-0.07690069906490928	-0.1591887371618668	0.2349930749199839	0.9536880924958471	0.2937622550841498	0.6800158956039912	-0.09067466690550141	0.1010185190994217	1.212114958918614	0.1021521049148762	1.181512147016346	-0.3286854742681496	-0.07044379966947091	0	0.3701456931144215	-0.1415597255522605	-0.3726812483029568	0.4719464102565838	0.08218151389187182	0.471946410672565	-0.02759951442088423	-0.09007088126043949	-6.943023942463217e-06	-0.7009783942866749	0.1941035577670569	0.08429013504215285	-0.1480625718293078	-0.06975124549305411	-0.4351882569029426	0.9250915743236374	1.570796326969429	0	0	-0.4491579111491673	-0.6083721005482422	-0.4529044290215463	1.017106347348955	1.570796326969429	0	0
0.3337517438962464	0.07845001465180791	-0.07650941410273074	-0.1605691733912285	0.2351527833412159	0.9554846706976351	0.2932259616661506	0.688407182801869	-0.08853316571763874	0.09060242480281956	1.174218220860575	0.1021521049148762	1.153472494665158	-0.3353483979109514	-0.06654941457746485	0	0.3606947772371054	-0.139900504797138	-0.378421682541135	0.4617107695345437	0.08218151389187189	0.4617107699243594	-0.0338326226450572	-0.083697188240061	-5.749301873925713e-06	-0.711260872050173	0.1951546492460324	0.08581932634704484	-0.14636166126353	-0.0684349590958355	-0.4337701002316467	0.9220616113511377	1.570796326969429	0	0	-0.4341733204222941	-0.6109711450281369	-0.4448467935176443	1.032690451177584	1.570796326969429	0	0
0.3352247098157805	0.08057853997867498	-0.07618597678280048	-0.1615356865069273	0.2352608182275965	0.9567343422407915	0.2928532241402437	0.6941528082091517	-0.08702209683497346	0.08319151416996906	1.147261747544151	0.1021521049148763	1.133589829918344	-0.34004847608087	-0.0637156757528108	0	0.3542425603597567	-0.1387139898702717	-0.3824602589547414	0.4545245249530503	0.08218151389187185	0.4545245252959781	-0.0383244950953319	-0.07918979679315713	-4.888448484676923e-06	-0.7183019876261266	0.1958477764962767	0.0869455684014486	-0.14520499931405	-0.0675044986394981	-0.4328288054698436	0.9199953994179677	1.57079632696943	0	0	-0.4236061330287099	-0.6127692704684393	-0.4392092279834922	1.043722898405493	1.57079632696943	0	0
0.3360510493955579	0.08171782330681736	-0.07598697898748794	-0.1620766891915003	0.2353199490432721	0.9574308665263844	0.2926455725771746	0.697323517104357	-0.08617197542375001	0.07900035538636278	1.132024579791976	0.1021521049148763	1.122369768450163	-0.3426961028261877	-0.06209075504730852	0	0.3506907482719457	-0.138040819235397	-0.384727814562249	0.4504949781960386	0.08218151389187182	0.4504949785023474	-0.04088512986657203	-0.07665059247458224	-4.397446049993541e-06	-0.7221859368269112	0.1962202407063607	0.08759615997852992	-0.1445700248280551	-0.0669804263569504	-0.4323206455040917	0.9188587818224686	1.570796326969429	0	0	-0.4176634213702907	-0.6137679006937531	-0.436054949247271	1.049942445684364	1.570796326969429	0	0
0.3362454082880461	0.08198006240455306	-0.07593834151443135	-0.1622038082382316	0.235333703	0.9575942170000001	0.2925968840000002	0.6980639891767901	-0.08597177158354725	0.07801106817962801	1.128428568431048	0.1021521049148762	1.119723897	-0.3433206184066078	-0.06170489509079385	0	0.3498624390898281	-0.1378817002427934	-0.3852613497467101	0.449547419703381	0.08218151389187184	0.4495474199999999	-0.04149164811445134	-0.07605226208686205	-4.281118122216892e-06	-0.7230925510061393	0.1963061352089966	0.08775114131839348	-0.1444221302043832	-0.06685694486668703	-0.4322032032803703	0.9185937969127846	1.570796326969429	0	0	-0.4162641571977269	-0.6140017247163457	-0.4353139282153423	1.051408473572564	1.570796326969429	0	0
