DataType=double
version=3
OpenSimVersion=4.5
endheader
time	pelvis_tilt	pelvis_list	pelvis_rotation	pelvis_tx	pelvis_ty	pelvis_tz	hip_flexion_r	hip_adduction_r	hip_rotation_r	knee_angle_r	knee_adduction_r	knee_angle_r_beta	ankle_angle_r	subtalar_angle_r	mtp_angle_r	hip_flexion_l	hip_adduction_l	hip_rotation_l	knee_angle_l	knee_adduction_l	knee_angle_l_beta	ankle_angle_l	subtalar_angle_l	mtp_angle_l	lumbar_extension	lumbar_bending	lumbar_rotation	arm_flex_r	arm_add_r	arm_rot_r	elbow_flex_r	pro_sup_r	wrist_flex_r	wrist_dev_r	arm_flex_l	arm_add_l	arm_rot_l	elbow_flex_l	pro_sup_l	wrist_flex_l	wrist_dev_l
0	-0.5348472418112918	-0.001307464155940064	-0.1590969566077488	-0.161255059	0.9403797739999999	0.3774675260000001	0.4413641063077941	-0.07040863339818758	-0.1822436041317114	0.3555293817993845	0.1021521049148762	0.3555293809999999	0.0491195660468744	0.2269102551791182	0	0.9025874879351639	-0.2101214367325455	-0.1461404716570466	0.7812039342231138	0.08218151389187184	0.7812039340000001	0.2531487174668464	-0.1123902515111026	-0.0004759512870188536	-0.1308556600628516	0.08870948660083201	0.06756247435495885	0.001722590945419712	-0.2722836989492026	-0.392541385266687	1.53589373157768	1.570796326969429	0	0	-1.034518324451212	-0.7732366604748657	-0.9683691889963987	0.5829859442329988	1.570796326969429	0	0
0.0004542507337261803	-0.5347011057538702	-0.001256902095414223	-0.1595818042375099	-0.1605334574760146	0.9407214082794101	0.3773398372667488	0.4403502154562215	-0.0712103467453835	-0.1836140302894385	0.3559707206954649	0.1021521049148762	0.3559707198146014	0.04660528703757509	0.2269494478443516	0	0.9019643935022139	-0.2099696411503598	-0.1473851552238051	0.7761330576921037	0.08218151389187184	0.7761330574663674	0.2533279919121561	-0.1105894927592921	-0.0004737384572368385	-0.1310228543483614	0.08840396417027963	0.06801219835046883	0.0020251687288451	-0.272538784638916	-0.392302535211822	1.536303061076634	1.570796326969429	0	0	-1.035181275283665	-0.7709561941330976	-0.9685212617361748	0.5828860839484944	1.570796326969429	0	0
0.001515784775164009	-0.5343216610219226	-0.001153719293135352	-0.1607254242060807	-0.1588427876791728	0.9415135217792355	0.3770406927945415	0.4379870282494153	-0.073090990428561	-0.1867765473246256	0.3571547782187245	0.1021521049148762	0.3571547771924742	0.04077009678150978	0.2269768434107149	0	0.9004517985474157	-0.2096267953108558	-0.1503361425991815	0.7642762151284342	0.08218151389187182	0.764276214910277	0.253746826314676	-0.1063241910189038	-0.0004685964032215714	-0.1314358652579314	0.08770496561414344	0.06907071582964808	0.002728121861412585	-0.2731359682071364	-0.3917405925838779	1.537243318516511	1.570796326969429	0	0	-1.036704346851658	-0.7656193591981331	-0.9688536098467271	0.582648613549351	1.570796326969429	0	0
0.003164446411839883	-0.5336269995070485	-0.001035062419389002	-0.1625309214323657	-0.156204898079993	0.9427263709836345	0.3765740134722482	0.4343338119282955	-0.0760315631738958	-0.1915767787097491	0.3594176593053716	0.1021521049148762	0.3594176581759659	0.03181996471099455	0.2268412516577278	0	0.8979459113711217	-0.2091273389131894	-0.1550367530601593	0.7458431052374239	0.08218151389187182	0.7458431050679368	0.2543971053531367	-0.09954123126201132	-0.0004606910950053274	-0.1321391858369436	0.08666096693617041	0.07073566628159905	0.003808359286582999	-0.2740664472493681	-0.3908573671749619	1.538658359699937	1.570796326969429	0	0	-1.038997302159566	-0.757309661535256	-0.9693059250354279	0.5822683916963864	1.570796326969429	0	0
0.005374104194047435	-0.5324950640430779	-0.0009555246437438342	-0.1650062795747062	-0.1526463177601552	0.944318459507227	0.3759445959013173	0.4294690409245539	-0.08001001975291476	-0.1977939619365277	0.3632583094579653	0.1021521049148762	0.3632583083968084	0.02004202577242528	0.2263210018438964	0	0.8942905301952164	-0.2085211019238025	-0.1615608655892536	0.7211079558584804	0.08218151389187182	0.7211079558111436	0.2552693717381626	-0.09014870338918385	-0.0004502501131932598	-0.133199444986151	0.08534147551885207	0.07300688605926407	0.005233924702179349	-0.2753193575355425	-0.3896537358957414	1.540468515658257	1.570796326969429	0	0	-1.04193396369751	-0.7461334153275649	-0.9697914437510774	0.5817370125440574	1.570796326969429	0	0
0.008109887166813518	-0.5307754723905921	-0.00098395003868723	-0.1681561375451895	-0.1482040405774996	0.9462347328170808	0.3751592324848474	0.4234903113066488	-0.08499248393386444	-0.205125729755744	0.3692886884892127	0.1021521049148762	0.3692886876817329	0.005823416142692445	0.2251478659727308	0	0.8893065239748104	-0.2078718015152773	-0.1699932871730148	0.6904669230480277	0.08218151389187184	0.69046692316534	0.2563570183396538	-0.07804732784089641	-0.0004375688459834665	-0.1346961625226655	0.08383646189322917	0.07588023349046227	0.006961971896900522	-0.2768803689946815	-0.3881327116435178	1.54257248871007	1.570796326969429	0	0	-1.045364035519992	-0.7322417196352803	-0.9702076420167181	0.5810444931844544	1.570796326969429	0	0
0.01132864367758793	-0.5283042291069804	-0.001199200596216984	-0.1719733794077051	-0.1429267524820924	0.9484061669403503	0.3742271334218236	0.4165013125641772	-0.09092739351029723	-0.213166971582283	0.3781675842330425	0.1021521049148762	0.3781675835843678	-0.01033608247855328	0.2230448837675134	0	0.8828328115448747	-0.2072543196959428	-0.1804145440708712	0.6544868411357047	0.08218151389187185	0.6544868413055488	0.2576670213523756	-0.06315991721444585	-0.0004229983608751661	-0.1367092763707359	0.08225413729126071	0.07934244394266171	0.00893767322176447	-0.2787323132199352	-0.3863019806946548	1.544853161039767	1.570796326969429	0	0	-1.049140773270065	-0.7158434887702726	-0.9704552342864918	0.5801806373960189	1.570796326969429	0	0
0.01497960949210789	-0.5249219918028174	-0.00168319472703282	-0.17643270147525	-0.1368757688410302	0.9507523093725552	0.3731601356118034	0.4086032648766041	-0.09774208052041292	-0.2214217199690588	0.3905233707174989	0.1021521049148762	0.3905233699873865	-0.02784226731280155	0.2197657859706166	0	0.8747577112766898	-0.2067492942939594	-0.1928811329999502	0.6139151331252487	0.08218151389187184	0.6139151332729301	0.2592207766931269	-0.04546213644960363	-0.0004069246842600533	-0.1393065920934457	0.080714387167781	0.08336729757518445	0.01109501959989581	-0.2808543532020887	-0.3841768524040625	1.547184000021719	1.570796326969429	0	0	-1.053136234415278	-0.6972095218060227	-0.9704493020624302	0.5791372365308379	1.570796326969429	0	0
0.01900520557876997	-0.520494478518136	-0.002511746964414236	-0.1814866007039095	-0.1301256697599291	0.9531864907967869	0.3719727086157588	0.3998917167443783	-0.1053418646692462	-0.2293469556776181	0.4068721342855147	0.1021521049148762	0.4068721335509209	-0.04605367483806228	0.2151320614516677	0	0.8650384986477971	-0.2064354392036981	-0.2074021719282536	0.5696512718588079	0.08218151389187181	0.5696512721159455	0.2610448361055178	-0.02501264171683917	-0.0003897510473723146	-0.1425321107833337	0.07933835896926697	0.08791330564462936	0.01335942099463657	-0.2832197166293728	-0.3817833697674146	1.549435612275013	1.570796326969429	0	0	-1.057243247920791	-0.6766677792585123	-0.9701220442430761	0.5779107886445644	1.570796326969429	0	0
0.02334194532480019	-0.5149324112138851	-0.003746751511222352	-0.1870583350468092	-0.1227650034893458	0.9556186219166118	0.3706821700057745	0.3904471960356409	-0.1136062981419543	-0.23636822267634	0.4275344446491515	0.1021521049148762	0.4275344438325859	-0.06430442702386879	0.209074445853487	0	0.8537350324650573	-0.2063834079041015	-0.2239158919034781	0.5227560142836286	0.08218151389187181	0.5227560144266769	0.2631697420046129	-0.001988412720325654	-0.0003718879455932353	-0.1463921042436497	0.07824087019092735	0.09291954096775232	0.01564841699189177	-0.2857943076269246	-0.3791617836546652	1.551482344436359	1.570796326969429	0	0	-1.061391325707061	-0.6546076910911263	-0.969434385800596	0.5765045182957576	1.570796326969429	0	0
0.02792143545395889	-0.5082089152708925	-0.005427565293939241	-0.1930402774716761	-0.1148962917433108	0.9579607527940227	0.3693085934594385	0.3803358550890943	-0.1223897274505711	-0.2419317976447754	0.4525699347616752	0.1021521049148762	0.4525699338803564	-0.08195647629568281	0.2016562661655244	0	0.8410199626746244	-0.2066482263298749	-0.2422677644635924	0.4744085340132622	0.08218151389187182	0.4744085342002294	0.2656173306571115	0.02329165030451191	-0.0003537144382564248	-0.1508464537148115	0.07751964421239056	0.09830454850514024	0.0178750063324868	-0.2885343371062046	-0.3763686240883398	1.553208603636578	1.570796326969429	0	0	-1.065543881115134	-0.6314716419903681	-0.9683761210328528	0.5749300653894626	1.570796326969429	0	0
0.0326714545037473	-0.5003713146382399	-0.007564024541190289	-0.1992960098993865	-0.1066353801451058	0.9601328561007393	0.3678745491801542	0.3696155841568531	-0.1315242426834561	-0.2455627639361111	0.4817389356961423	0.1021521049148762	0.4817389352974848	-0.09845277222053241	0.1930774217646586	0	0.8271749509278845	-0.2072626516745738	-0.2621952904376297	0.4258457784515885	0.08218151389187182	0.4258457782483645	0.2683865801537955	0.05035718146970346	-0.0003356077446337441	-0.1558053442236238	0.07724522452166954	0.1039672371253803	0.01995210866638599	-0.2913846392553326	-0.3734767509204394	1.554514980417325	1.570796326969429	0	0	-1.069689417846546	-0.607740986340582	-0.9669626996874704	0.5732081136707967	1.570796326969429	0	0
0.03751709174442691	-0.4915449636136495	-0.01013262254682597	-0.2056659900185004	-0.09811009175757029	0.9620677161644621	0.3664046986339013	0.358345915840493	-0.14082464576622	-0.2469142657554997	0.5144989086351121	0.1021521049148762	0.5144989084974895	-0.1133573690064641	0.1836573387704826	0	0.812575268524163	-0.2082328522277575	-0.2833242498108247	0.3782973801144898	0.08218151389187182	0.3782973797844416	0.2714434802130302	0.07859517214061704	-0.0003178999542348811	-0.1611322428105498	0.0774537191947125	0.1097896511708214	0.02179766532157478	-0.2942787871094962	-0.3705727439962846	1.55532418701784	1.570796326969429	0	0	-1.073831732240961	-0.5839188689096479	-0.9652317567517988	0.5713677304551484	1.570796326969429	0	0
0.04238192853981579	-0.4819281115496027	-0.01307612254641298	-0.2119779550825862	-0.08945804410676783	0.9637154017473151	0.3649251439181093	0.3466028925312681	-0.1500965691087453	-0.2458118929910493	0.5500392662835726	0.1021521049148762	0.5500392658504163	-0.1263859956503383	0.1737962116837253	0	0.7976581027486835	-0.2095365577718538	-0.3051796341753693	0.3329066909380853	0.08218151389187182	0.3329066910172629	0.274714567981596	0.1072817846005383	-0.0003008707380746896	-0.1666544780497652	0.07814241049881325	0.1156424654759062	0.02334088163862946	-0.2971412513056191	-0.3677512354796271	1.555586606894521	1.570796326969429	0	0	-1.077975597976195	-0.5605069055065421	-0.9632367831199663	0.5694447614266311	1.570796326969429	0	0
0.04718924350439309	-0.4717781828426164	-0.01630738268618599	-0.2180598655523584	-0.08082378989076446	0.9650460210811932	0.3634626170727711	0.3344938166166773	-0.159146092421206	-0.242275388857636	0.5873482629664836	0.1021521049148762	0.5873482621607088	-0.13741348903698	0.1639241551862093	0	0.7828839925489094	-0.2111247202337559	-0.3272124561146884	0.2906607997422617	0.08218151389187184	0.2906607996514925	0.2780898408706802	0.1356335415085591	-0.0002847628509371495	-0.172179426224115	0.07927016958350404	0.1213921423537792	0.02452836305199022	-0.2998921859638128	-0.3651067708524072	1.55528505102233	1.570796326969429	0	0	-1.082115567664382	-0.5379809225907464	-0.9610420895498507	0.5674795693676907	1.570796326969429	0	0
0.0518632224455918	-0.4613916111101712	-0.01971670851442656	-0.2237540731973435	-0.07235541243337129	0.9660508876526036	0.3620435420070339	0.3221694984342064	-0.1677902074162259	-0.2365186597531345	0.6253006426093402	0.1021521049148762	0.6253006417649232	-0.1464619357492497	0.1544478157567559	0	0.7686950160502662	-0.2129263045954282	-0.3488397059336799	0.2523323725028494	0.08218151389187181	0.2523323723696665	0.2814339792241759	0.1628719489812069	-0.0002697862482574939	-0.1775141795615404	0.08076228447613087	0.1269092580040468	0.0253296738680871	-0.3024542213857874	-0.3627242659411504	1.554438025057131	1.570796326969429	0	0	-1.086227694907349	-0.5167669245608719	-0.9587181980201536	0.5655146942574329	1.570796326969429	0	0
0.05633015401013977	-0.4510804676789294	-0.02318170956385934	-0.2289301860806921	-0.0642008241020928	0.9667418273541608	0.3606930906752355	0.3098302712283103	-0.1758664449049522	-0.2289261542642334	0.6627502917052079	0.1021521049148762	0.6627502912946867	-0.1536712435479859	0.1457057598716798	0	0.7554775600659626	-0.2148556267721711	-0.3694914103956147	0.2184442847684409	0.08218151389187181	0.2184442847460319	0.2846046039325049	0.1882905891233513	-0.0002560859948673701	-0.1824851403896843	0.08251920350933196	0.1320767001308476	0.02574128730853581	-0.3047602451780957	-0.3606697130731188	1.553100737832401	1.570796326969429	0	0	-1.090266564166537	-0.4972211282691165	-0.9563385829626713	0.563592820163935	1.570796326969429	0	0
0.06051959218465776	-0.4411495804128985	-0.02657798907750724	-0.2334946141176232	-0.05650401257829534	0.9671488723591591	0.3594343397554788	0.2977240831508748	-0.183240372952056	-0.2200118562209497	0.6986128976246802	0.1021521049148762	0.6986128974528872	-0.1592602614953076	0.1379401393709658	0	0.7435346258300672	-0.2168209489551254	-0.3886564434816407	0.1892596831721123	0.08218151389187182	0.1892596832512891	0.2874730528403631	0.2113129752165691	-0.0002437514198908768	-0.1869542363562949	0.0844275490745596	0.1367965814510662	0.02578822785493029	-0.3067605889628859	-0.358982864324845	1.551363212822814	1.570796326969429	0	0	-1.094167009007626	-0.4796164341059163	-0.9539771863783109	0.5617552745729294	1.570796326969429	0	0
0.06436546733510043	-0.4318773995073201	-0.02978896684829323	-0.2373951968504324	-0.04940147770169628	0.9673166202995531	0.3582876289342047	0.2861364332611235	-0.1898098730346523	-0.2103683278179057	0.7319274364041386	0.1021521049148762	0.7319274362698139	-0.1634861555259106	0.1312877186844794	0	0.7330713314040042	-0.2187329047895222	-0.4059187230730171	0.1647982292205446	0.08218151389187184	0.16479822948963	0.2899428032318634	0.2315308362334818	-0.0002328720913216324	-0.1908290727602528	0.08637152097099567	0.1409947769283907	0.02552286122585463	-0.3084280755011084	-0.3576733499862079	1.549345248136116	1.57079632696943	0	0	-1.09784963690877	-0.4641373312058259	-0.9517064614111805	0.5600410410433779	1.57079632696943	0	0
0.06780712831226307	-0.4235027910706162	-0.03271338979241713	-0.2406203217633446	-0.04301904395148343	0.9672996945240817	0.3572701833588788	0.2753738981406259	-0.1955057485414937	-0.2006144619372722	0.7618914518397004	0.1021521049148762	0.76189145178032	-0.166609111094207	0.1257884219324738	0	0.7241943694740273	-0.2205114140414757	-0.4209776105780412	0.1448747088817433	0.08218151389187182	0.1448747092314614	0.2919611529187119	0.2487168033019209	-0.000223479163317584	-0.1940657047331211	0.0882428177994751	0.1446224487504194	0.02502071528052088	-0.3097597636373039	-0.3567210387070226	1.547188449407534	1.570796326969429	0	0	-1.101228351874416	-0.4508837352969792	-0.9495955488751002	0.5584861248627544	1.570796326969429	0	0
0.07079029933648544	-0.41621855013948	-0.03526968791362207	-0.2431929165298534	-0.03746917609907007	0.9671577338866482	0.356396020999964	0.2657441997214749	-0.2002888302348195	-0.1913487723220171	0.7878711612895155	0.1021521049148762	0.7878711612168375	-0.1688664920222211	0.1214063140067247	0	0.7169239562927937	-0.2220901957412124	-0.4336500333835933	0.1291539832669328	0.08218151389187182	0.1291539836948072	0.2935217873601266	0.2628108591154054	-0.0002155948693712681	-0.1966641725188178	0.08994775661805825	0.1476544546755215	0.02437363484329698	-0.3107749546144437	-0.3560806264358606	1.545046028386252	1.570796326969429	0	0	-1.104218136452212	-0.4398829602194044	-0.947708456828614	0.5571230717538181	1.570796326969429	0	0
0.07326793709552543	-0.4101710893195946	-0.03739704620366121	-0.2451605510140226	-0.0328488623269796	0.9669503547466756	0.3556760876763791	0.2575361456076832	-0.2041442996405599	-0.1831124346480462	0.809391921929319	0.1021521049148762	0.8093919217177562	-0.1704576360959353	0.118056677275705	0	0.7112150101090101	-0.2234185762728843	-0.4438558447013406	0.1172148428156848	0.08218151389187181	0.1172148434222367	0.2946582376680965	0.273885016869054	-0.0002092320024467359	-0.198658245778268	0.09141103812373425	0.1500850936489128	0.02368098223607572	-0.3115098167316174	-0.3556896636792805	1.54307136703623	1.570796326969429	0	0	-1.106741659238608	-0.4311078058068994	-0.9461022550330856	0.5559804907489769	1.570796326969429	0	0
0.07520097689840965	-0.4054647841924049	-0.03905372011059383	-0.2465833841467986	-0.02923805093215695	0.9667324454887207	0.355118553162682	0.2510022013147872	-0.2070743066345725	-0.1763633497265562	0.826116709727778	0.1021521049148762	0.8261167093726247	-0.1715379749693548	0.1156334676449851	0	0.7069834076654573	-0.2244608886524894	-0.451591089706074	0.1086153365026983	0.08218151389187181	0.1086153373045252	0.2954303359791051	0.2820941627172022	-0.0002043849864663094	-0.2001016370499816	0.09257639774132141	0.1519220633881257	0.02303987449630105	-0.3120096395609975	-0.3554786809830266	1.541406455686892	1.570796326969429	0	0	-1.108733910403588	-0.4244979926261069	-0.9448253955963817	0.5550825253235347	1.570796326969429	0	0
0.0765589714577417	-0.4021689247746031	-0.04021358281282256	-0.2475218175383961	-0.02669855353593639	0.9665500809266838	0.354729176166785	0.2463452271860139	-0.2090901099884447	-0.1714601287813231	0.8378202670233653	0.1021521049148762	0.8378202665761485	-0.1722197307014287	0.1140331548222904	0	0.7041330537018182	-0.2251942065111794	-0.4568955654530902	0.1029530239536058	0.08218151389187181	0.1029530248773908	0.2959070337991567	0.2876223786026413	-0.0002010398658000672	-0.2010532112232235	0.0934049901452928	0.1531797325022621	0.02253555460308412	-0.3123201027788701	-0.3553818383382556	1.540171228514086	1.570796326969429	0	0	-1.110144753182364	-0.4199819061207815	-0.9439162713938799	0.5544482924520179	1.570796326969429	0	0
0.07732081165962061	-0.4003247349670089	-0.04086223123287702	-0.2480256398949761	-0.02527294748759362	0.9664372318892012	0.3545115958920306	0.2437089640166115	-0.2102051791386012	-0.168652865345143	0.8443666523742996	0.1021521049148762	0.8443666518827126	-0.1725761245368875	0.1131727077914144	0	0.7025796446322979	-0.2256054705042523	-0.4598219064039257	0.0999143144320695	0.08218151389187181	0.09991431540083907	0.2961492888556871	0.2906342125918466	-0.000199184144481819	-0.201563622447063	0.09387276654946944	0.1538730009657963	0.022232858897523	-0.3124790400240113	-0.3553465886912838	1.539454454591292	1.570796326969429	0	0	-1.110940013477097	-0.417495255621499	-0.9434019542452594	0.5540912629673945	1.570796326969429	0	0
0.0775	-0.3998915350821741	-0.04101454788628395	-0.24814174534785	-0.02493754561516208	0.9664095910427284	0.3544605117293227	0.2430864594490044	-0.2104657740280456	-0.1679867982790809	0.8459042136908652	0.1021521049148762	0.8459042131896997	-0.1726573350066627	0.1129742471487948	0	0.7022191234072701	-0.2257021572676935	-0.4605048738718483	0.09921404150879834	0.08218151389187181	0.09921404248461342	0.2962035559463264	0.2913330775545202	-0.0001987497984778721	-0.2016811776903108	0.09398305744691937	0.1540347530276255	0.0221595828461954	-0.3125148006725831	-0.3553403197990993	1.539283374707872	1.570796326969429	0	0	-1.111127437530266	-0.4169153288632382	-0.943280540766356	0.5540071605844366	1.570796326969429	0	0
0.07795425073372618	-0.3987943750476552	-0.04140021689425146	-0.2484319573456074	-0.0240871335397019	0.9663376488214701	0.3543311693162647	0.2415042450161254	-0.2111235116789681	-0.1662885371593411	0.8497981254970388	0.1021521049148762	0.8497981249730761	-0.1728588556839775	0.1124778499298519	0	0.7013135404579286	-0.2259471548646803	-0.4622269890789004	0.09746351728963594	0.08218151389187182	0.09746351827632554	0.2963364105551322	0.2930882767639485	-0.0001976522877110091	-0.2019748758661407	0.0942630668576552	0.1544425446976661	0.02197025750646626	-0.3126026550590386	-0.3553279087773896	1.538845422424735	1.57079632696943	0	0	-1.11160318612786	-0.4154536757743267	-0.9429719997217438	0.5537937399738649	1.57079632696943	0	0
0.07901578477516402	-0.3962365676765884	-0.04229865688266853	-0.2490868924812752	-0.02209899652357089	0.9661590815607932	0.354029807451491	0.2377838877006812	-0.2126442854935464	-0.1622662021316734	0.8588750312237958	0.1021521049148762	0.8588750306546159	-0.1733062014197915	0.1113554579618132	0	0.6992445661107488	-0.2265188666561063	-0.4661986525428816	0.09351117957108229	0.08218151389187182	0.09351118053966359	0.2966199272187071	0.2970966928741834	-0.0001951071921207324	-0.2026367758195449	0.09491947735568555	0.155382714452145	0.02150776511794907	-0.3127920812725454	-0.3553185758041887	1.537798135415027	1.570796326969429	0	0	-1.112718282577886	-0.4120857527052756	-0.9422467997637994	0.5532937863075004	1.570796326969429	0	0
0.08066444641183987	-0.3922832507567913	-0.04368487998733499	-0.2500383944174647	-0.0190091570838285	0.9658528440542918	0.3535643157705683	0.2319435624880124	-0.2149601041653392	-0.1558744451335078	0.8729038812948563	0.1021521049148762	0.8729038806745804	-0.1739393280863545	0.1097172224267546	0	0.696165319300175	-0.2274033793362322	-0.4722151305912104	0.08775882906932633	0.08218151389187182	0.08775882988750966	0.29698242077135	0.3030566249953935	-0.0001912078680335335	-0.2035951789588759	0.0959432506199521	0.1568064768416469	0.02073319652137915	-0.3130410549797309	-0.3553597455148903	1.536105223234199	1.57079632696943	0	0	-1.114458587745844	-0.4069894819352348	-0.9411090793585114	0.5525139488609874	1.57079632696943	0	0
0.08287410419404742	-0.3870276375794261	-0.04552155436531726	-0.2511852755316	-0.01486454302850593	0.9653875755552606	0.3529454689368957	0.2240014978826112	-0.2179735164161687	-0.1470448176362124	0.8915610046859854	0.1021521049148762	0.8915610040198618	-0.1746815478453955	0.1077223870422915	0	0.6923020217210407	-0.22857900737737	-0.4799732040890578	0.08078967183722693	0.08218151389187181	0.08078967234596986	0.297311017215429	0.3105194761801005	-0.0001860840257087981	-0.2047420191066796	0.09731941109814714	0.1586426787976747	0.01958605157865283	-0.3132851748863607	-0.3555241297507115	1.533709149946384	1.57079632696943	0	0	-1.116804738979578	-0.4004204253736602	-0.9395629502731859	0.5514623542183407	1.57079632696943	0	0
0.08560988716681352	-0.3806017065096758	-0.04775381735532593	-0.2523953747656534	-0.009728965045101096	0.9647252904661625	0.3521876097291424	0.2139975123609626	-0.221555848506335	-0.1357239561587204	0.9144010259156544	0.1021521049148762	0.9144010252147984	-0.175455160201286	0.1055705431399297	0	0.6879532103122681	-0.2300117782008696	-0.4890609162909412	0.07334335929604738	0.08218151389187181	0.07334335970366229	0.2974503209001333	0.3188888101286781	-0.0001799103588797835	-0.2059336550437332	0.09902072492898831	0.1607965069217364	0.01798947864305699	-0.3134384797402182	-0.3559070047951162	1.530540072241364	1.570796326969429	0	0	-1.11972545033117	-0.3927117174975134	-0.9376160212907856	0.5501502591182442	1.570796326969429	0	0
0.08882864367758794	-0.3731778801254126	-0.05030724886374917	-0.2535121875311836	-0.003683149632163619	0.9638254532139512	0.3513083042903962	0.2020072910694262	-0.2255516545992272	-0.1219039667400899	0.9408617373805539	0.1021521049148762	0.9408617367529889	-0.1761990724949031	0.1034833709541404	0	0.6834772103789085	-0.2316528026929163	-0.4989657401086515	0.06626571040918112	0.08218151389187178	0.06626571128616351	0.2972052659200584	0.3274426547383014	-0.000172891765114175	-0.206996726360425	0.1010033463963531	0.1631523563563137	0.01585599743576541	-0.3133964615982565	-0.3566213480932859	1.526523740536324	1.570796326969429	0	0	-1.123173180608326	-0.3842590726434509	-0.9352810546003903	0.5485923162272263	1.570796326969429	0	0
0.09247960949210787	-0.3649672057705344	-0.05308751922728955	-0.2543646319734414	0.003175687119551013	0.9626496160634402	0.3503277889828747	0.1881586865290029	-0.2297853688686937	-0.1056512102567186	0.9702813494407032	0.1021521049148762	0.9702813491130634	-0.1768829882786087	0.101680569513765	0	0.6792724773254482	-0.2334368700114877	-0.5090936002922306	0.06044645751426676	0.0821815138918718	0.06044645874175444	0.2963496359560687	0.3353713298023851	-0.0001652293229761409	-0.2077382218036631	0.1032038900458928	0.1655786404991389	0.01309505508038396	-0.3130413715018299	-0.3577903699744342	1.521590879935826	1.570796326969429	0	0	-1.127079648134958	-0.3755001203218916	-0.9325775735728139	0.5468069017626765	1.570796326969429	0	0
0.09650520557876997	-0.3562128506664988	-0.05598262243510727	-0.2547799687100223	0.01073472988399895	0.9611662680531471	0.3492682135726428	0.1726480340766281	-0.2340701763851101	-0.08712848289502091	1.001929156165277	0.1021521049148762	1.001929155792547	-0.1775145704981821	0.1003522719840045	0	0.6757505445934899	-0.2352831535761574	-0.5188011383872565	0.05674863473962401	0.08218151389187182	0.05674863598883498	0.2946420801878004	0.3418323702883916	-0.0001571362109550303	-0.2079602455772908	0.1055391698194744	0.1679347705176566	0.009622367946424282	-0.3122502784537708	-0.3595371905823179	1.515687523052808	1.57079632696943	0	0	-1.131352091552293	-0.3668884696392157	-0.9295332144212893	0.544816595390461	1.57079632696943	0	0
0.1008419453248002	-0.3471784204505374	-0.05886828909679691	-0.2545992348651482	0.01886701993046275	0.9593554815710383	0.3481527096569834	0.1557531412869106	-0.238218830253798	-0.06660610464132492	1.035047412861505	0.1021521049148762	1.03504741236078	-0.1781375105475256	0.09963206490353191	0	0.673302733824948	-0.2370986812225535	-0.5274412828752697	0.05593488475294339	0.08218151389187181	0.05593488589877912	0.2918500467452227	0.3460206437449563	-0.0001488333848921146	-0.207479001475025	0.1079095385953728	0.1700802145654016	0.005370655445372532	-0.3109058737798425	-0.3619719791061027	1.508785452642938	1.570796326969429	0	0	-1.135871488410442	-0.3588636827473146	-0.9261845485621804	0.5426488496668067	1.570796326969429	0	0
0.1054214354539589	-0.3381317550333899	-0.06161655345471933	-0.2536937496166941	0.02743355531905575	0.957212904014435	0.3470043563841325	0.1378388738759341	-0.2420556982760541	-0.04445924341058473	1.068898386524719	0.1021521049148762	1.068898386533167	-0.1788206941903761	0.09957590343577769	0	0.6722635210437634	-0.2387847203187684	-0.534418693115802	0.05859754092782282	0.08218151389187181	0.05859754143218524	0.2877798692894896	0.3472471914440959	-0.0001405152311015509	-0.2061462615455819	0.1102060810077323	0.1718850536268107	0.0003009487456247326	-0.3089093208781371	-0.3651776130748195	1.500891708466676	1.57079632696943	0	0	-1.140493960997707	-0.3518194626906868	-0.9225771167880384	0.5403367988503891	1.57079632696943	0	0
0.1101714545037473	-0.3293260766589532	-0.06410666697716175	-0.2519805463697656	0.03628606172887223	0.9547526360602684	0.3458451639885218	0.1193514431647794	-0.2454289089554297	-0.02115140352623864	1.102807944008821	0.1021521049148762	1.102807943634573	-0.1796410653392264	0.1001520148682395	0	0.6728749898182298	-0.2402455562955473	-0.5392480653042524	0.06510017264911884	0.08218151389187182	0.06510017328337733	0.282308790914551	0.3450161227060146	-0.0001323624198598153	-0.2038703735347377	0.1123209853816501	0.1732409409900652	-0.005586784336748514	-0.306193691212563	-0.369195657875602	1.492056054594249	1.57079632696943	0	0	-1.145056284145205	-0.3460733911097457	-0.9187645201944736	0.5379200142109385	1.57079632696943	0	0
0.1150170917444269	-0.3209813269605306	-0.06623680164121094	-0.2494342455945951	0.04527039202726481	0.9520085948322269	0.3446952209584855	0.1007989291788506	-0.2482212097508616	0.002793287390221015	1.136196899745876	0.1021521049148762	1.136196899088647	-0.1806645556110547	0.1012450774265013	0	0.675257689857141	-0.241398464132577	-0.5416058613154149	0.07553796405323653	0.08218151389187181	0.07553796552796777	0.2754128375426328	0.3390866343163337	-0.0001245233649260163	-0.2006330755617442	0.1141594763950236	0.1740710041942531	-0.01224528624552702	-0.3027359372125261	-0.374014974371686	1.482375440713587	1.57079632696943	0	0	-1.149385766945168	-0.3418421176406052	-0.9148066193078931	0.535444855939786	1.57079632696943	0	0
0.1198819285398158	-0.3132689153945863	-0.06793450850608955	-0.246093112080685	0.05423044660857971	0.9490340657692622	0.3435721260165083	0.08271819625393421	-0.2503581389645312	0.0268243117894872	1.168594035161732	0.1021521049148762	1.16859403446444	-0.1819299262811366	0.1026749161007107	0	0.6793930868178593	-0.2421831947097021	-0.5413658425503642	0.08972263696237663	0.08218151389187182	0.08972263797190928	0.2671840552464617	0.329508162255343	-0.0001171231659031975	-0.196498402481074	0.115651033292114	0.1743371509038672	-0.01957557240045179	-0.2985651880226668	-0.3795652903201431	1.47199482642986	1.57079632696943	0	0	-1.1533139131717	-0.3392256895022439	-0.910767161018009	0.5329639849277006	1.57079632696943	0	0
0.1246892435043931	-0.306302704071115	-0.0691638993100183	-0.2420578789109438	0.06301241635730084	0.9458993267807735	0.3424908061045596	0.06563164595375966	-0.2518123987580213	0.05039999943805969	1.19962950647881	0.1021521049148762	1.199629505426519	-0.1834393409048797	0.1042265416767117	0	0.6851214368534831	-0.2425692046405717	-0.5386113121318095	0.107194696734285	0.08218151389187182	0.1071946975622653	0.2578321960097607	0.3166210594955466	-0.0001102557566468955	-0.1916109800607019	0.1167575253069754	0.1740435334148039	-0.02742770597328419	-0.2937655526685223	-0.3857174770890316	1.461104199367786	1.57079632696943	0	0	-1.156692353287899	-0.3382036034768661	-0.9067113831771826	0.5305346434373521	1.57079632696943	0	0
0.1293632224455918	-0.3001378945301753	-0.06992807876300258	-0.2374832405854778	0.0714690563121938	0.9426874887682803	0.341463702647781	0.05000024842199641	-0.2526038316107058	0.0730187365681262	1.229012642627536	0.1021521049148762	1.229012642442086	-0.1851573643988476	0.1056856288113132	0	0.6921564601475981	-0.2425592329391356	-0.5336216247940964	0.1272619504162625	0.08218151389187182	0.1272619514543459	0.2476692702873532	0.3010220463486698	-0.0001039852280669181	-0.1861829374663467	0.1174764843403258	0.1732355545411813	-0.03560730848256057	-0.2884725561208749	-0.3922911100625234	1.449932099922065	1.57079632696943	0	0	-1.159408808419335	-0.338643290903095	-0.9027042095573443	0.5282155340910222	1.57079632696943	0	0
0.1338301540101398	-0.2947778163229898	-0.07026635968070814	-0.2325633536614388	0.07946366016724704	0.9394890028847326	0.3405012562528296	0.03618097964527956	-0.2527950567149422	0.09424257897168771	1.256501989079998	0.1021521049148762	1.256501988745517	-0.1870176403068274	0.1068723292177135	0	0.7001150523143416	-0.2421885880704715	-0.5268359363940456	0.1490592155986514	0.08218151389187182	0.1490592168184352	0.237079515309996	0.2835009874301133	-9.835384228983354e-05	-0.18047111237603	0.1178388755350337	0.1719946015936809	-0.04388726982802325	-0.2828636012644168	-0.3990684190572684	1.438736351554761	1.570796326969429	0	0	-1.161400505094885	-0.3403195779623319	-0.8988094603738885	0.5260624985398449	1.570796326969429	0	0
0.1380195921846578	-0.2901868962136112	-0.07024694945428044	-0.2275138386646743	0.08687337151959373	0.9363955329503597	0.3396125422007709	0.02439650389704589	-0.2524834624632949	0.1137115547806033	1.281876595495942	0.1021521049148762	1.281876594434752	-0.1889346031064515	0.1076669691800078	0	0.7085572573129189	-0.241520425330908	-0.5188016220872219	0.1716208076386101	0.08218151389187181	0.1716208089788421	0.2264808273124591	0.2649610259833464	-9.338002991894817e-05	-0.1747484935191446	0.1179020638971063	0.1704294501595258	-0.05202305730871413	-0.2771440346098063	-0.4058123743446211	1.427792933604673	1.570796326969429	0	0	-1.162662625618936	-0.3429417730557893	-0.8950901207943366	0.5241236083231041	1.570796326969429	0	0
0.1418654673351004	-0.2863068203934934	-0.06995673770193316	-0.2225533089816357	0.09359153443304223	0.9334940365405161	0.338805884886727	0.01472267647327958	-0.2517907373756644	0.131148633202642	1.304915777582397	0.1021521049148762	1.304915776736008	-0.1908167476629992	0.1080233954513656	0	0.71702966631882	-0.2406380796065164	-0.510117041315257	0.1939556313419327	0.0821815138918718	0.1939556325044509	0.216285417653515	0.2463362130119697	-8.906573436636782e-05	-0.1692752350579201	0.1177397677888679	0.1686657756261633	-0.05976928276061765	-0.2715311766936426	-0.4122858199846808	1.417383990725992	1.570796326969429	0	0	-1.163250063138952	-0.3461839614276544	-0.891609249231767	0.5224346170164854	1.570796326969429	0	0
0.1453071283122631	-0.2830724598318117	-0.06949025657441536	-0.217887236780942	0.09952889905876834	0.9308618915021848	0.3380892986874072	0.007095878213802451	-0.2508513568713776	0.1463565428199093	1.325390890804379	0.1021521049148762	1.325390890409655	-0.1925782909679045	0.1079687403204281	0	0.7251049875913214	-0.2396359536204878	-0.501377949421507	0.2151150399677918	0.08218151389187181	0.215115040846397	0.2068668695458324	0.2285191989306123	-8.540234605974178e-05	-0.1642746213668677	0.1174312931369895	0.1668353359634448	-0.06689501397792921	-0.266238819660088	-0.4182685204365343	1.40778590234555	1.57079632696943	0	0	-1.163271812903873	-0.3497141004486249	-0.8884307873768954	0.5210158203705085	1.57079632696943	0	0
0.1482902993364854	-0.2804245911670222	-0.06893973786324234	-0.213696118268987	0.1046136489665595	0.9285636698068557	0.337470671194402	0.001338384837566647	-0.2498013877315755	0.1592082984328878	1.343068596129017	0.1021521049148762	1.343068595687755	-0.1941471667913833	0.1075912480914464	0	0.7324118744699759	-0.2386104669837324	-0.4931343772293241	0.2342459745562498	0.08218151389187182	0.2342459754095504	0.1985383215928163	0.2123072843293144	-8.23726981095055e-05	-0.1599180279094892	0.1170521570492692	0.1650661584582703	-0.07319576202978358	-0.2614642212241119	-0.4235697095188131	1.399258165631682	1.57079632696943	0	0	-1.162878525697615	-0.3532184892658197	-0.8856194797059609	0.5198711882813188	1.57079632696943	0	0
0.1507679370955254	-0.2783176123134366	-0.06838757867455642	-0.2101287269674683	0.1087903888523171	0.9266498093219492	0.336957668821358	-0.002803063606721126	-0.2487686606830932	0.1696335586871391	1.357722129234974	0.1021521049148762	1.35772212860417	-0.1954686749585784	0.1070198039460327	0	0.7386517906764889	-0.237652218706688	-0.4858612790094283	0.2506256111581627	0.08218151389187185	0.2506256122174118	0.191543215257688	0.1983697968504749	-7.995554464652702e-05	-0.1563206435801866	0.1166674877275755	0.1634745960023145	-0.07850098639614715	-0.2573787558970228	-0.4280349709633898	1.392033629089756	1.57079632696943	0	0	-1.162244821966373	-0.3564197495515251	-0.8832393584099749	0.5189901802096302	1.57079632696943	0	0
0.1527009768984096	-0.2767219146629287	-0.06790170549335556	-0.2073000870383419	0.1120183783424361	0.9251570421065424	0.3365574099030879	-0.005611973974313261	-0.247864911135183	0.1776029544366818	1.369145965008273	0.1021521049148762	1.369145964311192	-0.1965052987361507	0.1063996006457407	0	0.7436029061298574	-0.2368399842243459	-0.4799427962216435	0.2636778027805956	0.08218151389187184	0.2636778040655894	0.1860570142313779	0.1872349623470192	-7.813051491756216e-05	-0.153547171901601	0.1163286355450508	0.1621595793652028	-0.08267705220799823	-0.2541224125002093	-0.4315476483145241	1.386310387877068	1.57079632696943	0	0	-1.161548699418327	-0.3590880913784713	-0.8813507028126785	0.5183520499472732	1.57079632696943	0	0
0.1540589714577417	-0.2756218833600277	-0.06753356408959379	-0.2052929228951221	0.1142694101731748	0.9241100859872595	0.3362759994586452	-0.007356759855054508	-0.2471800297549844	0.1831124544221579	1.377169934497984	0.1021521049148762	1.377169933825074	-0.1972339471235565	0.1058680818908163	0	0.7471138692718494	-0.2362366402486607	-0.4756673726379372	0.2729750627966344	0.08218151389187184	0.2729750642120911	0.1821962699695678	0.179291117795289	-7.687985415616929e-05	-0.1516245886583356	0.1160725660851864	0.1611989204361696	-0.08562656135279056	-0.2518015065982664	-0.4340261259297128	1.382245407673612	1.57079632696943	0	0	-1.160950657478733	-0.3610469382884559	-0.8800058600352062	0.5179318511657204	1.57079632696943	0	0
0.1548208116596206	-0.2750112208581886	-0.06731789524137353	-0.2041606420647695	0.1155260639575837	0.9235237604267423	0.3361179930381243	-0.008251276010363561	-0.2467781165539228	0.1861703567846779	1.381671542777907	0.1021521049148762	1.381671542142008	-0.1976422200202115	0.1055342380125647	0	0.7490925815028283	-0.235886639338125	-0.4732290160804008	0.2782331576043385	0.08218151389187184	0.2782331590681932	0.1800301394266567	0.1747946189446685	-7.618949435502287e-05	-0.1505575300587297	0.1159230032361031	0.1606470875909944	-0.08728599609610618	-0.2504881848070801	-0.435419313773221	1.379949223543741	1.57079632696943	0	0	-1.160574952736893	-0.3621749792072388	-0.8792445049057092	0.5177068755438149	1.57079632696943	0	0
0.155	-0.2748681969917887	-0.06726624778915875	-0.2038937291591014	0.11582098	0.9233859840000002	0.3360808120000001	-0.00845276762295237	-0.2466817598104731	0.1868861066381878	1.382730389625133	0.1021521049148762	1.382730389	-0.197738156916307	0.1054519350700246	0	0.7495587618315591	-0.2358031332293009	-0.4726515038305156	0.2794740685279241	0.08218151389187184	0.27947407	0.1795207575045114	0.1737330799160725	-7.6028287546125e-05	-0.150307886465418	0.1158872453159299	0.1605159718596739	-0.0876767420164514	-0.2501781513719887	-0.4357472173722572	1.379407527249964	1.57079632696943	0	0	-1.160482340498015	-0.3624432603322624	-0.879064687801303	0.5176551200115511	1.57079632696943	0	0
0.1554542507337262	-0.2745065893962698	-0.06713378213305624	-0.2032161368602511	0.1165674791409875	0.9230369607660436	0.3359865236943599	-0.008948266059951707	-0.2464344004225479	0.1886945785703627	1.385414728610225	0.1021521049148762	1.38541472801537	-0.1979811667076248	0.1052367829558249	0	0.7507417040777149	-0.2355894404166757	-0.4711808239817362	0.2826267295814026	0.08218151389187184	0.2826267310686428	0.1782297560209426	0.1710355432523053	-7.562160652463919e-05	-0.1496774405277096	0.1157956461002999	0.1601813572325851	-0.08866799128519889	-0.2493903131213207	-0.436578771633635	1.378031550622048	1.57079632696943	0	0	-1.16024027235555	-0.3631283346483689	-0.8786075510451942	0.5175259348318689	1.57079632696943	0	0
0.156515784775164	-0.2736664592626942	-0.06681586961395229	-0.2016277415584366	0.1183056013792307	0.9222228765276569	0.3357659772475285	-0.01002001172523267	-0.2458392273882994	0.1928870053365445	1.391688560309132	0.1021521049148762	1.391688559797516	-0.1985476952530789	0.1046972114944341	0	0.7535113688368686	-0.2350790121726446	-0.4677078928664222	0.2900310481220764	0.08218151389187184	0.2900310496132848	0.1752154239951555	0.1646970568745777	-7.468226818035947e-05	-0.148218579601775	0.1155765347757798	0.1593871054803378	-0.09098788700505207	-0.247538972295253	-0.4385232355035902	1.374800783539165	1.57079632696943	0	0	-1.159633483428493	-0.3647565013251473	-0.8775318783412639	0.5172355894169891	1.57079632696943	0	0
0.1581644464118399	-0.2723727292456422	-0.06630018568434499	-0.1991492247460248	0.1209870647116901	0.9209636879974262	0.3354227626147794	-0.01144188372046676	-0.2448681733542944	0.1993029526396768	1.401435543257721	0.1021521049148762	1.401435542885963	-0.1994223978936384	0.1037551990816443	0	0.7578212814918752	-0.2342563121787876	-0.4622196862056592	0.301624462765112	0.08218151389187182	0.3016244641891839	0.1705456904149888	0.1547650538205532	-7.325357385003737e-05	-0.1459977555793613	0.1152235973364481	0.1581203460841129	-0.09459837661932116	-0.2446368491193754	-0.4415440118920333	1.369741377112174	1.570796326969429	0	0	-1.158575280668052	-0.3673578544161807	-0.8758398283609005	0.5168181113465959	1.570796326969429	0	0
0.1603741041940474	-0.2706521710188066	-0.06557101423332327	-0.1958115082329881	0.1245456322929536	0.9192884852537051	0.3349611112276663	-0.01287525158694417	-0.2434801783945925	0.2077159328789447	1.414506851387557	0.1021521049148762	1.414506851152582	-0.2005807602975912	0.1022891693294444	0	0.7635949345784588	-0.233098759631612	-0.454701317796443	0.3173159844677587	0.08218151389187182	0.317315985742981	0.1643230244798974	0.1413110462314769	-7.139485228510173e-05	-0.1431215805595356	0.1147306947555925	0.1563619626479515	-0.09944530340055613	-0.2407009663404069	-0.4455867227151181	1.362882746489554	1.570796326969429	0	0	-1.156931221041104	-0.3709742663145326	-0.8735283766132405	0.5163266521942432	1.570796326969429	0	0
0.1631098871668135	-0.2685263598411897	-0.06461631396043106	-0.1916673173460997	0.1288933783364319	0.9172397892210253	0.3343862016834098	-0.01388223144478967	-0.241630050061472	0.2178277317302507	1.430703782887191	0.1021521049148762	1.430703782640471	-0.2019841269566979	0.1001420255098183	0	0.7706982313223488	-0.2315834598730381	-0.4451720294064005	0.3369313374493616	0.08218151389187182	0.3369313386451322	0.1567042835997294	0.1244804972053247	-6.917960109740385e-05	-0.1397513131080631	0.1140981799826038	0.1540948107318955	-0.1054449918212121	-0.2357651498010364	-0.4505663072361414	1.354272110945405	1.570796326969429	0	0	-1.154527546180399	-0.3756392303480451	-0.8705911768676728	0.5158355520539738	1.570796326969429	0	0
0.1663286436775879	-0.2660012354849304	-0.06343475210246743	-0.1867981370897677	0.1339227515356594	0.914875323553117	0.333703832908289	-0.01395186486271184	-0.239277038681946	0.2292784855824053	1.449775053860178	0.1021521049148762	1.449775053349203	-0.2035769264997756	0.09713298094056132	0	0.778919168566472	-0.2296935246713011	-0.4337133332866899	0.3601773570221947	0.08218151389187184	0.3601773584215239	0.1479101124529598	0.1045251278558936	-6.669098479184947e-05	-0.1361121763335262	0.113339231006242	0.1513105824577463	-0.1124773322760667	-0.2298877705850592	-0.4563598204134435	1.343980526122937	1.570796326969429	0	0	-1.151161640560966	-0.3813606912023911	-0.8670173301540728	0.5154411285859059	1.570796326969429	0	0
0.1699796094921079	-0.263057970767157	-0.06204228377450832	-0.1813190945604976	0.1395095988843488	0.9122688961396719	0.3329201912019694	-0.01253715339142744	-0.2363936477343649	0.2416607788837356	1.471409334474635	0.1021521049148762	1.47140933364008	-0.2052858348136746	0.09307567198674423	0	0.7879522714966426	-0.227424506176275	-0.4204932098263465	0.3866127338864622	0.08218151389187182	0.3866127354165955	0.1382282198804911	0.08182750004353066	-6.401746530003057e-05	-0.1324979089402024	0.112485447917874	0.1480164701075336	-0.1203806329052507	-0.2231582821104586	-0.4628016134578223	1.332108719005253	1.570796326969429	0	0	-1.146616617056856	-0.3881055422387005	-0.8627906269214973	0.5152613009638988	1.570796326969429	0	0
0.17400520557877	-0.2596478022814221	-0.0604768073290684	-0.1753799859679211	0.1455170990339019	0.9095097525684064	0.3320418152665724	-0.009102431588458653	-0.2329734483533691	0.2545373202515643	1.495222826901466	0.1021521049148762	1.495222826156734	-0.2070220724738195	0.08780231914008693	0	0.7973933574222071	-0.2247899033925329	-0.4057807806619959	0.4156327467681305	0.08218151389187181	0.41563274786495	0.1280069547598611	0.05691082107457869	-6.124544512906485e-05	-0.1292666994614597	0.1115901738508988	0.1442405475903614	-0.1289500529971093	-0.2157009408723343	-0.469683032260895	1.318792104765009	1.570796326969429	0	0	-1.140680120813861	-0.3957889192170889	-0.8578900539852632	0.515433172841342	1.570796326969429	0	0
0.1783419453248002	-0.2556932240329497	-0.05879948703389311	-0.1691610904085108	0.1518005677448481	0.9066998405949134	0.3310758133886068	-0.003178077046746583	-0.2290366506283342	0.2674615144626061	1.520744809315299	0.1021521049148762	1.520744809088759	-0.2086875390183902	0.08119175613965819	0	0.8067496456499105	-0.2218246465053202	-0.3899469116025491	0.4464746982234133	0.08218151389187182	0.4464746993506789	0.1176370585196914	0.03042884193438364	-5.845129850328951e-05	-0.1268252906370203	0.1107281067161053	0.1400348626084614	-0.1379413297189478	-0.2076742732937887	-0.4767584619844729	1.304204207851794	1.57079632696943	0	0	-1.13316662518866	-0.4042708879938081	-0.8522923504285785	0.5161076753731231	1.57079632696943	0	0
0.1829214354539589	-0.2510970525489197	-0.05709179102909491	-0.16286337445591	0.158212969981064	0.9039487022560908	0.3300303360536501	0.005583223756555262	-0.2246324573642795	0.2799998437716555	1.547406912892353	0.1021521049148762	1.547406912735244	-0.2101845868660734	0.07319719601891737	0	0.8154680692521925	-0.2185856866671299	-0.3734486286899319	0.4782477243588711	0.08218151389187184	0.4782477253116497	0.1075221560011985	0.003134485283252819	-5.570610922699339e-05	-0.1255998288143201	0.1099903185992997	0.1354755731555388	-0.1470808096864517	-0.1992655334465833	-0.483758551220598	1.288557795367392	1.57079632696943	0	0	-1.123941533144575	-0.4133618023147217	-0.8459772180350446	0.5174405805916492	1.57079632696943	0	0
0.1876714545037473	-0.2457593125328219	-0.05544811819208456	-0.1566939489480523	0.1646108288681006	0.901366181754262	0.3289152194786427	0.01735657837339552	-0.2198377653063413	0.2917546605637378	1.574543582629667	0.1021521049148762	1.574543581982589	-0.2114281487728174	0.06386831341497598	0	0.8229811191375208	-0.2151492975908512	-0.356798443953405	0.5099861505253761	0.08218151389187182	0.5099861512290745	0.09804172465657839	-0.02416967910315473	-5.306508912619061e-05	-0.1259947791603089	0.1094747525911542	0.1306599818836032	-0.1560816406006477	-0.1906804112967082	-0.4904099549546674	1.272103188871942	1.570796326969429	0	0	-1.11294450559016	-0.4228357737300298	-0.8389353358442018	0.5195796847797416	1.570796326969429	0	0
0.1925170917444269	-0.2395999242730612	-0.05396492275080114	-0.1508488687771892	0.1708601142356103	0.8990536409192974	0.3277426585668268	0.03210986928841294	-0.2147524748186422	0.3023858001067314	1.601410606373179	0.1021521049148762	1.601410605856262	-0.2123579539149304	0.05336223592962971	0	0.8287652995372927	-0.2116053604762032	-0.3405228858521966	0.5407205363099689	0.08218151389187182	0.540720537534444	0.08951298351759723	-0.05069199106672367	-5.056917643116581e-05	-0.1283444071030094	0.1092734184197492	0.1257008908605373	-0.164664577019429	-0.1821293558724272	-0.4964592494735227	1.255123461277259	1.570796326969429	0	0	-1.100208902854759	-0.432449811284696	-0.8311786286881985	0.5226486921578994	1.570796326969429	0	0
0.1973819285398158	-0.2325833337052487	-0.05272820710433269	-0.1454961702149356	0.1768415754567572	0.8970948419894026	0.3265277535037052	0.04959055732549094	-0.2094923466776129	0.311629326220369	1.627225284401482	0.1021521049148762	1.627225284414952	-0.2129480443173381	0.04193967405865836	0	0.8324034437401208	-0.2080495742309672	-0.3251168330704342	0.5695562763997873	0.08218151389187184	0.5695562775234899	0.08215935537773376	-0.07571375378145177	-4.824949609010453e-05	-0.1328640786770382	0.10945851861395	0.1207191575273267	-0.1725805635618627	-0.1738127437538897	-0.5016972919646417	1.237926542983937	1.570796326969429	0	0	-1.085874301015594	-0.4419648150978276	-0.8227514599624336	0.526729204757036	1.570796326969429	0	0
0.2021892435043931	-0.2247401326437959	-0.05180182192102754	-0.1407621218316454	0.1824550018750538	0.8955479354338313	0.3252887509461876	0.06933762730499041	-0.2041807755517625	0.3193117274247044	1.651226287064616	0.1021521049148762	1.651226286780343	-0.2132110000148788	0.02994544310266302	0	0.8336399960086228	-0.2045750297898392	-0.3110010421006008	0.5957473899486218	0.08218151389187182	0.5957473909470778	0.07609225278602658	-0.09864303492512827	-4.612148153391334e-05	-0.1396100027675746	0.1100702474861675	0.115835559727301	-0.1796314910927383	-0.1659074513414087	-0.5059797140256094	1.220834663886345	1.570796326969429	0	0	-1.07018984072419	-0.4511642446737705	-0.8137407978867035	0.5318430492089906	1.570796326969429	0	0
0.2068632224455918	-0.2161808700058186	-0.05121895560969621	-0.1367229711115848	0.1876219831439473	0.8944399120610735	0.3240469026441945	0.09071718240927884	-0.1989409070456857	0.3253580554885275	1.672745087587957	0.1021521049148762	1.672745087190658	-0.2131952916936849	0.01777623010678013	0	0.8324188362827033	-0.2012647284627338	-0.2984893958086201	0.6187536896146725	0.08218151389187182	0.6187536905824765	0.07131000760296272	-0.1190523857404213	-4.419209191612585e-05	-0.1484553553389152	0.111108791566906	0.1111630523193293	-0.1856855790868499	-0.15855705102631	-0.5092397470848884	1.204172011216438	1.57079632696943	0	0	-1.053507538263931	-0.459867089150463	-0.804283181075453	0.5379376879928686	1.57079632696943	0	0
0.2113301540101398	-0.207098749591517	-0.05097848202873485	-0.1334032231194983	0.1922868922431644	0.8937644876741321	0.3228259194014252	0.1129755793973213	-0.1938892190474287	0.3297929039327488	1.691276161121719	0.1021521049148762	1.691276161193945	-0.212975841228067	0.005841507900562218	0	0.8288963943262174	-0.198186356318419	-0.2877702477952437	0.6382727479329734	0.08218151389187185	0.6382727486139441	0.06771365199760503	-0.1366960418393605	-4.24621813500514e-05	-0.1590879440345067	0.1125321449097439	0.1068002946514454	-0.1906847860784936	-0.151866955729425	-0.5114911136398759	1.188251872423908	1.57079632696943	0	0	-1.036266286622957	-0.467933466078004	-0.7945666212478989	0.5448774810291164	1.57079632696943	0	0
0.2155195921846577	-0.1977603608231451	-0.05104667234941747	-0.1307801057954388	0.1964160557186885	0.8934837726324972	0.3216510781485927	0.1353009555767879	-0.1891311473718334	0.3327337749006723	1.706531643744085	0.1021521049148762	1.706531643964048	-0.2126397162713027	-0.00547500152186136	0	0.8234278188748531	-0.1953900180103146	-0.2789034536390433	0.6542430274511148	0.08218151389187184	0.6542430281116478	0.06513528264308101	-0.1515060528895223	-4.092887064323019e-05	-0.1710303810432237	0.1142600132677295	0.1028270534584731	-0.1946432380581023	-0.1459046854409309	-0.5128208295728384	1.17336474299297	1.57079632696943	0	0	-1.018968641322329	-0.4752631807382888	-0.7848264036662859	0.5524429832919296	1.57079632696943	0	0
0.2193654673351004	-0.1884862395402843	-0.05136353277048591	-0.1287927747757821	0.1999952995117195	0.893533370549753	0.3205481302958873	0.1568833449352884	-0.1847587780251405	0.3343771993808864	1.718468519478612	0.1021521049148762	1.718468519829035	-0.2122702895019091	-0.01584640448958819	0	0.8165293478427349	-0.1929088702119392	-0.2718319845705904	0.6668197990567385	0.08218151389187182	0.6668197994197861	0.06337216120386606	-0.1635701973609003	-3.958720963039261e-05	-0.1836793446839814	0.1161827432118202	0.09930181722196987	-0.1976374240736633	-0.1407043871513254	-0.5133737911629916	1.15976879096018	1.570796326969429	0	0	-1.00215328394097	-0.4817891927274865	-0.7753348728253079	0.560339363706623	1.570796326969429	0	0
0.2228071283122631	-0.1796250746980525	-0.05185209284486096	-0.127354243997658	0.2030262623383794	0.8938300008452955	0.3195421424035459	0.1769652835725468	-0.1808502170549201	0.3349787904874735	1.727281931171968	0.1021521049148762	1.727281931583035	-0.2119336286631461	-0.02502154763767061	0	0.808824200745148	-0.1907619406791347	-0.2664049786384802	0.6763297136996708	0.08218151389187182	0.6763297141372363	0.06221921801758095	-0.1730968028294761	-3.843144869340705e-05	-0.1963571944557335	0.1181732788739076	0.09626171344628416	-0.1997903383153289	-0.1362740850752179	-0.5133323827640879	1.147683669148211	1.570796326969429	0	0	-0.9863661630426502	-0.4874687074108642	-0.7663864017580441	0.5682136532425686	1.570796326969429	0	0
0.2257902993364854	-0.1715262128980292	-0.05242859539368468	-0.1263640278352111	0.2055219711991991	0.8942804549953128	0.3186564216283782	0.1948780859374128	-0.1774700609125003	0.3348290593194403	1.733365143437045	0.1021521049148762	1.733365143754284	-0.2116701694022327	-0.03283014436568665	0	0.8009812744505314	-0.1889580506398036	-0.2624079771536673	0.6832122822087869	0.08218151389187184	0.683212282857915	0.06149413753318937	-0.1803724728478285	-3.746007234461979e-05	-0.2083678069918278	0.1200998504345516	0.09372458247498119	-0.2012524852294926	-0.1326039759596316	-0.5128947361276605	1.137288056376912	1.570796326969429	0	0	-0.9721328353709212	-0.4922744569964191	-0.7582795201214528	0.5756791887133746	1.570796326969429	0	0
0.2282679370955254	-0.1645146446971257	-0.05301176262333445	-0.1257198960040269	0.2075022019710099	0.8947906714311111	0.3179116170154236	0.2100626929853001	-0.1746704021590686	0.3342271908169911	1.737243016155686	0.1021521049148762	1.737243016317339	-0.2114931399677951	-0.03917548390017017	0	0.793655459023093	-0.1874997650126528	-0.2595959327181223	0.6879568920750356	0.08218151389187184	0.6879568926812303	0.06105196956276431	-0.1857183792324773	-3.667229170700785e-05	-0.2190491684278631	0.1218374248401828	0.09169282459934003	-0.2021826310036343	-0.1296743417148241	-0.5122547448372554	1.128720641145913	1.570796326969429	0	0	-0.959933763505705	-0.4961879140270847	-0.7512984233964447	0.5823446182121069	1.570796326969429	0	0
0.2302009768984097	-0.1588712374319679	-0.05352996187056251	-0.1253277479580283	0.2089890911570915	0.8952739707581345	0.3173250441495194	0.2220771289557889	-0.1724919378970257	0.3334550373265888	1.739490033269992	0.1021521049148762	1.739490033314627	-0.2113933503481486	-0.04401824641588698	0	0.7874360879963023	-0.186386591361719	-0.257725139851525	0.6910427605189954	0.08218151389187182	0.6910427609303036	0.0607892258414906	-0.1894496243761488	-3.606753472051523e-05	-0.22781746656147	0.1232766876892706	0.09015842444011005	-0.2027305522930563	-0.1274621502722403	-0.5115858339463225	1.122083710545622	1.570796326969429	0	0	-0.9501835210073457	-0.499195132147358	-0.7456958238425693	0.5878443463677521	1.570796326969429	0	0
0.2315589714577417	-0.1548191428052907	-0.05392589763244453	-0.1251092025916203	0.210003351467876	0.8956578482510555	0.3169102272349766	0.2305946092756698	-0.1709649074961786	0.3327533879455584	1.740645402316448	0.1021521049148762	1.740645402304658	-0.2113484112980036	-0.04735598445229691	0	0.7828068707087513	-0.1856170813642859	-0.2565812150602083	0.6928871161758893	0.08218151389187182	0.6928871164343855	0.06063983980505267	-0.1918407167845176	-3.564695967819128e-05	-0.2342003346082258	0.1243301883428582	0.08910840122785947	-0.2030231098929354	-0.125945945898579	-0.5110292151163194	1.117448138224171	1.570796326969429	0	0	-0.9432141637689826	-0.5012850239587922	-0.7416784683526478	0.5918673726460489	1.570796326969429	0	0
0.2323208116596206	-0.1525151798417633	-0.05415918988500402	-0.125006917778085	0.2105614461715075	0.8958891285853507	0.3166765590716556	0.2353981275987737	-0.1701095309216372	0.3323021006000912	1.741136921548553	0.1021521049148762	1.741136921518609	-0.2113336086849946	-0.04920324219354566	0	0.7801171114796434	-0.1851897880600709	-0.2560011912775769	0.6938048644466474	0.08218151389187182	0.6938048646446341	0.0605666954993606	-0.1930991053701047	-3.541237576771656e-05	-0.2378603402198342	0.1249361233073151	0.08852975265986272	-0.2031541178747121	-0.1251088615725415	-0.5106862347349211	1.114857865826851	1.570796326969429	0	0	-0.9392616816870896	-0.5024496283735627	-0.7393954158555768	0.5941824787303306	1.570796326969429	0	0
0.2325	-0.1519701257552054	-0.05421520531157281	-0.1249849654499933	0.2106915763298835	0.8959451825139463	0.3166215017666468	0.2365304077419073	-0.1699084812814263	0.3321899283164284	1.741235958045399	0.1021521049148762	1.741235958012737	-0.2113312925439669	-0.04963497738674424	0	0.7794748608934037	-0.1850897387477497	-0.255871218767992	0.6940085162827772	0.08218151389187182	0.6940085164711075	0.0605504813844671	-0.1933864277423942	-3.535733332245341e-05	-0.2387293717358989	0.1250801743252707	0.08839475904763348	-0.2031814909814733	-0.1249133745630001	-0.5106023955468262	1.114249729671752	1.570796326969429	0	0	-0.9383276219372615	-0.50272275433397	-0.7388553809820066	0.594733109474149	1.570796326969429	0	0
0.2329542507337262	-0.1505830714861415	-0.05435913511192383	-0.1249328910059977	0.2110195263205744	0.896090099553062	0.3164817649030573	0.2394048423533914	-0.1693990518348485	0.3318952741183825	1.741458523253621	0.1021521049148762	1.74145852321679	-0.2113274919394623	-0.0507246387391683	0	0.777830416983226	-0.1848368717589356	-0.2555527475974748	0.6945039600941341	0.08218151389187181	0.6945039602675404	0.06051093795593249	-0.1941000463249792	-3.521801591110863e-05	-0.2409462737142707	0.1254479380987494	0.0880544533766444	-0.2032450311981334	-0.1244201806784934	-0.5103844934046774	1.112710000204044	1.570796326969429	0	0	-0.9359522352045627	-0.5034138105576721	-0.7374811726599499	0.596139438627298	1.570796326969429	0	0
0.234015784775164	-0.1473123701780177	-0.05470609623953379	-0.1248310742048906	0.2117751049791874	0.8964444566674139	0.316154313570988	0.2461436333192173	-0.1682099405368425	0.3311491005768769	1.741817808952971	0.1021521049148762	1.741817808921549	-0.2113307513397077	-0.05324338407942364	0	0.7738969293916091	-0.1842501511412801	-0.2548701402495229	0.6955453839458637	0.08218151389187181	0.6955453841463402	0.0604263725078111	-0.19568528539036	-3.489360628799885e-05	-0.2462038156755887	0.1263216437703368	0.08727000922072231	-0.2033609320942991	-0.1232808304541695	-0.509845560722191	1.109122804721947	1.570796326969429	0	0	-0.9303595136478392	-0.5050214633042631	-0.7342408247584785	0.599484560157716	1.570796326969429	0	0
0.2356644464118399	-0.1421535728054736	-0.05527351575769932	-0.1247274904801907	0.2129187065949017	0.897038102070004	0.3156433303753763	0.2566637591632863	-0.1663670512219497	0.3298300674014635	1.741921769144111	0.1021521049148762	1.741921769158911	-0.2113724493678467	-0.05707433878816698	0	0.7675395320832842	-0.183350235112655	-0.2539811780063803	0.6968401663916824	0.08218151389187182	0.696840166813644	0.06031221115627424	-0.1979191378089636	-3.439268887189379e-05	-0.2545792133022141	0.1277172341637738	0.08608241870168147	-0.2034512218298138	-0.1215474495283659	-0.5089275644712933	1.103583211477862	1.57079632696943	0	0	-0.921558976683997	-0.5074990211208968	-0.7291282428693002	0.60484391532138	1.57079632696943	0	0
0.2378741041940474	-0.1350956896830379	-0.0560856076562261	-0.1246907263372493	0.2143948212295731	0.8979153455598983	0.3149541081168376	0.270850231793234	-0.1639048080332876	0.3277560931656184	1.741173492275501	0.1021521049148762	1.741173492393385	-0.2115069671996559	-0.06204278717401283	0	0.7585555915700495	-0.1821645314145653	-0.2531161915123971	0.6979621452875218	0.08218151389187182	0.6979621461495106	0.06017817663827161	-0.2004801440556438	-3.372592013070882e-05	-0.2661938703726983	0.1296582536109316	0.08455140069907206	-0.2034035994563865	-0.1192916328648249	-0.5075475158080855	1.096222435132362	1.57079632696943	0	0	-0.909549185374667	-0.5107856248975949	-0.7221248201445966	0.6123430487487371	1.57079632696943	0	0
0.2406098871668135	-0.1261459256784688	-0.05716626655781905	-0.1248026201832214	0.2161334908341401	0.8991284866869045	0.3140944138079521	0.2885171955312129	-0.1608689827538289	0.3247017064882148	1.738795896662731	0.1021521049148762	1.738795896892321	-0.2118169605821514	-0.06790660624029324	0	0.7467221483485952	-0.1807261172444546	-0.2525618630732027	0.6983847828582997	0.08218151389187185	0.6983847837785898	0.06001265121207853	-0.2029701380371077	-3.290534117242924e-05	-0.2811658964807838	0.1321661094110524	0.08275644639107825	-0.2030831965363497	-0.1166020090017092	-0.5056123702436078	1.08721734593705	1.57079632696943	0	0	-0.894347366443351	-0.5148069220318968	-0.7132178372192814	0.6221353389210822	1.57079632696943	0	0
0.2438286436775879	-0.1153486150486532	-0.05853144861049864	-0.1251486854558567	0.2180550666704141	0.9007307413810738	0.3130749559713017	0.3093893493806146	-0.1573155699420387	0.320418034531482	1.733874768827506	0.1021521049148762	1.733874769147917	-0.2124175742874821	-0.07435812792193965	0	0.7318420418571122	-0.179070052590411	-0.252636503838255	0.6975297656506081	0.08218151389187185	0.697529765896756	0.05976603130113378	-0.2049489398740903	-3.194270526440528e-05	-0.299569637121565	0.135251181833089	0.08079453715775052	-0.2023483427821785	-0.1135769008774061	-0.5030356410411536	1.076787955154135	1.57079632696943	0	0	-0.8760052097240782	-0.5194813098310538	-0.7024122502989751	0.6343842800952524	1.57079632696943	0	0
0.2474796094921079	-0.1028050995834559	-0.06018109245731203	-0.1258076940320148	0.2200757636753525	0.9027681911857518	0.3119097937731029	0.3330902415404936	-0.1533090486523619	0.3146562393910871	1.725422083887944	0.1021521049148762	1.725422084339207	-0.2134571400177786	-0.08103317012528782	0	0.7137950529653582	-0.1772291666329551	-0.2536602023218457	0.6948247896245198	0.08218151389187184	0.6948247900138275	0.0593376530160956	-0.2059747966396	-3.084837174638744e-05	-0.321392034381161	0.1389035349602456	0.07877647658616407	-0.2010685729624189	-0.1103161082999655	-0.4997552007847319	1.065192356519356	1.57079632696943	0	0	-0.8546244936311653	-0.5247259878563872	-0.6897440362094052	0.6492412886457624	1.57079632696943	0	0
0.25150520557877	-0.08869131901775892	-0.06209199829088093	-0.1268417056089179	0.2221135171991737	0.9052715788337319	0.3106166093796721	0.3591418730884613	-0.1489202124047166	0.3071929519804625	1.712460393687648	0.1021521049148762	1.712460393954792	-0.215111794782288	-0.08752910823595621	0	0.6925877457683283	-0.1752300654741659	-0.2559221608466216	0.6897655603481069	0.08218151389187182	0.6897655611303994	0.05857081627380584	-0.2056468898243343	-2.963024817958166e-05	-0.3464916447193864	0.1430847741091571	0.07682167112587174	-0.1991428680428624	-0.106912925234696	-0.4957497118770056	1.052718844316791	1.57079632696943	0	0	-0.8303708035314813	-0.5304613234782194	-0.6752938186237495	0.6668197379712651	1.57079632696943	0	0
0.2558419453248002	-0.07326902602221931	-0.06421336311097986	-0.1282879029691318	0.2240936087035732	0.9082490237024126	0.3092167428981691	0.3869784391374007	-0.1442238098233368	0.2978558439360319	1.694124578603958	0.1021521049148762	1.694124578729329	-0.2175721503013439	-0.09343220709677673	0	0.6683939243507133	-0.1730903035150388	-0.2596484847997534	0.6819752673612649	0.08218151389187184	0.6819752679041321	0.05725956703438694	-0.2036454309030244	-2.829316062946638e-05	-0.3745675858906674	0.1477228515439003	0.07505134992017914	-0.196515604177473	-0.1034475823100934	-0.4910507738098654	1.03967514123447	1.57079632696943	0	0	-0.8034835548498802	-0.5366122930355653	-0.659198776976251	0.6871670214482428	1.57079632696943	0	0
0.2604214354539589	-0.05688665488825764	-0.06646654602950104	-0.1301534125802561	0.2259534712616091	0.9116808049988349	0.3077349147114761	0.4159739711956019	-0.1392963043983337	0.2865472028143314	1.66977162466582	0.1021521049148762	1.669771624998281	-0.2210217783420869	-0.09835208795244638	0	0.6415774025661712	-0.1708176578460208	-0.2649743435709085	0.671253775641834	0.08218151389187182	0.671253776444912	0.05516877199419606	-0.1997645875293512	-2.683993474476284e-05	-0.4051455909983611	0.1527114249556682	0.07358049839494057	-0.1931875596081351	-0.09998318492039679	-0.485748133390201	1.026375229742406	1.570796326969429	0	0	-0.7742810780179545	-0.5431064314456246	-0.6416605595790503	0.7102374213501113	1.570796326969429	0	0
0.2651714545037473	-0.03996715507769542	-0.06875000338200328	-0.1324138286568174	0.227646138089494	0.9155171788610752	0.3061986063432986	0.4454802086742607	-0.134214044960541	0.2732633583851691	1.639084209286611	0.1021521049148762	1.639084209051163	-0.2256095823824925	-0.1019589903015223	0	0.6126906481503649	-0.1684121195923195	-0.2719243709776464	0.6576092913287039	0.08218151389187181	0.6576092913849705	0.05206597897371394	-0.1939341167991868	-2.527209168842178e-05	-0.4375863790803103	0.1579146643517032	0.07250910720347975	-0.1892198349341489	-0.09656480314216169	-0.47998629737236	1.013124881185139	1.57079632696943	0	0	-0.7431602995796378	-0.5498687553859376	-0.6229471865209619	0.7358692151382151	1.57079632696943	0	0
0.2700170917444269	-0.02298246672045958	-0.07094924300064527	-0.135015531226599	0.2291419571671181	0.9196797886940925	0.3046371234511849	0.4748681351563628	-0.1290520499727091	0.2581079549826285	1.602150983639983	0.1021521049148763	1.602150983342411	-0.2314205979945698	-0.1040179818894477	0	0.5824466667536241	-0.1658705647753095	-0.280404423872036	0.6412672526234218	0.08218151389187181	0.6412672532100484	0.04776020980356629	-0.1862269540996235	-2.359075584895928e-05	-0.4711178672838323	0.1631772895514783	0.07191363731989357	-0.1847296216445655	-0.09322172665850197	-0.4739524816445543	1.000207430776687	1.57079632696943	0	0	-0.7105912761022617	-0.5568152765699753	-0.6033877482094698	0.7637696347412397	1.57079632696943	0	0
0.2748819285398158	-0.00641733503878246	-0.07295037801791779	-0.1378812183701239	0.2304283939300595	0.9240666041056884	0.3030804320798946	0.5035654404787946	-0.1238834723786938	0.2412975448179644	1.559507948118557	0.1021521049148762	1.559507947381142	-0.2384512483118623	-0.1044142301413881	0	0.5516667773430943	-0.1631932866581138	-0.290206207189713	0.6226547686255518	0.08218151389187181	0.6226547690084869	0.04214042736058245	-0.1768520912871192	-2.180209793026098e-05	-0.5048878975851	0.1683383802182674	0.07183976388514517	-0.1798782909095681	-0.08997220105876161	-0.4678576799266254	0.9878714694796489	1.570796326969429	0	0	-0.6771073857295776	-0.5638474169144464	-0.5833600302773723	0.79351062090531	1.570796326969429	0	0
0.2796892435043931	0.00927207254822407	-0.07465481167371724	-0.1409175707600494	0.2315080751720465	0.9285596768456486	0.3015578948086167	0.5310830310545358	-0.1187796768051557	0.2231585663091177	1.51213064776116	0.1021521049148762	1.512130647509283	-0.2465949968668991	-0.1031647775587791	0	0.5212120796685861	-0.1603909139947973	-0.3010243103701384	0.6023629400080514	0.0821815138918718	0.6023629405451705	0.03520566632743644	-0.1661341807722907	-1.991812627759786e-05	-0.5380296057989528	0.173246537719733	0.07229742466356912	-0.174853768165337	-0.08682942471632502	-0.4619141836514767	0.9763218646585828	1.570796326969429	0	0	-0.6432921697157828	-0.5708496527883594	-0.5632725699315841	0.8245370050332766	1.570796326969429	0	0
0.2843632224455918	0.02369765624699821	-0.07599214536910268	-0.1440237318145628	0.2323954476480213	0.9330344811417508	0.3000970800037941	0.5570265247848694	-0.1138107428259136	0.2041155042184869	1.461375505176674	0.1021521049148762	1.461375504830582	-0.2556423316617739	-0.100414746618832	0	0.4919100160147138	-0.1574899921992968	-0.3124831925877647	0.5810930540706604	0.08218151389187181	0.5810930541573074	0.02708024405588004	-0.1544831202588842	-1.796099371433696e-05	-0.5697286245984476	0.1777736259255759	0.07325893644706048	-0.1698502526824686	-0.08380737786395076	-0.4563136606356561	0.9657149643386739	1.570796326969429	0	0	-0.6097637450512754	-0.5776918602595762	-0.5435437221289213	0.8561869378583898	1.570796326969429	0	0
0.2888301540101398	0.03656985693879055	-0.07692878497175694	-0.1470992508940731	0.2331127255565465	0.9373692535345798	0.2987227677674934	0.5810930260600089	-0.1090460837075696	0.184671384004061	1.408880708075657	0.1021521049148762	1.408880707291323	-0.265295092394332	-0.09641944927074192	0	0.464489018503312	-0.1545358604027179	-0.324169457743513	0.5595960981066872	0.08218151389187184	0.5595960984830752	0.01801129319171858	-0.1423586899038998	-1.595698511201267e-05	-0.5992805003638018	0.1818246658350313	0.07466047352641278	-0.1650489634047153	-0.08092523782940146	-0.4512097338261136	0.9561581013454531	1.570796326969429	0	0	-0.5771577421046993	-0.5842361070565556	-0.5245809703511836	0.8877219251876508	1.570796326969429	0	0
0.2930195921846577	0.04771449748854981	-0.07747067552567169	-0.1500508186414412	0.233685534218341	0.9414533253795248	0.2974562400440817	0.6030550317191038	-0.1045549348672013	0.1653806762278935	1.356434898762588	0.1021521049148762	1.356434897848368	-0.2751939331081348	-0.09151413551463528	0	0.4395295452062041	-0.1515919249906837	-0.3356664426537019	0.5386115128122517	0.08218151389187184	0.5386115132101417	0.008347703303386411	-0.1302330948388705	-1.394792576554899e-05	-0.6261310071782495	0.1853425665028699	0.07640686798332634	-0.1606021564186093	-0.07820959967224309	-0.4467074914221716	0.9477130530940626	1.57079632696943	0	0	-0.5461087602818171	-0.5903474003340605	-0.506762500458139	0.9183645318521303	1.57079632696943	0	0
0.2968654673351004	0.05707237342152255	-0.07766029035175911	-0.1527962405341465	0.2341397026078583	0.9451920983065408	0.2963150021082089	0.6227425380812914	-0.1004060760950676	0.146822314946646	1.305859898106933	0.1021521049148762	1.305859897398251	-0.2849473750022587	-0.08608279943944756	0	0.4174444113144803	-0.1487362465214138	-0.3465800231699683	0.5188238373537594	0.08218151389187184	0.5188238374993379	-0.001489156061218712	-0.118562557969421	-1.198343113200177e-05	-0.6498898283322418	0.1883071341213996	0.07837873323105522	-0.1566251125059042	-0.07569440677683908	-0.4428617125768687	0.9404021966371862	1.57079632696943	0	0	-0.517233275873989	-0.5959026545613214	-0.490425357079548	0.9473335692483146	1.57079632696943	0	0
0.3003071283122631	0.06468686679126169	-0.0775684034468879	-0.155268020220421	0.2344975239547036	0.9485115053052745	0.2953126575581269	0.6400161083907238	-0.09666735578299351	0.1295629721637826	1.258861650314827	0.1021521049148762	1.258861649661425	-0.2941711898121542	-0.08051621212520495	0	0.3984721587803174	-0.1460546739008261	-0.3565680687044981	0.5008157852901978	0.08218151389187182	0.500815785540087	-0.01105088031156623	-0.1077544807720094	-1.011997028328413e-05	-0.6703304047850128	0.1907301026948049	0.08044204912113299	-0.1531901095209164	-0.07341888361892075	-0.439680974324572	0.9342172660339934	1.570796326969429	0	0	-0.4911093586198983	-0.6008033814347474	-0.4758549337502086	0.9738868409283965	1.570796326969429	0	0
0.3032902993364854	0.070676580249126	-0.0772836074056657	-0.1574124684582645	0.234777339609693	0.9513563184147253	0.294459348687159	0.6547586207100614	-0.09340365016371192	0.1141360556379505	1.216975889281273	0.1021521049148762	1.216975888282404	-0.3025070392283459	-0.07519036122734038	0	0.3827090433779691	-0.1436348661400509	-0.3653441974164251	0.4850657883273384	0.08218151389187182	0.4850657887076765	-0.01989160366840683	-0.09816077935278474	-8.419384124601546e-06	-0.6873588442199967	0.1926462287585354	0.08245748304350009	-0.150333323247981	-0.07142444668060755	-0.4371391233841445	0.9291280397458617	1.570796326969429	0	0	-0.4682636714436745	-0.6049760369295981	-0.4632859667972391	0.997343420424175	1.570796326969429	0	0
0.3057679370955254	0.07520449236115005	-0.0769006990649093	-0.159188737161867	0.234993074919984	0.953688092495848	0.2937622550841499	0.6668669892187644	-0.09067466690550149	0.1010185190994217	1.181512148362687	0.1021521049148762	1.181512147016344	-0.3096411426541638	-0.07044379966947086	0	0.3701456931144211	-0.1415597255522605	-0.3726812483029574	0.4719464102565839	0.08218151389187184	0.471946410672565	-0.02759951442088434	-0.09007088126043943	-6.943023942463224e-06	-0.7009783942866759	0.1941035577670572	0.08429013504215294	-0.1480625718293077	-0.0697512454930542	-0.4351882569029423	0.9250915743236393	1.570796326969429	0	0	-0.4491579111491673	-0.6083721005482429	-0.4529044290215461	1.017106347348957	1.570796326969429	0	0
0.3077009768984096	0.07845001465180758	-0.07650941410273075	-0.1605691733912283	0.2351527833412158	0.9554846706976345	0.2932259616661504	0.6762392330769263	-0.08853316571763881	0.09060242480282016	1.15347249615298	0.1021521049148762	1.15347249466516	-0.3153276941423627	-0.0665494145774651	0	0.3606947772371059	-0.139900504797138	-0.3784216825411343	0.461710769534544	0.08218151389187184	0.4617107699243597	-0.03383262264505679	-0.08369718824006145	-5.749301873925777e-06	-0.7112608720501721	0.1951546492460321	0.08581932634704467	-0.1463616612635302	-0.06843495909583551	-0.433770100231647	0.9220616113511366	1.570796326969429	0	0	-0.4341733204222949	-0.6109711450281362	-0.4448467935176449	1.032690451177582	1.570796326969429	0	0
0.3090589714577417	0.08057853997867505	-0.07618597678280044	-0.1615356865069273	0.2352608182275964	0.9567343422407916	0.2928532241402435	0.6827863108051098	-0.08702209683497358	0.08319151416996932	1.133589831403565	0.1021521049148762	1.133589829918344	-0.3193835072516025	-0.06371567575281085	0	0.3542425603597565	-0.1387139898702717	-0.3824602589547414	0.4545245249530503	0.08218151389187184	0.4545245252959783	-0.03832449509533175	-0.07918979679315725	-4.888448484676956e-06	-0.7183019876261266	0.1958477764962767	0.08694556840144856	-0.14520499931405	-0.06750449863949816	-0.4328288054698436	0.9199953994179683	1.570796326969429	0	0	-0.4236061330287102	-0.6127692704684392	-0.4392092279834924	1.043722898405491	1.570796326969429	0	0
0.3098208116596206	0.08171782330681708	-0.07598697898748791	-0.1620766891915002	0.2353199490432721	0.9574308665263841	0.2926455725771746	0.6864460033038512	-0.08617197542374996	0.0790003553863628	1.12236976989441	0.1021521049148762	1.122369768450163	-0.3216806661003652	-0.0620907550473086	0	0.3506907482719461	-0.1380408192353969	-0.3847278145622486	0.4504949781960386	0.08218151389187182	0.4504949785023477	-0.04088512986657192	-0.07665059247458234	-4.397446049993536e-06	-0.7221859368269107	0.1962202407063606	0.08759615997852985	-0.1445700248280551	-0.0669804263569503	-0.4323206455040921	0.9188587818224679	1.570796326969429	0	0	-0.4176634213702909	-0.613767900693753	-0.4360549492472713	1.049942445684363	1.570796326969429	0	0
0.31	0.08198006240455306	-0.07593834151443128	-0.1622038082382316	0.235333703	0.957594217	0.2925968840000001	0.6873053991875343	-0.08597177158354727	0.07801106817962802	1.119723898430449	0.1021521049148762	1.119723897	-0.3222232457066854	-0.06170489509079385	0	0.3498624390898281	-0.1378817002427934	-0.3852613497467102	0.449547419703381	0.08218151389187182	0.44954742	-0.04149164811445133	-0.07605226208686205	-4.281118122216893e-06	-0.7230925510061395	0.1963061352089967	0.08775114131839347	-0.1444221302043831	-0.06685694486668702	-0.4322032032803703	0.9185937969127842	1.570796326969429	0	0	-0.4162641571977269	-0.6140017247163456	-0.4353139282153424	1.051408473572563	1.570796326969429	0	0
