DataType=double
version=3
OpenSimVersion=4.5
endheader
time	pelvis_tilt	pelvis_list	pelvis_rotation	pelvis_tx	pelvis_ty	pelvis_tz	hip_flexion_r	hip_adduction_r	hip_rotation_r	knee_angle_r	knee_adduction_r	knee_angle_r_beta	ankle_angle_r	subtalar_angle_r	mtp_angle_r	hip_flexion_l	hip_adduction_l	hip_rotation_l	knee_angle_l	knee_adduction_l	knee_angle_l_beta	ankle_angle_l	subtalar_angle_l	mtp_angle_l	lumbar_extension	lumbar_bending	lumbar_rotation	arm_flex_r	arm_add_r	arm_rot_r	elbow_flex_r	pro_sup_r	wrist_flex_r	wrist_dev_r	arm_flex_l	arm_add_l	arm_rot_l	elbow_flex_l	pro_sup_l	wrist_flex_l	wrist_dev_l
0	0.3109968118729717	0.1155362362513742	-1.064368436555736	1.587320662661537	0.7538467783826418	-0.2808857387456078	-2.233747991233549	-1.762901203952764	-3.028188489325223	0.9284670352577806	-3.386745728878527e-14	0.9284668431619791	-5.546406694897948	0.1044031436081107	0	-1.355747500768914	0.3375217120964267	-2.728139125007343	-11.16125389958486	-4.456210646172529e-14	-11.16125390923876	0.394691591205397	3.94811159854724	0.004879595151293562	-0.3617713374826265	-0.676812420396654	0.9878997120435304	0.6672709809264841	-0.5612488249637401	0.5247448797688424	0.9057109565224126	-4.674107979251285e-13	0	0	-1.466827901174962	5.018124499544554	-0.3412792222733169	-0.2186754776035573	-4.674107979251285e-13	0	0
0.0004542507337261803	0.3324190175199088	0.1070811667834849	-1.070345231362714	1.58978603198928	0.7503193182735652	-0.2813092055640415	-2.230266199623449	-1.766926196370695	-3.005598668886678	1.014683971207784	-3.617842678208218e-14	1.014683804563503	-5.5235984512545	0.06815652749090403	0	-1.387646691492853	0.3308121804375914	-2.752021823059749	-11.16507869558047	-3.798122999910477e-14	-11.16507869747446	0.3946277981188063	3.980367579885194	0.004863172953618772	-0.3743607975132768	-0.6683584489558574	0.9921697049823973	0.6649350379570013	-0.5618564191730289	0.5268772132776021	0.8965073709597892	-3.210306607911484e-13	0	0	-1.452048396384566	5.022437508956228	-0.3282750091359776	-0.22099485054711	-3.210306607911484e-13	0	0
0.001515784775164009	0.3824794134597778	0.08732155596874235	-1.084308214037123	1.59554698456394	0.7420735302480861	-0.2822985614701999	-2.2221375820851	-1.776328758646229	-2.952777680749788	1.216154216753533	-1.999604935916211e-14	1.216154109385152	-5.470272663985179	-0.01653637451370037	0	-1.462173814234189	0.3151312999231906	-2.807832258276879	-11.17397385741199	-2.127586857574502e-15	-11.17397384128978	0.3944878771333943	4.05573789133122	0.004824794615135622	-0.4037772943135185	-0.6485995316203139	1.002145830907359	0.6594739066718402	-0.5632770751591301	0.5318592338593844	0.874999471945659	2.536387346235737e-13	0	0	-1.417525442725956	5.032506085723439	-0.2978948419164094	-0.2264150466431317	2.536387346235737e-13	0	0
0.003164446411839883	0.4602127856000796	0.05661558336276648	-1.105925952706686	1.604488604537156	0.7292255786439467	-0.2838311568227256	-2.20964414013027	-1.790875571887026	-2.870227297862386	1.528905750044623	1.367069582054245e-14	1.528905730931484	-5.387030929911147	-0.1478848807836643	0	-1.577627881180223	0.2907534191667146	-2.89449821145096	-11.18707788110519	2.232541462350713e-14	-11.187077838823	0.3944222863598857	4.172657602712571	0.004765168565758824	-0.4494032928341206	-0.6178636951666507	1.017600432722297	0.6509544537883922	-0.5654964368371449	0.5395803275811258	0.8415936130873911	3.199174592396461e-13	0	0	-1.364158504832941	5.047970620527542	-0.2508649010305332	-0.2348345733244539	3.199174592396461e-13	0	0
0.005374104194047435	0.5642901063477903	0.01533943622689883	-1.134422727396049	1.616433041108725	0.7117157269400063	-0.2858574976035225	-2.193817466671795	-1.809978544062066	-2.75598800267767	1.947019725217587	-5.968458911720703e-15	1.947019798472226	-5.272514379125663	-0.3226120123676312	0	-1.730312537349438	0.2579126496264482	-3.010563273189821	-11.19966524413056	-1.327581304814626e-14	-11.19966517966117	0.3953956697425786	4.328398124109154	0.004685102443690521	-0.5101298893966819	-0.5763309196678558	1.038038927925952	0.6392713431778143	-0.5685613660548022	0.5498131412304756	0.7968058915000773	-3.397756800469345e-13	0	0	-1.294384480224381	5.067487179719757	-0.188904277013513	-0.2461288963955566	-3.397756800469345e-13	0	0
0.008109887166813518	0.6927061780444094	-0.03622691875685861	-1.167835401551678	1.631065378381174	0.6889115730433495	-0.2882581435469928	-2.177810971913582	-1.83209242866174	-2.600583754181316	2.4604445051747	1.3103570279298e-14	2.460444595685766	-5.119316064770505	-0.5337351178789705	0	-1.911320779675753	0.2166082007787606	-3.153869185266646	-11.19588830749127	1.587275533352184e-14	-11.19588826130225	0.4007072365466874	4.517400471714131	0.004585465619544948	-0.5836393026871916	-0.5236028838935501	1.062268173486441	0.6237719351009712	-0.5726984679398666	0.5620198924602111	0.7412912804378824	3.049572087919549e-13	0	0	-1.214804238830787	5.086934301433903	-0.1163512399420044	-0.2601443634894204	3.049572087919549e-13	0	0
0.01132864367758793	0.8425230640747104	-0.0976167406571158	-1.203329078568387	1.647959471422513	0.659962873029492	-0.2908714415535051	-2.166172401707022	-1.85505898230795	-2.391366765246232	3.054412384477125	1.206555151470702e-14	3.054412387035439	-4.9179690903822	-0.770720771604319	0	-2.108258523539855	0.1668950777304398	-3.321116060123043	-11.15402989346257	-6.286890267549835e-15	-11.15402990418711	0.4145504881329138	4.731338651922815	0.004468165316421502	-0.666526959351152	-0.4591974178338853	1.088605525877672	0.6034697040172663	-0.5780894064407871	0.5752928702834871	0.6757718924105174	-1.982832918777359e-13	0	0	-1.134159311000279	5.100593021519908	-0.03884255342237721	-0.2765944093319473	-1.982832918777359e-13	0	0
0.01497960949210789	1.009667981018068	-0.1674837457901643	-1.238629503537299	1.666696289648203	0.6249303032378313	-0.2935905802101197	-2.161874549716963	-1.87741429425716	-2.126505584982256	3.710610574483074	-1.336222134784469e-14	3.710610553012011	-4.669079759192844	-1.022369667906504	0	-2.312002880095402	0.1096786574593041	-3.507282329838018	-11.06456037370405	-2.674397417411013e-15	-11.06456035430112	0.4376097855593413	4.961057665905929	0.004337531176591428	-0.7553227377744214	-0.3840042547115837	1.115744555619224	0.5778989620537274	-0.5843279656680969	0.5884838764156192	0.600950026436904	8.778068075860684e-14	0	0	-1.056687883338844	5.105368036108686	0.04087584452076221	-0.2948871162310931	8.778068075860684e-14	0	0
0.01900520557876997	1.189019654355859	-0.2440354599039891	-1.270992497438576	1.686783146427051	0.5839984561117115	-0.2962909042357377	-2.168321227397413	-1.8974311211493	-1.805676372824448	4.406311727628454	-1.011909279395088e-14	4.40631173250488	-4.3752906637431	-1.274943853039825	0	-2.512023127586738	0.04620335627742082	-3.705635512913456	-10.91761396004142	-8.848700606341088e-15	-10.91761396061296	0.4697942186804341	5.194819580619717	0.004194575813950776	-0.8457174814736976	-0.2993393802540058	1.142127473982731	0.5464891362755623	-0.5907106780330944	0.6000595788612351	0.5175051662158837	-7.241433867216667e-14	0	0	-0.9865922144772039	5.097759641310097	0.1201247004212095	-0.314286455343551	-7.241433867216667e-14	0	0
0.02334194532480019	1.374584722250867	-0.3252076290068905	-1.296966441030665	1.707637288579982	0.53721626866568	-0.2988051333602575	-2.189786081272552	-1.912843964469572	-1.427266502316988	5.114943342360387	2.278750972972633e-15	5.1149433010499	-4.03867457785742	-1.512343877478779	0	-2.695224130074074	-0.02212704533615471	-3.907766534293442	-10.69929568334264	5.852861680053463e-15	-10.69929569326028	0.5110154517944699	5.4180157991457	0.004045008557249971	-0.9324573416405189	-0.2066388321383845	1.165777547454701	0.5083908714290866	-0.596333853489299	0.6081139493537647	0.4261007411723117	1.221491083959935e-14	0	0	-0.9293645728303496	5.072961408427517	0.1954038067189087	-0.3340275767622289	1.221491083959935e-14	0	0
0.02792143545395889	1.559733054621287	-0.4083118871553618	-1.313600849005981	1.728689970455461	0.4852529280377751	-0.3009938428559877	-2.228997565805232	-1.921856456238806	-0.9979489612956484	5.808777786225596	8.925754269739996e-16	5.808777832587106	-3.668595791810806	-1.719623748394664	0	-2.851289360006183	-0.09327780084788982	-4.103621006392377	-10.40467772645345	-3.099912063415183e-15	-10.40467774661002	0.5582597760649924	5.615450192337131	0.003891623158432671	-1.010404794140596	-0.1083848893626376	1.184986568175889	0.4631416428366429	-0.5998069371343242	0.6106285059358569	0.3273932387586299	-9.945301004240835e-14	0	0	-0.8871447529903903	5.027973806220402	0.2652235487729633	-0.3532965517179854	-9.945301004240835e-14	0	0
0.0326714545037473	1.737720246321678	-0.4904531241085534	-1.318144905897498	1.749369538929461	0.4289319803624978	-0.3027146499401562	-2.28786935616715	-1.922759338535625	-0.5271475261118299	6.46068911906077	-1.358937669130035e-15	6.460689232700013	-3.27641591897559	-1.883595690924265	0	-2.970861978484339	-0.1649834424610915	-4.282244282660653	-10.03141218116586	1.738102026610478e-16	-10.03141228371572	0.6074146682825434	5.771687775688149	0.003732956282106759	-1.074554668650494	-0.007445545421765733	1.198087426242821	0.4104122699229577	-0.5995599798291744	0.6056106364082179	0.2221281831559037	2.663334348273162e-14	0	0	-0.8611951756787337	4.960198760140004	0.32844459611653	-0.3714068482805741	2.663334348273162e-14	0	0
0.03751709174442691	1.902236072523545	-0.5686630863737893	-1.308561521634707	1.769149283507495	0.3693456346425697	-0.3038461832566655	-2.366693312750861	-1.914294830416178	-0.02830696769263633	7.046924226299329	1.607783301279179e-15	7.046924211260506	-2.876028528381189	-1.994973769488652	0	-3.047347662151076	-0.2347985234451084	-4.432719257629194	-9.582758313619852	1.448947110106097e-15	-9.582758245652682	0.6531444759205298	5.872981073305001	0.003576740303840291	-1.120702904393404	0.09292026648854637	1.203725512181675	0.3502303071565424	-0.5939668186210716	0.5913730561228022	0.1112398004539671	1.211842283385216e-13	0	0	-0.8510249744022096	4.868348615875682	0.3847401152426855	-0.3878579133449772	1.211842283385216e-13	0	0
0.04238192853981579	2.047979017463407	-0.6401710944281057	-1.28379107850854	1.787578097261959	0.3077809570677678	-0.304300948086482	-2.463942083416607	-1.895815452533169	0.4824467548989436	7.549430182595498	5.385465454655621e-15	7.549430097821501	-2.482237178769738	-2.049574019589914	0	-3.07749261989853	-0.3003095253010917	-4.545416561739419	-9.067464477640945	5.926248796202454e-16	-9.067464445093391	0.68967840691172	5.90898179804746	0.00342485892600225	-1.145926751285329	0.1893470006568087	1.201000642581138	0.283058304012395	-0.5815948016328579	0.5667903559915085	-0.004042430406844062	1.686394962764417e-14	0	0	-0.8546735401056558	4.752672371748047	0.4343745774042385	-0.4023785272291647	1.686394962764417e-14	0	0
0.04718924350439309	2.171141855536546	-0.7026900694781135	-1.243901864303873	1.804301105216777	0.2456116935674724	-0.3040367075713762	-2.576374387906226	-1.867373855614892	0.9883180886529235	7.957462499795255	1.839392697056932e-15	7.957462439966695	-2.10876323024072	-2.04865359175853	0	-3.061485509041732	-0.359385023733143	-4.613307795521147	-8.49876381155714	1.606057724765563e-16	-8.498763863785868	0.7118520703967962	5.874211263582878	0.0032764866972316	-1.148925428924508	0.2787212021183593	1.189569909815682	0.2098238218269752	-0.561477917097264	0.5315108574089299	-0.1221180386077571	3.133169603875625e-15	0	0	-0.8692808290279666	4.614994476415546	0.4778688956802943	-0.4149241314691044	3.133169603875625e-15	0	0
0.0518632224455918	2.269715598875145	-0.7546268660991551	-1.190193758872934	1.819076889732513	0.1842471242865102	-0.3030676108336893	-2.699250684695258	-1.829810998936656	1.473227449016817	8.268258172136147	-5.131554116466381e-15	8.268258231487195	-1.767069098134815	-1.998517039024434	0	-3.003026380538137	-0.4103719782250783	-4.633052030176331	-7.893857075121952	-2.007719641843505e-15	-7.893857050295424	0.7159084637649411	5.769134899717361	0.003132494443204159	-1.130229614758586	0.3584606501959461	1.16975140262971	0.1319541607681207	-0.5333272009658012	0.486095599532324	-0.2409979381857008	-8.122155006195983e-14	0	0	-0.8913989821085582	4.45883619388789	0.515899197776433	-0.4256221302498136	-8.122155006195983e-14	0	0
0.05633015401013977	2.343575059684335	-0.7952395386937418	-1.125099610813633	1.831780034429237	0.1250423749420053	-0.3014649727095915	-2.826903532324915	-1.784699605915604	1.923541448434076	8.486547458333796	-5.841275403013618e-15	8.486547556283632	-1.465155701769304	-1.909253953493986	0	-2.908745621769108	-0.4522720168895878	-4.605637584818646	-7.272323972919334	-6.088010278468486e-15	-7.272323955282149	0.7002563415705754	5.600393018462223	0.003003494035432629	-1.092141303478803	0.4267903419419421	1.142525325727052	0.05132668781252174	-0.4976745183852589	0.4320395447818581	-0.358353875685049	-6.42693997835306e-14	0	0	-0.9175819372406526	4.289195302894645	0.5490752811440368	-0.4347011869955067	-6.42693997835306e-14	0	0
0.06051959218465776	2.394333047709763	-0.824671385532131	-1.051994968679488	1.842396048178669	0.06925233765450395	-0.2993530260601169	-2.953364022110989	-1.734239106410227	2.328940815868208	8.623163235130866	5.792184052531568e-15	8.623163253606599	-1.207300130194428	-1.793138069586962	0	-2.787535670514125	-0.484814566796207	-4.536401798321045	-6.654905466461452	1.365167660848904e-14	-6.654905424513862	0.6657433154774444	5.380267621644025	0.002883852954714795	-1.038488991367803	0.4828708637227109	1.109484947523754	-0.02980407021997238	-0.4558855500730163	0.3716802116277812	-0.4716285205939429	1.51387091922453e-13	0	0	-0.9447261878729957	4.112288124174251	0.5778988389905662	-0.4424143945502985	1.51387091922453e-13	0	0
0.06436546733510043	2.425009785253016	-0.8438837822824166	-0.9748886667429362	1.851006464988999	0.01798851890773331	-0.2968981940446337	-3.073041190258436	-1.681066831059366	2.682878214597087	8.693034944333808	-2.949158539876855e-15	8.693034959238151	-0.9942256339461596	-1.662939998828893	0	-2.649638199134947	-0.5084433580860547	-4.434435893448867	-6.062089108501896	-8.679439399750358e-15	-6.06208906753531	0.6155658938062122	5.125397045627141	0.002775271022017653	-0.9742040640370733	0.526813831619773	1.072705502887847	-0.1089324391091539	-0.4100580087531191	0.3080004953375692	-0.5781826215956785	3.847669040687133e-15	0	0	-0.9703845336326395	3.935109394309408	0.6027234988242429	-0.4489827576682246	3.847669040687133e-15	0	0
0.06780712831226307	2.439580665616838	-0.8544884528954644	-0.8980776630463343	1.85777023676438	-0.02780161148515516	-0.294290618629218	-3.181257645949103	-1.628046245497816	2.982346817661479	8.71302370068328	4.641546656763097e-15	8.713023719241512	-0.8238234712601609	-1.530542677384006	0	-2.505768201174681	-0.5242059923268284	-4.311502611163287	-5.513045172199416	1.034749074734323e-14	-5.513045158511015	0.5547753020463437	4.855042602044535	0.002683226221820527	-0.90481740863199	0.5595568819132732	1.034569407459002	-0.1834477336004254	-0.3628161063583515	0.2443640723074927	-0.6754509496149784	-1.714095257700916e-13	0	0	-0.99288496139791	3.764962406386944	0.6237883490444375	-0.4545636106441827	-1.714095257700916e-13	0	0
0.07079029933648544	2.442481936652606	-0.8585178312585269	-0.8258017968702318	1.862899363644328	-0.06734367676614143	-0.2917256588712719	-3.274579850763898	-1.578047740163696	3.22725923846255	8.699958522892633	-8.960103370605087e-15	8.699958489035488	-0.6920778631784275	-1.406010679548906	0	-2.366301533075701	-0.5335769607836336	-4.180697689124114	-5.024785277538363	-8.136042712198194e-15	-5.024785229509064	0.4895609405003185	4.589203416469038	0.002602275872261345	-0.8359451922509762	0.5826447703339098	0.9975642611085184	-0.2507926918623158	-0.3170485957222512	0.1842256144667659	-0.7610791801893978	2.27638399959121e-15	0	0	-1.011334994639827	3.608972254442762	0.6412518642580561	-0.45924539148231	2.27638399959121e-15	0	0
0.07326793709552543	2.43814219883293	-0.8581677629012066	-0.7619505396845382	1.866632251857897	-0.1000299774270904	-0.2893887639770354	-3.350883425346269	-1.533754393961686	3.419550725402847	8.669133365750795	1.554042638534161e-15	8.669133293764872	-0.5940523580350736	-1.297175232333339	0	-2.240633356660695	-0.5382421920925415	-4.055095824537613	-4.611665144626384	3.580262234756075e-15	-4.611665050820295	0.426449590557324	4.346889139367497	0.002533919071926706	-0.7728393829837776	0.5979533847781837	0.9640864474099116	-0.3086108541017941	-0.2756339704878345	0.1308586747407321	-0.8330255046757578	-2.015087751741196e-14	0	0	-1.025500019933602	3.473661872841685	0.6552293103368311	-0.4630606343608838	-2.015087751741196e-14	0	0
0.07520097689840965	2.430585781858	-0.8555500342737972	-0.7098433007038117	1.869207491109409	-0.1254077391012159	-0.2874408442596681	-3.409182682959455	-1.497504003912038	3.562227026066857	8.633343669781992	1.139455943508039e-14	8.633343597172734	-0.5247561816183756	-1.209645642579659	0	-2.136716471061759	-0.5398814763933257	-3.946572910758374	-4.285154246920609	-2.045827243041139e-14	-4.285154145867845	0.3715730730914919	4.144743414678634	0.002481244252829569	-0.72004204849433	0.6074074474542458	0.9362702671759605	-0.3548697258252503	-0.2411932774216164	0.08713216146395018	-0.8896217790568323	1.842385589904956e-13	0	0	-1.03561097194308	3.36461736380069	0.6658140955609377	-0.4660065622197054	1.842385589904956e-13	0	0
0.0765589714577417	2.423131614413877	-0.8524800088804074	-0.6720894565994429	1.870837843753812	-0.1431604127191274	-0.2860095170299035	-3.449293369854419	-1.471173057558576	3.658487246090378	8.602414581989938	1.866757313635445e-14	8.602414519976167	-0.4798194616458351	-1.147107117049394	0	-2.060775636761038	-0.5399733779671969	-3.864906810537549	-4.053819247940665	3.487690849421924e-14	-4.053819174828345	0.3300867423287876	3.996093513972067	0.002445557481426238	-0.6811562358518997	0.6127276827831964	0.9158553909800825	-0.3879515165337107	-0.2158934979968352	0.05534962818694548	-0.9295996965191766	6.736610139883857e-13	0	0	-1.042137303418628	3.286257058711918	0.6730850288116015	-0.4680649191759485	6.736610139883857e-13	0	0
0.07732081165962061	2.418185996621004	-0.8503131697319012	-0.6505091165602905	1.871687322273472	-0.1530896717618874	-0.2851845024132512	-3.471438413203602	-1.456095164616928	3.711027291895965	8.583069419658489	1.804429652460205e-15	8.583069365278787	-0.4559541126800123	-1.111726451996939	0	-2.017147904284644	-0.539639871510733	-3.817159237077585	-3.923395250251284	1.877076461122292e-14	-3.923395206829948	0.3057612816125189	3.910364229340949	0.002426206005564816	-0.6587125285342501	0.615231728040925	0.9040915359744716	-0.406716428904062	-0.2013050135966807	0.03714404871598662	-0.9520995880056137	1.941619020168027e-13	0	0	-1.045569355163522	3.241680860170265	0.6771048135768241	-0.4692165667715309	1.941619020168027e-13	0	0
0.0775	2.416943746215491	-0.8497571535216814	-0.6453924124715944	1.871880286746426	-0.1554217782261007	-0.2849881981066751	-3.476606644743108	-1.452517194024849	3.723230821526156	8.578317032945833	-4.126477234202175e-15	8.578316980415915	-0.4504805629258475	-1.103378660012647	0	-2.006781702659958	-0.5395211259478017	-3.805728879503666	-3.89265537240699	4.210143173993752e-15	-3.892655337265371	0.2999307143373637	3.889960335284415	0.002421725491612125	-0.65336926709545	0.61577036467238	0.9012924430628493	-0.4111511941302243	-0.1978327428326158	0.03282338020429608	-0.9573987949597214	-1.115934502851356e-13	0	0	-1.046351438371232	3.231133166049862	0.678044116142221	-0.469487159914365	-1.115934502851356e-13	0	0
0.07795425073372618	2.413660534425947	-0.8482685800221762	-0.6323524642291884	1.872357757926438	-0.1613279733769651	-0.2844867534102773	-3.489636216558175	-1.443393389500036	3.753902911213121	8.565930429379192	-1.287527683195989e-14	8.565930381524629	-0.4368424411801559	-1.082177090681498	0	-1.980326477008582	-0.5391512422436527	-3.776413337480296	-3.814623763888283	-1.580014365559136e-14	-3.814623751545966	0.2849645767001625	3.837830266502845	0.002410481540228931	-0.6397152812331581	0.617049834264878	0.8941420208329898	-0.4224293033819561	-0.1889607352165218	0.0218049782245763	-0.9708442717288186	-7.733450677159563e-13	0	0	-1.048289889882975	3.204287681718384	0.6804147734986377	-0.4701726858668175	-7.733450677159563e-13	0	0
0.07901578477516402	2.405243970716626	-0.8443485423951701	-0.6015009534897965	1.87340786138448	-0.1750964956391312	-0.2832939919601526	-3.519659541846838	-1.421775793447588	3.824092553829228	8.535130332326474	-5.55659955971233e-17	8.535130294792875	-0.4062942792910739	-1.032444122849872	0	-1.917532994427484	-0.5379013527919434	-3.706024946723574	-3.631713754191282	5.486528736541832e-15	-3.631713801587712	0.2489597547542925	3.713771491229209	0.002384761743967659	-0.6072094727562887	0.6195582548441311	0.8771292510888734	-0.4489825739257408	-0.1678406533796979	-0.004304685709153981	-1.002327640478859	-2.892846552506855e-13	0	0	-1.052564464520305	3.14096497623632	0.6858959575561201	-0.4717724217263474	-2.892846552506855e-13	0	0
0.08066444641183987	2.390136247271506	-0.837038797351481	-0.5525691536170968	1.874854987766212	-0.1963809319544347	-0.281385190047567	-3.564992591556322	-1.387393940583348	3.928929987565031	8.482368872402553	1.299162062174516e-14	8.482368846929475	-0.3624880889977349	-0.9548589607815197	0	-1.81739829197049	-0.5348880662373603	-3.591563731235397	-3.34622200953266	-3.063790240943738e-15	-3.346222137962609	0.1902146479739704	3.515046192082354	0.002345557256732631	-0.5551137536520707	0.6221146624040862	0.849877732693607	-0.4907574547358195	-0.1339768905745197	-0.04583398860005283	-1.051383318325221	4.51898482649673e-13	0	0	-1.058451104127404	3.04103108724714	0.6942454310879269	-0.4742513489204754	4.51898482649673e-13	0	0
0.08287410419404742	2.366098797758737	-0.8249278116330604	-0.4851551450370661	1.876439651453998	-0.2247001060585046	-0.2787251506589197	-3.622934748718861	-1.339818055888015	4.061369878825454	8.402927379398824	-8.600951281230442e-15	8.402927362404093	-0.3105955688291258	-0.8507280384312312	0	-1.678466127125857	-0.5288030556323657	-3.42861416650483	-2.961289650090371	2.794481571561396e-15	-2.961289773734773	0.1062133233195677	3.237659771000505	0.002291632394794406	-0.4823709141397885	0.6229847398905255	0.8118108677851144	-0.5477254738382186	-0.0866067404203584	-0.1032867851568429	-1.117388797622862	-2.348354008917935e-13	0	0	-1.064780468699292	2.904200231804396	0.7051232293093425	-0.4775632628859783	-2.348354008917935e-13	0	0
0.08560988716681352	2.330547729684821	-0.8063108214878584	-0.3990239856025909	1.877829096520518	-0.2593926320091485	-0.2752834796089099	-3.689466016031634	-1.278645989935894	4.212362999517608	8.292182744057005	9.998392234454023e-16	8.292182738151391	-0.256859164953624	-0.7226420792548444	0	-1.499521102275908	-0.518032103389698	-3.212375395740799	-2.481928325245931	-1.605067048911808e-14	-2.4819282572743	-0.005818659618668219	2.877863930649425	0.002221246120022242	-0.3880237725736055	0.6200225037889697	0.7623255082511783	-0.6197095846801278	-0.02491873808652157	-0.1770884789543987	-1.199419075793747	7.363429435862339e-14	0	0	-1.069882256006942	2.730510374558576	0.718090601058887	-0.4816416379533239	7.363429435862339e-14	0	0
0.08882864367758794	2.280949840066306	-0.7793943913524808	-0.2943624813905157	1.878635478226063	-0.2996139445802757	-0.2710491292741977	-3.759064956765998	-1.203655202126102	4.371441574094784	8.146953504725726	-4.626007866913464e-15	8.146953567646975	-0.2078722197653033	-0.5749509894302408	0	-1.280194617172109	-0.5008196793416189	-2.938736874062562	-1.915540208615578	-9.728446056641668e-15	-1.915540044230803	-0.1482929752915184	2.433580340988156	0.002141097967827645	-0.2716176995594834	0.6108865618647625	0.7009509049506255	-0.7062604421864602	0.05173781192533963	-0.2673593933529013	-1.296190095478767	-1.461248842552826e-13	0	0	-1.07157534466543	2.520679279249757	0.7326293376912365	-0.4863856837728912	-1.461248842552826e-13	0	0
0.09247960949210787	2.215262455177341	-0.7425452151054934	-0.1720397185169405	1.878436921550628	-0.3443400227938115	-0.2660460964079274	-3.824652882952042	-1.11496171726822	4.527511841327207	7.966757959249344	-3.754960877497118e-15	7.966758021950312	-0.1697448545197959	-0.4140334181946299	0	-1.021574686970484	-0.4754763758421093	-2.605485984691362	-1.272335467589709	1.115200753400897e-14	-1.272335439147776	-0.3225180895359395	1.905908958535254	0.002056809658200289	-0.1336291244317768	0.5933176403171199	0.6275246205575291	-0.8065191262736029	0.1436101666218829	-0.3736659693731378	-1.406017364752486	1.154105424602168e-13	0	0	-1.067219588615829	2.276473303388479	0.7481689936665231	-0.4916338019428698	1.154105424602168e-13	0	0
0.09650520557876997	2.13236419215093	-0.6945620358171544	-0.03382987795739952	1.87680090653569	-0.3923784886114196	-0.2603472386085261	-3.87775736187129	-1.01316505863584	4.669793192803683	7.754708498271487	3.590809784776915e-15	7.754708425934376	-0.1472706708477635	-0.2482232106621811	0	-0.7267304513045465	-0.440614296467064	-2.213479610901166	-0.5655504431248009	1.724354648020602e-16	-0.5655504383981007	-0.5279344140660441	1.300476654583282	0.001963853238875561	0.02414218741668763	0.5654572184973613	0.5423635890496782	-0.9190821993715343	0.2502951861849445	-0.4947838906668716	-1.526804397601782	5.107270668355983e-14	0	0	-1.053849223086421	2.001033740404742	0.7641273892255862	-0.4971257435263825	5.107270668355983e-14	0	0
0.1008419453248002	2.032412096760949	-0.6349361719196805	0.1174529147298202	1.873310844058782	-0.4423889581880108	-0.2540830441803902	-3.908968297345006	-0.8994549751174086	4.788791240349229	7.517797535434351	2.515304342173808e-15	7.517797605399199	-0.1432414405639546	-0.08732069352019994	0	-0.4010577392277073	-0.3953829976337604	-1.767554180806918	0.1886209349337273	-3.433275951506173e-16	0.1886208446700804	-0.7614742279430964	0.6283310219336934	0.001866160424959757	0.1982929136307482	0.5261680032673423	0.446401355825182	-1.041894105681982	0.3705310245875291	-0.6285193976959957	-1.656074178941515	-1.040180560282853e-13	0	0	-1.028393248771995	1.69909275438471	0.7799683571858523	-0.5024610715905374	-1.040180560282853e-13	0	0
0.1054214354539589	1.917059239850476	-0.5640562458249945	0.2779532588683453	1.867595488407272	-0.4929186571625266	-0.2474432684453872	-3.908712670237768	-0.7756576310762374	4.877156062643355	7.266427525695251	-8.755079357024385e-15	7.266427572852404	-0.1580590447940647	0.05828985341718212	0	-0.0523628276354328	-0.339667812351926	-1.276938952535012	0.9714384976364585	-3.358954391498619e-16	0.9714383774222937	-1.017222413353227	-0.09389985879607148	0.001766818931391656	0.3837246853947686	0.4753011052481587	0.3412608334104808	-1.172197388736588	0.502076723128781	-0.7716376504172082	-1.79104910032402	5.057503175353531e-15	0	0	-0.9879703007666186	1.377012756724492	0.7952745079896507	-0.5070665303976964	5.057503175353531e-15	0	0
0.1101714545037473	1.789478445143743	-0.4833104208539526	0.4429368801502281	1.859359627928277	-0.5424550457612378	-0.2406665121562071	-3.868296795565115	-0.6442076803055365	4.930281880941293	7.013207635647225	2.564192270088415e-15	7.013207500327116	-0.1897438899740404	0.1787884969457232	0	0.3093735817836569	-0.2742090992785838	-0.7549972594200756	1.762384863160024	-4.112775311891947e-15	1.762385044923125	-1.286534645771899	-0.8447603313599555	0.001666830028456423	0.5738043636983607	0.4138487812507814	0.2292375288969537	-1.306571839635644	0.6417247371697401	-0.9199403020159269	-1.928774628232985	1.149821253229269e-14	0	0	-0.9302280404417957	1.042599658739855	0.8098223662172892	-0.5101898966247521	1.149821253229269e-14	0	0
0.1150170917444269	1.654162668752266	-0.3950495286845485	0.607116379567132	1.848416213601245	-0.5894967347816583	-0.2340221539802251	-3.781081815708282	-0.5080422466398196	4.9465528584442	6.771229188783909	1.175678314332182e-14	6.771229211171274	-0.2343537251165637	0.2661281575491923	0	0.6725736966884954	-0.2006091301146596	-0.2182488056971641	2.540259309606295	6.884740659863274e-15	2.540259354315676	-1.558687229664231	-1.599627477242541	0.001569096213087685	0.7608039563658655	0.3439326687295168	0.1131823524435141	-1.441085122984163	0.7854700445725575	-1.068513306095609	-2.066270962630011	7.428655902564242e-14	0	0	-0.853684512378945	0.7046782379870389	0.8236380901978363	-0.5109354768377232	7.428655902564242e-14	0	0
0.1198819285398158	1.516510774877161	-0.3023976628945421	0.7651059830924654	1.834719879562761	-0.6326439995800861	-0.2277821211511217	-3.643590575897997	-0.3704276670695712	4.927217874228967	6.552184529116419	-4.374256694287539e-15	6.552184432582013	-0.2867236309130182	0.315068856948836	0	1.02495009720658	-0.1212120482605378	0.3152030054334637	3.284511112219036	2.726690519222501e-15	3.284510983344184	-1.822005818115022	-2.333054219596261	0.001473860063640601	0.9365968195012847	0.2686061430091298	-0.003706795873798276	-1.571558181389711	0.9288268168349977	-1.212131772224345	-2.20069011607546	-1.733825869368405e-14	0	0	-0.7580229020015382	0.3724647432582012	0.8370085561534746	-0.5083487349602865	-1.733825869368405e-14	0	0
0.1246892435043931	1.382250751427362	-0.2089296118225162	0.9119367267315821	1.818393513223826	-0.6707033139733218	-0.2221893478429695	-3.456321037055691	-0.2347415975950473	4.875958425621098	6.364753411826874	-1.970922638929368e-15	6.364753483231278	-0.3413595213280222	0.3238351770786584	0	1.354612843376473	-0.03886954858708686	0.8275599296537439	3.976673004579333	-3.338752720212739e-17	3.976673039338017	-2.065286343750238	-3.021385925838112	0.001383896216225823	1.093529013170106	0.1914914055252466	-0.1181541658944584	-1.693921416285014	1.067250726623886	-1.345770943606732	-2.329454784318618	-1.065392936898817e-14	0	0	-0.6442921728834812	0.05482309927852421	0.8504285277720791	-0.5015478249932627	-1.065392936898817e-14	0	0
0.1293632224455918	1.256789732548184	-0.1182680092440538	1.043542582554207	1.79974615525146	-0.7027912386835047	-0.2174310512699947	-3.224082455440309	-0.1042393155702529	4.798269134028559	6.213612483881043	1.004603079977374e-14	6.213612638462624	-0.3932894867350804	0.2942766606274895	0	1.651244589098509	0.04336708166431608	1.303169852916993	4.601710181122137	2.446980441070183e-15	4.601710223158022	-2.279220010634929	-3.645150339874766	0.001299716595829306	1.225330686243328	0.1163149292813597	-0.2270901875174439	-1.804609622543907	1.196591533449603	-1.465140315366328	-2.450362060650022	-9.099480604188071e-15	0	0	-0.5149774773297751	-0.2404722576150291	0.8644842088591846	-0.4898841116694494	-9.099480604188071e-15	0	0
0.1338301540101398	1.144603065852435	-0.03367622056171301	1.157130834940119	1.779276607717571	-0.7284197573610365	-0.2136169998537052	-2.95576632011398	0.01816245666512386	4.700784418417951	6.099251562821232	-3.762005229956593e-15	6.099251373867322	-0.4387066781100921	0.2315203887861189	0	1.907153539648004	0.1225695267389462	1.729973108460283	5.149081791696216	-4.667370749259273e-15	5.149081834501822	-2.457519946862579	-4.190772666304293	0.001222225203073848	1.327904320695519	0.04643346493811319	-0.3279004121321815	-1.900925223559274	1.31349162645305	-1.567143495612577	-2.561642896045081	-1.057253603848008e-13	0	0	-0.3739222471560976	-0.5073383414855046	0.8796930366827918	-0.4731046771417862	-1.057253603848008e-13	0	0
0.1380195921846578	1.048771943994243	0.04227426131004575	1.251371889269615	1.757657172536623	-0.747549387682629	-0.2107705481813076	-2.663588450074823	0.1300550055110861	4.590659949931462	6.018561836694245	-3.751944622545855e-15	6.018561760221768	-0.4753093785505977	0.1432112369449248	0	2.11801383736673	0.1962088547421857	2.100317863016916	5.613333443818163	5.572029867115744e-16	5.613333441612792	-2.597521592502993	-4.651339007486856	0.001152715342444512	1.399838142108044	-0.01555383165314168	-0.4185980604760238	-1.981298719978575	1.415658179397044	-1.650176317575929	-2.661977890623668	1.18076590614837e-13	0	0	-0.2261063030392899	-0.7417448184210174	0.8963374632384611	-0.4514822064160117	1.18076590614837e-13	0	0
0.1418654673351004	0.9707480240190992	0.1079023741174586	1.326383145902772	1.735701058118378	-0.7605914257717867	-0.2088330318383038	-2.36195049241957	0.2296381308974077	4.47507080681781	5.965967559127429	-1.011549307698827e-14	5.965967711074206	-0.5023277850554367	0.03851123297917849	0	2.283150957775902	0.2623397452016096	2.411067898017549	5.994109462521769	-7.862757435798736e-15	5.994109378617749	-2.700166289537058	-5.026361815673114	0.001091212259719929	1.442542505142599	-0.06803574842613913	-0.4978973512964006	-2.045394021761104	1.50196406957914	-1.714209258145889	-2.750476300648134	-6.848397174740204e-14	0	0	-0.07730920141857958	-0.9417838887532237	0.9143365030493991	-0.4258804339535601	-6.848397174740204e-14	0	0
0.1453071283122631	0.9103749054737714	0.1624570610719293	1.383524386945871	1.714313822598781	-0.7683538252075561	-0.2076790693628869	-2.066134479687279	0.3157403378421598	4.360841306535788	5.934769604783484	2.197111638148597e-15	5.934769667350595	-0.5202990882661181	-0.07294473834434115	0	2.405320256235111	0.3196711391619554	2.663082979644937	6.295575365069437	4.196117590704625e-15	6.2955753073501	-2.769435059588768	-5.320715477938594	0.001037946777036365	1.459985191109205	-0.1104329612697588	-0.5651867930577715	-2.09403964928553	1.572375609761223	-1.760646615141024	-2.826626119809374	3.299755795378582e-14	0	0	0.06629574984306003	-1.107460539413339	0.933188318736802	-0.3977356403287656	3.299755795378582e-14	0	0
0.1482902993364854	0.8661449022606429	0.2060095491098866	1.425055557763264	1.694434205575542	-0.7719400216390221	-0.2071377507683266	-1.791050114697784	0.387761924475965	4.254189086764175	5.918369315392203	1.985970909968001e-14	5.918369242515451	-0.5306894804038788	-0.1819625350659098	0	2.490024094586752	0.3675291465687436	2.860255223220995	6.52534458721728	6.757148683863948e-15	6.525344632253169	-2.811410320027226	-5.543042746388443	0.0009935078000238519	1.458080343236393	-0.1430704664656952	-0.6204205669925337	-2.129002118576865	1.627738455210618	-1.791998269813124	-2.890225291960182	1.674894598646358e-13	0	0	0.198564334883862	-1.24026701341497	0.9520001328306873	-0.3689481045126314	1.674894598646358e-13	0	0
0.1507679370955254	0.8356252145377889	0.2392389442605978	1.4537241937393	1.676971758099845	-0.7726127632478502	-0.2070186071619961	-1.550203106204649	0.4455589113143844	4.160552317894338	5.911140843439543	-8.739862420473778e-15	5.911140781455977	-0.5354659444004847	-0.2804601701446906	0	2.544502152060569	0.4057394777821838	3.008323790452445	6.69308723755705	2.679058410145507e-14	6.69308734996436	-2.833187349920138	-5.703962676650058	0.0009578213978000266	1.443846424369635	-0.16692777404065	-0.6639576896844981	-2.152647398928159	1.669475308312134	-1.81143233727257	-2.94130138057867	-5.631374063085663e-14	0	0	0.3137717978401733	-1.342637475843597	0.9695972594618939	-0.3416969135542497	-5.631374063085663e-14	0	0
0.1527009768984096	0.815969619148718	0.2631630148674845	1.472348579915439	1.662747042639846	-0.7716425769899428	-0.2071360422841395	-1.354972358405313	0.4892920681927549	4.084470065972648	5.908855571359073	-3.020080556830149e-14	5.908855567546002	-0.5366989952783221	-0.3618589067964085	0	2.57656603685232	0.4344642917167621	3.113670966343511	6.809024387000344	-3.740693029786505e-14	6.809024498238834	-2.841831809615549	-5.814357203298805	0.0009304817542090059	1.424470952243825	-0.183328435563277	-0.6963807892079431	-2.167549116045016	1.699253790335601	-1.822284825221694	-2.980026009326163	-1.000801778657689e-13	0	0	0.4069366551980161	-1.417378594748039	0.9846878901277546	-0.3182034091269033	-1.000801778657689e-13	0	0
0.1540589714577417	0.8044297685964377	0.2788657518204677	1.483448352965906	1.652439224297592	-0.7701615922743305	-0.2073292162088681	-1.214193587986396	0.5192691627431735	4.029494489600464	5.908705800967401	7.634843600240056e-14	5.908705839386706	-0.5362426980603817	-0.4212283405325423	0	2.59345495700734	0.454029327742875	3.182249665600924	6.88250374540824	6.241131839252927e-14	6.882503822399348	-2.843513649714611	-5.88391736782639	0.0009114702707623234	1.406415058579133	-0.1936288205161328	-0.7183227077611813	-2.176103196109129	1.718675149962694	-1.827596702862688	-3.006630865500664	4.199334027357884e-13	0	0	0.4740633331573608	-1.467154812138673	0.9960502456190781	-0.3004773417453737	4.199334027357884e-13	0	0
0.1548208116596206	0.7987969485376299	0.2872629386471083	1.488954120789745	1.646542900800867	-0.7690382051486999	-0.2074775724886153	-1.133963248864129	0.5358087261849069	3.998115799266166	5.909066217292688	2.627234902426193e-14	5.909066275358147	-0.5355069709805613	-0.4552715806711069	0	2.600854286499961	0.464772481352458	3.218740317244469	6.920814448916196	1.771359658100933e-14	6.920814498281851	-2.84287103330135	-5.920045286298151	0.0009008894237044935	1.394654509752084	-0.1989516260869716	-0.7303240524960632	-2.180197035367551	1.729020366704914	-1.829729201827926	-3.021336826098373	-4.37508211621957e-13	0	0	0.5123157193567425	-1.494083868150985	1.002711273369104	-0.2900786219598485	-4.37508211621957e-13	0	0
0.155	0.7975611047590576	0.2891942317642129	1.490173598946756	1.64514420819362	-0.7687432281316284	-0.2075166369236868	-1.114965400952384	0.5396694527030579	3.990680116501983	5.909192376860847	-1.329874395256851e-14	5.909192438918566	-0.5352838060110467	-0.4633524176989403	0	2.602375774689396	0.4672743871738552	3.227115073948074	6.929519547515525	-1.465720960739125e-14	6.929519589891409	-2.842554493486601	-5.928240219734834	0.0008984115307744866	1.391716674254646	-0.2001551824996531	-0.7331143102190191	-2.181085569923519	1.731395685952708	-1.830141637156654	-3.024772659056247	-6.782807378157546e-13	0	0	0.5213741471783779	-1.500313311200468	1.004308598447943	-0.2875845948358982	-6.782807378157546e-13	0	0
0.1554542507337262	0.7945812969918224	0.2940147334804569	1.493136022532826	1.641578250062008	-0.7679427683906848	-0.207622776021531	-1.066591470124665	0.5494058450331905	3.971736826365539	5.909577508903175	-9.007143306406078e-14	5.909577579848223	-0.5346325732424495	-0.4839601107361716	0	2.605857167391402	0.4735736660031008	3.247989534469556	6.951063890954875	-7.4240177906419e-14	6.951063915311265	-2.841470164709802	-5.948498480982306	0.0008921512165871697	1.383974756954182	-0.2031228726771475	-0.7401319237196418	-2.183210421820833	1.737317929220326	-1.831034436486565	-3.03344310525963	-9.112963695145969e-13	0	0	0.5444414798886301	-1.515926687261359	1.008410845758948	-0.2811790829174325	-9.112963695145969e-13	0	0
0.156515784775164	0.7884819458408278	0.3048531564972772	1.499336534491091	1.633132105821035	-0.7657762584927507	-0.2079105008460372	-0.9523787234779155	0.5718719724765493	3.926951091301097	5.91080597674433	-2.466009511583614e-14	5.910806060746231	-0.5326330804154576	-0.5327792075997168	0	2.61187794927678	0.4880488777716976	3.294774447341251	6.998472113195493	-2.830363915019396e-14	6.998472097130454	-2.83736297609171	-5.992953344877048	0.0008776580821725377	1.364227715908792	-0.2095865120311284	-0.7562169838547956	-2.187457412382287	1.750599340402768	-1.832262595810425	-3.053482654519246	-1.760379661151628e-13	0	0	0.598922258349552	-1.551412534286321	1.018298189310402	-0.2657404247996116	-1.760379661151628e-13	0	0
0.1581644464118399	0.7814476749968685	0.3204779113621576	1.50695747314375	1.619701673575645	-0.7615831848298673	-0.2084671592024395	-0.7718882574676443	0.6059523474228328	3.85598539332069	5.91343125910326	3.432041307850132e-14	5.913431339940169	-0.5282059835511201	-0.6103134818384477	0	2.615286504885397	0.5098279405510037	3.361865129423315	7.063887829055089	3.609133506555957e-14	7.063887768776691	-2.826636518781978	-6.05398920424317	0.0008555944679317598	1.328919920061755	-0.218290022426945	-0.7803150270264865	-2.192034051071996	1.769662702177492	-1.831767635371017	-3.083982376389533	3.536832595767012e-13	0	0	0.6851031336038392	-1.603735721237448	1.034513556466825	-0.2404310691943778	3.536832595767012e-13	0	0
0.1603741041940474	0.7767788055119382	0.3390489748791558	1.513336561546722	1.601107179703931	-0.7543654345444986	-0.209421072648448	-0.5244724109982886	0.6500381268410903	3.758259701955808	5.917720584534846	-1.117058268024036e-14	5.917720621213695	-0.5197746842364928	-0.7171285784278667	0	2.608329380053773	0.5376206066073854	3.441096856123935	7.135752141707411	-2.634665809888475e-14	7.135752078854977	-2.804051738286539	-6.120570801516898	0.0008269389738390979	1.272634677955598	-0.2273383646286997	-0.810898555632156	-2.194249915293303	1.792194435090618	-1.82647204629265	-3.123651646877672	-2.88958644134842e-13	0	0	0.803507059728945	-1.668521139591468	1.057955346794816	-0.2038883072237861	-2.88958644134842e-13	0	0
0.1631098871668135	0.7787460864715852	0.3581602187070309	1.515167948657624	1.577150378954659	-0.7428621809802288	-0.2109271310529554	-0.2103391964538469	0.7020139254447412	3.633269921712566	5.922924521365735	1.587275533352184e-14	5.922924475443647	-0.5054539932105341	-0.8531600266671319	0	2.581085947339223	0.569703067005803	3.522168031808271	7.199405814781844	1.374388378695372e-14	7.199405829994308	-2.763321596679154	-6.179045190272645	0.0007927282239177719	1.188532772985777	-0.2342630480493289	-0.8459920725008712	-2.190655924276955	1.815247811142126	-1.812488735118853	-3.170806106622952	1.815177071733568e-13	0	0	0.954491813412031	-1.74024809711353	1.089830007367945	-0.1543169646591298	1.815177071733568e-13	0	0
0.1663286436775879	0.7923078107206726	0.3749781647254521	1.508814550957409	1.54765704226141	-0.7256523408971129	-0.2131475813123394	0.1685824122665219	0.7593509268324086	3.48079096886662	5.926453951954329	-6.901571219950995e-15	5.926453847251119	-0.4833159879828783	-1.017089163094866	0	2.522187838462582	0.6039846533110413	3.593451907528793	7.238169283848583	-4.957489421015014e-15	7.238169374252817	-2.697927193781668	-6.214421259064221	0.0007537949141298962	1.068940485949094	-0.2361806173815164	-0.8832850634959974	-2.17728462771836	1.835462059309862	-1.785446033084229	-3.223429678889417	-1.552282871203247e-13	0	0	1.137948278374342	-1.812684779848678	1.131596941944247	-0.08957846771503457	-1.552282871203247e-13	0	0
0.1699796094921079	0.8226868194892788	0.3864592872035848	1.490701013772886	1.512525656277721	-0.7012907273132096	-0.216228557695736	0.6077957914904665	0.819250790757196	3.301058621570975	5.923141303649134	-1.059117498684437e-14	5.923141253270473	-0.4517243264007041	-1.205769784940077	0	2.419828513280718	0.6381281927548587	3.643032911349419	7.23474947474192	-3.417610331356857e-15	7.234749417410319	-2.602114269774618	-6.211911473942639	0.0007110347247936174	0.9061507001325084	-0.2300395797719865	-0.920287854764254	-2.149986401468929	1.849359765376231	-1.740925755109987	-3.279251063231105	1.687569570999904e-13	0	0	1.352980972585067	-1.879449919792282	1.184861321739465	-0.007331927361583449	1.687569570999904e-13	0	0
0.17400520557877	0.8748110111831358	0.3896431840834688	1.457754817622203	1.471780473914948	-0.6684716127889707	-0.2202763559354802	1.099574696026378	0.8788395239697621	3.094913635770264	5.904810130752841	-9.956222453376638e-15	5.904810224841087	-0.4097002979471175	-1.413840040429486	0	2.263039237427298	0.6697261665382552	3.659882124139097	7.172902407003258	-9.015249699830706e-15	7.172902330398837	-2.471958138883172	-6.158576284650913	0.0006667928300518069	0.6934098846070877	-0.2129507766404403	-0.9545209493485663	-2.104853401369806	1.853705168746053	-1.674994178727666	-3.335832522604525	-1.585805368970514e-14	0	0	1.597614388204941	-1.934658871988657	1.251203647259684	0.094762905219726	-1.585805368970514e-14	0	0
0.1783419453248002	0.9526594310700175	0.3819972860081941	1.407839637254279	1.425621997680518	-0.6262110644292539	-0.2253344155824613	1.632669106229762	0.9353981599260135	2.863903809187391	5.860381918841254	1.151416884540805e-14	5.860382020148141	-0.3572605499265693	-1.633652822120296	0	2.043130175227761	0.6965203007791093	3.6350306571201	7.039205540607285	1.305300934850355e-14	7.039205573081682	-2.306322968634248	-6.044849220139962	0.0006220873644055422	0.4260056336777721	-0.1825698627882321	-0.9837178303001953	-2.038699135592215	1.845884145714716	-1.584774176824179	-3.390669711771196	1.201141133923478e-14	0	0	1.868580829110572	-1.973577912835776	1.331948880546939	0.21877985750164	1.201141133923478e-14	0	0
0.1829214354539589	1.058599918752022	0.3617650456037497	1.340108314478335	1.374464916452371	-0.5740232676210888	-0.2313659750061531	2.192527155898577	0.9865999759642283	2.610348570069235	5.776677980201472	3.666287341045194e-15	5.776677904723407	-0.2956559759861552	-1.855616287176101	0	1.755109029046384	0.7166379557563849	3.562568232631506	6.82471519491947	5.151036772479271e-15	6.824715095335073	-2.107510393648094	-5.865706637112211	0.0005774361094429302	0.1023072334553189	-0.1374732563579689	-1.006012408169962	-1.949534201799374	1.824247009392642	-1.468975586748948	-3.441305298774984	4.061694149473366e-14	0	0	2.161244682193806	-1.993180890057295	1.42789752682263	0.366212889194975	4.061694149473366e-14	0	0
0.1876714545037473	1.1928376164042	0.3282543541020826	1.255202602177025	1.31896269672487	-0.512059988719564	-0.2382505359602708	2.762098401116437	1.030714399020728	2.337372441692359	5.639936066961177	-2.705204232359607e-15	5.639935992837862	-0.2274439780968971	-2.068961702860572	0	1.398830459024243	0.7288068254644521	3.440304058989339	6.526247179447974	-1.111110185481643e-14	6.526247230869231	-1.881415500472083	-5.621290297269995	0.0005352196033746032	-0.2754281343790831	-0.07745363476880981	-1.020081530714033	-1.836960177199273	1.788348655191872	-1.328282463397636	-3.485459575860352	-5.721378959439365e-14	0	0	2.4697022248514	-1.992497796979836	1.539059646056008	0.5376458027756311	-5.721378959439365e-14	0	0
0.1925170917444269	1.353102217156885	0.2820017534195156	1.155248309810973	1.260010727282884	-0.4411901048625186	-0.2457889087319239	3.32316012194107	1.066736926925594	2.048908936018452	5.437874766566053	5.198683405315102e-15	5.437874886876751	-0.1563452927522006	-2.262856747073451	0	0.9796226394486534	0.7325064947851443	3.269982510852819	6.147041381374491	5.983177109475086e-15	6.147041454867801	-1.637090905485943	-5.316889781048989	0.0004954090376370389	-0.7006722392562632	-0.003663862542262752	-1.025221906405731	-1.702400213075316	1.739031247161848	-1.165501354496212	-3.521176716043195	-4.283302161506507e-14	0	0	2.787066886815311	-1.97267050011128	1.66444461148152	0.7324474134806404	-4.283302161506507e-14	0	0
0.1973819285398158	1.534673420268164	0.2247652566544467	1.043637555229904	1.198721248574495	-0.3629909743449841	-0.2537225288673893	3.857975715696302	1.094417030777935	1.749665595838202	5.161961101511425	-3.614155548239122e-15	5.161961132327582	-0.08687186226749508	-2.427685395355654	0	0.5082065752203431	0.7280232577013568	3.057031959324623	5.696663560412639	9.36030387243368e-16	5.696663494411267	-1.385746980555329	-4.962313864849182	0.0004589638733038573	-1.162801199553353	0.08143672588701163	-1.021357360934678	-1.549104691909392	1.678324558087206	-0.9854130954586749	-3.546980649790427	2.428298000193777e-14	0	0	3.105908939973975	-1.93668682498183	1.80195774515507	0.9485448644639176	2.428298000193777e-14	0	0
0.2021892435043931	1.730781340803436	0.1593321078891053	0.9246385369398346	1.136378862929582	-0.2796458692805165	-0.2617628461912805	4.350996149086341	1.114181932864488	1.445035736404926	4.809428496288481	-1.544616022963859e-15	4.809428396978405	-0.02375799356188634	-2.556253851655772	0	-0.0001428235903547063	0.7163900987243005	2.809913845699754	5.1901438619289	-4.632419131524815e-15	5.190143876896991	-1.139352360942357	-4.570788637577357	0.000426952498995419	-1.647861955024265	0.1743378222300837	-1.008989431578152	-1.381910672467416	1.609179968428325	-0.7943304927342542	-3.562021664774964	9.360789234487353e-14	0	0	3.418779898757692	-1.888840904211391	1.948439684006371	1.182322694196481	9.360789234487353e-14	0	0
0.2068632224455918	1.933332321058151	0.08916994190131956	0.8029127131903344	1.074374928509285	-0.1937640480751214	-0.2696192892258538	4.790288904358643	1.126977326338383	1.140947542856485	4.384606249683241	2.421443137466795e-15	4.384606322878351	0.02871968458382958	-2.644681759878636	0	-0.5270762764335492	0.6992192639133722	2.539204458505346	4.646503284510177	6.807345013297018e-15	4.646503225833007	-0.9091020425557982	-4.157590084750401	0.0003991999775789051	-2.139833002995272	0.2708923917300131	-0.9891135721595185	-1.206786351038626	1.535092198646014	-0.599433632503613	-3.566187509772227	1.079216045586036e-13	0	0	3.718728931788089	-1.834032590078494	2.099857016080665	1.428679275345298	1.079216045586036e-13	0	0
0.2113301540101398	2.133831229717835	0.0179870765217104	0.6830350926576821	1.014130513852711	-0.1081496719404955	-0.2770310651130343	5.16843641252277	1.134064968714307	0.8436532743989346	3.89925927893816	-8.584309178079639e-16	3.899259359393055	0.0674044215734603	-2.692805257878736	0	-1.05302780916362	0.6784567779821218	2.256569099629079	4.086933609717454	-1.783324537049452e-15	4.08693358947405	-0.7040551840486796	-3.738638459849312	0.0003758456101828531	-2.622165758667966	0.3668092396976637	-0.9631220311884409	-1.03024102763939	1.459685399089393	-0.4080084484997971	-3.560151465249924	-2.83074533797563e-14	0	0	3.999721136921491	-1.777055366523844	2.251620054804143	1.681247979230013	-2.83074533797563e-14	0	0
0.2155195921846577	2.324320728182804	-0.0507114447893777	0.5691012109225877	0.9570183480187198	-0.02556115296320953	-0.2837876195459687	5.48277043090604	1.136821530763004	0.5594783252253501	3.371859681717511	-8.585403021247868e-15	3.371859702027666	0.09076196753997305	-2.704034511627173	0	-1.559106189688936	0.6561089887098047	1.973781824295365	3.532940876886581	-3.776747746570285e-15	3.532940830897985	-0.5301976371038827	-3.329254031552199	0.0003565731681432149	-3.079326320487709	0.45812740014738	-0.9327056361270494	-0.8587085031093391	1.386340865997739	-0.2267331600336409	-3.545336798396918	-2.19581808496218e-13	0	0	4.256896670251041	-1.722014796828383	2.398973385577908	1.932758695264067	-2.19581808496218e-13	0	0
0.2193654673351004	2.498159158879063	-0.1139876476640612	0.4644724315428048	0.9042942069551716	0.05149486950664141	-0.2897409094778141	5.734958294165172	1.136573175497419	0.2945607107202653	2.825952359504332	1.014551910084799e-14	2.825952396589544	0.09911051743490647	-2.684732896697697	0	-2.028687887188406	0.6339948139439733	1.701908102032212	3.004731251873578	3.521195151970878e-16	3.004731200106466	-0.390071555059604	-2.943212407096679	0.0003416339546248145	-3.498063909772615	0.5415856457928085	-0.8997564842793779	-0.6980125644542984	1.317924472416704	-0.06113596498890035	-3.523796289154034	1.863076832486551e-13	0	0	4.486648812976632	-1.671970070278818	2.537387929094002	2.175490302708763	1.863076832486551e-13	0	0
0.2228071283122631	2.650502888404758	-0.1696935556766157	0.3716726253319286	0.8570464225466935	0.1209115110164215	-0.294808242424773	5.930085823707914	1.134484386922742	0.05461303357666168	2.287953721513972	-9.611705315302988e-15	2.287953714021973	0.0945296418128144	-2.643278194781706	0	-2.448469684758177	0.6135688751681206	1.450720330481772	2.520032304968534	-5.020843150189708e-15	2.520032383166859	-0.2829773435490194	-2.592161568701056	0.0003301926624366985	-3.868205199550128	0.6148308305763914	-0.8662682453071489	-0.5529958982535221	1.256641473869686	0.08470015047189818	-3.498022168814299	-4.74432780448787e-13	0	0	4.686543222384324	-1.628826561215918	2.662883077850668	2.401749317189273	-4.74432780448787e-13	0	0
0.2257902993364854	2.778437609547888	-0.2165306421361688	0.2924167597620354	0.8161661133493421	0.1810527214393723	-0.2989641134870639	6.075454797824441	1.13150239344895	-0.1552679918787513	1.784794912079225	2.768682104595319e-14	1.784794858793731	0.08048258350071782	-2.589001438859539	0	-2.808878913601709	0.5958392294883618	1.228365967635979	2.093429210146382	2.756431187096201e-14	2.093429246355503	-0.2056337963711122	-2.285392037754191	0.0003212223379152246	-4.182893165097344	0.6764507947206672	-0.8342320445915092	-0.4273478410026279	1.204015511124416	0.2081733559263747	-3.470716066311209	5.060539676724971e-13	0	0	4.855126678306768	-1.593443308844781	2.772230068652193	2.604311091378287	5.060539676724971e-13	0	0
0.2282679370955254	2.880780638343929	-0.2539597500570263	0.2277331481557157	0.7823417141672041	0.2307495241687343	-0.3022275223913217	6.179320469533321	1.128347224209598	-0.3307326808432143	1.341778944650132	-3.777765800018824e-14	1.341778878324072	0.06124489290051115	-2.53117966220483	0	-3.103878687396531	0.5813790366788799	1.041266970543743	1.736191539032424	-2.975894735986681e-14	1.736191467732768	-0.1531164622764828	-2.02989875925546	0.0003149126408317547	-4.438306712065854	0.7258547387683916	-0.8055298714749808	-0.3236226737021655	1.160966355716804	0.3079787587842033	-3.444552545763002	-3.297872914081852e-13	0	0	4.991681498813011	-1.565881815120219	2.863018512901394	2.776775258568027	-3.297872914081852e-13	0	0
0.2302009768984097	2.957642084484231	-0.2820056603601742	0.1781352327360559	0.7560736408461861	0.2692420071223945	-0.3046446127992859	6.249748515951908	1.12553189258421	-0.4682519887313102	0.9808915102006934	2.600902394111903e-14	0.9808914588235975	0.04126291036078233	-2.47819901381509	0	-3.330321453837759	0.5704103273385754	0.8941992966462602	1.456483259985059	1.604715734626274e-14	1.456483141099396	-0.1198804899964074	-1.830642371067359	0.0003109218803338903	-4.63299869540269	0.7630518698188394	-0.7818322261041226	-0.2434023656707855	1.127948136522757	0.38377856989367	-3.421964230000401	7.177271375101768e-13	0	0	5.095976317993061	-1.545711869232111	2.933601870963533	2.913811915525917	7.177271375101768e-13	0	0
0.2315589714577417	3.009863506425101	-0.3010111941747088	0.1438033621965469	0.7377004718470913	0.2960873449276037	-0.3062710333056289	6.293697996867341	1.123397543090112	-0.5651454567445547	0.7196475432601186	-5.592392225586501e-14	0.7196475126103061	0.02454976393763422	-2.436937810408543	0	-3.487057453221633	0.5629274399431667	0.7904833564062212	1.259806926155963	-5.731971736048597e-14	1.259806829500444	-0.1007110575432106	-1.690909564549272	0.000308533674906436	-4.76703661997314	0.7883865790534381	-0.7645072248218201	-0.1875404067851473	1.105109680962465	0.4358117579609756	-3.404966583909502	-1.68281349371193e-12	0	0	5.168048172413523	-1.53230578648027	2.982961189413445	3.011302689842035	-1.68281349371193e-12	0	0
0.2323208116596206	3.038465989080753	-0.3113988357923022	0.1247414703878493	0.7274265010039338	0.3110643676477834	-0.3071566094251664	6.316369160053608	1.1221506678214	-0.6195946117966969	0.5703794678600485	-1.381437289846713e-14	0.5703794510159987	0.01419214554817759	-2.412353964320068	0	-3.57404039760458	0.5588246759492065	0.7321983714895579	1.149493590810805	-2.261629698239318e-14	1.149493531428355	-0.09149448937668886	-1.612659875065365	0.0003073145414412015	-4.841159465686405	0.8022892072194342	-0.7545449898979275	-0.1564114042473841	1.092440804419954	0.4645297398812582	-3.395026411143802	-4.434388796868945e-13	0	0	5.208044008631315	-1.525075340991646	3.010545454182274	3.066414902733335	-4.434388796868945e-13	0	0
0.2325	3.045117903887335	-0.3138120820335951	0.1202795153298532	0.7250137632488625	0.3145776059499814	-0.307362041942405	6.321495219450757	1.121852636895821	-0.6324102080430909	0.534992976280161	5.301149662683264e-15	0.5349929628021499	0.01165275621559434	-2.406423325821522	0	-3.594394529620782	0.5578704755537971	0.718481623564138	1.123554854741851	-6.940523582464792e-16	1.123554806481551	-0.08948870373768672	-1.594272880906372	0.0003070391377546814	-4.858476558709261	0.8055254916582204	-0.7521765816297434	-0.1491134470105899	1.089476844880165	0.4712330714579113	-3.392646442061911	2.605130367335385e-13	0	0	5.217405403257515	-1.523405807303359	3.017020824254123	3.079420050132127	2.605130367335385e-13	0	0
0.2329542507337262	3.061848794526214	-0.3198772831186723	0.109005703498029	0.7189040207577568	0.3234669911691108	-0.3078778879450631	6.334139038626001	1.121089407323904	-0.6649128480278593	0.4448175682989559	1.765245779811626e-14	0.4448175634291839	0.005038431684665069	-2.39113731942255	0	-3.645808609825161	0.5554708168650098	0.6836983016147996	1.057816946254678	2.548596054451036e-14	1.057816929542962	-0.08468177494280242	-1.547694240770875	0.000306359601169321	-4.902171584531143	0.8136708438991291	-0.7461295969797312	-0.1306551553781918	1.081990902123104	0.4881368989899018	-3.386541706174597	1.102223552104745e-12	0	0	5.24105860776787	-1.519227285281798	3.033413215817685	3.112459851407826	1.102223552104745e-12	0	0
0.234015784775164	3.100187580941032	-0.333748491589254	0.08287463834944184	0.7046652558563005	0.3441412858516458	-0.3090553939811878	6.361731444910117	1.119265502004171	-0.7409444386596316	0.2315018237496868	-4.220440912623397e-15	0.2315018386127679	-0.0114117664800335	-2.354020680795754	0	-3.764885043900766	0.5499767748273128	0.6023715019687271	0.9043306695400711	-3.79607978801899e-15	0.9043307392866315	-0.07501099737058738	-1.439051421353155	0.0003048729682391704	-5.003103865816248	0.8323681951459385	-0.7317590464314914	-0.08776973314149861	1.064658290840188	0.527126231290524	-3.371878149360372	-1.324681706505793e-13	0	0	5.295894186340568	-1.509768303447912	3.071581726903383	3.19005865331714	-1.324681706505793e-13	0	0
0.2356644464118399	3.157513605687382	-0.3544060075878419	0.04291245189229041	0.6826687867877856	0.3759487187773122	-0.3108046243760828	6.399202362386905	1.116334935345173	-0.8592167748115292	-0.1067776958327089	3.091192660634471e-14	-0.1067776565400524	-0.03973737989747757	-2.292566121453653	0	-3.946635678310228	0.5417897204606812	0.4760395456417771	0.6665121261963749	2.246361500947816e-14	0.666512314627722	-0.06437147082875397	-1.27099640369044	0.0003028539669569881	-5.156414744949571	0.8604254685560737	-0.7087798123008303	-0.02192273247068628	1.038214928214791	0.5861896859677559	-3.348010761909184	2.75017498217065e-13	0	0	5.379834081744428	-1.495949218175652	3.130422611544108	3.311605364143606	2.75017498217065e-13	0	0
0.2378741041940474	3.229798959259937	-0.3802712036747615	-0.009388813287332229	0.6534394911643183	0.417927133544391	-0.3129919959587965	6.439310670344458	1.112260803534861	-1.018020568332276	-0.5728527527002428	1.378670440297201e-14	-0.5728527035312175	-0.08303873200171685	-2.203138674975896	0	-4.183546550330927	0.5315629412386448	0.3069470977046206	0.3493732198210159	1.366235978659634e-14	0.3493733847538198	-0.05856893910798838	-1.047351331484734	0.0003007789628916342	-5.354809258350048	0.896030442685821	-0.6767350550664891	0.06469432357339483	1.003760951516748	0.662317977750549	-3.313968833125529	3.843355246521184e-13	0	0	5.489990022794506	-1.479146704815073	3.208291597891264	3.476320435851974	3.843355246521184e-13	0	0
0.2406098871668135	3.311432245485856	-0.4091395465204878	-0.0720036300310105	0.6177090349557965	0.4687064172593812	-0.3154405028550378	6.473319767154782	1.107065805031985	-1.214934753669761	-1.168586656354502	-1.123973748121658e-14	-1.168586626804623	-0.1451487005919836	-2.081691549189582	0	-4.465008708814796	0.5202603063918273	0.09852394275231785	-0.03961854195631798	1.802822148361325e-15	-0.03961868455197927	-0.06494960748385897	-0.7736050383547276	0.0002993111223462614	-5.588154826314038	0.9366870642709773	-0.6351148231473571	0.1689478136542722	0.9628269371792009	0.7513806599537144	-3.268643594289721	-2.319585023342122e-13	0	0	5.622644952996	-1.461155869660192	3.302792437058326	3.682786190279423	-2.319585023342122e-13	0	0
0.2438286436775879	3.395263279062553	-0.4382060524408948	-0.14242184148238	0.5764226829177868	0.526488621318953	-0.3179370755412948	6.492006182635097	1.100873191223627	-1.446758593521532	-1.893183423102485	-8.090236661018554e-15	-1.893183385424096	-0.2301877550369542	-1.92453620724516	0	-4.777264949014643	0.5091726798093352	-0.1443959209575893	-0.4901980328106914	-5.49741836263056e-15	-0.4901981829905073	-0.09176830437459772	-0.4570243278413026	0.0002990913091242123	-5.843544349720178	0.97926396874282	-0.5834545740187281	0.2867176881685828	0.9173540413318775	0.8482001567326465	-3.210976068986428	-5.893565125934956e-14	0	0	5.773455692272496	-1.444045006012493	3.410701030080374	3.92866294667289	-5.893565125934956e-14	0	0
0.2474796094921079	3.472843099834298	-0.4641806536169572	-0.2177554011648594	0.5307316889778211	0.5890663290819986	-0.3202443318171643	6.48683574962842	1.093931092106611	-1.709471100143916	-2.74140490312428	-3.174116788049669e-16	-2.741404894267435	-0.3419500391743035	-1.729178701863845	0	-5.10369504125212	0.4998799741798548	-0.4154597638850374	-0.98919234456494	-5.530157715507826e-15	-0.9891921787302285	-0.1473182180201375	-0.1066094690660721	0.0003007188261847808	-6.105668987117598	1.020135887754067	-0.5214467517639962	0.4129548773807307	0.8696160411132742	0.9467602764277007	-3.140168133261785	7.638792278744674e-14	0	0	5.937710502555333	-1.429914509442702	3.527963168472406	4.210420896001843	7.638792278744674e-14	0	0
0.25150520557877	3.534919084131298	-0.4835171914619985	-0.2949049020341971	0.4819682447024847	0.6538950559628076	-0.3221175213708495	6.451168848125342	1.086612764454129	-1.998229500369192	-3.701978023381272	3.61399310526657e-16	-3.701978105021837	-0.4831554516461131	-1.495103230470555	0	-5.425555593514135	0.4941385442779472	-0.7068422654582063	-1.520752850816511	-6.526355527637679e-15	-1.520752879306332	-0.2388720756141848	0.2671506324935425	0.0003048952485552063	-6.357592484110858	1.055435909312364	-0.4490570338785316	0.541877082226376	0.8220741373930534	1.040574423482579	-3.055891704168591	-4.953063887297797e-14	0	0	6.11061333997429	-1.420573369991677	3.649805903222752	4.523138359381288	-4.953063887297797e-14	0	0
0.2558419453248002	3.572195618569188	-0.4927532879759338	-0.3707734218328543	0.4315994336224827	0.7182281682759605	-0.3233257043698513	6.381307499944353	1.079391641546472	-2.307419778639997	-4.75654983306973	6.978982993210874e-15	-4.756549783285523	-0.6546714921610925	-1.224362063468494	0	-5.723212638793848	0.4936915178744117	-1.009490364121606	-2.066993504701232	8.561481400906958e-15	-2.066993473722279	-0.3715615218294966	0.6527354739233344	0.0003122138126474732	-6.581947479511428	1.081409505406198	-0.3666318260780851	0.6673152910087587	0.7771724771995935	1.12320349767406	-2.958462820748557	-1.974413913676805e-15	0	0	6.287558237492341	-1.417184979956409	3.770986711483713	4.860425436852011	-1.974413913676805e-15	0	0
0.2604214354539589	3.576304298420936	-0.4889250980542718	-0.4425013760196219	0.3811532108408038	0.7793072558117067	-0.3236730373274285	6.277175664509728	1.072795998172307	-2.630770135802731	-5.879560715325579	-1.112837098631386e-15	-5.879560767450269	-0.8548717221457951	-0.921835492993148	0	-5.977796166291162	0.5000232929398218	-1.313578206344739	-2.609031261862822	-6.430488474246695e-15	-2.609031334096495	-0.5473889342390061	1.038235194625323	0.0003229773694528742	-6.762476774771145	1.094829672810305	-0.2749799761741861	0.7831901072838952	0.7371012256163685	1.188871785359994	-2.848946055250962	-2.615189753992794e-14	0	0	6.464354925007486	-1.419966923585017	3.886176129476708	5.214529317930977	-2.615189753992794e-14	0	0
0.2651714545037473	3.540843878651633	-0.4699888962078155	-0.5076825860984364	0.332133746818396	0.8345822324026765	-0.3230190619324758	6.142488679763263	1.067353657903247	-2.961503256927219	-7.039156460007055	3.278589785762366e-15	-7.039156532647461	-1.079293622100012	-0.59510702130102	0	-6.17304418951977	0.5141011584729258	-1.60911245958254	-3.128282338385203	-4.278736273631882e-15	-3.12828238017466	-0.7645604345707488	1.412078238388057	0.0003378353431946088	-6.885701101472582	1.093401371720337	-0.1754128081297765	0.8840467129890178	0.7035684914564194	1.233084424327237	-2.72916505916913	-3.003273144933344e-14	0	0	6.637365386866779	-1.428024637118251	3.990419291976463	5.576622239556467	-3.003273144933344e-14	0	0
0.2700170917444269	3.462324031620681	-0.4351595479474165	-0.5645388392062058	0.2859174764236095	0.8819456731359974	-0.3212943981754371	5.984275767767015	1.063532226213011	-3.292584842778201	-8.199473386272246	6.037043163804221e-15	-8.199473443202049	-1.32081580944971	-0.253875308812589	0	-6.297120310554329	0.5361727206327837	-1.886697593193775	-3.607971397183357	3.699070869740868e-15	-3.607971323223051	-1.017386834724912	1.763829921098791	0.0003566745301837479	-6.942493392889991	1.076077556101291	-0.06972458787851132	0.9655941284838431	0.6776269286456051	1.25314459830118	-2.601607158778423	8.325075589081351e-14	0	0	6.80356698251694	-1.439426220271601	4.079627578841516	5.937329730653811	8.325075589081351e-14	0	0
0.2748819285398158	3.340770688073991	-0.385091800878225	-0.6119980223609138	0.2436706446826647	0.9199046038794194	-0.3185089037766809	5.811972330279518	1.061690873186102	-3.616905079760379	-9.323274814049	-1.295927773813931e-14	-9.323274819783434	-1.570219411501593	0.09083247426361185	0	-6.343870620346851	0.5656557251568404	-2.138175612105536	-4.034318848461219	-6.769827757804225e-15	-4.034318870642648	-1.296657683527622	2.084764031458683	0.0003793441115311362	-6.929112940386862	1.043205476669935	0.0398778730438583	1.025077969808801	0.659589785742582	1.248442894958945	-2.469251658862333	-8.806163650773915e-14	0	0	6.960490596440438	-1.451440164100709	4.150939093867104	6.287274063609627	-8.806163650773915e-14	0	0
0.2796892435043931	3.179959059486225	-0.3218373283853413	-0.6497382502425042	0.2062446331869286	0.947749223248576	-0.3147534763654949	5.635885334201363	1.062025327920066	-3.927756220502745	-10.37633413823284	1.891139181420406e-15	-10.37633404217096	-1.817467552997827	0.4279403158129263	0	-6.313739706581808	0.6012044826151413	-2.357492501763988	-4.397965132729033	2.334700362765378e-15	-4.397965163166412	-1.590855299020356	2.368606192345409	0.0004048626435492869	-6.847822167644555	0.9964918265841883	0.1509162679396565	1.061604151122074	0.6490566878532155	1.220513089877439	-2.335329539462077	-1.19961014492591e-13	0	0	7.106226679076145	-1.461122256349878	4.203044692698175	6.617956932927797	-1.19961014492591e-13	0	0
0.2843632224455918	2.986961666831607	-0.2486168683671541	-0.6780440633456326	0.1741909026897978	0.9654869162478451	-0.3101830244307356	5.466162851897726	1.064560051904129	-4.21876145325836	-11.32876636562638	-2.368562557520577e-15	-11.32876646713945	-2.052516266772679	0.7469231736672142	0	-6.213105046975674	0.6408380184771173	-2.540665120055507	-4.693748784061701	9.767251088764666e-15	-4.693748827313487	-1.887085826717943	2.61131340941593	0.000433417100186711	-6.706181715203164	0.9387410532416163	0.2607672211123686	1.075946423453805	0.6450338759237912	1.17271352607595	-2.203121150179694	1.137562425869301e-13	0	0	7.239184186729184	-1.465624408794106	4.23604925670782	6.921950793009176	1.137562425869301e-13	0	0
0.2888301540101398	2.771609369377905	-0.1693765566169871	-0.6978331172634757	0.1476219921420754	0.9739875212700384	-0.3050193190113866	5.310742164710881	1.069087826111651	-4.484991301031665	-12.16156040077884	-2.297729883506802e-15	-12.16156047584898	-2.267417025677626	1.039641735271775	0	-6.054380701330282	0.6823253350115133	-2.686945788213864	-4.922389029313744	4.690957099913586e-16	-4.922388938503145	-2.173444880749178	2.812140767467732	0.0004642066235459708	-6.516782649539557	0.8735393801266802	0.3668863612826243	1.070751841231145	0.6461372145942266	1.109866507295029	-2.075700603291776	6.723435650666732e-14	0	0	7.358384263400803	-1.463205435653806	4.251693494920463	7.194245368257515	6.723435650666732e-14	0	0
0.2930195921846577	2.545001239784999	-0.08837215397377191	-0.7102401446536923	0.126456125334726	0.9745024464298725	-0.2995024845113146	5.175909291457	1.075262851361906	-4.721915217612889	-12.86121884725883	-8.26920420308935e-16	-12.86121882725245	-2.455622744035044	1.299338113606268	0	-5.85271809979759	0.7233164349568939	-2.797066546646926	-5.087247418475185	-3.402400879959386e-15	-5.087247490971132	-2.438796204988341	2.971709810278738	0.0004953732315102597	-6.294439032053685	0.8047415539599528	0.4668465461901071	1.049480291154734	0.6508050590607701	1.037429153226413	-1.955892772663962	-8.409516113781932e-14	0	0	7.46288567043798	-1.452742590776342	4.252432772774319	7.431006073479725	-8.409516113781932e-14	0	0
0.2968654673351004	2.318835262226107	-0.009639271044583998	-0.7167623768825503	0.1102125986010728	0.9688884966661215	-0.2939054541559327	5.064348993951507	1.082544593597309	-4.92721097161618	-13.42785217278008	3.999294495724907e-15	-13.4278521085714	-2.614230591298223	1.522762189295503	0	-5.626293449193312	0.7618319267513752	-2.87484838113707	-5.196747130772808	-5.208658717093417e-17	-5.196747149194626	-2.675469792938536	3.093682687121788	0.0005266570912720613	-6.056022839750602	0.7361819294295766	0.558570651194044	1.016768192141144	0.6575261642948627	0.9611153619529007	-1.846075071479536	1.706733370661726e-14	0	0	7.552486950160859	-1.434873077002037	4.241808015712897	7.63133821048857	1.706733370661726e-14	0	0
0.3003071283122631	2.10430795991682	0.06334626057548072	-0.7190711172154014	0.09812270882108608	0.9593503599686237	-0.2885114034831375	4.975551275960555	1.090272135714626	-5.100628626393671	-13.87293271957374	5.668203302665049e-15	-13.87293277611165	-2.743638335156253	1.709787148808213	0	-5.394250097499349	0.7964203612978324	-2.926378704364017	-5.262803406208172	5.732062198337534e-15	-5.262803351792854	-2.879401566733112	3.183948687671005	0.0005564866255334854	-5.818674260833401	0.6713536777810667	0.6403781436114402	0.9778449962198157	0.6650018092558663	0.8863271435629771	-1.748165087281994	5.787457695333777e-14	0	0	7.627653152819349	-1.411763757057101	4.223958459733281	7.796812582380102	5.787457695333777e-14	0	0
0.3032902993364854	1.910163246469235	0.1276892982272131	-0.7181466629905603	0.08984687745854815	0.9472598065727444	-0.2835185251401118	4.910342765848129	1.097967396935867	-5.240033390084995	-14.1977587058119	-1.081143919987015e-14	-14.19775885785917	-2.842576633072726	1.858395805129134	0	-5.170125321604925	0.8257142881544577	-2.954577500328653	-5.291635564950146	-1.34561382700244e-14	-5.29163553611756	-3.045647695744246	3.245007777703542	0.000583932773387854	-5.594835105215593	0.6129601390447394	0.710702090258286	0.9361180803270731	0.6722053323028255	0.8171710069285499	-1.663915987379217	-2.407222670159323e-13	0	0	7.687850719755959	-1.384395488028959	4.201467807246785	7.926768946645955	-2.407222670159323e-13	0	0
0.3057679370955254	1.744343595996382	0.1814264240535435	-0.7154698097485729	0.08447731011297437	0.9346998746124251	-0.2791655490254078	4.864819185327691	1.104998694864385	-5.347738156115224	-14.42410699774395	6.672263113971108e-15	-14.42410710948602	-2.91505195753143	1.971937968547317	0	-4.969596676452667	0.8492844176024883	-2.966699995903437	-5.296315430704231	2.047937435195207e-14	-5.296315431698996	-3.175307769493743	3.283924190390891	0.0006079635172580426	-5.397866585109102	0.5632959631300161	0.7685873138355593	0.896270228906267	0.6784642288806173	0.7573385583177463	-1.594466076837544	1.229825437372261e-13	0	0	7.734283912298389	-1.356337225356712	4.178180872623007	8.025126432428792	1.229825437372261e-13	0	0
0.3077009768984096	1.613487663744182	0.2234176744517354	-0.7127341531299169	0.08080350357515616	0.9240449278326566	-0.2756995559363696	4.832311997169729	1.110700568467616	-5.428948456169803	-14.58566391431606	2.312390763521551e-14	-14.58566394498715	-2.968217802092109	2.057080032354906	0	-4.808322236008155	0.8673893319191872	-2.972280219546878	-5.293373187305324	-1.04217146945636e-14	-5.293373213220562	-3.273481889214973	3.310237438114947	0.0006271429378121869	-5.240507958735771	0.5241762356055266	0.8135602351255394	0.8634227980743104	0.6834240729832143	0.7098825728266274	-1.540468921702384	6.671476993460521e-14	0	0	7.769274449659473	-1.332593551480492	4.158448139303094	8.098550383111153	6.671476993460521e-14	0	0
0.3090589714577417	1.521304204305948	0.252928472060842	-0.7107010771334534	0.07831119908335778	0.9164125702743602	-0.2732526346791013	4.80999260322367	1.114743360160037	-5.485515128014295	-14.69657508217244	6.508966880282352e-15	-14.69657504716675	-3.004986819482613	2.116301878536078	0	-4.694195427161251	0.8800594009633489	-2.975533889266531	-5.290172909348385	-1.35736536388674e-14	-5.290172952537695	-3.341937398709676	3.328026930450554	0.0006406917919961732	-5.12932771145584	0.4966300740177508	0.8451220192650646	0.8400447265362185	0.6869215762261538	0.6764108327298967	-1.502567182687905	-1.306943724614849e-13	0	0	7.793643323563881	-1.315594676424185	4.144316692175086	8.149562259620289	-1.306943724614849e-13	0	0
0.3098208116596206	1.469567494806248	0.2694850343754125	-0.7095511158590437	0.0769205030506029	0.9121183573352497	-0.2718788886176572	4.797515206635041	1.117014518833695	-5.517208142922479	-14.75857770028966	-3.134942805222882e-14	-14.75857762771055	-3.025565137384343	2.149475393679258	0	-4.630099905016713	0.8871631790360348	-2.977302811305785	-5.28828167819942	-3.13932984176439e-15	-5.288281731133404	-3.380297592817221	3.337948011878112	0.0006482989693661013	-5.066901773138426	0.4811712124834721	0.8628255378492764	0.8269040071857288	0.6888847712873007	0.6576218712562738	-1.481306899691033	-6.522625587447877e-13	0	0	7.807296350717836	-1.306031248374495	4.136366173794558	8.178131869127983	-6.522625587447877e-13	0	0
0.31	1.457398592044207	0.2733792274233764	-0.7092805610345005	0.0765934666510846	0.9111082350724538	-0.271555768696538	4.794580817650922	1.117548732091807	-5.524662155629406	-14.77315922387192	-4.248753837153503e-14	-14.77315914244796	-3.030404856858874	2.157277553583437	0	-4.615023749229026	0.8888339898622964	-2.977718406394918	-5.287836060816336	-2.183877795021064e-15	-5.287836116035532	-3.389319745108024	3.340281011882245	0.0006500882754776331	-5.052218447457161	0.4775351681920321	0.8669894661497692	0.8238130356290772	0.6893465355516999	0.6532025213013164	-1.476306403961749	-8.323215618490486e-13	0	0	7.810507459540565	-1.303781668039449	4.134495985628876	8.184851180989902	-8.323215618490486e-13	0	0
