DataType=double
version=3
OpenSimVersion=4.5
endheader
time	hip_flexion_r	knee_angle_r	ankle_angle_r	hip_flexion_r_u	knee_angle_r_u	ankle_angle_r_u
0	0.4153613841390211	0.3789358518977198	0.03020110149738861	-2.35190289286283	1.123374067129347	-5.592807810521123
0.0004542507337261803	0.4142944949947016	0.3794700538835997	0.02766824697082743	-2.345641344230946	1.228140652369665	-5.556021533535114
0.001515784775164009	0.4118115487820672	0.3809028202369308	0.02183395116759609	-2.332402777864381	1.472120932503514	-5.430551269810863
0.003164446411839883	0.4079832648979788	0.3836468922085747	0.01307153119511681	-2.311871383527997	1.856667267827024	-5.192701978445232
0.005374104194047435	0.4029029477253037	0.3883139503122179	0.001991474560483292	-2.286882122583485	2.36658734653076	-4.830973975596944
0.008109887166813518	0.3966855830036293	0.3956465744225649	-0.0105833426664369	-2.258783871468772	2.993096769809351	-4.359523754749798
0.01132864367758793	0.3894632760231369	0.4064548717974346	-0.02371408132974873	-2.229609740081921	3.720727829610979	-3.802019477077791
0.01497960949210789	0.3813743085664092	0.4215197556392544	-0.03649936788096625	-2.202874894500833	4.527453741145799	-3.21196736821487
0.01900520557876997	0.3725474279242471	0.4414735305258887	-0.04824737310055004	-2.184766451776624	5.378212145766172	-2.639648040836426
0.02334194532480019	0.3630854518920066	0.4666827176646331	-0.05855032266536116	-2.182092389404628	6.236136736297386	-2.131057055428784
0.02792143545395889	0.3530561321193157	0.4971580385235503	-0.06730699601291873	-2.202141165521074	7.057986909710179	-1.712095809579876
0.0326714545037473	0.3424940153531197	0.5325129155787686	-0.07462917161275988	-2.249777439684177	7.810303603255097	-1.388265101303013
0.03751709174442691	0.331412686801711	0.5719755887550267	-0.08076424675406557	-2.329410134700137	8.455334579971444	-1.161218679611102
0.04238192853981579	0.3198199528726743	0.6144084900880882	-0.08607146441374849	-2.441792993190446	8.96651088777922	-1.037460617356096
0.04718924350439309	0.3077538509691162	0.6584548920155944	-0.09095142720704461	-2.5828676039415	9.335611587743243	-1.00733996547313
0.0518632224455918	0.295310354940531	0.7026783703292792	-0.09575618078296726	-2.745577805348689	9.567316408121345	-1.062041285465077
0.05633015401013977	0.2826614947132002	0.7457001694162264	-0.1007457657681384	-2.920457687717304	9.67754974705773	-1.18188234320148
0.06051959218465776	0.2700615774642634	0.7863014761595176	-0.1060244967652811	-3.095978531111942	9.69173837948496	-1.345621822409796
0.06436546733510043	0.2578351757624544	0.8234891061686621	-0.1115387125208063	-3.262978169319861	9.637058624861359	-1.524802680780597
0.06780712831226307	0.2463439298465925	0.8565045325149671	-0.1170756391441184	-3.414816969228066	9.542551324053168	-1.692321163891289
0.07079029933648544	0.2359616670764199	0.8848137454497842	-0.1223241218102768	-3.545372548949572	9.432647019878019	-1.821898833143851
0.07326793709552543	0.2270456109841195	0.9080542418339271	-0.1269478206205057	-3.651357707094094	9.325686145020398	-1.906520807356954
0.07520097689840965	0.2199092122154561	0.9259936892568799	-0.1306783436195181	-3.731943808399214	9.233763380835283	-1.948122914741357
0.0765589714577417	0.2148036236438787	0.9384870947588753	-0.1333328735010691	-3.787016832645336	9.166108871634933	-1.958985615045091
0.07732081165962061	0.211907142125589	0.9454556500615745	-0.1348242004838502	-3.816733453868351	9.127226793763134	-1.952622420436607
0.0775	0.2112226112730423	0.9470902312161579	-0.1351735797422369	-3.823405473516707	9.118073803164098	-1.949011799083487
0.07795425073372618	0.2094821888893308	0.9512271250710513	-0.1360569587396537	-3.839832930640929	9.095420739362599	-1.941977583731796
0.07901578477516402	0.2053839957422505	0.9608508648931664	-0.1381199265092023	-3.881495226086804	9.035636667372712	-1.948329291320968
0.08066444641183987	0.1989321099978197	0.9756666148426493	-0.1413608557905391	-3.945178362338435	8.935796062866848	-1.98820644169084
0.08287410419404742	0.1901211108640647	0.995249801027239	-0.145848019684886	-4.029402655845518	8.786845572850593	-2.078476993873645
0.08560988716681352	0.1789606565954745	1.019018478627554	-0.1517235040759628	-4.128345308282325	8.586893168798868	-2.22077750953426
0.08882864367758794	0.1654974584023528	1.046257908411335	-0.1591696005813402	-4.235076617102438	8.336828826310645	-2.407155012685233
0.09247960949210787	0.149839304602983	1.07617175585073	-0.1683329455137841	-4.339327049093396	8.050917866324502	-2.607389439707048
0.09650520557876997	0.1321765104641729	1.107958414678539	-0.1791889354831351	-4.431736222799857	7.741904589867238	-2.773900336528459
0.1008419453248002	0.112794548619598	1.14080819310305	-0.1914458226199017	-4.501411455035862	7.406496480790455	-2.861924016824202
0.1054214354539589	0.09208043276364292	1.173908974695307	-0.2045547396502927	-4.538235330898575	7.050850759902897	-2.843754478251277
0.1101714545037473	0.07052586374952008	1.206556153112961	-0.2177776439657486	-4.528634160660996	6.699479349670302	-2.704260762082276
0.1150170917444269	0.04871752019209208	1.238213724586433	-0.2303146182996342	-4.462611418278057	6.37389581261983	-2.454382298810387
0.1198819285398158	0.02729757852584075	1.268526974819006	-0.241475315521119	-4.332216756299474	6.097883355847255	-2.123834029398098
0.1246892435043931	0.006914994352621773	1.297302383493326	-0.2508209224862232	-4.136216780699272	5.883724868405821	-1.76263687923962
0.1293632224455918	-0.0118406593259493	1.324433809946033	-0.2582518294106363	-3.878024718834033	5.735878952560178	-1.42189351787478
0.1338301540101398	-0.02849555243481211	1.349841306925789	-0.2639476787411285	-3.568973160861221	5.648363757094929	-1.136620479703351
0.1380195921846578	-0.0427447624745052	1.373413417657666	-0.268231170324847	-3.224823415397481	5.611888934762581	-0.9159508017317488
0.1418654673351004	-0.05446895993724088	1.394987600483794	-0.2714295802539236	-2.86569085863781	5.612379261936594	-0.7534250272137071
0.1453071283122631	-0.06373092493746629	1.414340113298279	-0.2738116446934146	-2.511483282196204	5.637414289727156	-0.6342450809981095
0.1482902993364854	-0.0707359913482436	1.431209796039108	-0.2755703117503972	-2.181705058438824	5.674381560471856	-0.5473547822624849
0.1507679370955254	-0.07578652668020724	1.445316517196364	-0.2768478612983218	-1.892842647560199	5.714347222468611	-0.4852400354497748
0.1527009768984096	-0.07922047485835648	1.456396160418971	-0.2777452299941086	-1.659180638707361	5.749048501732219	-0.4449625137798501
0.1540589714577417	-0.08136022257292341	1.464220131922041	-0.2783338590836464	-1.491454144212232	5.774319237706205	-0.422610871457608
0.1548208116596206	-0.08246005864015904	1.468625073294949	-0.2786521063190406	-1.395941531513206	5.78933926424455	-0.4141197784121213
0.155	-0.08270820928069406	1.469662716612539	-0.2787262749618135	-1.373049755070399	5.793313837468093	-0.4128208416134229
0.1554542507337262	-0.08331854129169169	1.472296662426521	-0.2789130325981659	-1.314472867297104	5.803384418551268	-0.4090339268366208
0.156515784775164	-0.08464226974078337	1.478468593754115	-0.2793400679426063	-1.179263990757617	5.824734002442769	-0.3947775929705224
0.1581644464118399	-0.0864102808400487	1.48809912428993	-0.2799687120346008	-0.9647023940624351	5.858497568861248	-0.3669722726532161
0.1603741041940474	-0.08821884207471314	1.501096606096602	-0.2807327046314785	-0.6712178865348037	5.905815377372514	-0.3238195246722313
0.1631098871668135	-0.08954857205416139	1.51733238581988	-0.2815417299479498	-0.2995390839047152	5.96286421490661	-0.2673870910996583
0.1663286436775879	-0.08979742091468745	1.53662618467057	-0.2822945018523856	0.146277716672534	6.024051220165996	-0.2004850832727421
0.1699796094921079	-0.088326630378185	1.558726937234497	-0.2828908542843108	0.6606212996367551	6.079854966622086	-0.1266194719027327
0.17400520557877	-0.08451629280043721	1.583287692139537	-0.2832402519666008	1.232917491328265	6.117659283081123	-0.04712479863146202
0.1783419453248002	-0.0778300144616425	1.609842575859797	-0.2832586350277093	1.850291695025976	6.121783991653222	0.03897647423570527
0.1829214354539589	-0.06787406412853891	1.637793653690173	-0.282866478887653	2.496197835637523	6.07594296683391	0.1328686584466641
0.1876714545037473	-0.05444995935413049	1.6664169005784	-0.2819964247538332	3.153273803712422	5.964215353001292	0.2341525067453305
0.1925170917444269	-0.03758799894983872	1.694888062276018	-0.2806063157226371	3.802091926865862	5.773308516025978	0.3392484004385574
0.1973819285398158	-0.01756454867574819	1.722332557562078	-0.2787128568748145	4.424327058343517	5.494146583338129	0.4370335925136755
0.2021892435043931	0.005110300212335217	1.747893860062308	-0.2764119495314543	5.002366208161755	5.123907915553314	0.5165992661763918
0.2068632224455918	0.02972411316379348	1.770813928586648	-0.2738635966200964	5.522527736003566	4.667354555603434	0.5694269583128593
0.2113301540101398	0.05542076339950569	1.790516758345877	-0.2712515287102625	5.975011589808232	4.139322353108986	0.59663398435523
0.2155195921846577	0.08126596647570045	1.806678524748567	-0.2687288846138075	6.356072318039814	3.563356564909895	0.6052849927681256
0.2193654673351004	0.1063197839496519	1.819259140825351	-0.2664038228255698	6.666311395399647	2.968843086994797	0.6022040530996438
0.2228071283122631	0.1296924396512251	1.828487523605544	-0.2643487589041091	6.910620824702257	2.386148395818979	0.5906208713993895
0.2257902993364854	0.1505907197512883	1.834806222271333	-0.2626089797696792	7.095955541365048	1.84461182267762	0.5751203462731178
0.2282679370955254	0.1683431503011811	1.838793355264531	-0.2612038973302396	7.231561726244617	1.370239252616935	0.5582752373699011
0.2302009768984097	0.1824149754241972	1.841072341070424	-0.2601401119320885	7.325873536285507	0.985702518318448	0.5420076826616693
0.2315589714577417	0.1924047786920976	1.842223265807313	-0.2594127265538139	7.386040827980042	0.7083095279022245	0.5288975787481665
0.2323208116596206	0.1980439956517823	1.842702827483499	-0.259012810075367	7.417729136359458	0.5505694245363264	0.5211547065007744
0.2325	0.1993737876837906	1.842798164044753	-0.2589195585287128	7.425090633718681	0.5134471857532898	0.5192906014561633
0.2329542507337262	0.2027509914300942	1.843009977919792	-0.2586847919327672	7.443762585048888	0.4187172486346937	0.5142033930834269
0.234015784775164	0.2106736191445867	1.843334680283721	-0.2581465443570196	7.482533991761701	0.1924027413336273	0.4992450606539549
0.2356644464118399	0.2230562914747322	1.84335747514857	-0.2573469295827268	7.537625749733921	-0.1664212721814184	0.4696795605332382
0.2378741041940474	0.2397810814312706	1.8424440813871	-0.2563609369353605	7.597751282036741	-0.6631017931243099	0.4213053741240809
0.2406098871668135	0.2606461545445604	1.839764185773853	-0.2553020197430705	7.651802783511604	-1.300148392757916	0.3512525980234851
0.2438286436775879	0.2853368459551545	1.834331351377926	-0.2543182939119866	7.684493323178557	-2.080913147957059	0.2581449842779242
0.2474796094921079	0.313403643156664	1.825064734399458	-0.253590674612701	7.684041087676893	-3.000778566525715	0.1375101548792612
0.25150520557877	0.3442613626138706	1.81088615220383	-0.2533391780182433	7.639233473010881	-4.048431523596864	-0.01603560839806928
0.2558419453248002	0.3772001915838222	1.790831128992932	-0.2538076187231865	7.543490081297568	-5.204221881052868	-0.203838229772924
0.2604214354539589	0.4114192054169576	1.764165650725472	-0.255244933795104	7.392973950219563	-6.443628474099114	-0.4286486988587779
0.2651714545037473	0.4460718686923817	1.73048748680232	-0.2578947336252215	7.190198932237797	-7.736999451387287	-0.6921423870912911
0.2700170917444269	0.4803235971655438	1.689802726131977	-0.2619626574663533	6.940133937481073	-9.053993845890535	-0.9920369483901936
0.2748819285398158	0.513397614988196	1.642567708571438	-0.2675814669945875	6.651060170678241	-10.36142675893372	-1.322232336956837
0.2796892435043931	0.5446155338838337	1.589703239607942	-0.2747628844321289	6.331292498664596	-11.62616797686995	-1.667368304075095
0.2843632224455918	0.573427630774879	1.532567813138224	-0.2833485006395724	5.993633591310791	-12.813779200083	-2.005285517991585
0.2888301540101398	0.5994440772298038	1.472892105713486	-0.2930001836507731	5.652404016201872	-13.89523461355668	-2.311499384645296
0.2930195921846577	0.6224379566355667	1.412657681139942	-0.3032248072822362	5.324097293384726	-14.84958792587287	-2.561561104926809
0.2968654673351004	0.6423318820105293	1.353955719132149	-0.313435539431965	5.021637221267337	-15.66829968647951	-2.738481119622773
0.3003071283122631	0.6591525756506372	1.298839657095459	-0.3230530832126516	4.753885357754916	-16.35283745398715	-2.840646042191155
0.3032902993364854	0.6729928808367553	1.249217613964809	-0.331595728785348	4.525703969412405	-16.90948655683987	-2.878327660979499
0.3057679370955254	0.6839751913314471	1.206775574576053	-0.3387290703419071	4.340016032631285	-17.34748655583169	-2.875836469297242
0.3077009768984096	0.6922251899018439	1.172919781679826	-0.3442768567480711	4.195576120491417	-17.68015576201033	-2.863776148663243
0.3090589714577417	0.697854426549579	1.148754740034693	-0.34816117871801	4.095615256885303	-17.90776829411505	-2.858231661478748
0.3098208116596206	0.7009535905465692	1.135063981645295	-0.3503397223784424	4.039805155541112	-18.03422026574911	-2.862680982565041
0.31	0.7016762166141529	1.131829689281631	-0.3508529365544911	4.02623180096746	-18.0649681468652	-2.86545360714383
