DataType=double
version=3
OpenSimVersion=4.5
endheader
time	bflh_r	bfsh_r	gasmed_r	glmax2_r	iliacus_r	recfem_r	soleus_r	tibant_r	vasmed_r
0	0.1308999435437596	0.03734667969649372	0.03736408399286515	0.0002245601804662687	0.1555808336759058	0.02624337840246948	0.0002975219153123935	0.09494588456498942	0.0004277555157421209
0.0004542507337261803	0.1075085272387362	0.04227230607129555	0.03106171426696627	0.000193423228549844	0.1350987871250576	0.0001645750044369204	0.0002520806484497138	0.08880298988912468	0.0003285535441504782
0.001515784775164009	0.1143451089327898	0.04285697215545814	0.03201817224240057	0.0001905381750830028	0.1328206869574116	0.0001100554570862039	0.0002479816323335885	0.09139905229399529	0.0003231023706871247
0.003164446411839883	0.1175590378226937	0.04343295160951371	0.03246239296824353	0.0001892019214850395	0.1321305261565023	9.354946127353168e-05	0.000245957746560482	0.09295247615568777	0.0003206038467651555
0.005374104194047435	0.1213609106069578	0.04356473837612349	0.0330302141721796	0.0001880467871111193	0.130883718122398	8.021229026151648e-05	0.000244379462637777	0.0942071329599293	0.0003183679798926122
0.008109887166813518	0.1276724687777966	0.04344402208120537	0.03422573557479142	0.0001896202303960844	0.1303144889652502	7.147545700606768e-05	0.0002467275966282416	0.09608645878174182	0.0003206742069973862
0.01132864367758793	0.1361041464474217	0.04323267635461386	0.03578926336821998	0.000191227913680989	0.1292268478843767	6.562493414169944e-05	0.0002492016194251313	0.09851884882712764	0.0003229127513868939
0.01497960949210789	0.1453711560123574	0.04305626122284748	0.03734895056732182	0.0001907526369026906	0.1268765080111052	6.048290636626932e-05	0.0002487968191795497	0.1011457612054133	0.0003215187297303767
0.01900520557876997	0.1554127316175018	0.04282190599049568	0.03876891483721073	0.0001863780161020478	0.1221721852660274	5.59944091696021e-05	0.0002430385432033555	0.1037589467353976	0.0003133654893148035
0.02334194532480019	0.1652248701447733	0.04243562269223472	0.03983287520640637	0.00017744554324282	0.1148443422150288	5.317200994615018e-05	0.0002310355683746586	0.1059153176764839	0.0002973779812111762
0.02792143545395889	0.1744475683126344	0.0417751819853106	0.04048385803599717	0.0001639835396345725	0.104832834599926	5.146556318192276e-05	0.0002128706560018841	0.1073713164416714	0.0002736203481043827
0.0326714545037473	0.1826857579830404	0.04063316108279011	0.04068173409873745	0.0001463182973714501	0.09214315769041537	4.887714873601138e-05	0.0001890732047662684	0.1077931646767463	0.0002426653533964554
0.03751709174442691	0.1858795416589374	0.03866641978704181	0.0397558035213382	0.0001247018611397804	0.07731925615444857	4.731442916320069e-05	0.0001600550922301916	0.1055699052236353	0.0002051802183186215
0.04238192853981579	0.1856295911972805	0.03581827032792671	0.03818680164832114	0.0001020528097752749	0.06156121243708406	4.712770200154185e-05	0.0001299068983208519	0.1012711475494419	0.0001660897105786058
0.04718924350439309	0.1817938094952044	0.03238567736758505	0.03606159679565394	8.005077551928988e-05	0.04617417395742941	4.859829788306409e-05	0.0001008257994761654	0.09526067302927373	0.0001283066532513873
0.0518632224455918	0.174528031811143	0.0287560202558169	0.03347946950088435	5.985385580162391e-05	0.03222760695860705	5.120840861432006e-05	7.425610585368773e-05	0.08806788729496665	9.383077302137017e-05
0.05633015401013977	0.1640268467845482	0.02548614876276453	0.03064449662246754	4.407236462321243e-05	0.02178134203618057	5.540054387382189e-05	5.358105102404701e-05	0.08049045152061723	6.716798420588301e-05
0.06051959218465776	0.1502776996169934	0.02300448043917271	0.02763414435863925	3.397817467972773e-05	0.01605142925987691	6.197769676423082e-05	4.038204254847403e-05	0.07305682735138745	5.052816912950349e-05
0.06436546733510043	0.1375397245693785	0.02113839042308503	0.02495174801083936	2.628336480634199e-05	0.01217371946970401	7.168397626610299e-05	3.026607214536162e-05	0.06672619210475834	3.79893935667455e-05
0.06780712831226307	0.1261016285002846	0.02023835743865567	0.02270973369664217	2.199689348247102e-05	0.01106568975907923	8.578694415364858e-05	2.448903527981678e-05	0.06202118143787603	3.128831331454249e-05
0.07079029933648544	0.1140984556135023	0.02055600054041104	0.0206523816101958	2.211227325245838e-05	0.01395145931859447	0.0001041577430123869	2.428466281364321e-05	0.05869383698242002	3.225808551515048e-05
0.07326793709552543	0.1030261142599573	0.02150736400689498	0.01881375302219718	2.327372433003449e-05	0.01799082805598007	0.0001284450057545868	2.528275140445172e-05	0.05639988117149776	3.501040498196289e-05
0.07520097689840965	0.09390279386948357	0.02278985227869423	0.01736449251723707	2.532770484016263e-05	0.02257178750458033	0.0002402134701133319	2.741552387818304e-05	0.05512078893215226	3.935415672312422e-05
0.0765589714577417	0.08749286138670144	0.02425154825048067	0.01651830618568056	2.940508531690931e-05	0.02843132421910038	0.001282213914008305	3.232099883370901e-05	0.05507165119379383	4.870946937817393e-05
0.07732081165962061	0.08470715250857068	0.02607362008387559	0.01692321897632377	4.258070021785038e-05	0.04133383939437194	0.006688566628449726	4.971137378461518e-05	0.05745100441859625	8.142615201434865e-05
0.0775	0.09332779576155231	0.0275289153334745	0.0208671180037241	7.819358577282355e-05	0.06579374443450911	0.01589335646296669	9.848722337883154e-05	0.06442817037871401	0.0001589358166554786
0.07795425073372618	0.07977694180455824	0.02547450847985685	0.01553339948717187	3.462299937815635e-05	0.03545971810829526	0.003374632487226649	3.887280948403495e-05	0.05453009950075118	6.199881263647851e-05
0.07901578477516402	0.07325251171622141	0.02443101921766427	0.01394530925288605	2.759415853699128e-05	0.03028356464773048	0.0008088639423082122	2.946860864704797e-05	0.05075869827459481	4.560214302501987e-05
0.08066444641183987	0.06209429649630248	0.02402967333524744	0.01189396312670103	2.549827735052054e-05	0.03066580997842566	0.0003588972760123399	2.652201957981571e-05	0.04674210471862666	4.18355211489268e-05
0.08287410419404742	0.04732202392772738	0.02414167411065927	0.009391165397629084	2.596546740493115e-05	0.0340114667098444	0.0002983090676425076	2.683594544883272e-05	0.04234701725371295	4.342586294493738e-05
0.08560988716681352	0.03010853403023907	0.02491041040906328	0.006766443950434372	3.086944590370105e-05	0.04113947207209249	0.0003701117584418139	3.296603739306867e-05	0.03815293999419831	5.306801825112297e-05
0.08882864367758794	0.01184524129178104	0.02648268485055252	0.00442278243307722	4.259842482235443e-05	0.05327147487589067	0.0006151089162702099	4.818102245340079e-05	0.03486786656952209	7.486869908725759e-05
0.09247960949210787	0.0008963371193676868	0.02812333296169032	0.003814864553943433	6.121156681392499e-05	0.06862711177550222	0.00244812317877366	7.302291139317358e-05	0.03440983782340901	0.0001109558897461424
0.09650520557876997	0.0006589987057597687	0.0294092596680884	0.005817281874007088	9.07687961057439e-05	0.09356938777775657	0.01569460539527389	0.0001133059636687242	0.03863639379459326	0.0001858910596415965
0.1008419453248002	0.0001567090552926581	0.03113555701203247	0.007940804235553557	0.0001228703625941331	0.124864448468787	0.03698362174667713	0.0001568866813283538	0.04427590153648768	0.0002798082550437008
0.1054214354539589	0.0001197552967517683	0.03347118782127362	0.01044284062289346	0.0001594276883852017	0.1600551287448894	0.059779829849734	0.0002063799507588493	0.05110905683523176	0.000384122754694079
0.1101714545037473	0.0001052271221625221	0.03660529707825226	0.01322373090978159	0.0002001626478091539	0.1990946980179321	0.08369045719339074	0.0002613159664698802	0.05915109783559949	0.0004976793833057563
0.1150170917444269	0.0001001670372859382	0.04065797025526868	0.01620684636845247	0.0002440488383192399	0.2407692513733747	0.1072419130930442	0.0003202315365102252	0.06831798042389829	0.0006160484279680225
0.1198819285398158	9.655402263453446e-05	0.04567104534522717	0.01928025527756817	0.000289523458304494	0.2839796961093257	0.1298852883158091	0.0003809502778940251	0.07851737062213757	0.0007355481940853293
0.1246892435043931	9.818294191470853e-05	0.05143038580290425	0.02234576390389438	0.0003351122142901823	0.3279721712172274	0.1521915350638652	0.0004415196481616665	0.08950702613790547	0.0008546659177856417
0.1293632224455918	0.0001032375847289938	0.05749107386031571	0.02529309513049097	0.0003791063366952514	0.3713490590063979	0.1742956042478139	0.0004997600308545704	0.1007298717351353	0.0009706858201182347
0.1338301540101398	0.0001087222278546796	0.06325415790565106	0.02802885106747009	0.0004199879463604223	0.412257498539481	0.1956471833526212	0.0005538223573562148	0.1113927087761686	0.001079972778718981
0.1380195921846578	0.0001143688029914217	0.06820550175576202	0.03048590993557146	0.0004566344751248423	0.449229365990704	0.2158187499214271	0.0006023686910028185	0.1208290077560262	0.001179797983809274
0.1418654673351004	0.0001206850828618242	0.0721149499415321	0.03263046778286873	0.0004884874398834008	0.4814442512617658	0.2343754085742148	0.0006447237402529204	0.1287110154215672	0.001268402433718204
0.1453071283122631	0.000127623736140107	0.07503561646162503	0.03444678394117793	0.0005153386316039191	0.5086650471506758	0.2509719653999539	0.0006805790400219109	0.1350489780857112	0.001344804829824966
0.1482902993364854	0.0001357421128774652	0.0770862540933752	0.03594545451271413	0.0005373748080890244	0.530987370866041	0.2653327049224568	0.00071014489611895	0.1399521785381674	0.001408832321092594
0.1507679370955254	0.0001465939915332101	0.07833043376834675	0.03710491227719401	0.0005543046648047937	0.5481980856572711	0.2772170837042505	0.0007329931975157015	0.1434503964983865	0.001459550510313814
0.1527009768984096	0.0001608693738850681	0.07867877173346401	0.03783251081985339	0.0005647798673731056	0.5596437925706672	0.2869754658809672	0.0007472948449313315	0.1454192994650495	0.001495269479011509
0.1540589714577417	0.0002506039502443493	0.07836651857062991	0.03821207941540379	0.000569884503861167	0.5648396892071698	0.2921334337876451	0.0007544634519619818	0.145918742997765	0.001513378918738186
0.1548208116596206	0.003337977398409834	0.0787937375229513	0.03964522436697752	0.0005829113593946334	0.5748066560927706	0.2975835723776306	0.0007723386945507353	0.1485650240288406	0.001545503862601157
0.155	0.01039319866749331	0.08042206926107456	0.0423263770944213	0.0006044514038554367	0.5962262655623175	0.3143422459234644	0.0008015195970499469	0.1554076875022925	0.001612577450775087
0.1554542507337262	0.0007144446787579603	0.07877697725045142	0.03921758993038043	0.0005832209978491975	0.5752604282307343	0.2971692229467666	0.0007727247555510479	0.1477105499169112	0.001545443784393795
0.156515784775164	0.0001640941618516208	0.07875327252255278	0.03917655993498226	0.0005840022957804296	0.5799242967754255	0.30480317223977	0.0007737724597889059	0.1483957257133502	0.001560648368929643
0.1581644464118399	0.0001420189443897561	0.0795987881789374	0.03997152637332863	0.000595678355646171	0.5915752085816938	0.3126143965759174	0.0007895365429774204	0.1507429680774812	0.001594930992840882
0.1603741041940474	0.0001249680688388232	0.07998672840205401	0.04061457837438146	0.0006050406617802196	0.6027050542255552	0.3228082195093641	0.0008022803449263373	0.1527402365110644	0.001629526905316211
0.1631098871668135	0.0001112988741857477	0.07993575427102899	0.04113011161396339	0.0006124474769867131	0.6136549648094828	0.3356101134244634	0.0008124906167449087	0.1544496834340699	0.001665462032018683
0.1663286436775879	0.0001000720353835721	0.0793597733379194	0.04144661476061214	0.0006168529377257162	0.6234458355516714	0.3504608919732082	0.0008187589578107089	0.1556642833470124	0.001699919767148309
0.1699796094921079	9.018212847014107e-05	0.07803882000532203	0.04138688521270976	0.0006156634560062365	0.6300867661244547	0.3667918581575299	0.0008175920220954916	0.1559541860811948	0.001727396673278942
0.17400520557877	8.167643893996673e-05	0.07583103250535937	0.04075354287801848	0.0006060199299025966	0.6314528524106572	0.3838808039548924	0.000805097634973608	0.1549460216879103	0.001741657606708795
0.1783419453248002	7.428961270233553e-05	0.07274456946049565	0.03940247251482612	0.0005858715517811552	0.626142966391491	0.4011909428716705	0.0007784385773057467	0.1524906424308886	0.001738200990773448
0.1829214354539589	6.717093531401559e-05	0.06883744909253338	0.03727492743711571	0.0005544001780432053	0.6134341987371144	0.4180847101684145	0.0007364620770347712	0.1485417897310911	0.001714466446627116
0.1876714545037473	5.991564888047884e-05	0.06415023800221183	0.03434293216398079	0.0005112200853140837	0.5929589068462158	0.4341828257645889	0.0006786195089724702	0.1430834936738287	0.001669104889421298
0.1925170917444269	5.250833342893289e-05	0.05862124131462193	0.03069197782593981	0.0004575265216848067	0.5649874905421802	0.4489213119356785	0.0006065916733055876	0.1360432640770441	0.001603149214512968
0.1973819285398158	4.513333346843038e-05	0.05216561121568632	0.02651257234168407	0.0003960035681637377	0.530784001703532	0.4621210152378756	0.0005241262657479387	0.1274374121544345	0.001520890775101882
0.2021892435043931	3.799758732007261e-05	0.04474749229241764	0.02200699330718232	0.0003295210615536212	0.4921152281783481	0.4742311824324794	0.0004352049717685897	0.1174144143961101	0.001428081010479321
0.2068632224455918	3.137309557609042e-05	0.03674601790362989	0.01750696502884416	0.0002629240946858274	0.452101758182062	0.4852844576823752	0.0003463711447413384	0.1066281373784385	0.001333134422094409
0.2113301540101398	2.565026227339585e-05	0.02908030425792385	0.01342434176298158	0.0002023712209639363	0.415039902257043	0.4949548272755516	0.0002657626525116981	0.09634977393008833	0.001246099955240389
0.2155195921846577	2.122988123810703e-05	0.02273646542354816	0.01011968178077322	0.0001533113492163055	0.3848012137831811	0.5026980720457929	0.0002005091842911164	0.08786590283044268	0.001175412857783222
0.2193654673351004	1.826885483699809e-05	0.01817001586274123	0.007721675978480724	0.0001177232536977294	0.3629926935249867	0.5084690734181598	0.0001531589573706568	0.0817676600480442	0.001124416892201554
0.2228071283122631	1.66133948974677e-05	0.01524950730289196	0.006105001707628486	9.37823237075136e-05	0.3487209529471703	0.5127480291751124	0.0001212410677265577	0.07787559829097511	0.001090835814827447
0.2257902993364854	1.619821645824349e-05	0.01373247497384973	0.005119587303081014	7.927952954752852e-05	0.3413135100597815	0.5170535530757525	0.0001017945819626351	0.07598434315442176	0.001073607851319764
0.2282679370955254	1.710600561321081e-05	0.01324303301579984	0.004635974877666453	7.225417461263775e-05	0.3398200579840384	0.5224419845239183	9.225911894916986e-05	0.07570284094641329	0.001071255476212837
0.2302009768984097	1.986854256677163e-05	0.01361117247297926	0.004527775641639397	7.083918348663035e-05	0.3414172011458359	0.5259762096551808	9.013529913362426e-05	0.07643027055364467	0.001075237704628025
0.2315589714577417	2.626253099692685e-05	0.01402363778033935	0.004494763446602945	7.049680635175231e-05	0.3431744222934965	0.5286320048779299	8.948021298245191e-05	0.07716226536391724	0.001079476577174744
0.2323208116596206	4.748833738797466e-05	0.01646460197707002	0.005272298914239094	8.230342706549132e-05	0.3525612593948667	0.5286165796366032	0.0001047983839358065	0.08041917228360541	0.001099873986490414
0.2325	0.0002301473102804174	0.02141743973748259	0.007443721855256095	0.0001144441955821926	0.3860586296524717	0.5469835741401219	0.0001471240091189948	0.08949522865457003	0.001188665016870915
0.2329542507337262	3.260475007401527e-05	0.01421734657729722	0.00438886238037537	6.904552756248557e-05	0.3439742504181942	0.5311273874728268	8.738278216054187e-05	0.07758264391917874	0.00108150683697797
0.234015784775164	2.120194940004943e-05	0.01397526250722821	0.00426768603436333	6.728881756094918e-05	0.3453986806863374	0.5360401674987313	8.503280197587378e-05	0.07777059232658652	0.001087372260567017
0.2356644464118399	1.619359825939522e-05	0.0132416423471191	0.003921054436737333	6.215671995717258e-05	0.3456523137274651	0.5432821158206688	7.820869536616136e-05	0.07751461599642176	0.001091625454411614
0.2378741041940474	1.335288936461153e-05	0.01273490501055672	0.003583847630499961	5.723037705629385e-05	0.3468101105163831	0.5514746994552365	7.157133856726152e-05	0.07762354385072363	0.001097964449435627
0.2406098871668135	1.141131101906733e-05	0.01227078420498169	0.003223233060313506	5.199406278795434e-05	0.3495128374060916	0.5627219418434197	6.447493855718211e-05	0.0781017887636222	0.001109304799498464
0.2438286436775879	1.025034428508596e-05	0.0124140818665473	0.003070791287398522	4.993244651649363e-05	0.3570207519073858	0.5782632897577989	6.149964450523292e-05	0.07987485440448758	0.001133913628213185
0.2474796094921079	1.062604798653355e-05	0.01533456082864168	0.003874393528001752	6.238482033821427e-05	0.3770900184932744	0.5961519483877982	7.743722334960846e-05	0.08565956822964921	0.001187875074374153
0.25150520557877	1.257011010724441e-05	0.02142480718524739	0.005731893487749267	9.086892615867278e-05	0.4107235713921729	0.6158351548997198	0.0001142264783208033	0.09589961602902916	0.001272817166636936
0.2558419453248002	1.60643694343363e-05	0.03072569380038136	0.008672962327790886	0.0001358191495993637	0.4580211414085728	0.636969703987418	0.0001724526512388251	0.110622971462123	0.001388867642310269
0.2604214354539589	2.089026232398973e-05	0.04258840048920954	0.01258221500971587	0.0001953865890994067	0.517582119952518	0.6602800829341999	0.0002498242546068751	0.1291072141399914	0.001534128422197373
0.2651714545037473	2.671766861512396e-05	0.05599361895865008	0.01723016996388041	0.0002659784775330556	0.5866000168452813	0.6864806509904577	0.0003417914985883915	0.1501374895306362	0.001703665593985203
0.2700170917444269	3.322273145001896e-05	0.0702819865589458	0.02238576051291157	0.0003440792995144086	0.6604489990050199	0.7120642870801814	0.000443780165488225	0.1724324520207013	0.001885047311102292
0.2748819285398158	4.01727145386969e-05	0.08571713667336485	0.02787185866287326	0.0004272123823894869	0.732420202331057	0.7266004645111802	0.0005522997713776861	0.1950113753954205	0.002055129171827738
0.2796892435043931	4.733448526446689e-05	0.1026453868362565	0.03343878377623151	0.0005119028530952667	0.7965160994221364	0.7217821106821095	0.0006624363296092128	0.2171706949314909	0.002192898684163343
0.2843632224455918	5.441171054140522e-05	0.1212088021437033	0.03881665075243258	0.0005943373747465369	0.8484186275737219	0.693181822782025	0.0007688760676607712	0.2383941651704026	0.002283779363431645
0.2888301540101398	6.084175929738147e-05	0.1403432996967913	0.0435556443143887	0.0006677840504549659	0.8852514685161248	0.6446319702789448	0.00086273354680437	0.2576105362394536	0.002323080407406089
0.2930195921846577	6.611014118548293e-05	0.158499676263981	0.04724832247455561	0.0007259795257854435	0.9068850253458868	0.5856218646855789	0.0009359483248280048	0.273862178306687	0.002317142978823584
0.2968654673351004	7.001136176209961e-05	0.1747671635380587	0.04973649952788013	0.0007664015980418876	0.9141505998315912	0.5222347938031044	0.0009853837654050504	0.2866977022772144	0.002272605419377155
0.3003071283122631	7.24669948964406e-05	0.1883313289990246	0.05096200153182048	0.0007879726002263326	0.907334127481661	0.4578895926836309	0.001009872181725724	0.295547186271868	0.002193770198549556
0.3032902993364854	7.381102098304572e-05	0.1990015589221477	0.05118198648907765	0.0007943110759127587	0.8908959335202892	0.3975784076957732	0.001014475688867489	0.3009264618651077	0.002095899372781308
0.3057679370955254	7.453685152046278e-05	0.2064517090489245	0.05074543338702907	0.0007903001464916609	0.870001504900942	0.3466231471220664	0.001006059891516442	0.3032997337268025	0.001997022863984357
0.3077009768984096	7.546936201472425e-05	0.2111297655264744	0.05008922633502477	0.0007823132124688656	0.8501155607752697	0.3076782223735123	0.0009932422235585101	0.3037596997223043	0.001912937434363243
0.3090589714577417	7.90472619311747e-05	0.2160908686968086	0.05028475707296477	0.0007865817293554089	0.8433222464315727	0.2798740544602226	0.000997209133295842	0.3063515489533996	0.001870136774143699
0.3098208116596206	8.863261547236159e-05	0.2141926849224339	0.04901326060562373	0.000767766582903338	0.8201717407704597	0.2604300570087588	0.0009720561939464282	0.3012155296684652	0.001802451021105114
0.31	9.142628804720221e-05	0.2132721945438767	0.04862298942099336	0.0007618868465675031	0.8131613769053478	0.2554943172176303	0.0009643265286821052	0.2993765253518775	0.001783350837393174
