DataType=double
version=3
OpenSimVersion=4.5
endheader
time	RightLeg_1	RightLeg_2	RightLeg_3	RightLeg_4
0	0.06003786745762163	0.07149093094423642	0.2367441007048312	0.2959018733528935
0.0004542507337261803	0.0003288963813008472	0.1060849399263879	0.2003277907564258	0.2430224655474327
0.001515784775164009	0.0002045405370263431	0.1042409291963537	0.1970445529369727	0.2584793636656613
0.003164446411839883	0.0001669257537726399	0.1046037320276569	0.1954158679932796	0.2657457342691596
0.005374104194047435	0.0001365860553876885	0.102788691638825	0.1941550769046212	0.2743413698024124
0.008109887166813518	0.0001162151264486599	0.09838915803194936	0.1960388978378949	0.2886105720612488
0.01132864367758793	0.0001024429100622282	0.09230725990456157	0.1980273768339842	0.3076730416328335
0.01497960949210789	9.072603210258379e-05	0.08585094527507509	0.1977163650323823	0.3286244245312222
0.01900520557876997	8.133933913567759e-05	0.07867855057164941	0.1931317433349229	0.3513276619992309
0.02334194532480019	7.676238438847349e-05	0.07102768819999494	0.1835633006704684	0.3735129809446289
0.02792143545395889	7.574916672026255e-05	0.06262204213215372	0.1690800053220363	0.394366476993314
0.0326714545037473	7.368721965228531e-05	0.05285910257813731	0.1501097291196323	0.4129949267695725
0.03751709174442691	7.496902721659815e-05	0.04285050986586714	0.1269869408884698	0.4202195184014821
0.04238192853981579	7.977049226859378e-05	0.03137405797434756	0.1029815393610187	0.4196586259869133
0.04718924350439309	8.83372262290294e-05	0.01973042315352069	0.07984056890684843	0.4109906690468932
0.0518632224455918	9.918132374053812e-05	0.009405090627121027	0.05870767484715556	0.3945677271990717
0.05633015401013977	0.0001126802033830643	0.00255163678567194	0.04227073706695772	0.3708292270845301
0.06051959218465776	0.0001303415757618609	0.0009273606916790911	0.03178169398975883	0.3397465204318688
0.06436546733510043	0.0001545628762062989	0.001191054861573448	0.02373992436616446	0.3109494404371096
0.06780712831226307	0.0001879803012037051	0.004595270952020503	0.01913965422908226	0.2850904985170351
0.07079029933648544	0.0002300656129343714	0.01332187767431869	0.01895817561758517	0.2579531190494433
0.07326793709552543	0.0002853798783031269	0.02406025115880084	0.01972143681647931	0.2329199605818526
0.07520097689840965	0.0005407570611433155	0.03494447041392035	0.02138391867225242	0.2122930499853719
0.0765589714577417	0.002925697522515147	0.04488101192449112	0.025257678033201	0.1978003199157925
0.07732081165962061	0.01530208971555425	0.05404582656914414	0.03909260638118761	0.1914997739807722
0.0775	0.03637130435027358	0.05465285756911875	0.07801021450306189	0.2109833785836646
0.07795425073372618	0.007715679279393983	0.0546509422390753	0.03045046898784687	0.1803547769681153
0.07901578477516402	0.001842290039526073	0.05442809308493213	0.0229634325964676	0.1656053771779904
0.08066444641183987	0.000812544627875722	0.05969559810902259	0.0206115483595255	0.1403787749079997
0.08287410419404742	0.0006738043246330427	0.06929639628985518	0.02084712315383341	0.1069808477852041
0.08560988716681352	0.0008371922573648938	0.08309013867131698	0.0257088246114896	0.06806286910257953
0.08882864367758794	0.001395600175565948	0.1008151177755254	0.03780466271164507	0.02677018487341032
0.09247960949210787	0.005588709013427007	0.1142920070355489	0.05759224069143087	0.002013004117598749
0.09650520557876997	0.03591394814796445	0.1196898046589707	0.08972001235490912	0.001471122531338853
0.1008419453248002	0.08465433375078613	0.1270494897329666	0.1244624935649519	0.0003297085705049607
0.1054214354539589	0.1368448397369761	0.1366094319549622	0.1639104576338364	0.000239508494154439
0.1101714545037473	0.1915861340004508	0.149416197471729	0.2076837708906245	0.0001992005497710725
0.1150170917444269	0.245504199186094	0.1659682669014999	0.2546120447548104	0.0001796610531805687
0.1198819285398158	0.2973424734932368	0.1864414692915584	0.3029564471844357	0.0001630238318515165
0.1246892435043931	0.3484086642434812	0.2099589433784872	0.3511625283478179	0.0001581429183719063
0.1293632224455918	0.3990122078002865	0.2347048906052907	0.3975008572459753	0.0001612525908551987
0.1338301540101398	0.4478934091088107	0.2582352621385597	0.440510633803928	0.0001659060878913543
0.1380195921846578	0.4940736409233026	0.278450676221188	0.4791369833633992	0.0001717459138852462
0.1418654673351004	0.5365572335439346	0.2944109595278512	0.5128469267090021	0.0001800420211632847
0.1453071283122631	0.5745538008990552	0.3063330582346038	0.5413930405260275	0.0001907193746411018
0.1482902993364854	0.607431954846867	0.3147015917331546	0.5649404726679819	0.0002049947372373406
0.1507679370955254	0.6346409536128893	0.3197752107060361	0.5831458733065561	0.000226425791854501
0.1527009768984096	0.6569833589545488	0.3211884381420957	0.5945503546484627	0.0002568133005311779
0.1540589714577417	0.6687929989289263	0.3198575266080301	0.600279213162439	0.0004588176361752794
0.1548208116596206	0.6812698349658637	0.3196910383510099	0.6145423962531154	0.007436575745147334
0.155	0.7196388770777915	0.321973012896996	0.6377969597589528	0.02338338546423646
0.1554542507337262	0.6803210157868614	0.3212464791889604	0.6148493714404097	0.001505121894578743
0.156515784775164	0.6978010299202538	0.3214898915192645	0.6156792311136408	0.0002606997204450678
0.1581644464118399	0.7156845191289789	0.324956050948539	0.6282406357860022	0.0002086536283916196
0.1603741041940474	0.7390242261936254	0.3265503513780179	0.6383994284778949	0.0001684037789759785
0.1631098871668135	0.7683363575054064	0.3263500065646987	0.6465436772124298	0.0001361715909855565
0.1663286436775879	0.8023407264019101	0.3240040446357471	0.6515512585667849	0.000110025329816521
0.1699796094921079	0.8397357174954508	0.3186148851692099	0.650638306233647	8.793903604331632e-05
0.17400520557877	0.8788682524164871	0.3096031894259423	0.6407005339107947	7.053136706902663e-05
0.1783419453248002	0.9185096366416696	0.2970024441013517	0.619472175678623	5.755827335729435e-05
0.1829214354539589	0.9572001444166555	0.2810501290604253	0.5860316140867469	4.723453313926207e-05
0.1876714545037473	0.9940713789588498	0.2619121721360269	0.539939969334259	3.870913725045888e-05
0.1925170917444269	1.02783170109639	0.239336689155087	0.4825417981625297	3.174929954030681e-05
0.1973819285398158	1.058070325891837	0.2129771198859784	0.4168327046375664	2.631730259339271e-05
0.2021892435043931	1.085815329139719	0.182686924674085	0.345993324916305	2.238676365928782e-05
0.2068632224455918	1.111140373231312	0.1500142459202467	0.2752399014654598	1.969612481955707e-05
0.2113301540101398	1.133297512275312	0.118712297059171	0.211048536724638	1.797057436658811e-05
0.2155195921846577	1.151039296718122	0.09280788543388852	0.1590885795397214	1.707548467044795e-05
0.2193654673351004	1.164261928726759	0.07416110814685362	0.1213834985775546	1.697700664293755e-05
0.2228071283122631	1.174065369832376	0.06223521979759883	0.0959627731974293	1.765432371558795e-05
0.2257902993364854	1.183927437997446	0.05604000186158853	0.08046641534233379	1.936023319304425e-05
0.2282679370955254	1.196267403721914	0.05404032728638675	0.07285823959547599	2.265475892393454e-05
0.2302009768984097	1.20436030236197	0.05554175358206548	0.07114915346490891	2.909254851113374e-05
0.2315589714577417	1.210441542319225	0.05722200780056319	0.07061279672330811	4.355419298907037e-05
0.2323208116596206	1.210403362985559	0.06717708989831683	0.08278401422396375	8.925131258852304e-05
0.2325	1.252452455179639	0.08728908919462119	0.1164437430236338	0.0004960750972520245
0.2329542507337262	1.216155737373378	0.05800896189272597	0.06893027417698017	5.811358050999971e-05
0.234015784775164	1.227405401384309	0.05702712584774638	0.06705507776315467	3.264167022076769e-05
0.2356644464118399	1.243989169941421	0.05403388880843063	0.06161703161794563	2.225081472184698e-05
0.2378741041940474	1.262749622181492	0.05196577069888519	0.05632138074370974	1.669786970159848e-05
0.2406098871668135	1.288504674644631	0.05007094800938927	0.05065515920957964	1.321423048361581e-05
0.2438286436775879	1.324091583517439	0.05065592622610815	0.04826069070222161	1.086651696158292e-05
0.2474796094921079	1.36504986820753	0.06258106798283136	0.06089756309037742	9.189530849162963e-06
0.25150520557877	1.410113437064088	0.08744959317905643	0.09010461508197976	7.954588548741981e-06
0.2558419453248002	1.458496322215777	0.1254284491503372	0.13634853158515	7.042779601285076e-06
0.2604214354539589	1.511857935405014	0.1738681442877996	0.1978152693982798	6.34310863345533e-06
0.2651714545037473	1.571834920868844	0.2286062867886653	0.2708967162647933	5.831850907744851e-06
0.2700170917444269	1.630397534603454	0.286950621054499	0.3519598403439617	5.466702003076307e-06
0.2748819285398158	1.663662507587749	0.3499784499373784	0.4382196829755705	5.165874024992689e-06
0.2796892435043931	1.652609045067692	0.4191045961041673	0.525750237950933	5.00191228480773e-06
0.2843632224455918	1.587100098650461	0.4949095960792416	0.6103078870589164	4.967811669587263e-06
0.2888301540101398	1.475912590043694	0.5730481392715755	0.6848199543176283	5.048408559860107e-06
0.2930195921846577	1.340776642339746	0.647193498318547	0.7428799992457493	5.282655382021773e-06
0.2968654673351004	1.195622398157133	0.7136261493548179	0.7820007830562875	5.710089172827892e-06
0.3003071283122631	1.048278630029408	0.7690200638549367	0.8012676195632017	6.409030799403581e-06
0.3032902993364854	0.910175581228578	0.8125963909042057	0.8047238651731141	7.507904272729959e-06
0.3057679370955254	0.7934983312942556	0.8430227167775005	0.7978565075634801	9.289536603507287e-06
0.3077009768984096	0.7043235147504892	0.8621278813563589	0.7875341152882345	1.246020629253053e-05
0.3090589714577417	0.6406560867648635	0.8823867869713765	0.7905996898594611	1.941799880222916e-05
0.3098208116596206	0.5961376097594346	0.8746301980247895	0.7705775825035009	4.461677665279495e-05
0.31	0.5848371633712826	0.870869708260842	0.7644324279310777	5.206411206071238e-05
