DataType=double
version=3
OpenSimVersion=4.5
endheader
time	hip_flexion_r	knee_angle_r	ankle_angle_r
0	15.37971441965755	235.4960166428654	57.92958791387565
0.0004542507337261803	12.77344092475778	228.1507431211656	98.60284863714202
0.001515784775164009	12.58960632417775	232.4538014095621	131.2729486990729
0.003164446411839883	12.00559631882455	232.3562495434152	155.3909457959845
0.005374104194047435	10.76965885898145	229.8586124002456	169.0787525570633
0.008109887166813518	9.741907457104617	227.804382243615	174.6077487393563
0.01132864367758793	8.357988576360675	224.2164802200873	169.3672176681354
0.01497960949210789	6.115482116537706	216.8955821707147	153.102919320277
0.01900520557876997	2.774557533596685	205.4566931729247	130.4651640852984
0.02334194532480019	-1.710132071969007	189.3655205693316	104.3168712490585
0.02792143545395889	-7.083622535211674	169.450509346855	79.26609068654825
0.0326714545037473	-13.09781205186992	146.5781954849763	57.64130975673677
0.03751709174442691	-19.79702227964381	119.2667072869419	35.87595028858007
0.04238192853981579	-26.3349429616519	90.82797505399856	15.57938693577236
0.04718924350439309	-32.24219127609905	62.83956707451037	-3.099008761513648
0.0518632224455918	-37.23454353065891	36.50232112872014	-19.77718343917483
0.05633015401013977	-40.80646004380583	13.30542465587047	-33.67725137871887
0.06051959218465776	-42.80959615533352	-6.211415440095241	-43.6790542964079
0.06436546733510043	-43.93311186378853	-21.68585072050658	-48.83670381926389
0.06780712831226307	-44.11194572470583	-32.85241387693979	-46.99151414196747
0.07079029933648544	-43.28649284945338	-40.48342142208202	-39.20919658171292
0.07326793709552543	-42.22635036347404	-45.79529944320349	-27.93194966000471
0.07520097689840965	-41.08823886365086	-49.02932862380572	-14.58217509345323
0.0765589714577417	-39.8638857022987	-50.64144155400204	0.5600370163740021
0.07732081165962061	-37.72483139269073	-51.19475721750773	17.57998192433191
0.0775	-32.57188753531734	-44.38235561054769	27.70470889934258
0.07795425073372618	-38.46688968073828	-53.61405754775641	5.886940815576462
0.07901578477516402	-38.99303249948653	-57.78825672619541	-14.59128812770277
0.08066444641183987	-38.55391873846423	-63.80581291109678	-32.82222405526615
0.08287410419404742	-37.34187192344262	-70.2895891475124	-47.08700864729531
0.08560988716681352	-34.98194118294768	-75.7363876793855	-55.99866472375174
0.08882864367758794	-31.07750351703413	-78.73973395334289	-58.14304055920806
0.09247960949210787	-26.0288862190082	-77.49158269593079	-49.91492575607778
0.09650520557876997	-19.69733653601176	-76.54821633754969	-31.71764341987419
0.1008419453248002	-12.39541450803571	-78.13032633029036	-8.712021177573856
0.1054214354539589	-3.337310900419119	-76.362562881678	16.77791404701671
0.1101714545037473	7.529714305185216	-71.21724274249303	41.19339218843576
0.1150170917444269	20.0157797231335	-62.43433140432817	61.01999262997881
0.1198819285398158	33.68373953016503	-50.83288632582411	73.2314677268742
0.1246892435043931	48.04041871825003	-38.02473153960318	75.46380878214723
0.1293632224455918	62.39563117568503	-25.39311512377233	69.08286539942966
0.1338301540101398	75.97322663747362	-13.80741976461108	58.27260646238869
0.1380195921846578	88.13767834959103	-3.906746916917285	47.02935479025346
0.1418654673351004	98.54529634564526	4.080690278376949	37.90941725066246
0.1453071283122631	107.1113422574522	10.17958379744626	31.51271094761714
0.1482902993364854	113.9385088388942	14.57380313161052	26.93035793904367
0.1507679370955254	119.0956339601638	17.38848409476839	22.94177222423993
0.1527009768984096	122.5689261863512	18.4026634722571	18.57531509359172
0.1540589714577417	124.3922386044131	18.87983796474241	13.69873150432447
0.1548208116596206	127.0237509438262	21.37888005096294	8.101931812887287
0.155	131.7780715891859	23.48350756403983	5.098291711499382
0.1554542507337262	127.2466364696502	21.10767882411677	10.79099904538434
0.156515784775164	128.4726880116623	19.82575069230951	15.14905721650031
0.1581644464118399	131.3989762410918	21.15280459910441	18.36974783759211
0.1603741041940474	134.2981340651889	21.35027219476979	20.26477686380801
0.1631098871668135	137.1820407421148	20.21914571716086	20.85791178887505
0.1663286436775879	139.7909218117709	17.52387670012042	20.56369535717756
0.1699796094921079	141.6921157471151	12.78702674478051	19.9421019349724
0.17400520557877	142.4862371943358	5.651441289398001	19.65537189691809
0.1783419453248002	141.9442731774033	-4.055682659308506	20.15493854483902
0.1829214354539589	139.9604345968441	-16.30984987513191	20.85905332048072
0.1876714545037473	136.3961295890681	-31.05377702701145	21.75340593858709
0.1925170917444269	131.1774344722144	-48.07033970951119	21.23642525125026
0.1973819285398158	124.3172935189343	-66.97924006645746	18.66486779461266
0.2021892435043931	115.9457023979189	-87.31113552146746	14.07923158676678
0.2068632224455918	106.3717795124944	-108.1435299064445	8.533618875744544
0.2113301540101398	96.09474107271095	-128.2513244016106	3.807003185531869
0.2155195921846577	85.67741646593768	-146.5512090033517	0.5159639220350627
0.2193654673351004	75.62314812560251	-162.4890580470587	-2.171474987858115
0.2228071283122631	66.25963515774068	-175.971092578715	-4.433884624547805
0.2257902993364854	58.05071996865936	-187.027129203072	-5.988744584669437
0.2282679370955254	51.40166743586474	-195.7698159719674	-7.671614815885736
0.2302009768984097	46.17951518396485	-202.0592278995838	-9.179835996932781
0.2315589714577417	42.42864048108034	-206.357859305156	-10.03059062877808
0.2323208116596206	41.05728159198416	-207.3024971979661	-10.328641196659
0.2325	45.16647681152752	-205.1394137603992	-10.1104979127575
0.2329542507337262	38.36821165802129	-210.9533888418203	-12.19552664560505
0.234015784775164	35.56154108091762	-214.7776797565658	-15.79459615942815
0.2356644464118399	30.73667786858094	-220.830983850367	-19.83863635199287
0.2378741041940474	23.9503918400762	-228.4055042057411	-23.75225266317823
0.2406098871668135	15.31721922470976	-237.4461046344742	-27.24250223510567
0.2438286436775879	5.23325748622873	-247.308857713157	-30.68429164259636
0.2474796094921079	-5.483779539002313	-256.2989772567091	-35.51158461507034
0.25150520557877	-16.54491535907137	-263.6960520016445	-40.65790519600443
0.2558419453248002	-27.52589746581644	-268.9553537970229	-46.02430242551992
0.2604214354539589	-37.91107617645105	-271.8445955993116	-52.21963138312771
0.2651714545037473	-47.31499572578373	-272.4175975826287	-58.68720381058989
0.2700170917444269	-55.64794472944449	-270.7021829048084	-65.04249985149508
0.2748819285398158	-63.13649535658085	-266.4034844011793	-70.35045015240428
0.2796892435043931	-69.64527629082723	-259.1397653255258	-72.66271333962004
0.2843632224455918	-74.64780921338541	-248.4966391902696	-71.22039291286335
0.2888301540101398	-77.74529557815247	-235.1580792135354	-64.94977667405719
0.2930195921846577	-78.74192078382427	-220.1762788652125	-53.43151567110465
0.2968654673351004	-78.32227601526424	-205.4981288538733	-37.90659537829859
0.3003071283122631	-77.22385945782165	-192.3439795333944	-20.94718179857079
0.3032902993364854	-75.58074983670893	-180.8277316764307	-4.379626680576571
0.3057679370955254	-74.6540196054775	-173.6139422092437	5.095995254551379
0.3077009768984096	-74.49129524881712	-170.2054382223037	6.351087317998781
0.3090589714577417	-72.71870740347609	-165.0313212307829	-0.2658958496626767
0.3098208116596206	-74.88683838796621	-169.5615482110273	-13.1545404408178
0.31	-75.65651024682344	-171.276132065716	-16.9041792248527
