DataType=double
version=3
OpenSimVersion=4.5
endheader
time	pelvis_tilt	pelvis_list	pelvis_rotation	pelvis_tx	pelvis_ty	pelvis_tz	hip_flexion_r	hip_adduction_r	hip_rotation_r	knee_angle_r	knee_adduction_r	knee_angle_r_beta	ankle_angle_r	subtalar_angle_r	mtp_angle_r	hip_flexion_l	hip_adduction_l	hip_rotation_l	knee_angle_l	knee_adduction_l	knee_angle_l_beta	ankle_angle_l	subtalar_angle_l	mtp_angle_l	lumbar_extension	lumbar_bending	lumbar_rotation	arm_flex_r	arm_add_r	arm_rot_r	elbow_flex_r	pro_sup_r	wrist_flex_r	wrist_dev_r	arm_flex_l	arm_add_l	arm_rot_l	elbow_flex_l	pro_sup_l	wrist_flex_l	wrist_dev_l
0	47.15944810600056	-18.61320213092219	-13.15755703605349	5.427337981106644	-7.765400657849264	-0.9322359110523243	6.983772664023043	-8.860792041920998	49.72927005331315	188.6695696980336	-5.823447598860148e-12	189.8005544965816	50.35709488160389	-79.79450893960063	0	-70.22408417234325	-14.77051989642418	-52.57604077121398	-8.420812275049126	1.37345483749362e-11	-8.420795189810475	-0.140606480359506	71.00935768621974	-0.0361522444107979	-27.71485122702967	18.61074991836037	9.400123825816621	-5.142366000845668	-1.337560194520421	4.694196428322467	-20.26102265952255	3.130325237303914e-10	0	0	32.53628845775064	9.494972060914973	28.62800310914847	-5.105929868305216	3.130325237303914e-10	0	0
0.0004542507337261803	47.159375394302	-18.6132791185723	-13.15724768537793	5.427312159644422	-7.765587009299853	-0.932218051596718	6.381871139425883	-8.860537834236252	49.73158621167953	185.998328900676	-2.879383217862797e-12	189.7998523276856	50.10269385972301	-79.79364495924928	0	-70.22275418795148	-14.77062695947597	-52.57597874083892	-8.417605597567432	1.674564124079077e-11	-8.417588521689328	-0.1399239473566568	71.00872814459758	-0.0361523687944116	-27.71457407313644	18.61096684866013	9.399945896530371	-5.142537188329431	-1.337617515505687	4.694120143927475	-20.26103281684284	3.498833925443044e-10	0	0	32.53516032076345	9.494191754366003	28.62731379726968	-5.105934751252542	3.498833925443044e-10	0	0
0.001515784775164009	47.15694210954079	-18.61601702272353	-13.14647177329449	5.426413186360165	-7.772129537617957	-0.9315918687536742	6.34336027240461	-8.851649238191669	49.81279110609507	185.9907072619255	3.289791473323329e-11	189.7758287844212	50.23928820139552	-79.7638434986246	0	-70.17633328106838	-14.77440574468924	-52.57390374135837	-8.305316678229964	4.731079908139615e-11	-8.305299901731807	-0.1159812133817329	70.98692171099296	-0.03615597356090544	-27.70496646388873	18.6185953852248	9.393737058437001	-5.148514973873779	-1.33965132131877	4.691500311812257	-20.26136948343555	6.561858244554186e-10	0	0	32.49562256418666	9.466879111947868	28.60312460269578	-5.106147208593188	6.561858244554186e-10	0	0
0.003164446411839883	47.13731712883491	-18.6387036705503	-13.05797849003272	5.419032505255816	-7.826040876847118	-0.9264352810307728	5.832371376941616	-8.778536547528953	50.48155140003685	185.1688350498496	-3.636796496858936e-12	189.5800984388805	51.01645949046718	-79.52014809279382	0	-69.79478475765676	-14.80561593907961	-52.55718602716007	-7.381076505130984	-2.630839117872529e-11	-7.381062094872711	0.08125178233460648	70.80829668281579	-0.03618318324559821	-27.62623556899192	18.68150258861528	9.342710991873595	-5.197657504325929	-1.356488807935836	4.670120778201862	-20.26407185385403	-6.395874792358082e-10	0	0	32.17006814626956	9.242116270173184	28.40384195194288	-5.108040951976539	-6.395874792358082e-10	0	0
0.005374104194047435	47.05050101661965	-18.73720695886207	-12.67131006410559	5.386776478964913	-8.061069706825737	-0.9039399882730339	4.672019935476975	-8.459383669592356	53.39776995230671	183.5006258219174	-7.430203855212503e-13	188.7204398351174	52.74953887883241	-78.45261096428105	0	-68.12866057817405	-14.94143543321973	-52.48288891061282	-3.34888070822992	1.341997802939566e-11	-3.348876691404446	0.9410155833631606	70.02623852930671	-0.03630480285567997	-27.28171843450112	18.9555554678458	9.119853256548719	-5.412238071975493	-1.429607569959419	4.576293939738605	-20.27608134350065	3.501934417386954e-10	0	0	30.75018816224901	8.261327473638991	27.53497185972346	-5.115933584826923	3.501934417386954e-10	0	0
0.008109887166813518	46.79782736055232	-18.96727778820284	-11.69017937977125	5.304695653871107	-8.641612014031086	-0.8477070143008086	2.881458052760955	-7.657314838984481	60.60728758706033	181.0703239634365	8.16354748465599e-12	186.4132330700983	58.79469589742253	-75.67636804057001	0	-63.934450255014	-15.26842335633974	-52.24475855094057	6.694378608494127	-6.750604044865299e-12	6.694362090926318	3.05191519153709	67.98575324904172	-0.03651229252146514	-26.39202246238249	19.62440325223055	8.556779710703644	-5.952647561907492	-1.599464859629693	4.325455298200761	-20.31331242260201	-1.790451492265433e-10	0	0	27.22867994140074	5.808767599846495	25.38725466680915	-5.126848474329697	-1.790451492265433e-10	0	0
0.01132864367758793	46.2429862626965	-19.14411015237949	-10.37306602143366	5.192962933549378	-9.315487847187626	-0.7779393453740908	0.5900384170471185	-6.632726285179132	69.02347877634004	177.112535494054	-8.479088056123232e-12	182.4747979913054	65.42579038521656	-71.49517169891737	0	-58.52578815229351	-15.59021058424965	-51.5985706271473	18.92447427989555	1.272937157308074e-12	18.92446331247359	5.418033939498283	64.87583926388427	-0.03623800661033795	-25.09437418723772	20.34617518216537	7.817092638036105	-6.650920852302242	-1.723758370671949	3.903839953701985	-20.4080828266746	6.360708734798822e-11	0	0	23.04195095526259	2.757804569517131	22.88340547504153	-5.080013365005479	6.360708734798822e-11	0	0
0.01497960949210789	45.25900129362454	-19.09718480207026	-8.949607470000077	5.069411211744987	-9.85718662978549	-0.711980242638356	-2.045621129888033	-5.613074078095092	75.83656738804252	171.112675257469	-2.156915514271564e-12	176.7457692048385	70.53610438702847	-66.21422589883935	0	-53.08150583753957	-15.72644406183986	-50.28190562425151	29.91493971117053	-2.981967998658095e-12	29.91495890609841	7.114529551381761	60.82725842485858	-0.03542613480425036	-23.50736142414446	20.80708454549544	7.044680408552894	-7.358272725687024	-1.667149219441728	3.295918380872267	-20.59226714602826	-1.471920726445723e-11	0	0	19.48618678226762	-0.1203004094809054	20.85208881108888	-4.927612000937552	-1.471920726445723e-11	0	0
0.01900520557876997	43.77827933028016	-18.91088195392733	-7.078476761692595	4.905441791137739	-10.48253605966534	-0.627510069620498	-5.097628484652759	-4.299593731514316	83.5775123446407	163.2137156097891	2.201833275512015e-12	168.5814137578077	75.65740967629399	-59.05206535712519	0	-46.13877949196653	-15.79372976479748	-48.13779223484311	43.28970792537174	2.191803574546815e-12	43.28968164155494	8.841475198046712	55.0884145262075	-0.03546804288264865	-21.33002788227875	21.24085752400214	6.03631900311629	-8.26855831074031	-1.480983589481559	2.419642869618878	-20.87965105418678	-1.22581654363381e-11	0	0	15.30062939694857	-3.732885383908755	18.50564905584031	-4.701553328202249	-1.22581654363381e-11	0	0
0.02334194532480019	41.72130347211418	-18.48113975495128	-4.875654709103272	4.709252079111502	-11.07305491366698	-0.5314572188929882	-8.488391959183552	-2.799656054859691	90.64690369251753	152.8865578757066	2.60731893585892e-12	157.9225060104343	79.37783982305152	-50.28212457515381	0	-38.32801634977358	-15.68304667850087	-44.91624759231266	57.22540776889663	2.087563070147015e-12	57.22543056356771	10.02838340771834	47.63520557857241	-0.03349651433942773	-18.61543893314632	21.46017694880236	4.858728807848284	-9.307204111360647	-1.073571658924109	1.258922861184004	-21.29138000119122	2.313561384434891e-11	0	0	11.191958610739	-7.69694806859577	16.28172717849899	-4.392282046157916	2.313561384434891e-11	0	0
0.02792143545395889	39.05764363775154	-17.77108111064349	-2.353242567307274	4.481323342978524	-11.60937569633758	-0.4228344968634782	-12.09475699376211	-1.115698286797977	96.62577823082793	140.0653192019249	-2.582774005500819e-12	144.7933345612219	81.81271510462349	-40.1036206704859	0	-29.76456841591498	-15.35643908954551	-40.43107642582986	71.39352975041817	-4.119629909975245e-12	71.39349699400762	10.47356403329148	38.34422092028247	-0.03371744030687696	-15.35997597882858	21.40399161550395	3.510030981442501	-10.46732041144228	-0.4029002575409686	-0.199943648834822	-21.83482258460544	-4.9997161787607e-11	0	0	7.3078890762483	-11.97861315850827	14.25241112392629	-4.017437899757089	-4.9997161787607e-11	0	0
0.0326714545037473	35.80480351479248	-16.76898537734446	0.4702181588075952	4.22233341140099	-12.09044624188554	-0.3000879126335357	-15.69878499142033	0.7534782852236401	101.3235260792679	125.3946766639378	1.884010793176282e-12	129.4295929028714	82.55185456471902	-28.85554811756928	0	-20.54398008726886	-14.79628037440627	-34.57200087455845	85.66155734008946	4.760471768748898e-12	85.66157193416265	10.06587680653926	27.19426651032501	-0.03284529226486819	-11.58961851355177	21.04219423407866	1.986711859622688	-11.74502212214366	0.5516153748905716	-1.951181195646883	-22.50369467276315	9.103416477002119e-11	0	0	3.701676410958308	-16.57704028880131	12.41713819540635	-3.606000312752708	9.103416477002119e-11	0	0
0.03751709174442691	32.0255469018437	-15.46544686056447	3.509367009859003	3.938449193915622	-12.48867792648683	-0.165311047468724	-19.62822262179802	2.755453446018621	104.2603220247018	107.7993166190296	-8.545620852103644e-13	112.327751365017	81.24897896917092	-17.10015028627801	0	-11.01096236740591	-13.97819776823879	-27.32419585672213	99.37416789593718	-4.209980819294023e-12	99.37420211872079	8.6396628945737	14.38364677600152	-0.03167675834534504	-7.405885203009358	20.32470709916517	0.3219988024872092	-13.10343760119343	1.80281858749678	-3.960558664010374	-23.27827957928656	-5.948912978527212e-11	0	0	0.5897209490159585	-21.34644739531619	10.86863100481024	-3.186152144235332	-5.948912978527212e-11	0	0
0.04238192853981579	27.83036899894645	-13.88891712921483	6.691845715633128	3.635034597030789	-12.8080964199006	-0.02012062643144127	-23.1757899943816	4.8543472138903	105.4157643129124	89.39277448976107	2.063532220130269e-12	94.12457473377097	78.71152247337128	-5.397613519201903	0	-1.385458895098884	-12.91386938811099	-18.80660032898579	112.3194348205238	3.948327904718116e-12	112.3193938017378	6.215101881276346	0.2165863323388079	-0.03088296463841896	-2.923424510179555	19.26002351437572	-1.459361278325616	-14.51939021323749	3.327053466098461	-6.175965830914551	-24.12509423755798	3.001444873001255e-11	0	0	-1.997704315164304	-26.21982493953649	9.579261498869506	-2.789208235165189	3.001444873001255e-11	0	0
0.04718924350439309	23.36237874222374	-12.08143625844364	9.911842529992054	3.319922663779319	-13.04354329414495	0.1312166646170997	-26.23661035727288	6.985716238104608	104.7497357162703	70.82169484721996	-3.351459950493565e-12	75.57497740247511	74.09809104085272	5.668009507800655	0	8.016894769682771	-11.62501761281031	-9.262339012342878	124.1051471414485	-4.131458435477326e-12	124.1051620235651	2.855506617810918	-14.83587470851948	-0.03093625733926206	1.701665999790784	17.86708581752691	-3.309856699176063	-15.95326296824821	5.081261907499766	-8.524795446890808	-25.00247075650577	-4.390595818442681e-11	0	0	-3.98544709632473	-31.05935323768539	8.553678004695879	-2.438218627633187	-4.390595818442681e-11	0	0
0.0518632224455918	18.78543363908933	-10.10900169151628	13.07035298708805	3.000688237862589	-13.20338657146608	0.2842396419056866	-28.63119543551674	9.090574367692771	102.4856465334854	52.98031117394079	6.52388314060733e-13	57.43252199546134	67.70704657952555	15.62978070768985	0	16.95496624612683	-10.15839241041208	0.9540379432117679	134.5637680944931	2.866000445078667e-12	134.5637743609902	-1.250272707050233	-30.22784054833603	-0.03023856495251386	6.30995795031584	16.20424633040651	-5.18068453740213	-17.36974232898724	6.996377149465309	-10.92418220983198	-25.86563836870841	1.424790120468814e-11	0	0	-5.392836483699438	-35.75541162296603	7.748180319145384	-2.148639817778637	1.424790120468814e-11	0	0
0.05633015401013977	14.26608028357082	-8.048185848518795	16.0672668492914	2.6853755663271	-13.29502873237334	0.4336505145706542	-30.28709515891995	11.10596323827777	98.91704314415429	36.60705961526403	-3.411484161227703e-13	40.380120171784	61.17480481445502	24.15631955898869	0	25.202322238132	-8.573237952417387	11.41968013840044	143.5494316790543	-2.717980626887722e-12	143.5494288806606	-5.860344600750378	-45.37176836573813	-0.02790603186384781	10.74198219427667	14.34771262215782	-7.015362079449346	-18.72987226579359	8.990459316360948	-13.2867124233023	-26.67383007408875	3.084765668012176e-12	0	0	-6.251936210449177	-40.18550482795938	7.127439118700872	-1.925306512928322	3.084765668012176e-12	0	0
0.06051959218465776	9.959172853415847	-5.982978349295073	18.81952565258684	2.381300160321528	-13.33069086566871	0.5744272657773881	-31.23632224644446	12.97893856299207	94.44585719114002	22.01242486613466	3.716299607191819e-12	24.95450987195408	54.13039822478373	31.09327325669219	0	32.60227110416444	-6.940128057440464	21.69198163618623	151.0476043176406	7.520949531545645e-12	151.0476150307895	-10.687783295303	-59.71641363871689	-0.02914999383795256	14.85960867810405	12.39211733413269	-8.760135892953658	-19.99907723579627	10.97493400841216	-15.52981731509367	-27.39479654679478	6.592004501645616e-11	0	0	-6.640025356549647	-44.25037153104991	6.646883761270443	-1.764707083579474	6.592004501645616e-11	0	0
0.06436546733510043	5.996206387855039	-3.995326591395775	21.26275775279334	2.095396812518296	-13.32199803825218	0.7017496171132175	-31.56028174417581	14.66621736655354	89.48797656100588	9.42553159621103	-5.33492874985404e-12	11.5136530157387	47.80610663139812	36.44543469052009	0	39.05029972430838	-5.331693560631383	31.35938368593752	157.1057484281828	-1.252828234228761e-11	157.105736997924	-15.45075326246037	-72.79462250379449	-0.0270681225865963	18.55300374708741	10.43623098703826	-10.36585540079848	-21.14692120127615	12.86575180915839	-17.5826113152682	-28.00841430733607	-1.222749847015394e-10	0	0	-6.648761640226884	-47.86818325484251	6.271793193946392	-1.657183203370564	-1.222749847015394e-10	0	0
0.06780712831226307	2.478405320770343	-2.159665720798109	23.35679357344063	1.834291527214862	-13.28237730859184	0.81299442682237	-31.16711069070499	16.13788822967397	84.45030763787165	-0.6219742149094856	5.885865344219526e-12	0.2309060612925135	42.37508349046317	40.34971021815069	0	44.5015763950655	-3.817588654515019	40.08004363392283	161.8430492004165	1.567640625023766e-11	161.843050472846	-19.89777855564852	-84.26262409737677	-0.02679956756491034	21.74823607753124	8.575534986186952	-11.79299376858295	-22.15049579832143	14.59046802319315	-19.391111909056	-28.50685147841231	4.396354183840932e-11	0	0	-6.384510480967136	-50.98560442154032	5.974221485715889	-1.590206983618033	4.396354183840932e-11	0	0
0.07079029933648544	-0.5243108456167496	-0.5380195102750105	25.08407820336249	1.603731722216725	-13.22398503756661	0.9059732151783595	-30.11925315444282	17.37611039667117	79.68971485215492	-8.035513429071184	-9.777112118531239e-12	-8.879770621960532	38.18505444310681	43.02945142217901	0	48.95717760975288	-2.458573648463168	47.60281054913817	165.4167943623191	-1.863941379024116e-11	165.4168137140128	-23.83107450367692	-93.90940932461899	-0.02747180898956377	24.40628832498366	6.893769727319164	-13.01289139643896	-22.99488959390331	16.09322419739407	-20.92012683290682	-28.89309963640427	3.185517769244573e-11	0	0	-5.954297763012284	-53.57560212055038	5.736256435275728	-1.551263310571988	3.185517769244573e-11	0	0
0.07326793709552543	-2.970575694572572	0.8219605244171152	26.4462871518188	1.409042187044955	-13.15850653142884	0.9798712426149239	-29.22748898847729	18.37334670444558	75.49911532437409	-14.33014978576708	1.415602287956201e-11	-15.91982481958792	34.81670156632457	44.7476985056776	0	52.45272878804471	-1.303903926776807	53.76919100931275	168.0044009556345	1.388634301985416e-11	168.0044144772183	-27.11300137592691	-101.644897654282	-0.02755901718517757	26.51836015729887	5.458645206045675	-14.00789184304417	-23.67327109287867	17.33588254408939	-22.15228783073377	-29.17773980718032	-1.241584906601908e-11	0	0	-5.459564481655153	-55.63491093795961	5.54768786104531	-1.529941649798092	-1.241584906601908e-11	0	0
0.07520097689840965	-4.841599222722323	1.886661332764511	27.4581353373105	1.255102334399385	-13.09678843044444	1.035160975883728	-28.55009711591192	19.12937621835247	72.10238297280421	-19.41096983731325	2.994078572396671e-14	-21.05590684456997	32.3187476423611	45.76688394887464	0	55.04337617237231	-0.3906232308707881	58.49906612711307	169.7813065835042	-8.632323409738519e-12	169.7812977723255	-29.66110401683255	-107.4700023427066	-0.0267865428078297	28.09718828901794	4.32062746621678	-14.76946234675418	-24.18528657828402	18.29606261207316	-23.08423037648794	-29.37533174498578	3.055047394016135e-10	0	0	-4.989529617451332	-57.17698971124663	5.404129783541149	-1.518715351235118	3.055047394016135e-10	0	0
0.0765589714577417	-6.133284685549084	2.634624331846638	28.14011233395905	1.145860543367562	-13.04787019119282	1.072643494829753	-28.00478553265056	19.64801298358364	69.65843198129784	-22.82931047151213	-1.979547163053738e-12	-24.46768719427443	30.64687026582305	46.31421481668799	0	56.78881045055472	0.255837593667583	61.76722879483932	170.9020163066581	4.525319671696586e-11	170.9019836499692	-31.43558221586658	-111.437596188651	-0.02572551918800682	29.16658942572857	3.513974365845612	-15.29541942632772	-24.53476555121185	18.96327811728406	-23.72123082154729	-29.50065514375553	6.030416873378551e-11	0	0	-4.616347167733521	-58.22372185002614	5.304311580879547	-1.513002970438233	6.030416873378551e-11	0	0
0.07732081165962061	-6.848947803590621	3.053722805392601	28.51174019560209	1.084158193054428	-13.01839938362438	1.093136834231606	-27.2156063862498	19.9342308277543	68.26876215577795	-23.32098645997801	-3.511508449489468e-11	-26.30882244261711	29.82549595611778	46.56066197670229	0	57.74034115171771	0.61982692793894	63.57788677462197	171.4844338464459	-7.928375421729693e-11	171.4843889155374	-32.4230860010563	-113.6148457437683	-0.02507874461690034	29.75125957141958	3.059503841622361	-15.58686584158296	-24.72680517517554	19.33431411659205	-24.07159653245998	-29.56595956343138	-1.495071373127759e-09	0	0	-4.391739826360726	-58.79701020859852	5.248537131383749	-1.510388579684723	-1.495071373127759e-09	0	0
0.0775	-7.016292758710867	3.152213024786156	28.59797264000473	1.069600386681409	-13.0112546145296	1.097898198731056	-26.37533481948702	20.00104248296032	67.94009610752693	-21.45093567388592	-3.015718650434986e-11	-26.73414547326803	29.72348917958804	46.61232170190037	0	57.96121446212872	0.7055511287594616	64.00120238204947	171.616575982799	-7.919383640686308e-11	171.6165285368555	-32.65437866279085	-114.1216634438654	-0.02493093388968309	29.88712923273152	2.952447451997078	-15.6550174046186	-24.77153472722833	19.42120448313614	-24.15323855447347	-29.58078974701266	-1.858964307280988e-09	0	0	-4.337335751145362	-58.93035419730044	5.235433248725593	-1.509823583407049	-1.858964307280988e-09	0	0
0.07795425073372618	-7.43879691363106	3.401715953824163	28.81453562693574	1.032616955480872	-12.99277733958567	1.109865090066523	-27.33787242159615	20.16953213306256	67.10396371251566	-26.14350760696511	-7.566790299685543e-12	-27.79906841376236	28.71063805013538	46.73254568855749	0	58.51609214048394	0.9230304771080311	65.06976952905509	171.9432819603797	-2.015361625697289e-12	171.9432292880856	-33.23890994483278	-115.3972368621717	-0.02458017829528978	30.22869819564853	2.680817651365792	-15.82708417657654	-24.88415667272872	19.64078983720522	-24.35886124315849	-29.61747325460306	-7.315473088554077e-10	0	0	-4.196747352689268	-59.26579026964333	5.20223031863031	-1.508464063760622	-7.315473088554077e-10	0	0
0.07901578477516402	-8.416198004311514	3.983586279618551	29.30899714098108	0.9457403440920625	-12.94754432834442	1.137233686759626	-27.19679871916837	20.55825757202922	65.13443522639977	-29.78742581069065	2.299881379447636e-11	-30.21270467280761	26.87662505769729	46.95369463128286	0	59.78426386351935	1.431990577523889	67.54017955757389	172.6603771260806	4.85321314696491e-12	172.6603193428293	-34.59382592585504	-118.3250741494249	-0.02393213016385382	31.01050381565788	2.045005371895777	-16.22512660496729	-25.14289686337072	20.1498429302839	-24.83161833994359	-29.69805764188793	1.022503908418548e-09	0	0	-3.853389039231912	-60.03485679597183	5.12468166728406	-1.505607426376848	1.022503908418548e-09	0	0
0.08066444641183987	-9.904933511820177	4.882872968203685	30.0435112270649	0.8095049305284392	-12.87154150111138	1.17797458296585	-26.57863611854771	21.14756736144974	62.03718660623875	-34.38921135851946	-1.217103663256053e-11	-33.74904393176883	24.3701050814955	47.13191844234124	0	61.67310480005917	2.223548128859775	71.29616200311298	173.6448956865017	1.085819094305157e-12	173.6448618924958	-36.66229064589574	-122.7173159809621	-0.02382748458766426	32.17721863286339	1.056066784437419	-16.8313065955212	-25.53169193066052	20.9277195785404	-25.54300693111335	-29.80866417301056	-3.286115550568991e-10	0	0	-3.279578391182814	-61.18663279113433	5.004039892469832	-1.50163032166303	-3.286115550568991e-10	0	0
0.08287410419404742	-11.83974055883243	6.076379129895376	30.96096376512516	0.6242926693535239	-12.75847308209161	1.228959637216263	-25.25642011888485	21.90855248613987	57.82660012112811	-39.4884523134596	2.414484228657242e-12	-38.07506872405484	21.34182236996106	47.06005706028819	0	64.04608388848945	3.283626539011192	76.15737705859958	174.7167232365953	-2.564293932929239e-12	174.7167637478999	-39.35127496230492	-128.2872982896425	-0.0251124102953491	33.64460450611058	-0.2677531093152311	-17.61865845672648	-26.02563185379687	21.94200876753488	-26.44907665732787	-29.92859964861523	7.93048234334583e-11	0	0	-2.435035778140763	-62.6445235583983	4.841428485535143	-1.495791750627435	7.93048234334583e-11	0	0
0.08560988716681352	-14.1294840775851	7.528092847231978	31.98393742475599	0.3906442073022813	-12.60012472575774	1.285898016351981	-22.93467661898734	22.80220100711503	52.54799537991293	-44.13674254142146	-1.584839676092416e-12	-42.76004907075605	17.53425964733634	46.49009937905547	0	66.72297201468683	4.588450586956704	81.86289372719304	175.6482119397031	-6.615723716496396e-12	175.648290156352	-42.51658839236656	-134.6372966000317	-0.02592058062054422	35.29647277670568	-1.894579032075847	-18.5490807036646	-26.58914702551573	23.14446392067561	-27.48766791082719	-30.03129400043378	-6.423817942678476e-11	0	0	-1.273717269918042	-64.30407833066783	4.637960839581637	-1.484684328706483	-6.423817942678476e-11	0	0
0.08882864367758794	-16.65700236598301	9.186462902651758	33.01649124260775	0.1091620623513451	-12.38672516121398	1.343349191436132	-19.47246122500763	23.78029519048007	46.29323326750222	-47.44845400363675	6.852873250869175e-13	-47.30378786662491	13.32326845355728	45.16353565548669	0	69.48610864021971	6.101574872858629	88.06693850272843	176.1793467755771	9.536463625850065e-12	176.1793224056319	-45.95425777181946	-141.2630993353511	-0.02367924457301275	36.9855584704281	-3.774272716303166	-19.57304321305136	-27.17516719967042	24.46908241691267	-28.57780675129732	-30.08622185939188	3.305755056459584e-11	0	0	0.2492087302852	-66.0346620179232	4.39524872379053	-1.460500861219633	3.305755056459584e-11	0	0
0.09247960949210787	-19.28136669018408	10.98263383714444	33.94814939318315	-0.2197241248796159	-12.10742340131356	1.394783564755054	-15.05032124055851	24.78730330380608	39.21029796540063	-50.53133752978091	-7.443291466182546e-13	-51.18161767458321	8.596272137128341	42.84858354469031	0	72.0896218164856	7.77170037732358	94.3455369359004	176.0354542341113	-1.03218326313062e-12	176.0354271732867	-49.39854356552442	-147.5735177979874	-0.02293017022230232	38.5372510614277	-5.834834503995804	-20.6304241339686	-27.72482662511021	25.83192095612243	-29.62075910838679	-30.06186731063936	4.836100086129273e-11	0	0	2.170056949021969	-67.68373700617543	4.117155449593039	-1.409347174400557	4.836100086129273e-11	0	0
0.09650520557876997	-21.84339007220331	12.83077715921784	34.66078484810426	-0.5954797275952044	-11.75010829156266	1.43321666041438	-9.380449857966923	25.76321140014773	31.50344264902141	-51.60657737054291	3.907834213259375e-12	-53.89991242933107	3.992182747715001	39.37642892310311	0	74.27160746650524	9.53217000245845	100.2183805251494	174.9464190479273	-1.634379573835338e-12	174.9464222249865	-52.53149431769113	-152.9282406660683	-0.02311181329401203	39.757307828117	-7.98155688312569	-21.65301509085349	-28.16859803463001	27.1338380389814	-30.50407584583075	-29.92938925899612	-6.193085137850873e-11	0	0	4.509882042711728	-69.08486242850752	3.812267623120729	-1.310529525026183	-6.193085137850873e-11	0	0
0.1008419453248002	-24.17464045721026	14.63122859747308	35.03808978473187	-1.017064753041694	-11.30216547903444	1.451558420740713	-2.608219909218228	26.64753665835459	23.42173866918485	-52.28040475914189	-4.667074016994042e-12	-55.05958334002538	-0.839414110167521	34.67242850813749	0	75.769458739169	11.30303855598473	105.1874324758778	172.666636474332	6.060484569795942e-13	172.666594738317	-55.00611105490869	-156.6943363969576	-0.02189259564682871	40.4438828512131	-10.10000958656891	-22.56892467878711	-28.42934202065846	28.26655505997169	-31.10867356981467	-29.6663639834306	7.257123734842754e-12	0	0	7.269033073811388	-70.06949485428134	3.496601915931588	-1.136781204639553	7.257123734842754e-12	0	0
0.1054214354539589	-26.1096266910215	16.27697012974363	34.97725664946191	-1.482620329801236	-10.75183482610292	1.443472953521523	5.312685425859257	27.38392940825614	15.23724398460898	-51.97271221082849	1.385230111859977e-12	-54.41468100170098	-5.190901481765675	28.77507759671626	0	76.33802603564121	12.99622779599767	108.7892233692222	168.9952015834633	-8.068702376234466e-13	168.9952444783794	-56.48320094626855	-158.3165451936224	-0.02155676195233675	40.40402967576096	-12.06370879575929	-23.30877032833518	-28.4278501950598	29.12222712296056	-31.31906771196279	-29.25988451504195	2.079775131954866e-11	0	0	10.42367838792168	-70.48249329740361	3.19533608030621	-0.8560336574844325	2.079775131954866e-11	0	0
0.1101714545037473	-27.50031838633852	17.6632003167088	34.40153894376952	-1.989232845042638	-10.08924760307629	1.404632399477502	14.53398534166972	27.92473336769435	7.217321797711048	-49.15400446893568	2.202847491631842e-12	-51.9129263670185	-7.979294692434415	21.83896147337912	0	75.77024683537809	14.52336924334495	110.6523595254592	163.7959710082905	1.450740252072376e-13	163.7960195070619	-56.67700515547249	-157.3903477645503	-0.02048256123740995	39.47379889167913	-13.7460730777402	-23.81293101530446	-28.09086069403	29.60558361521984	-31.03611285656403	-28.70851248814473	-8.35349937631104e-12	0	0	13.92468536326778	-70.19976206146613	2.942560367717327	-0.4349526755236695	-8.35349937631104e-12	0	0
0.1150170917444269	-28.23156365261859	18.6989593392967	33.27106699302683	-2.531957764909045	-9.30851610028842	1.332344434851647	24.73866253464173	28.23548978879579	-0.4029483759547325	-43.95221181002731	5.76566504930378e-13	-47.71014513447764	-9.103304559449583	14.12045393579083	0	73.91939517752392	15.80533411176617	110.5490850248339	157.0165172105849	2.98322811587262e-12	157.016430984756	-55.40059547643489	-153.7223441886527	-0.01992979764838406	37.53918914352389	-15.03523125722513	-24.03868591471276	-27.3608315144342	29.64620536474666	-30.19040447716941	-28.02236332405248	2.353568988769521e-11	0	0	17.69888280068704	-69.14485693521647	2.778332645445994	0.1566281707940245	2.353568988769521e-11	0	0
0.1198819285398158	-28.23483320378933	19.31888004933915	31.5907406038756	-3.103186756756231	-8.410206053337637	1.22776683530343	35.50307909439977	28.29772927123332	-7.441906332591057	-37.45777931980632	-5.235687894695127e-12	-42.14864088848756	-9.054236320732201	5.948627502309662	0	70.71994939554958	16.7819417409611	108.4281137878819	148.7040853410674	-3.869083541049982e-12	148.7041160531749	-52.60114074332414	-147.3644384756612	-0.01915725167690616	34.55526390254111	-15.84908612977093	-23.96585925525219	-26.2058449413034	29.20906134217938	-28.75384790137327	-27.22164100944315	-4.897177850632064e-11	0	0	21.65280583587931	-67.30234513321099	2.743001170354797	0.9405777387662801	-4.897177850632064e-11	0	0
0.1246892435043931	-27.49815344108827	19.49268508775425	29.41200940721959	-3.693229563034853	-7.403583563409947	1.094170529699457	46.50844315754035	28.11088078994257	-13.78190186354398	-29.98097067839677	5.809570210471197e-12	-35.70443169811315	-8.131598084893451	-2.313624738780905	0	66.20443090488709	17.41968276705983	104.421749382827	139.0152081291484	2.836099636785264e-12	139.0152227865051	-48.37576570728157	-138.6123558738927	-0.01830633207352589	30.55947763089286	-16.1474042860403	-23.59966415462868	-24.6275907935464	28.30120100406882	-26.74714788756353	-26.33374175065881	4.614183053546138e-11	0	0	25.67881877822615	-64.72344840739224	2.869684429861262	1.925458261421875	4.614183053546138e-11	0	0
0.1293632224455918	-26.0699402181558	19.23012643213163	26.82889267606592	-4.289538664473625	-6.307312095790458	0.9377838003388894	57.35447712032773	27.6923680227878	-19.36826148721557	-22.15477176799579	-2.323990707980147e-12	-28.91479061545413	-6.769823217076983	-10.31150199072217	0	60.51050469839165	17.71569593343728	98.82467357499335	128.2154269134157	-2.498130835953724e-12	128.2154240152404	-42.96181292882665	-127.9669287396828	-0.01771569720066099	25.67551659978438	-15.93801659472082	-22.97013186049409	-22.6653090071102	26.97164982666258	-24.24102023596569	-25.39031895510907	-5.054851553791405e-11	0	0	29.66276653388105	-61.52329794482488	3.177385334116083	3.103060582669349	-5.054851553791405e-11	0	0
0.1338301540101398	-24.05529571472177	18.57996737470635	23.96806620070823	-4.878252563580755	-5.149591627770507	0.7666381788634937	67.58446773469817	27.07623878023081	-24.19887197421512	-14.83262468961007	-1.834221201242751e-12	-22.29652569922504	-5.018833501039154	-17.73639587451547	0	53.87655727246597	17.69705285682136	92.05122006666954	116.666635458402	5.132260941650784e-13	116.6666357381185	-36.70475919747001	-116.0678653368122	-0.01695151709219452	20.10593757443034	-15.2755933230691	-22.1281773506348	-20.39452131348892	25.30620136575541	-21.35062668221775	-24.42411558642046	3.128393638475803e-11	0	0	33.49272241141473	-57.86909832010481	3.665434054409441	4.446204332528274	3.128393638475803e-11	0	0
0.1380195921846578	-21.60504867266704	17.62320388202149	20.97524339051182	-5.444759572550998	-3.967379252805232	0.5898448651216486	76.84587768235633	26.31038132481136	-28.30848721188718	-8.453265803949726	4.540249437046695e-13	-16.27847922669475	-3.071135922409724	-24.35418455107115	0	46.62313761352405	17.41581461776637	84.58036566502199	104.8018109907604	3.071153216875363e-13	104.8017888351411	-30.00966959962684	-103.6138041548155	-0.01625572309136994	14.11425817310498	-14.25322486923093	-21.13924090063935	-17.92049667455175	23.41659272487229	-18.22382975016261	-23.46714863042049	3.15683530962479e-11	0	0	37.06740718248987	-53.96144177346373	4.311993446243665	5.909743509532984	3.15683530962479e-11	0	0
0.1418654673351004	-18.89975172821469	16.46212639623703	18.00020999883333	-5.974595694253684	-2.802579231854855	0.4161218169499841	84.90861719725231	25.45241132877825	-31.75229625466875	-3.273036891208122	-1.97772703288915e-12	-11.15455076578648	-1.172131648334819	-30.01991593943199	0	39.12427976853061	16.94106433821254	76.90125510919137	93.09112966102994	-2.170629890129883e-12	93.09111756959413	-23.28880925987986	-91.28629491992805	-0.01573407982647243	7.999412334874015	-12.98909586832554	-20.07579504863788	-15.3678138383145	21.4273130189332	-15.02596475206039	-22.54930696093637	-8.188598461374609e-11	0	0	40.30282306003983	-50.01297568652988	5.075878146805419	7.43322863990972	-8.188598461374609e-11	0	0
0.1453071283122631	-16.13126701211742	15.20781557850974	15.18360702004161	-6.45459610216191	-1.698962218691014	0.2535382869343673	91.65705620512534	24.5644358467163	-34.59199084749854	0.6122098488986154	8.654705721255585e-12	-7.06598551824789	0.4594693505963434	-34.67813442870295	0	31.77302532411847	16.34968199695211	69.46844566918486	82.0046410691665	6.26661694389952e-12	82.0046681673802	-16.91683006377982	-79.69086824895999	-0.01519074690794832	2.067951642033552	-11.61136777449599	-19.01017071131398	-12.86822666241576	19.46271974096281	-11.92380162945773	-21.6978245920531	1.206115352567713e-10	0	0	43.13655368805798	-46.22801670864526	5.901745851231927	8.945780977720293	1.206115352567713e-10	0	0
0.1482902993364854	-13.48525521864947	13.96848030020371	12.64707794737472	-6.873572273110246	-0.6988843272711619	0.1089153228307798	97.09002513796189	23.70779405188649	-36.88601710757246	3.299069272967028	-1.044860370188823e-12	-4.013213881076044	1.656906815131709	-38.35029821608569	0	24.94771205153636	15.71788377016022	62.67215927640103	71.978357384343	9.426300059023059e-13	71.97839305839399	-11.20089167381489	-69.32274000402786	-0.01460382251947201	-3.391516013072083	-10.24425979307397	-18.00877799402352	-10.54896361855476	17.63633292366509	-9.071619966677718	-20.93735069064124	-5.699967660224922e-11	0	0	45.52876565027661	-42.78676383637843	6.727105802358913	10.37203352155168	-5.699967660224922e-11	0	0
0.1507679370955254	-11.12775448507917	12.84077513778716	10.48799072685268	-7.222546820199149	0.1598970597681016	-0.01294004894554138	101.2652911118143	22.93869675987862	-38.68406772302	4.978206115645669	-2.187921004189157e-11	-1.888242418245446	2.426220179859484	-41.11373999766752	0	18.98581583338337	15.11489144457348	56.82444676094552	63.38993346830082	-4.998464313574764e-12	63.38994782258887	-6.368910414816837	-60.55660499227684	-0.01423373626790787	-8.127053778998524	-8.997927371382042	-17.12836437287164	-8.523684273601456	16.0439648110078	-6.601751712722269	-20.28990573819571	-1.049634156966036e-10	0	0	47.45987716021361	-39.83636276871162	7.489137097849349	11.63798092341588	-1.049634156966036e-10	0	0
0.1527009768984096	-9.195781963501664	11.90410217997426	8.778444799175482	-7.494883501835816	0.8461467079456325	-0.108609904867715	104.3057487777555	22.30456108388123	-40.02499446832075	5.92975924275202	3.295327640673244e-11	-0.520480393070948	2.692397381850013	-43.07537979235165	0	14.16523813044323	14.59847887195135	52.1584406810634	56.54330758410842	-6.676097926680594e-12	56.54329159951189	-2.573093652186645	-53.65526326807441	-0.0140611143632794	-11.93516104092212	-7.962049232647032	-16.41410168016981	-6.886235122647733	14.7604966048704	-4.619122031603211	-19.77463312736414	2.476082612499974e-10	0	0	48.92588368000516	-37.48776499288115	8.131060558342719	12.67676955012983	2.476082612499974e-10	0	0
0.1540589714577417	-7.793718088302048	11.21863322749635	7.567730261826991	-7.686019246447452	1.336008351121285	-0.1758813842636865	106.3310462482832	21.84225685077196	-40.93681867138739	6.423461894825046	5.234198936166353e-11	0.2767387491449774	2.559424313314917	-44.34652184520971	0	10.69735753427437	14.21311180675173	48.83601857917789	51.66530255418416	6.80428630341442e-11	51.66526936337462	0.09574030565353629	-48.78849926736854	-0.01393276581597145	-14.663794895474	-7.203948716866063	-15.89938651068255	-5.708211588550337	13.84010309506075	-3.20070353283382	-19.40717030098899	-1.802679681482499e-10	0	0	49.93221771440962	-35.81827097560156	8.606256112180667	13.43311487610164	-1.802679681482499e-10	0	0
0.1548208116596206	-6.991911453713327	10.82476530495787	6.885861888396533	-7.793123930561567	1.613435717886362	-0.2135783321413978	107.4780029020376	21.57709477042704	-41.43801395382732	6.817147634439799	-1.970538324124413e-10	0.6619002604112439	2.032456339714932	-45.01970839717405	0	8.724327275091223	13.98914496283589	46.95856303083191	48.90623349535366	-1.731167060637947e-10	48.90619483146886	1.590870419411829	-46.05513603968304	-0.01384083262522293	-16.21230550652275	-6.768411929795725	-15.60631482999398	-5.037932186855921	13.31770396106352	-2.396629538747202	-19.19900344081864	-1.548654999238003e-09	0	0	50.48768698826551	-34.87585908619705	8.881445531921257	13.86697894146369	-1.548654999238003e-09	0	0
0.155	-6.801789383604188	10.73118932320967	6.725257891629266	-7.818299282392946	1.678949004278862	-0.2224364127439699	107.7041459964503	21.51413750319973	-41.55485118193334	7.697503904940369	-2.356046435702278e-10	0.7458407555456363	1.597128552994256	-45.17380231902543	0	8.257500010384609	13.93567850484745	46.51570856683158	48.25506875882898	-1.815218509763611e-10	48.25502945217879	1.942141123666122	-45.41212362751428	-0.01381577863403531	-16.57827996023765	-6.664947386324629	-15.53695399466543	-4.879334263971749	13.19424409826212	-2.206692384403458	-19.14982808055149	-1.100834697444147e-09	0	0	50.61735302445867	-34.65366680430355	8.947059428124867	13.97001939250472	-1.100834697444147e-09	0	0
0.1554542507337262	-6.317264810798	10.49240928046274	6.317787312180285	-7.882088601289331	1.84546172334884	-0.2448741067554778	108.2982426961921	21.35354851348436	-41.84928743841972	6.788395545772033	-6.451440212295929e-11	0.9471134730218098	2.847442428134945	-45.55712350272855	0	7.069476988894548	13.79881709450713	45.39103834231567	46.60068261782652	-6.222508164819076e-11	46.60064285746952	2.831787381294612	-43.78207784072406	-0.01374604645886445	-17.50894379869628	-6.400957977209625	-15.36041072510234	-4.475706390833035	12.88030618597416	-1.723858620630245	-19.02479917738387	9.499221874770099e-12	0	0	50.94435069854462	-34.08956674020256	9.114898431201897	14.23292314990053	9.499221874770099e-12	0	0
0.156515784775164	-5.171149380990382	9.925960086219824	5.364088744237158	-8.030950422775414	2.236917467192026	-0.2971874532013241	109.6383160286329	20.97287414414577	-42.5277783166312	6.836840616057884	9.584365457830887e-11	1.352022995600547	4.367426736050801	-46.41156434647935	0	4.268414859155326	13.47177575849234	42.75255650574161	42.71512892218085	9.357920200582668e-11	42.71509373882296	4.904889547777267	-39.97434216673205	-0.01355392022615746	-19.69929513801869	-5.774869672655876	-14.94403043602864	-3.523955883099311	12.14160870615732	-0.5884893315428398	-18.73054132169847	9.912030701907721e-10	0	0	51.69870138732853	-32.76721982990661	9.515432794806598	14.85671593912473	9.912030701907721e-10	0	0
0.1581644464118399	-3.355157616204099	9.024229687983924	3.880695464414348	-8.261406732203511	2.850880999907953	-0.3779961519492804	111.6402410536723	20.36740323870742	-43.55604600039176	6.810264120417671	-2.551064508526463e-11	1.794242274000563	6.060187413040174	-47.62169326535307	0	-0.1458811305642832	12.94475914406495	38.63139023281563	36.63175552434372	-3.355293680980754e-11	36.63173871948192	8.102126401916507	-34.07169210365238	-0.01320555584289907	-23.14024964750833	-4.778817783216468	-14.28753640685539	-2.023686807362839	10.98193740592305	1.1921787200058	-18.2676132761863	-4.632517422136623e-10	0	0	52.84185727339992	-30.7049124917963	10.16001409118153	15.85141753981233	-4.632517422136623e-10	0	0
0.1603741041940474	-0.8597679346064852	7.77805533465401	1.89401583751385	-8.568380886371155	3.683790278011886	-0.4851561147285187	114.0609354812779	19.53086316044056	-44.88888096199223	6.371519658472117	1.034191169319449e-11	2.015662210370007	7.938877988645413	-49.01405198986789	0	-6.170196548022321	12.20473917710505	33.0786622361423	28.40073775833413	1.188563104246508e-11	28.40075216119173	12.32616218984156	-26.20271263594088	-0.01274066847749564	-27.8153490707619	-3.403953954954934	-13.39127233772921	0.02477253694025933	9.408861823273359	3.605315186886556	-17.63545721669336	2.348629382108895e-10	0	0	54.31620496671393	-27.93287803859911	11.06526721006974	17.23329082617189	2.348629382108895e-10	0	0
0.1631098871668135	2.311318554385075	6.184987951311132	-0.5513204656111774	-8.944482655118648	4.727658996129865	-0.6152996896301733	116.6133157471488	18.46022367407248	-46.47374656230062	5.144761234498603	-6.750604044865299e-12	1.672221775539471	9.828628426391781	-50.36155670782045	0	-13.76863775635362	11.2410784498251	26.18891244964621	18.12037706676435	-3.830688276480689e-12	18.1204135947489	17.42111064975122	-16.56927672950683	-0.01229419117792923	-33.67876745403051	-1.649997389985131	-12.2605167882809	2.610756598327921	7.441836827640555	6.620881008514038	-16.83317578659556	-1.458027939268249e-10	0	0	56.04253745849816	-24.5060281521249	12.24769032961192	19.01964625592043	-1.458027939268249e-10	0	0
0.1663286436775879	6.127832192272933	4.257002012202166	-3.386962207572955	-9.380050738198712	5.967232832002766	-0.7633509370286984	118.9514962757703	17.16021114365305	-48.25644741194693	2.709923471039129	5.090633441214117e-13	0.3523897599440685	11.63651900641083	-51.39652827033758	0	-22.84734224650657	10.05096687366882	18.11447702610462	5.959844304081747	1.625399662972717e-12	5.959842268102299	23.16023271116592	-5.45838000101315	-0.01191698065133777	-40.63700547951557	0.465881491832406	-10.90870992780626	5.705100663882523	5.118611945670047	10.18218076484111	-15.85927568000086	9.117903798866636e-11	0	0	57.92094018306312	-20.51309233395711	13.71791881573614	21.22424686732697	9.117903798866636e-11	0	0
0.1699796094921079	10.52038303213471	2.027392586307126	-6.517553691317287	-9.862657574554387	7.377933349611258	-0.9227552135577217	120.6827076405242	15.64765331208157	-50.18575878412203	-1.408736648848119	-5.108400342354944e-12	-2.391293115600228	13.1281865957822	-51.83026104533909	0	-33.2311513929963	8.644469434614919	9.073636992140518	-7.822010291245729	-4.180026144923834e-12	-7.822068969978294	29.24190915854766	6.756192905763365	-0.01145061597325297	-48.53263722545974	2.90137626023475	-9.35977181228743	9.252667401739865	2.500141635538546	14.19792275755612	-14.71176053918372	-1.035767157111708e-11	0	0	59.83389226077155	-16.08275631783996	15.47464841027821	23.85223732368107	-1.035767157111708e-11	0	0
0.17400520557877	15.37052173673105	-0.4442729533064792	-9.821206890077807	-10.37694016512059	8.924207003311819	-1.085833446587993	121.4250048193962	13.95493978545464	-52.21564651630882	-7.594782038540863	6.967882021870409e-12	-6.993651660734931	14.26795308410917	-51.38048638506154	0	-44.64590337881035	7.048376324192268	-0.6518290316460934	-22.86566622209597	3.90911818339034e-12	-22.86561671902211	35.29857105295766	19.62802953631186	-0.01054589377848764	-57.13280182270459	5.583981405767258	-7.648753080934815	13.16666687980428	-0.3273541268289282	18.5374228660565	-13.38843182225543	-2.936813271428652e-11	0	0	61.65240879969842	-11.38459907893973	17.49856624472179	26.8946572711614	-2.936813271428652e-11	0	0
0.1783419453248002	20.50725791962294	-3.07101804188615	-13.15535157241898	-10.90548757554296	10.55790040595066	-1.243444323122863	120.8969488475198	12.13104171923989	-54.30482503835855	-15.96179680792789	1.413163263004684e-13	-13.81677694379579	14.9048151370482	-49.80398198298994	0	-56.71433924594179	5.307609525774289	-10.73116327831431	-38.71457029063724	3.177694506409028e-12	-38.71459038745425	40.92098618394893	32.66714468830017	-0.01011338135468843	-66.12775472500196	8.410780978882389	-5.820129439300805	17.32704813880949	-3.254872375441117	23.03183420921843	-11.88754226868426	2.672894417430178e-11	0	0	63.2456780102023	-6.622376183361931	19.74801260400529	30.32322590857751	2.672894417430178e-11	0	0
0.1829214354539589	25.7118783899277	-5.742003614885235	-16.36779283081343	-11.43010486243453	12.22120639239485	-1.386539087766805	118.8801657454741	10.23908316718799	-56.41461155351737	-26.51967487163463	-1.839078888033297e-12	-23.08656603991341	14.55603675807594	-46.93043756285323	0	-68.96899962612642	3.484313059392186	-20.80946994024814	-54.83663713141954	-5.481295428814035e-12	-54.83664730621746	45.69633858886166	45.37978259100768	-0.009321412114529293	-75.14235904276579	11.25393039973184	-3.923846278026013	21.5842326865044	-6.157964260930237	27.48237335224773	-10.2100653705911	-1.948103164140566e-11	0	0	64.49339208378893	-2.018778953346741	22.15743161800622	34.08718909468902	-1.948103164140566e-11	0	0
0.1876714545037473	30.73309144217654	-8.331034942090705	-19.31211537571419	-11.93135991121807	13.84942983804457	-1.507271656101492	115.1890180386841	8.350964890729781	-58.50598725549636	-39.1656662990661	-3.714298645238602e-13	-34.83885852753452	13.9895402768896	-42.69174896353573	0	-80.88515339299227	1.653412521551216	-30.53886796027999	-70.66257009215907	5.351883572696117e-13	-70.66251639502414	49.25502421452219	57.31175882293516	-0.008504190075377392	-83.7619472015827	13.97180436471005	-2.009947708896026	25.768832065952	-8.908394893144425	31.67659506873107	-8.362360922173735	-1.051164988432124e-11	0	0	65.29929818881381	2.206335493397322	24.63983415357859	38.11196931936026	-1.051164988432124e-11	0	0
0.1925170917444269	35.31091914052438	-10.70918823574956	-21.86429090353013	-12.39149215261927	15.37637024631944	-1.59868268339302	109.7892234989324	6.539058415204154	-60.5375313197093	-53.75396229566798	2.171428257756835e-12	-48.88758516379682	12.80719575440002	-37.14009355492559	0	-91.92993869518205	-0.1038743638346591	-39.60957210271454	-85.63657443807044	3.903166780495591e-12	-85.63662020144503	51.31783093817054	68.08712571533539	-0.007916147198244574	-91.57068929968317	16.42434589655948	-0.1232605581856568	29.70678280941023	-11.38825472770401	35.41024709418247	-6.359618405782862	1.286616467214569e-11	0	0	65.60369924027616	5.861527793932108	27.09320147276185	42.30093722819254	1.286616467214569e-11	0	0
0.1973819285398158	39.20678606514863	-12.75975441448555	-23.93689112929506	-12.79515033449711	16.74190052208119	-1.657357897391956	102.7980341589841	4.867499807484968	-62.46585223775615	-69.99973883787071	-4.438545181671954e-12	-64.82473111256286	11.18890906587008	-30.44943077755158	0	-101.6210423322348	-1.708831232424427	-47.77536796651688	-99.27012130162265	-4.891159350610353e-12	-99.27011503696191	51.73421269141215	77.43598523176502	-0.007043496780979376	-98.19724340064569	18.49000176617853	1.700237827560374	33.23760757342811	-13.50361337238012	38.51132512022208	-4.228969209862635	1.323319350963951e-11	0	0	65.39162133766568	8.807455183068765	29.41034894104128	46.54088582974715	1.323319350963951e-11	0	0
0.2021892435043931	42.23399655934785	-14.39280250390931	-25.48780179168003	-13.13027026102888	17.89821512131581	-1.682130677089183	94.4367564751216	3.384942761112179	-64.24837301225816	-87.5548112464727	4.763422332676283e-12	-82.05618175708175	9.186627640530208	-22.89843274141736	0	-109.5834781058364	-3.0942931566099	-54.86928339054646	-111.1884259288359	3.359807838753913e-12	-111.1884174952342	50.50347657531973	85.20820754118967	-0.006296321982551029	-103.3596848513847	20.08099492929276	3.43439526719167	36.23283094077195	-15.19479875184535	40.86155354793601	-2.010671162814042	1.371356587161464e-11	0	0	64.69478334400021	10.9732577526098	31.49082736826726	50.71016662812439	1.371356587161464e-11	0	0
0.2068632224455918	44.2827272939268	-15.55648795436781	-26.52158997229301	-13.38996373901709	18.81489539005457	-1.674562025542163	85.12656297005273	2.120084078021314	-65.84783486164082	-105.6989537651974	-3.280920362146375e-12	-99.86790757246148	6.580959541764699	-14.83721659048198	0	-115.5934422789888	-4.212778840638801	-60.80871901806244	-121.1614373300115	-2.480902105669321e-13	-121.1614623845561	47.77405186760291	91.37265275438307	-0.005572669877254244	-106.9009410273649	21.15394034042875	5.061393252332767	38.61061778632002	-16.44126371272417	42.41051962897633	0.2427598568547597	-1.187171131136819e-11	0	0	63.58620694249313	12.36236015992223	33.25310043787717	54.68906874319338	-1.187171131136819e-11	0	0
0.2113301540101398	45.33431178439412	-16.24292778530485	-27.08387880229288	-13.57252599185621	19.48249749644875	-1.639446564232441	75.42908410644725	1.081244742073437	-67.23706199143975	-123.3501199752783	1.506523920279687e-12	-117.5089512964561	3.803807367379878	-6.644524927611513	0	-119.6009887677489	-5.042247163194129	-65.59096129717726	-129.114495569784	-2.261571390869744e-12	-129.1144643394449	43.82097886190489	96.00392713634959	-0.00489728035709858	-108.8075622852364	21.71383858763099	6.568764652452526	40.34383115731647	-17.26043809780123	43.17954438390196	2.470351204569938	-5.044207521263568e-11	0	0	62.16915183585844	13.04586235878925	34.64476063386235	58.37062362130253	-5.044207521263568e-11	0	0
0.2155195921846577	45.46178080190317	-16.48754298928492	-27.25074076476302	-13.68209120398014	19.91201634701357	-1.58229561115617	65.92890906778719	0.2591195726382286	-68.40218604725065	-139.5011316756012	-2.713688149648545e-12	-134.2756187482155	0.7621727559242846	1.315543911586221	0	-121.7274454842943	-5.587579214784848	-69.2812575768309	-135.1190326028235	1.331026727348732e-12	-135.1190701354188	39.00699271685509	99.26020986372242	-0.004270145350897	-109.2083396860971	21.81097745349125	7.946372659689246	41.46025529145513	-17.70141596889431	43.25515506928924	4.60835189028695	9.220678151186998e-12	0	0	60.56286536340696	13.14614299328757	35.64874914658321	61.6698160823687	9.220678151186998e-12	0	0
0.2193654673351004	44.81777123393342	-16.3622851839536	-27.11593999858468	-13.72744406317013	20.13184383651852	-1.510669295875451	57.0861266102586	-0.3683029780195229	-69.34376497099367	-153.5271848027318	7.03903745164909e-12	-149.5810858204028	-2.448158270560164	8.728773190210532	0	-122.2406636943328	-5.87851331680702	-71.99671047817441	-139.3671440368859	-6.117166301639456e-13	-139.3671025560461	33.73604252249625	101.356491871047	-0.003520629167692738	-108.3538747773193	21.53181439697738	9.184463143870882	42.03501649277213	-17.83535950458356	42.7743837364598	6.596124623469849	6.977090171674084e-11	0	0	58.8878778484173	12.81499808247019	36.2843005192297	64.5299226005295	6.977090171674084e-11	0	0
0.2228071283122631	43.61197464949301	-15.96439021849127	-26.7787275032393	-13.72152444532083	20.18436187766492	-1.431779229955094	49.15472707866554	-0.8302187890933284	-70.07540958631238	-165.385933794668	-8.596021432268356e-12	-162.9975839594144	-5.409712604776832	15.35220659164882	0	-121.5134162416962	-5.963495194667515	-73.88807735797961	-142.1360350474793	2.760042705712227e-12	-142.1360200250841	28.40865994579584	102.5373757751299	-0.003165983873615781	-106.5816931219953	20.98595584540913	10.27311203046969	42.17758936079888	-17.74486990179935	41.90493512954758	8.381490977197842	-2.026005821996722e-10	0	0	57.25483299891437	12.21100435530305	36.60202859350188	66.92441062268915	-2.026005821996722e-10	0	0
0.2257902993364854	42.08453514236289	-15.40334108971344	-26.33401406549851	-13.6800983432768	20.1187255195755	-1.352865580770124	42.30191382527138	-1.158063004523292	-70.62053834454939	-175.2424507715928	1.365298558035658e-11	-174.2676178763572	-8.384252384246178	21.02042431337107	0	-119.9745728279042	-5.90206420433518	-75.12222081723327	-143.7490512821627	4.098223478533909e-12	-143.7490898755015	23.3869629387736	103.0524278949533	-0.002802722015220561	-104.2748356285452	20.29217890628432	11.20267869698602	42.0163437225717	-17.51416386607491	40.82535811041193	9.923641810676285	4.577802794036385e-10	0	0	55.75689431324384	11.48131130363937	36.67525946909257	68.8546983876293	4.577802794036385e-10	0	0
0.2282679370955254	40.47817822190751	-14.78794094687129	-25.86556814980768	-13.61967884798151	19.98573671712064	-1.280418702182234	36.63686028092414	-1.381695931938074	-71.00816873445703	-183.176222343911	-3.003848850303556e-11	-183.2860222415916	-10.9447566867455	25.63825768386764	0	-118.0596300565679	-5.756291922171295	-75.86570695709516	-144.5376958439289	-2.189092970487873e-11	-144.537735480606	18.972339836134	103.1360502561073	-0.002270964265098993	-101.8192143437864	19.56540435448549	11.96476605502581	41.68274998966977	-17.2211468585813	39.70674377383178	11.19402322636419	-4.870537940332628e-10	0	0	54.46688318365475	10.74935330606398	36.58844742192817	70.34386063821076	-4.870537940332628e-10	0	0
0.2302009768984097	39.01537359124922	-14.21629884915646	-25.4422848523312	-13.55586081830835	19.83300130635167	-1.219823243134395	32.25865894332082	-1.526999315389116	-71.26858505729945	-189.1930196221068	3.378546529646713e-11	-190.0612907419307	-12.84476268938377	29.16526278610018	0	-116.1696323880384	-5.583876814070155	-76.27102386917608	-144.8097904688258	1.990124256661762e-11	-144.809794489436	15.39741910081199	102.9926282537986	-0.001872273556420395	-99.56829581968742	18.90716479816677	12.5527806048576	41.29837491677078	-16.93226576838359	38.69948776142767	12.17502193711723	2.323875651722231e-10	0	0	53.43781966187435	10.1100815857593	36.42595591628754	71.42797202013081	2.323875651722231e-10	0	0
0.2315589714577417	37.87950283749056	-13.76795678107932	-25.11653572149066	-13.50218984932945	19.70025597382605	-1.175233286909473	29.25986376800723	-1.614407923996264	-71.42913296186408	-193.2379234427995	-6.439695712582447e-11	-194.6658765366616	-13.94196957714416	31.59560897756849	0	-114.6369048720587	-5.432510156120447	-76.46529071152156	-144.8228960134199	-5.664306147167814e-11	-144.8228584168937	12.82707037413939	102.7858938493726	-0.001653322743496985	-97.81378090690977	18.39854733698332	12.96227747930694	40.96411945040559	-16.6992668355468	37.92370021411056	12.85740582371355	-1.552278081849064e-09	0	0	52.70559615819774	9.629886395302986	36.26154302667275	72.14646401665649	-1.552278081849064e-09	0	0
0.2323208116596206	37.20380273751555	-13.49996257999359	-24.92402645305695	-13.46888688985242	19.61667301401923	-1.149518843825511	27.66056833245565	-1.658310642666572	-71.51102815221152	-195.2397773868148	1.254317299548498e-10	-197.1885059858009	-14.20883815152718	32.94009450430338	0	-113.7039755356884	-5.33688794387758	-76.54189804705817	-144.7665522916262	1.254391509052029e-10	-144.766492570131	11.3663585886032	102.632513075166	-0.001548717349905408	-96.76784402371919	18.09703360270135	13.19063729351077	40.75371227130606	-16.55812562109106	37.46456345546284	13.23740142363714	4.049893981578987e-09	0	0	52.29207345843236	9.350510037245559	36.1511069569523	72.53339084694419	4.049893981578987e-09	0	0
0.2325	37.04089690885774	-13.43523476628149	-24.87775731223002	-13.46072089363571	19.59606727052846	-1.143399497684025	28.46643044018226	-1.668110646715689	-71.52943229931979	-193.0093095973865	8.319028731857835e-11	-197.7752522451024	-14.00677480576018	33.25423932643513	0	-113.4769789084895	-5.313293205675425	-76.55655489324892	-144.7466882543139	1.134791798725644e-10	-144.7466238992905	11.02098748502342	102.5925850089916	-0.001525235736232785	-96.51545572838575	18.02445805646883	13.24420123546117	40.70185318044036	-16.52386556232953	37.35411831468771	13.32646123124705	3.629609401987921e-09	0	0	52.19456069602808	9.28383119836529	36.12323000997817	72.6226781070169	3.629609401987921e-09	0	0
0.2329542507337262	36.62117541649452	-13.26828233270161	-24.75880423076326	-13.43945219763397	19.54222026223533	-1.127767083153844	26.25505940576988	-1.692066932783584	-71.57461917300863	-197.255348427029	-1.722637922249897e-11	-199.2511620409241	-15.49429916204078	34.04694313765352	0	-112.8886830701088	-5.251610032934297	-76.58799436262106	-144.6850907655386	-2.923497844853543e-12	-144.6850166596782	10.14253473007992	102.4848477410608	-0.001466944566892685	-95.8648143393028	17.8376788945353	13.37973216251984	40.56636376747366	-16.4352279661819	37.06999249260501	13.55166781538518	-8.026074348773072e-11	0	0	51.94697239428908	9.113223645613893	36.04931332112238	72.84605577320896	-8.026074348773072e-11	0	0
0.234015784775164	35.60292164332684	-12.86231829687496	-24.47175308649944	-13.38657826923164	19.40742317946807	-1.090580505449747	23.96404682240015	-1.743158426073129	-71.67197302875647	-200.3698347104585	1.112100827597807e-11	-202.6339872672811	-17.76586487083954	35.87818948846872	0	-111.442553596179	-5.09712510646758	-76.62963667537878	-144.4785882175434	7.1529891757628e-13	-144.4785029837575	8.074429219018205	102.1970042852706	-0.0013338844306698	-94.28427537159797	17.3857941425491	13.69498424139316	40.22739511449589	-16.21828818880478	36.38318410924548	14.07464507506165	-5.69121906238829e-10	0	0	51.36645078527026	8.706260866155626	35.8584343982665	73.35123197510295	-5.69121906238829e-10	0	0
0.2356644464118399	33.91900550722588	-12.1888364802391	-24.00182192801953	-13.29567198024626	19.17335608554414	-1.031072819405942	20.45515004272986	-1.809290943315676	-71.80011953078792	-205.0550721612317	5.47398406125849e-12	-207.6942484848782	-20.7422997484483	38.65948214753224	0	-109.0006888056024	-4.828987878753689	-76.60662198892344	-143.9855834854132	3.89194443228252e-12	-143.9855361886083	4.825648071490413	101.6517290155912	-0.001110086667888069	-91.66485849497063	16.64233884737087	14.18036076440465	39.63960855572103	-15.8550832765277	35.25466807725472	14.87688565980056	3.847568314899326e-10	0	0	50.46080288719167	8.053973308588041	35.51153073473655	74.08784566321481	3.847568314899326e-10	0	0
0.2378741041940474	31.47210624351369	-11.20759222422524	-23.3291250144097	-13.15707460713566	18.81329633233911	-0.9481789652106825	15.69642705030495	-1.873784153135301	-71.92746010391775	-211.2726034927107	-1.036388742904625e-11	-214.0799118429692	-24.2787568598828	42.25692643920069	0	-105.3627888414094	-4.417788929323293	-76.41062466978808	-143.0012047530663	-2.516059729075354e-12	-143.0012764663692	0.4179357877243425	100.7393050997858	-0.000761281897565023	-87.84798779292542	15.5703660671725	14.82216916274715	38.73749928461064	-15.32114287238409	33.62946388207016	15.93073559928146	-2.377013426262654e-10	0	0	49.24285620664961	7.149375808795435	34.9508658799552	74.98017328425865	-2.377013426262654e-10	0	0
0.2406098871668135	28.15433852355412	-9.875986286734733	-22.43492376868704	-12.95883751784109	18.29605340636175	-0.8410179071471633	9.672036218014767	-1.917615975190732	-72.01385489986922	-218.881881791063	-7.062292626635839e-12	-221.3008478653749	-28.02413108429575	46.48325500547227	0	-100.2998644921303	-3.831266101300238	-75.91059053705432	-141.280795202587	-7.428545308678817e-12	-141.2809066076559	-5.08787445904197	99.33391246983422	-0.0003147105269484027	-82.65582530480506	14.13220906410384	15.60138546462405	37.44566328785271	-14.59184279935942	31.45047589794027	17.19676058560353	-8.535780791559374e-11	0	0	47.73564846824429	5.999046467496987	34.10677296631727	75.92730726958365	-8.535780791559374e-11	0	0
0.2438286436775879	23.86863459122359	-8.159268580757628	-21.30750739654367	-12.68807781235645	17.59025631788505	-0.7092978883447164	2.725629584057778	-1.922101605005035	-72.0131806803814	-227.0568067781575	7.489935314669056e-12	-228.7331315428809	-31.97527091277067	51.09925349377107	0	-93.59195977124207	-3.041097340988065	-74.96634832591002	-138.5687827124204	3.642112492753892e-12	-138.5686775252676	-11.57101223718306	97.31171360422661	0.0001728562604743566	-75.92432157597655	12.29966322351132	16.49333699161472	35.69050844622582	-13.6489827852914	28.67277170072148	18.62333434156058	1.16550573602839e-10	0	0	45.97515196369574	4.633751674674752	32.9063787014934	76.80685717910076	1.16550573602839e-10	0	0
0.2474796094921079	18.5539858031049	-6.042146366145026	-19.94739777429859	-12.3330470362062	16.66917480373747	-0.5536301795895732	-4.298584059700488	-1.871424899425045	-71.87647869479476	-233.9111906475475	-4.30096296151942e-12	-235.6418672254016	-36.41113620933952	55.82307207943344	0	-85.07237069330394	-2.031028567609126	-73.44385526644943	-134.6317475852456	-4.835804361521166e-12	-134.6317318153025	-18.83418660748933	94.5692064015883	0.0007222671880690673	-67.54217487214909	10.06504690143606	17.46737849716491	33.41378818425888	-12.48735280650884	25.27899659513738	20.14766765836809	-5.093356622289539e-11	0	0	44.01071390028143	3.116902682541836	31.28514387865223	77.48165454782645	-5.093356622289539e-11	0	0
0.25150520557877	12.20915422415384	-3.53904694231363	-18.37063034877902	-11.88366438920631	15.51617347987276	-0.3761598807337054	-11.24130011609446	-1.754443218553243	-71.55435345120425	-238.8891762404127	5.935665069101202e-12	-241.2212488224965	-40.95064517617971	60.34645432896721	0	-74.66932558819315	-0.8043430437194455	-71.22932126970728	-129.2892401461017	5.79427517625881e-12	-129.2893052463307	-26.59670976072208	91.03801476358997	0.001354331134994867	-57.48709979457288	7.450247459365182	18.48713127570222	30.58506977147873	-11.11972920128981	21.29217845690293	21.6988379449226	1.635402916847352e-11	0	0	41.90246146472507	1.547638477720226	29.19891809037624	77.80838883896494	1.635402916847352e-11	0	0
0.2558419453248002	4.912349599206067	-0.7012840877543951	-16.60976819298003	-11.33431533653641	14.12926637782233	-0.1804186376998831	-17.59674950981218	-1.565655109523007	-71.00051031028954	-241.2317316487298	-4.342577960289985e-12	-244.6655346058139	-44.86381109342839	64.36052170768468	0	-62.44245683829934	0.6106955556574557	-68.24389132222524	-122.4435692358145	-1.47848884122132e-12	-122.4435000498738	-34.50342671097716	86.69680288145287	0.002013036874645938	-45.85708229601254	4.512335266705174	19.51168633576408	27.21233609197133	-9.579321382100934	16.78439798134888	23.20311104404047	-1.115660054747743e-11	0	0	39.71610586968588	0.05580367289655185	26.63569433041669	77.65092599351348	-1.115660054747743e-11	0	0
0.2604214354539589	-3.169338687497436	2.381300405787315	-14.71189838202966	-10.68559360219686	12.52352160019788	0.0289639598678892	-23.00736394850351	-1.305095955185432	-70.17319459274378	-240.5418472219672	2.377052793690813e-12	-245.2508765564622	-48.17077244317851	67.58447781962977	0	-48.60240985024901	2.159164205204668	-64.45420542262356	-114.0986778859995	-2.583428230878679e-12	-114.0987794540215	-42.148770328182	81.57565036648791	0.002705510074572247	-32.88608901205909	1.343326693550102	20.4979751803867	23.34710658180891	-7.918764357133163	11.87809162870955	24.59093733585144	6.624332110014325e-12	0	0	37.51507437345098	-1.210845795640058	23.62310937694883	76.89413705651516	6.624332110014325e-12	0	0
0.2651714545037473	-11.78462199598602	5.585506515925474	-12.73394429012898	-9.943094129247164	10.73129410517892	0.2461671654140256	-27.22767499446979	-0.9774338703421066	-69.034110807199	-236.5414236916135	-1.273314191454746e-12	-242.412406879254	-50.17701985829034	69.79166799168132	0	-33.50728577857273	3.762710345198057	-59.87683050984997	-104.3640114624849	2.845237070537621e-12	-104.3638972677753	-49.11299601800407	75.75207638151758	0.003540973103568863	-18.93782678356398	-1.936707807041518	21.40410676869804	19.08253155900393	-6.205629281518576	6.738697159542697	25.80438538489463	-3.454368407541422e-12	0	0	35.35161224494207	-2.105113533591457	20.22923136473078	75.45538215191739	-3.454368407541422e-12	0	0
0.2700170917444269	-20.61404644080759	8.767372333668765	-10.73871547635336	-9.12178809611089	8.802783763164392	0.4649834058368848	-30.15750570258184	-0.5916317373718759	-67.55944612576756	-229.2785704616202	1.420174997355036e-12	-235.8710999014195	-51.00756959594214	70.84405035736054	0	-17.65058209526344	5.329549179772552	-54.5925381570975	-93.46980085973192	-6.784648393580602e-13	-93.46988182789039	-55.01998269182755	69.35675909072114	0.004238848927455068	-4.488400219754321	-5.191581511630243	22.19419350261881	14.55075928363096	-4.515014966322893	1.561461886900454	26.80416232094462	3.143219641325557e-11	0	0	33.26450922629977	-2.508400040111444	16.56135540900472	73.30664971982688	3.143219641325557e-11	0	0
0.2748819285398158	-29.30996532177367	11.77809589902006	-8.783811417125737	-8.238541446041424	6.795275420142372	0.6789143827461248	-31.81086152262789	-0.1588099461550548	-65.71577889339139	-218.8355123705254	-6.522760629348226e-12	-225.5516262774103	-50.90403790222874	70.67509147418389	0	-1.581013573434948	6.763599231574839	-48.7112729989489	-81.69604467594101	-1.826091825674757e-12	-81.69598907813071	-59.55467985350669	62.53026680280655	0.005052148626866263	9.944436401335675	-8.287019464686672	22.84011460229475	9.897181435664637	-2.921062325701579	-3.453044907196896	27.57071155281384	-8.281888234972363e-11	0	0	31.26555088310496	-2.335189587482423	12.7427062319283	70.45262987298014	-8.281888234972363e-11	0	0
0.2796892435043931	-37.51590665213176	14.48605899941569	-6.929051299972253	-7.323422933684228	4.783573178784922	0.8822148124299714	-32.14588437811489	0.3038993607669696	-63.53025874366064	-205.4076970766381	9.937997533967223e-12	-211.929031173718	-49.56714789829751	69.37099508433177	0	14.06989874581037	7.987202008482593	-42.44528237981027	-69.48212318149709	4.597234171913876e-12	-69.48218722759536	-62.57491896159365	55.49679860369366	0.005602324423107364	23.79582376762166	-11.10269894408835	23.32926849155026	5.298456416453011	-1.487769562083396	-8.11078064302847	28.10918145608359	7.505738480285311e-11	0	0	29.36949703465845	-1.587369925253758	8.927625225891756	67.00493906652973	7.505738480285311e-11	0	0
0.2843632224455918	-44.95521853792249	16.78613899880093	-5.202350748444394	-6.390849449897509	2.814072074278471	1.071357913142012	-31.20988667724814	0.7829531161718094	-60.93903411919363	-188.6964767437526	-1.015754419462694e-11	-195.2068333648884	-47.46465928722716	66.97523129747621	0	28.85917849624504	8.931971032577181	-35.90199255813618	-57.06827026512974	-2.048898235733606e-12	-57.06820354626308	-63.95428093479477	48.34882952138932	0.006616127140376359	36.66436029757347	-13.55620530730688	23.6532148442643	0.8657767508903023	-0.2636476310389388	-12.26995811267255	28.43374849559351	1.202800968691101e-12	0	0	27.53310454169969	-0.2591201623746582	5.212832077419089	63.00194574640073	1.202800968691101e-12	0	0
0.2888301540101398	-51.35122200172448	18.62814007909746	-3.668551523019128	-5.49768528159017	0.9917951855221525	1.239437688715568	-28.9550871708977	1.24722766789095	-58.16091396306714	-170.1483717554296	9.4182561765426e-12	-177.0989121661042	-44.90360651735532	63.90694097884542	0	42.10397943292344	9.595476902703387	-29.51973820107877	-45.2188929639723	-1.14865618030799e-12	-45.21892250233006	-63.9960673344953	41.51037006160847	0.007127285994845203	48.00815755642849	-15.58586507521868	23.83558659337425	-3.179830662080527	0.7259862208857961	-15.79754808643897	28.5895805088665	-1.6111056392339e-11	0	0	25.82033325070065	1.439671167183297	1.795496045874881	58.80392338753293	-1.6111056392339e-11	0	0
0.2930195921846577	-56.69879924482147	19.98214350775043	-2.271805890785147	-4.607452240706754	-0.7333400741790816	1.392325486353809	-25.80147369611635	1.699182736442207	-54.88547466959887	-149.4637530295172	-7.869467159868989e-12	-156.633363904977	-41.7837353564768	59.96557906790003	0	53.99731278709762	9.932970675019831	-23.04192572667595	-33.5048097792676	-6.168910132847176e-13	-33.50483067795351	-62.49182040650523	34.6690104901122	0.007796509433830567	57.96204004190835	-17.20679091130897	23.86606681016292	-6.938191735042486	1.472314909610592	-18.70638637251627	28.58655223768851	-3.543685277072604e-11	0	0	24.06278456064878	3.612598348007388	-1.415863119719764	54.17291685370362	-3.543685277072604e-11	0	0
0.2968654673351004	-60.77465942551247	20.91041057721122	-1.146407231375576	-3.850976562531727	-2.157918488267777	1.515421325132956	-22.15166337089197	2.081030115789622	-51.87936263485936	-129.6644414053829	9.375441871880812e-12	-138.1292856211086	-38.45504859512455	56.21325594195325	0	63.50808841984018	10.06892743370404	-17.48099570725823	-23.59375467897431	2.453641472098111e-12	-23.59371723428809	-60.49890112028184	28.8447053505839	0.008444032325772646	65.80104676552951	-18.39820628877625	23.82324411659097	-10.00651247216459	1.996512918847245	-20.89983869317438	28.5127559499634	7.102868656823693e-11	0	0	22.5494855188686	5.685883647521197	-4.055109700217264	50.03460598539435	7.102868656823693e-11	0	0
0.3003071283122631	-63.83895037178866	21.44923645524488	-0.1729010673067783	-3.147370661313341	-3.418543528872448	1.621434319002475	-18.58460023037256	2.416464326389698	-48.66910183709481	-110.967126475499	-9.17343887637103e-12	-119.4758473089342	-35.07264818692745	52.19920323759672	0	71.42427229312358	9.978109912022461	-12.25024122920013	-14.45998959240599	-2.056273625196172e-12	-14.4599908236571	-57.68829089797853	23.38784783034417	0.008909058847174117	72.15432082231578	-19.25012788859572	23.69035361896431	-12.67196961387595	2.323633950710284	-22.52953001317958	28.36066843791882	-7.517632340148278e-11	0	0	21.04432105351199	7.885003188067177	-6.376796243770779	45.90026111419476	-7.517632340148278e-11	0	0
0.3032902993364854	-66.22852658276673	21.65383996514874	0.7797439466033095	-2.405978974049773	-4.672019102840401	1.724457867696467	-15.14276826953671	2.737398702834848	-44.7705872951009	-92.25453514793097	1.896153225779022e-12	-98.30329402729177	-30.35984161637293	47.41457997684974	0	78.68803889655878	9.641867044464597	-6.68819240642722	-4.944118135599195	-2.066384383727524e-12	-4.944129118949565	-53.70245860363512	17.58179805323632	0.009500662126046635	77.77843910927311	-19.86920885081373	23.44927245963212	-15.26590255756867	2.488394127140711	-23.78425285687047	28.11641217820431	-2.833175427393778e-11	0	0	19.31170460491114	10.46974112659702	-8.672381255283755	41.22914855294881	-2.833175427393778e-11	0	0
0.3057679370955254	-67.47598535454229	21.7134592985409	1.31976184835048	-1.976597930344076	-5.385801899467339	1.782730209966721	-12.72914571355052	2.917837773284207	-42.42827188805507	-79.42856941755181	1.039270328415936e-11	-85.79666637435815	-28.17652467083671	44.55409146115453	0	82.71961952519008	9.40816555538149	-3.458957086265419	0.5492750812645532	1.39311844038579e-11	0.5492620569499785	-51.22873729771509	14.20988135651808	0.009857636595300281	80.8618255169292	-20.18272082191084	23.29332160540601	-16.73333591937291	2.55464137120623	-24.43590462841664	27.96149701233603	1.988350544129109e-10	0	0	18.28386456389143	12.00951977501725	-9.977413634325387	38.47289973386047	1.988350544129109e-10	0	0
0.3077009768984096	-67.8400084044321	21.72938782602614	1.478701883302154	-1.849967355179992	-5.595959812649958	1.799877317903097	-11.64139433182802	2.970884185911875	-41.73504827523025	-73.72189674003693	2.062867084756427e-12	-82.1015331884519	-27.3985916269129	43.70801197160948	0	83.90361335336701	9.338153779826706	-2.506409218716138	2.168833930348061	-3.034448727744024e-11	2.16882128896245	-50.49461366917087	13.21518254746987	0.00996487590698293	81.76624563008887	-20.27392409233808	23.24687305327469	-17.16511702039312	2.573357709087996	-24.62597275106635	27.9154406382708	-1.836358752503149e-10	0	0	17.98001036151743	12.46477777912122	-10.36159494860167	37.65861479949716	-1.836358752503149e-10	0	0
0.3090589714577417	-67.90716982213391	21.7321791559584	1.508151199451617	-1.826476182540189	-5.634913695551786	1.803054114605859	-11.25307240200343	2.980714200332728	-41.60623456800531	-71.94629107005159	-3.350101329339509e-11	-81.41533716338286	-27.07602428409211	43.55079804151768	0	84.1227842994553	9.325056275484418	-2.329673707868644	2.469234495561019	2.041682079509271e-11	2.469221676238114	-50.35795079583393	13.03063396008275	0.009984352590376284	81.93355023166644	-20.29071529296855	23.23821036007807	-17.24512164575501	2.576749108163141	-24.66102539656695	27.90685687773256	-3.103223973176595e-10	0	0	17.92358813176381	12.54936556635068	-10.43279740942662	37.50741467243144	-3.103223973176595e-10	0	0
0.3098208116596206	-67.91123859859204	21.73240048582653	1.509890442511163	-1.82509867438746	-5.637209437766373	1.803241847131967	-11.1035985228748	2.981294635359748	-41.59875773755384	-70.19896035595809	-6.167795851848717e-11	-81.37534850968649	-26.9808978416437	43.54166951369283	0	84.13580336496477	9.324326808244136	-2.319319798754179	2.486865332487095	5.748625386962159e-12	2.486852577430321	-50.3501037076495	13.01982028563933	0.009985613734420438	81.94352845672682	-20.29174481847081	23.23771857241343	-17.24984662272617	2.576976429911455	-24.66315384509675	27.9063674245164	-9.915635500527914e-10	0	0	17.92029954957819	12.55427968574481	-10.43699629793038	37.49859856950296	-9.915635500527914e-10	0	0
0.31	-67.91124324510069	21.73240251310506	1.509890903812991	-1.82509865225935	-5.637209878803894	1.803241900922844	-11.07556647231333	2.981294785820761	-41.59876031278735	-69.72150719140248	-6.231891759136265e-11	-81.37535662157961	-26.96781412352487	43.54167253972608	0	84.13580943850616	9.324328150126775	-2.31931997424574	2.486866161474668	5.19327231989526e-12	2.486853408992735	-50.35010943346636	13.01982039807993	0.009985617892363933	81.94353450082107	-20.29174641095615	23.23771913270851	-17.24984787672476	2.576977432406247	-24.66315644149347	27.90636790421127	-1.009290716783714e-09	0	0	17.92030019945822	12.55427814917415	-10.43699719464331	37.49860018938261	-1.009290716783714e-09	0	0
