DataType=double
version=3
OpenSimVersion=4.5
endheader
time	hip_flexion_r_moment	knee_angle_r_moment	ankle_angle_r_moment
0	-11.32691904404901	29.60437885582821	0.1215350388562904
0.005	-15.00326388993151	31.1965403565268	0.0007605046689782569
0.01	-19.88732551658372	33.18486082534272	-0.0465270996599223
0.015	-25.2949924661802	35.24288528360017	-0.03037855568172887
0.02	-30.69683142083127	37.12044638720538	0.03927911475742363
0.025	-35.69424308584777	38.62801832568264	0.154835282159496
0.03	-39.99504528556622	39.62134411682614	0.3129969542877333
0.035	-43.39865194610483	39.99961081308931	0.5147467618323738
0.04	-45.8039504639306	39.76151478478037	0.7534602082471942
0.045	-47.10235857651495	38.91944624790523	1.019371193504856
0.05	-47.14109671513209	37.45775110395403	1.303365889006681
0.055	-45.7355829549955	35.34748346861858	1.590197191522158
0.06	-42.68973924416612	32.55677520462468	1.863121491361575
0.065	-37.81225378902347	29.05580510384837	2.109886607219297
0.07000000000000001	-31.08154648098016	24.88363955335815	2.341783929810717
0.075	-22.61224138610568	20.13425073153567	2.588138283708334
0.08	-12.52817662150757	14.90122285704432	2.877970292383116
0.08500000000000001	-1.081595756647981	9.29041063563476	3.233377329246547
0.09	11.45298218077346	3.411003699573638	3.642292974601339
0.095	24.92130462639105	-2.616417572413124	4.05659653047088
0.1	39.20793400103695	-8.668059022252354	4.435999200544187
0.105	54.09723114434183	-14.64352067625593	4.793909115419199
0.11	69.25795270035938	-20.45529318112084	5.176424204521032
0.115	84.39168842898802	-26.06082937711887	5.612539774295594
0.12	99.32723116863538	-31.42600669005112	6.078194694328753
0.125	113.9028470198742	-36.49532296831642	6.538994780141367
0.13	127.9046283210862	-41.20056332733711	6.97152756219052
0.135	141.0418623615104	-45.50684401508531	7.38064665074344
0.14	153.0420492452483	-49.39953226650426	7.769563553474898
0.145	163.6531987828307	-52.85888138907585	8.134060635919569
0.15	172.5989959910293	-55.80769604863782	8.461094077765191
0.155	179.6514738689588	-58.16970192174465	8.734584222111495
0.16	184.6363157631923	-59.88904042365323	8.939586268005025
0.165	187.3994349100875	-60.95055163361791	9.068608739565729
0.17	187.8385757596022	-61.36742783776018	9.120255805906835
0.175	185.9360327733473	-61.16825911958118	9.098771828935776
0.18	181.8964208714219	-60.35513466212672	9.005447200789414
0.185	175.9511702923966	-58.94634967376535	8.846817876543703
0.19	168.3200470353201	-57.01501914457489	8.637693160132866
0.195	159.4385082058732	-54.76917691131362	8.394925548934035
0.2	149.8044723881724	-52.45605008069257	8.13715772444481
0.205	139.8742420352932	-50.28105915300679	7.886707613374391
0.21	130.1134150641643	-48.23999914301189	7.688035324381358
0.215	120.979796486351	-46.2021553064165	7.574428803629669
0.22	112.9042936446984	-44.02070900493683	7.538326392347734
0.225	106.2826701226729	-41.83899153851898	7.578112069537649
0.23	101.4198369720662	-39.97364553916336	7.729305686941224
0.235	98.50284804969093	-38.65055984569887	8.048255963617668
0.24	97.45296044982317	-37.68341264343083	8.559457657723833
0.245	98.06311424426409	-36.52249553242384	9.220825033716679
0.25	100.2346885037922	-34.62947928611163	9.964072967757915
0.255	103.8857119470716	-31.77833745708712	10.72675404493074
0.26	108.834976158533	-28.15086345071422	11.48898509867296
0.265	114.8413423422897	-23.98024931434323	12.2605998492328
0.27	121.1423427429707	-19.24282658004648	13.03551739163302
0.275	126.2999093391505	-13.50302226785829	13.75435654949995
0.28	129.0593852144432	-6.386884455393972	14.34799355070493
0.285	128.773063567351	2.105030179190805	14.76300335975525
0.29	125.6730416634729	11.31677420714791	14.99227136940634
0.295	119.9410338060784	20.54961050178376	15.04743025135264
0.3	111.6161219614387	29.16633319914017	14.95603923050553
0.305	100.6470824547398	36.60186840205019	14.76294052927501
0.31	86.95561967434475	42.36532275115177	14.52975091663541
