DataType=double
version=3
OpenSimVersion=4.5
endheader
time	RightLeg_1	RightLeg_2	RightLeg_3	RightLeg_4
0	0.05027768509762676	0.1407675386062532	0.1835711467028647	0.1544453873098008
0.0004542507337261803	0.0123069251609349	0.1503075386054611	0.1674989148465915	0.1344387929279351
0.001515784775164009	0.009462599836763452	0.145294242805533	0.1702372688752702	0.1396376724871207
0.003164446411839883	0.007755647015034839	0.136813568858031	0.1744743032501637	0.1490434207216131
0.005374104194047435	0.006275151446174299	0.1260378201244972	0.1792497225395018	0.1604327315296921
0.008109887166813518	0.005528280234583072	0.1124167631477728	0.1832410960615909	0.1764773328694682
0.01132864367758793	0.005224524892356808	0.0963451070162229	0.185828686110473	0.1971123071629495
0.01497960949210789	0.004990059143660019	0.07940157092443711	0.1863836821111475	0.2202146637360449
0.01900520557876997	0.004773290428646604	0.06169068160714652	0.1834965581485029	0.2462927486528428
0.02334194532480019	0.004786574151145251	0.0446878768843797	0.17652592655619	0.2730403442158149
0.02792143545395889	0.005062182435604523	0.02964660415305165	0.1648973371347295	0.2984223394466583
0.0326714545037473	0.004877417304203213	0.01756404958974178	0.1483621906789119	0.320468887723496
0.03751709174442691	0.004582698320209744	0.009301711748534336	0.1260934860213641	0.3357823722719684
0.04238192853981579	0.0045003852516734	0.004927421770146267	0.1016174491450668	0.3445808368189138
0.04718924350439309	0.004614122453381331	0.003786510637304064	0.07650878565017694	0.3465859059894367
0.0518632224455918	0.004855454118084523	0.005190404119543857	0.05273885067378448	0.3419462616000606
0.05633015401013977	0.005140756102034016	0.009395578782979364	0.03225246650506008	0.330793944546111
0.06051959218465776	0.00516580561004476	0.01602890409412661	0.0169707695452932	0.3141126008857018
0.06436546733510043	0.005092795015706475	0.02488878850846188	0.007605143879041876	0.2935080483994914
0.06780712831226307	0.005417600983045556	0.03580282214809527	0.004173288409904163	0.270621117134964
0.07079029933648544	0.005772735005959984	0.04701449029932636	0.004444919025105021	0.2472259101768932
0.07326793709552543	0.006181851009877004	0.05712703063418889	0.005077392331061636	0.2251360917458201
0.07520097689840965	0.006621662264108208	0.06574117684293901	0.006355582115892933	0.2060544354540852
0.0765589714577417	0.007094661822892423	0.07327935921808582	0.009845828398103773	0.1906804244157954
0.07732081165962061	0.01760173176004542	0.08059115939302375	0.0244455605100089	0.1857801190571673
0.0775	0.04972810251839177	0.08480597060465755	0.04977007561221791	0.1996135934776246
0.07795425073372618	0.008794048955367062	0.08136790149251838	0.01464814574276807	0.1743017810913083
0.07901578477516402	0.006452263988333984	0.08378441756738297	0.008078486138406227	0.1612537129282936
0.08066444641183987	0.005976641732116317	0.09076765512808915	0.006465811602773819	0.1398482378803672
0.08287410419404742	0.005443939691317068	0.1015031187545286	0.007954827597759451	0.110033811559991
0.08560988716681352	0.005170200377850209	0.1154339059571994	0.01424135530453463	0.07413851100468749
0.08882864367758794	0.004968406859207519	0.1318618971184375	0.0276629595442941	0.03537612703445037
0.09247960949210787	0.01080696885081234	0.1482119777757849	0.04803045105104031	0.005595172737010268
0.09650520557876997	0.03727190400013725	0.1590873287588577	0.07565538414609496	0.00331386280796897
0.1008419453248002	0.07538590572530901	0.1709654141641894	0.1076434638710067	0.003191580010862616
0.1054214354539589	0.1193035307812931	0.184249870984857	0.1438135024569736	0.003095633799467645
0.1101714545037473	0.1660855594241673	0.1986051926120089	0.1841684059334265	0.004202349627359991
0.1150170917444269	0.2117880023437526	0.2138993683882082	0.2275352324530366	0.005169868106199793
0.1198819285398158	0.2556103450277845	0.2299853399789273	0.2724387248179105	0.003914789538895569
0.1246892435043931	0.2991782513949552	0.2455463139722434	0.3178495414310925	0.003117074283641053
0.1293632224455918	0.3429639260357815	0.259744962000747	0.3624307271391023	0.003205364445758141
0.1338301540101398	0.3857045584253298	0.2721986172484059	0.4044978195159978	0.003393554589642411
0.1380195921846578	0.4263577897397202	0.2824976175405391	0.442573449732276	0.00368424790984645
0.1418654673351004	0.4639718082418871	0.2904688282598886	0.4756176233337452	0.004041419920272737
0.1453071283122631	0.4978280329442009	0.2962008410339227	0.5031288140698483	0.004348836356669272
0.1482902993364854	0.5276321814780276	0.2998834425593218	0.5250857388956349	0.004648148074681835
0.1507679370955254	0.5528626067676661	0.3017550421351041	0.541642331053013	0.005137651920916975
0.1527009768984096	0.5718001721505879	0.302104613345699	0.5532533122278911	0.006084477015720235
0.1540589714577417	0.5830309806639504	0.3015473373005062	0.5609531475113052	0.007633835880493933
0.1548208116596206	0.5926692318640399	0.2987865089240729	0.5675574149090676	0.01670158280283474
0.155	0.6103003941331642	0.2886634680632405	0.5706729035583311	0.04535763090865008
0.1554542507337262	0.5960840773890779	0.3008284250483284	0.5690764661889955	0.009545028284053458
0.156515784775164	0.6080589869640283	0.3017277012638844	0.5733167152042353	0.006655455089942031
0.1581644464118399	0.6249086278445419	0.3023323964416014	0.5810964982960862	0.005396982713620435
0.1603741041940474	0.6451093905751664	0.3022021115298952	0.589766226285094	0.004748738244150896
0.1631098871668135	0.6703398916981433	0.3006622735985651	0.5969775293848945	0.004461820581424636
0.1663286436775879	0.7003182911331802	0.2971434757748528	0.6002004986086585	0.004170856427629488
0.1699796094921079	0.73299063469352	0.2909573121475733	0.5968464010029482	0.003811569325947728
0.17400520557877	0.7667571141575641	0.2813401269975102	0.5841521475038869	0.003578806211528729
0.1783419453248002	0.800853552488157	0.2677884733118625	0.5600633027758097	0.003531538874326223
0.1829214354539589	0.8343393965669642	0.2499343376226488	0.5237898864996677	0.003521480809611566
0.1876714545037473	0.8652324301935089	0.2281166686849223	0.475709715304699	0.003412681501133275
0.1925170917444269	0.8925216587648589	0.2026523716636799	0.4173559733778243	0.003248787878532999
0.1973819285398158	0.916729639822714	0.1739997690451385	0.3512184620426264	0.003229514477079531
0.2021892435043931	0.9390442756032039	0.1427756977424315	0.2802126506314724	0.003447608508905242
0.2068632224455918	0.9596978774283007	0.1105894087436934	0.2095174041018035	0.003727352292547392
0.2113301540101398	0.9781038457856318	0.08043696799070421	0.1456288928489806	0.003817143362979891
0.2155195921846577	0.993876262351603	0.05522027364860893	0.09394497748219077	0.003803235027764806
0.2193654673351004	1.006435251886757	0.03657738196974769	0.0570547059738824	0.003962833319756331
0.2228071283122631	1.015761317607378	0.02411767401860332	0.03333534352963796	0.004357093765790632
0.2257902993364854	1.024097195859968	0.01679862613802507	0.0189898964154489	0.004699306063612241
0.2282679370955254	1.034102303279591	0.01266927989955136	0.01105705605640317	0.005197315816203751
0.2302009768984097	1.044119387261742	0.01059730495997702	0.007343972114721264	0.006349497810813176
0.2315589714577417	1.051080578476059	0.01068657721884114	0.007190507815795444	0.007600732191474169
0.2323208116596206	1.057947823022601	0.01834388857179325	0.02201216202992762	0.0131796295762785
0.2325	1.059869796624836	0.03817437056443773	0.06516317400897775	0.03514034666749488
0.2329542507337262	1.060723689957388	0.01247334454486726	0.009968158904274382	0.008447409107021908
0.234015784775164	1.068621899183487	0.009800087705422289	0.005304654394834296	0.006944260900025423
0.2356644464118399	1.082380232216725	0.00964099741458968	0.004764051747042863	0.005635687262246503
0.2378741041940474	1.102474105951504	0.009365035762428642	0.004214416887668992	0.004736699321994386
0.2406098871668135	1.132032958775277	0.008725702941346558	0.003663506521037752	0.004237793690068159
0.2438286436775879	1.170036350920248	0.009952556518316058	0.005998963275255509	0.00360562119593677
0.2474796094921079	1.212703957169412	0.0224091309346568	0.02457098291616089	0.003011424561281784
0.25150520557877	1.25842820292667	0.048001770600403	0.06138980334280819	0.003219319892702854
0.2558419453248002	1.308858693491105	0.08707030728660792	0.1165158338821384	0.003691519209775729
0.2604214354539589	1.36561372336034	0.1377742065812848	0.1878000410681091	0.004216871850272197
0.2651714545037473	1.429234884007533	0.1973544126771574	0.2717965399116977	0.00504027715721822
0.2700170917444269	1.492471654547793	0.2637549799306957	0.3645346949084303	0.006286066654236588
0.2748819285398158	1.533357218166543	0.3377736485768463	0.4630740702433183	0.007182172453344071
0.2796892435043931	1.529876785917305	0.420689034893565	0.564093716843324	0.006425678545045166
0.2843632224455918	1.470942806791579	0.5109344470271594	0.6633503907730396	0.004981326649968976
0.2888301540101398	1.368191514912846	0.6020721928783493	0.7543189630491189	0.003401939587913683
0.2930195921846577	1.238624121996908	0.6872273058092322	0.8314800392875762	0.002956581391143409
0.2968654673351004	1.098345864525299	0.7613133664446424	0.8913623246299335	0.002721364504692847
0.3003071283122631	0.9581043154523432	0.8214512802369058	0.9331832316785867	0.003090617917524074
0.3032902993364854	0.8271567232578318	0.8674436767521031	0.9588141779152043	0.004849386971821357
0.3057679370955254	0.715575979675614	0.8998215149727773	0.9721284054420924	0.006234500247723762
0.3077009768984096	0.6282512972690356	0.9207052846631001	0.9769021469365891	0.006352172112566112
0.3090589714577417	0.5641436792408624	0.9318850734209604	0.9754393375118403	0.006943190169157454
0.3098208116596206	0.530402841307402	0.9340628787039561	0.9709540263814387	0.01354433250822873
0.31	0.5226871783980951	0.9341096031529489	0.9696315553988574	0.01550160032982539
