DataType=double
version=3
OpenSimVersion=4.5
endheader
time	pelvis_tilt_moment	pelvis_list_moment	pelvis_rotation_moment	pelvis_tx_force	pelvis_ty_force	pelvis_tz_force	hip_flexion_r_moment	hip_adduction_r_moment	hip_rotation_r_moment	hip_flexion_l_moment	hip_adduction_l_moment	hip_rotation_l_moment	lumbar_extension_moment	lumbar_bending_moment	lumbar_rotation_moment	knee_angle_r_moment	knee_adduction_r_moment	knee_angle_r_beta_force	knee_angle_l_moment	knee_adduction_l_moment	knee_angle_l_beta_force	arm_flex_r_moment	arm_add_r_moment	arm_rot_r_moment	arm_flex_l_moment	arm_add_l_moment	arm_rot_l_moment	ankle_angle_r_moment	ankle_angle_l_moment	elbow_flex_r_moment	elbow_flex_l_moment	pro_sup_r_moment	pro_sup_l_moment	subtalar_angle_r_moment	subtalar_angle_l_moment	wrist_flex_r_moment	wrist_dev_r_moment	wrist_flex_l_moment	wrist_dev_l_moment	mtp_angle_r_moment	mtp_angle_l_moment
0	115.9749250759678	-82.57365154002312	-32.4728926202128	48.35423965670248	201.5288411552509	47.50726977934575	-6.499062905343544	-44.15717206848222	9.273722240675649	31.45718936772331	17.96098281307478	-11.14135425749202	83.14366080583989	10.59010878549605	-6.093135163788769	27.3912845353013	-17.8653669412949	-0.02261534751657646	1.448271618113195	13.02388709575255	0.01648696212273394	-5.331166624968532	2.959828802046208	0.9284427155071103	2.203555411578044	4.239510540022574	1.245274306456351	0.2536844243573491	3.542047998690964	-1.285800267702472	1.566774670369529	0.03934163283242847	0.0005191561553455348	-1.329090854218616	-0.4486935644421646	0.0686096177391671	0.1767638419267328	0.3687847963950106	-0.1489656813733785	0.002877264731829692	-0.1463586136155176
0.0004542507337261803	113.9761774040854	-80.09253698864801	-32.14744771746641	43.27591991081732	201.5685937762108	44.45755716003983	-8.320848843985758	-43.28121564163457	9.216632581989392	31.1524901576686	17.04103746285941	-10.78427846425574	83.18611973446109	10.67776488602765	-6.174188066930625	27.70174641481828	-17.53737873290712	-0.02146479792826884	1.399110529628297	12.55963509672311	0.0163702536495997	-5.332717148566183	2.952495375309885	0.9239690055997374	2.290533297051614	4.247742696675327	1.268710069060227	0.2447684580902652	3.554687271941426	-1.287528243431652	1.601302448736518	0.03918796056921084	0.00103643487675642	-1.309767556273767	-0.4776999548288199	0.06796666147631469	0.176761381373344	0.3746169203062514	-0.1521615726166595	0.001434047815387904	-0.146156107205512
0.001515784775164009	112.6181181904689	-74.66527027441293	-30.45471994054616	40.75515034597149	201.9395917109975	37.86485315181275	-9.603385800487388	-40.67716898010434	8.991859243185788	30.43949691295969	14.873472456294	-9.961160609276465	83.27924358246749	10.9296058797559	-6.361314503160425	28.31898303609703	-16.46314824245918	-0.02118813367781493	1.29324183297066	11.47073269767586	0.01607368674158137	-5.33644639816297	2.935274145785224	0.9135029704741635	2.49330934695585	4.259051623410032	1.32092599431128	0.2089322829011445	3.584363985460265	-1.293591902958788	1.682382282172306	0.03886753598433892	0.002116739199180984	-1.239607653052598	-0.5458673029004857	0.06641364574599623	0.1769511984805512	0.3876700182099414	-0.159805412299624	0.001174230660637036	-0.1456949385223088
0.003164446411839883	110.7787749054299	-66.03588564365457	-27.79860013358238	36.44296972525888	200.3977026523017	28.30784470943261	-11.5069764598183	-36.72125740920865	8.677535369864367	29.30811424643343	11.5082275328615	-8.728411746550933	83.37859118697163	11.61020060994302	-6.62716952441113	29.20008593899624	-14.84993765850751	-0.02056525617186614	1.212976195591778	9.786428477934939	0.01553518745266735	-5.342304653323156	2.907640048694814	0.8973803552175776	2.792171447374785	4.226183154687018	1.384159504809808	0.1632777598517602	3.630022763933554	-1.315982802826088	1.807678820325179	0.03863546540389642	0.002951149780169082	-1.131759157627696	-0.6529080431714244	0.06371568510292472	0.178514636004288	0.4037972192654025	-0.1724930911721299	-4.6329391917177e-05	-0.1449519891116905
0.005374104194047435	109.4199072080085	-53.85507415213812	-24.08319850903549	29.6480153060289	190.163917884718	18.13177354908809	-13.58879955475074	-31.65514498923263	8.375333514351784	27.6662864121127	7.159259535045596	-7.20097507222961	83.34281756033428	13.53713592708835	-6.880272497278501	30.10073451673127	-12.8434108051347	-0.01918442589931429	1.438758140055911	7.59459676199625	0.014668850235845	-5.349898162258953	2.867054175402157	0.8764393648382804	3.113572712380084	4.001001548461714	1.402038514008852	0.1140006458201778	3.685865470489566	-1.392379669599994	1.967980684306619	0.03929584402257999	0.0009922297195524843	-0.9839286332646513	-0.7982045078613835	0.05911664760181259	0.1851620559920582	0.409719583410646	-0.1919144946374783	-0.002593044230227888	-0.1436534956696861
0.008109887166813518	108.2729490520657	-37.54302114991981	-19.38195274247811	17.9754670377601	163.6511325852773	9.970736671568567	-16.54313408036777	-25.80217755610893	8.28297911275004	25.32025050694632	2.12384802455702	-5.507791087593493	82.98441333641956	17.6978124750626	-6.991889688116343	31.30340379453119	-10.68821009495489	-0.01656781403917595	2.32310242629732	4.996826781178581	0.01395549826631089	-5.358757802242958	2.809473500660125	0.8509219160114756	3.343621590552428	3.393561486604773	1.299878100354963	0.08203823576627556	3.735580990046259	-1.568820891810299	2.145954625878529	0.04180785997019432	-0.007067216756426742	-0.8028835002980027	-0.9785475815529967	0.05158932844665725	0.2014492692802358	0.3877166220372501	-0.2197215574922521	-0.009676403224529465	-0.1411291525709387
0.01132864367758793	106.1556404225175	-18.24310164512231	-13.86053506016896	3.743518612367438	133.6405825415797	0.5599553625375648	-20.32503006743311	-19.27020760955403	8.220762190174437	22.30209048887054	-4.133755378432172	-3.569312976660719	82.43732845251721	22.69697501101626	-7.050519714454481	32.78797742005165	-8.362729326551191	-0.01355544297193696	3.379227067329337	1.781735730464516	0.01485754899414902	-5.364748407181848	2.732871945468701	0.8151301551435806	3.567795576499512	2.627666109667038	1.158626338212866	0.05711347033644973	3.770117102652647	-1.778216930101403	2.346080328007209	0.04456829084529113	-0.0173760338030321	-0.6039908298298022	-1.19167565421511	0.04189314615710507	0.220996887911104	0.3569751719676656	-0.2525689828969128	-0.01838644707755172	-0.1373504681904617
0.01497960949210789	102.5258691111632	2.65723763853264	-7.667278803336831	-10.09089389661744	111.7784961462549	-12.48414303598764	-24.37146805055049	-12.29630123155278	7.998863754873036	18.72302685682301	-11.97018452284672	-1.406670498333097	81.79645053161119	27.27392178720603	-7.138541308454615	34.30179898852715	-5.876209637843973	-0.01089840240744885	4.193780801780901	-2.159484606448704	0.01597282995955995	-5.360839473534288	2.635440153405291	0.7645896354208322	3.885453295415191	1.906940146569382	1.055111844343582	0.06006192305919966	3.788088220060966	-1.960603531566969	2.578852008978866	0.04616109667777007	-0.02634421712911805	-0.4063296858789068	-1.43393324259833	0.03076680729079576	0.2381712882329943	0.3358554714540943	-0.2879998264273154	-0.02830469154517457	-0.1326040952020278
0.01900520557876997	97.74185703690563	24.73415155423679	-1.182389201961756	-25.77457144151464	86.96243753963681	-24.65949609585804	-28.91480155965516	-5.645977647538412	7.874206669673676	14.38730381937957	-20.48077289915933	0.6803109960126712	80.82760330137916	32.53088438626055	-7.116796178588226	35.90512364186029	-3.671530258485018	-0.007905251100503878	5.267003436169448	-6.475628203383331	0.01737217623267692	-5.345758648388343	2.517185255242256	0.7023009362838343	4.160132654320424	0.9963866207830399	0.8991006142726219	0.0898468096056152	3.764109268850086	-2.173940711526597	2.824742868354109	0.04790014320187241	-0.03804232751111436	-0.2223830790744476	-1.687955458546346	0.01722717481999764	0.2587298597715588	0.3027610844392998	-0.3280951708317041	-0.04003410230450908	-0.1260834740719578
0.02334194532480019	91.61611750736145	46.1348097745353	5.199820737565666	-41.44277167483682	64.75722361518187	-36.07174357280884	-33.39905442452019	0.1564262116187107	7.782476602291984	9.349771485781726	-29.32271286540684	2.55607924816591	79.55907631260655	37.65358195520828	-7.021396870977606	37.3223831041577	-1.911929501407684	-0.004895655388864856	6.451355797901696	-11.01113948664874	0.01881071661750934	-5.312834805860883	2.379174171743811	0.6271169826793458	4.439343396517142	0.001446364758262597	0.7300517520768532	0.1606503764715315	3.685288674108613	-2.384678049311266	3.085515783224869	0.04905617235439697	-0.05055765731507855	-0.07398093381384835	-1.937122061499225	0.001837290103411595	0.2796081148252207	0.2669345138950574	-0.3710952459379279	-0.05302248564520061	-0.1176833569878142
0.02792143545395889	84.16133628842101	65.21647566163816	11.0238202945962	-56.33705543076982	45.66880696381696	-45.36138635870569	-37.48030111023171	4.584685515920455	7.766476659725075	3.674655698755834	-37.74467815052891	4.053156788342116	77.94257345164476	42.31432791388652	-6.851802812447918	38.37486891657736	-0.8002494131313034	-0.001864717732626399	7.809208716485376	-15.45391308151096	0.01782802246436661	-5.2564356539517	2.225048579429919	0.5410736955107919	4.727098511059369	-1.064541228524199	0.553453501296536	0.2854050855149587	3.5383932462097	-2.584780679590668	3.358792596034488	0.04954877876962949	-0.06357187950349075	0.02079277261478056	-2.160460921257415	-0.01501010017945263	0.3002112293605556	0.2295229414079279	-0.4163436650265782	-0.06761405335229084	-0.1071921838645039
0.0326714545037473	75.27767929306933	80.5382681157688	15.82556644024632	-70.17924537444537	29.16156856583531	-51.16695791260353	-41.04423946034561	7.315059246964965	7.899233821079948	-2.557589243934049	-44.83969531131502	5.05914231718627	75.93717701241141	46.2515493632504	-6.608652450501005	39.01638048486311	-0.4644316826898489	0.00123525863620657	9.444715733219127	-19.43895915593258	0.01648271342490878	-5.17319188110435	2.06043235250725	0.4477229545009058	5.01964298724851	-2.198905214624096	0.3699032473814694	0.4579542789759433	3.314035250288645	-2.770311770501551	3.640027478000688	0.04944653250687969	-0.07697286473724119	0.05225622977625852	-2.335894567073826	-0.03279625066784617	0.3203156462521951	0.1904496771496294	-0.4631074214661796	-0.08305910670738166	-0.09444996449317493
0.03751709174442691	65.17562091679605	90.80865804453897	19.26510453722619	-82.72391565030691	15.6012740405619	-52.70778091686084	-43.71192401806939	8.150745858492137	8.208497039284476	-9.152895450311576	-49.85395567940121	5.562730078837398	73.53700803362831	49.0823316851387	-6.317161788408722	38.94699850105697	-0.9375006673974277	0.004596633623038832	11.38045617500134	-22.65314496884945	0.01496324296514065	-5.061205850503047	1.891715200485021	0.3510587651302435	5.336158247546207	-3.363367087340717	0.1929666025414676	0.6704134986115232	3.012543929392416	-2.930091457231855	3.927666120994024	0.04868717030258318	-0.09005001676685187	0.01651730066527121	-2.445874128742703	-0.0507456646692178	0.3389616598659244	0.1527912699497237	-0.5103293600216258	-0.09793279631481687	-0.07952886847215754
0.04238192853981579	54.22282682774014	95.64633658001434	21.2615706391983	-92.88273565958896	4.520959192586758	-49.73384248612474	-45.29291731220203	7.454387751554508	8.702623062920821	-15.87270249097608	-52.1861272200719	5.633214148597818	70.73741390349929	50.65141533301176	-5.997193791425969	38.27833640147231	-2.041191511797134	0.00735597347154896	13.65722279779133	-24.84360311397867	0.01408973402888337	-4.923117253336724	1.726209296824585	0.2560020943737423	5.674911043485865	-4.54552676013857	0.0246025342076388	0.9042833343526949	2.640687575875326	-3.062043374344783	4.21707563017099	0.04743138306666977	-0.1026247182952758	-0.07374233949149103	-2.47889530460016	-0.06813529424594554	0.3560040959426773	0.1168783379918389	-0.5571366365033974	-0.1113506097679556	-0.06259119703119015
0.04718924350439309	42.6699341115147	95.28284362675839	21.83223246326094	-100.6384589287028	-4.157556974460576	-42.72795625620475	-45.82935361571296	5.676065563472628	9.349494046040377	-22.44581281436437	-51.62627273561162	5.408785872509401	67.57060665605306	50.86015606156479	-5.679618140145593	37.05949293673828	-3.556531976634659	0.009825096559121223	16.23873384786424	-25.90150446634038	0.01373622720328539	-4.765359731744825	1.570439280089884	0.1669091942558795	6.039403306132782	-5.717240435091575	-0.1290821334326648	1.127392548972682	2.214831331182483	-3.163063419211915	4.504294512267908	0.04579476109230407	-0.114326801904858	-0.1993060768521748	-2.433386796253146	-0.0842504103252003	0.371118923312077	0.08410768259171743	-0.602550829980501	-0.1211250109723543	-0.04406690053708078
0.0518632224455918	30.95657678921793	90.4731788592718	21.17513033979648	-106.0015758096599	-10.83963254833176	-32.44471048340564	-45.34375858808346	3.319622886378792	10.08780022456697	-28.64148419105594	-48.31860716639394	5.047005321583396	64.09172291569421	49.8022987213139	-5.391359436500328	35.36716753490818	-5.247105428010844	0.01224412441941856	19.05931703268542	-25.85656177718781	0.01270260974183402	-4.598294665430826	1.429492428930246	0.08726825698384766	6.419740287176615	-6.859972022148542	-0.2676458810433733	1.328809023361734	1.756216089578453	-3.2353600617366	4.78372419374727	0.04396734520566897	-0.1250581443359446	-0.3421402057786085	-2.316906622956988	-0.09857655413966639	0.3843978000233385	0.05456154123140486	-0.6457287993441153	-0.1272141808765425	-0.02454647731787048
0.05633015401013977	19.76915117655759	82.28909251047473	19.65023821187252	-108.5495982849647	-15.5445697725078	-19.95044079597432	-43.72441780708422	0.8623584223303791	10.8158821648654	-34.25275406418431	-42.76822328926755	4.685920738928158	60.39007017852759	47.68034071823176	-5.157934661201376	33.26557219946189	-6.878185466684104	0.0145185206416246	22.00266137833044	-24.87256057157123	0.01116817804612507	-4.434208229924415	1.306442043810206	0.019116396904588	6.804274940170469	-7.95112622943028	-0.3904277549438766	1.527156523999882	1.289620110101941	-3.282473612797829	5.049967590967205	0.04210700935936529	-0.1347263977832931	-0.4897030396936034	-2.145039460865606	-0.1108015518024776	0.3959701380600278	0.02841693228218389	-0.6859144445970369	-0.1321075299612628	-0.004798488295977704
0.06051959218465776	9.693802292556001	72.05631518320541	17.65986348648958	-108.1096471843049	-18.50159734710919	-6.414735509581277	-41.02155847895728	-1.274746634326368	11.43382288791504	-39.15077819403631	-35.69228898233742	4.416104486646075	56.58262970010971	44.80044280660218	-4.996221024836525	30.91205570658418	-8.253451813228907	0.01648069156664159	24.93720920413686	-23.19895256217759	0.009370159546049774	-4.285395681863738	1.20252937903909	-0.03686356091274845	7.176842104674184	-8.971554144597938	-0.4986547689957388	1.710077349211986	0.8386739559273955	-3.310177852232808	5.297526210032808	0.04036189585410482	-0.1433458181568514	-0.6249699844510406	-1.937768895055853	-0.1208446808456407	0.4061033006521256	0.005404645419908705	-0.722512325058601	-0.1353875105404722	0.01436042640567426
0.06436546733510043	1.171160451173449	60.95141109769455	15.57089109673943	-104.849898771922	-19.81462285028743	7.136470385795533	-37.35234172392344	-2.915037487914491	11.87889057603311	-43.28357933583041	-27.88824282466469	4.27478263711459	52.81142223823334	41.50030490309049	-4.91394787087786	28.43048308194595	-9.290563656451054	0.01900518947754798	27.72907589456578	-21.1218705422381	0.007485785894899937	-4.16176342054815	1.117554720264181	-0.08113960089624206	7.522336301951216	-9.902755009710361	-0.5933689979077288	1.895344736626804	0.4234289039233683	-3.324227309791527	5.521642789884625	0.03883069615904894	-0.1509372991288696	-0.7442367565811804	-1.716095084182633	-0.1287996948639293	0.4150148951833534	-0.01469692716559765	-0.7550745442552738	-0.1391808056787638	0.03217040361181737
0.06780712831226307	-5.412269054531976	49.94575165713346	13.70619495041886	-99.07509240342635	-19.89814411320163	19.99148807313622	-32.81089956768449	-4.022947129603835	12.12088574157711	-46.66354753769519	-20.09178156599671	4.255430234755984	49.21901327902721	38.11715815958186	-4.906552767684368	25.88260827423861	-9.974344902548495	0.02062381544848115	30.26466935182677	-18.91284480451187	0.005716389071523029	-4.068499326778682	1.04964986377277	-0.1151847345442903	7.82886607449849	-10.7286255293035	-0.6753718461254206	2.08859805403748	0.05823722675024628	-3.330159822302788	5.71868324156207	0.03756854636356338	-0.1575252527801707	-0.8453384727078678	-1.498826405156976	-0.1349173874688631	0.4228812115376776	-0.03207104962086921	-0.7833163357985292	-0.1441128749351044	0.048014309800024
0.07079029933648544	-10.38230861927266	39.88184976797536	12.14837641065255	-92.42306567629662	-19.15541350612359	31.46749919916944	-28.05602782679685	-4.713077720223626	12.21176483522863	-49.34419499163681	-12.90378636479099	4.325533949843925	45.95338393258842	34.93292854304137	-4.959889345271768	23.4329454711222	-10.39338908284418	0.02158922412773582	32.4588170920543	-16.79877638743738	0.004186821914696024	-4.006339026701395	0.9969184918395622	-0.1406329733708948	8.088242009704196	-11.43637065952654	-0.7450369993882453	2.274913785008054	-0.2483286861919057	-3.332023356784473	5.885984334928009	0.03658854488264923	-0.1631164975975579	-0.928662689012041	-1.300922605544871	-0.1394811889734553	0.4297534864447168	-0.04680907958750041	-0.8070668430999417	-0.149422873962065	0.0614728545337857
0.07326793709552543	-14.19862549648222	31.33254196388899	10.87485846159741	-86.75415818936642	-18.14606118139783	41.12351920270908	-23.76468528884575	-5.174651570352562	12.23340584510212	-51.39725265890123	-6.752145964183077	4.443481906969908	43.14540287218615	32.16196399220836	-5.0520217559432	21.18151111433731	-10.67113184090076	0.02235900171379204	34.25816364769295	-14.94643866443801	0.002922713110799058	-3.971350757616032	0.9573185854986633	-0.1591111868462257	8.296520424480599	-12.01679845559089	-0.8022989776832223	2.439726564086979	-0.492922069687931	-3.332412593838129	6.021980958676201	0.03587229267045866	-0.1676997586998177	-0.9969274472348106	-1.132836472370775	-0.1427780027289446	0.4355836427654964	-0.05890835391187607	-0.8262562774005768	-0.1543153235998098	0.07232913365786381
0.07520097689840965	-16.82437180788384	24.6216708624609	9.9623968670215	-81.99856103927186	-17.13382873035965	48.70635866482441	-20.09030843357666	-5.431999148154079	12.20094016419422	-52.89310771400543	-1.901994571355385	4.570433408820132	40.89909389726558	29.95034502367241	-5.156765730574365	19.2709073234376	-10.82526434872048	0.02283651911418545	35.63670279230459	-13.46385720845563	0.001939733669374913	-3.95622895091131	0.928836242800228	-0.1720460625674823	8.453256527457057	-12.46390906326753	-0.8467506307922212	2.577080191769534	-0.6759707747464032	-3.332641524780325	6.126004676107176	0.03538252082790949	-0.1712480690316946	-1.048830767310236	-1.000932004024837	-0.1450646120237362	0.4402558607991622	-0.06829152385795459	-0.8408818470886046	-0.1585563839398884	0.08052930454198827
0.0765589714577417	-17.91915537579106	19.82776408115588	9.533371798799493	-77.26154743657266	-16.37949364245372	54.17386473347798	-16.84383185848616	-5.475461975693626	12.09906672523764	-53.89051274673457	1.505919153398711	4.676301292265454	39.29433341610036	28.38303350973067	-5.248733846005789	17.7706505079176	-10.83811222104404	0.02274212652321473	36.58749170917772	-12.41230660737521	0.001249752963488097	-3.952695394155712	0.9099996158811178	-0.1804438947614576	8.559871547715684	-12.774546880728	-0.8779145953498437	2.688253913493844	-0.7999193050030833	-3.33303397003806	6.19791276407138	0.03507743982667633	-0.1737306590298808	-1.082677417638867	-0.9085006121067987	-0.1465330263138098	0.4436214772796338	-0.07486486723621211	-0.8509733129671395	-0.1621357036138665	0.0861212779160736
0.07732081165962061	-14.79673690107812	16.29501953914707	10.31373826228982	-68.10302044807014	-17.50323205776944	58.56175211125302	-11.65147174651607	-5.238297598578672	11.75705586567738	-54.43143309924315	3.411408894958234	4.741224584399768	38.38527409844502	27.50201188129335	-5.307253257927536	15.93254349408191	-10.55840894937413	0.02105964129011173	37.11340421395152	-11.82120535941667	0.000862365070691476	-3.953464329520944	0.8998386825125255	-0.1849270718458748	8.618290138918734	-12.94743777336348	-0.8953867987558626	2.836651235628834	-0.8676348768920727	-3.333404717395947	6.237805362016999	0.03492106765267411	-0.1751206237618035	-1.10011455321998	-0.8568909195695049	-0.1473097674206609	0.4455441971748746	-0.07854845163007593	-0.8565675578425274	-0.1673785347299258	0.08919027428510509
0.0775	-6.368179234180168	13.35540472246128	12.53625454498771	-54.99937376105989	-22.70539672517094	62.96896523520721	-3.422667202381954	-5.088428130457722	11.20022584938213	-54.55676059038489	3.858538585028183	4.757040038889985	38.17060039047026	27.29479401150462	-5.321757732621504	12.79205842263393	-10.10759211137129	0.01844057403764578	37.23625533049674	-11.68219610838351	0.0007711810056557234	-3.953943966165577	0.89749045308761	-0.1859589436282337	8.631877473206467	-12.98795133800543	-0.8994959240113349	3.076521981344023	-0.8833637540604058	-3.33351154229506	6.247140029210176	0.03488587119308451	-0.1754473144372197	-1.117397520492363	-0.8447869660256622	-0.1474877127377901	0.4460002982305298	-0.07941457365337889	-0.857876298625494	-0.176348396577278	0.08990458424136816
0.07795425073372618	-18.52608541675279	14.8570057142044	9.238854683567974	-71.89831979389358	-15.85427449144687	59.95692929196989	-13.06006665511711	-5.468816158403371	11.95098041611771	-54.87127855486566	4.989845201658005	4.798027885191574	37.62498931839639	26.76968320404116	-5.359809246633021	16.02257087789258	-10.80880326757497	0.02250512216180016	37.5461781115755	-11.329983200464	0.0005398681566018992	-3.955681725562209	0.8916080022470531	-0.1885374878321847	8.666053913643939	-13.09038924729068	-0.9099125921198343	2.807489418920832	-0.9228908465384944	-3.333819952445836	6.270720120098733	0.03479939114940894	-0.1762751399684577	-1.115735285534106	-0.8141719374368819	-0.1479308829151783	0.4471634074072705	-0.0816098806215883	-0.8611819469894204	-0.1655556260558041	0.09170210103789944
0.07901578477516402	-21.4434621739997	11.61693428005269	8.324477182552046	-73.43240684626974	-14.99434925639331	63.63948091237607	-12.39769754215352	-5.755376716382534	12.0551946606715	-55.5887696293844	7.618684160691517	4.898568750564275	36.34252024493155	25.5449787596057	-5.456016757721621	15.03748851734422	-11.03374669339414	0.02389806212237124	38.26153999729292	-10.50891382791785	-1.869245929480168e-06	-3.962739012475913	0.8782475943239234	-0.1943644289093323	8.744369125501709	-13.32823509277131	-0.9342585994756352	2.843882125748376	-1.013269785229879	-3.334777711497235	6.325345863935617	0.0346128734356681	-0.1782080554108825	-1.145287051815867	-0.7430785545385555	-0.1489234645900685	0.4499215892903652	-0.0867389833348168	-0.8688390902184149	-0.1656489452459954	0.09582549126833215
0.08066444641183987	-23.67401147707535	6.293855648057844	7.567063572258583	-71.34375393997256	-13.9947824870286	69.88056349273872	-9.339109184249143	-5.876091400114026	12.00295428233196	-56.65632238185506	11.64657127672192	5.066572918667219	34.3323551190315	23.65634706876724	-5.626343697402	13.06115855488863	-11.13645639905512	0.0247365607239895	39.34555440474352	-9.244365490988633	-0.0008481398374247187	-3.982437498539599	0.8585443880592376	-0.2029102239925785	8.861465496041644	-13.69308548327527	-0.97209725335513	2.948355542509209	-1.147832462815996	-3.337064986562013	6.408814556570317	0.03436778023487086	-0.1812074553244336	-1.185668045913385	-0.6342393520321952	-0.1503520104496938	0.4543256110461077	-0.09470545080035603	-0.8805425718420428	-0.1678695744846697	0.1020001729767439
0.08287410419404742	-25.85858243235329	-0.5856235188933507	6.836536527907345	-66.99766315514276	-12.06991328237103	78.05190073621162	-4.60378936872788	-5.766071368082471	11.81851801749288	-58.00362122873121	16.90097213074165	5.31013224715977	31.60946622022015	21.17113516123621	-5.89628798106275	10.35137233325544	-11.12444739147437	0.02503178805104919	40.74017617971199	-7.584551234011449	-0.001997305422739829	-4.026644259368136	0.833992506326301	-0.213571339577615	9.00903586273091	-14.17256106532176	-1.022907134666664	3.10202087036401	-1.31633037224795	-3.34205404607671	6.51793532096846	0.03412703013710122	-0.185227074576058	-1.234132374361288	-0.4923119431770338	-0.1520729752822019	0.4604814572523678	-0.1053920062113602	-0.8958655300335658	-0.1717014437171203	0.109796206401638
0.08560988716681352	-27.86654016340484	-8.441874616685942	6.246636796512092	-60.24094385036844	-8.498689801039923	87.59891935110875	1.700406998510953	-5.242321779965278	11.45001495764006	-59.55154117394051	23.09839612195488	5.631361176203431	28.20578736530138	18.21062859425239	-6.300211544145317	7.096490975179012	-10.91824716344319	0.02466924649593817	42.36051414934097	-5.61496733332279	-0.003457045665165356	-4.111858217809945	0.8061663088777815	-0.2259133602564779	9.175440480591607	-14.74923827617291	-1.086027889511326	3.288219076530722	-1.504604808389912	-3.352084478859631	6.648407902973855	0.03397183010894694	-0.1902113810871997	-1.282686415509934	-0.3247516543043197	-0.1539473149369458	0.468549244873066	-0.1186474682448378	-0.9142570857482533	-0.1762088602601208	0.1186025050921171
0.08882864367758794	-29.63459666087876	-16.51027389150751	5.930391475052817	-50.78401565851014	-2.019877518957799	97.72371772700697	9.345513332912617	-4.12700506931767	10.84532280216234	-61.22587522489387	29.82430679638136	6.020144118882859	24.18039437605341	14.9657779815537	-6.880394338872584	3.642214255912964	-10.44068214048392	0.02324974298231856	44.09361829863819	-3.46757916497462	-0.005251609834304809	-4.259025293804257	0.7764937735265872	-0.2399220784273161	9.346053318038818	-15.40043755289846	-1.16060860425182	3.492431473992659	-1.694891028972136	-3.370686841574467	6.794963380209482	0.03399673206758108	-0.1960970525089645	-1.32419395209304	-0.14225108929272	-0.1558792525000322	0.4787429831391917	-0.1342734474346256	-0.9350732854412529	-0.1809217010907901	0.1276224926170343
0.09247960949210787	-31.25501483308818	-23.92999770256509	5.985131611629001	-39.63779191642133	8.305257308350676	107.6187103433592	17.91404159244884	-2.42027937750181	10.00858984976582	-62.9708638386424	36.53554923292743	6.449890686354177	19.62979103346483	11.70261891269676	-7.685013820995835	0.2003720056905482	-9.704464925520075	0.02081208583766047	45.80177339988156	-1.321964579342068	-0.007426563537427927	-4.492672609884401	0.7462150900010713	-0.2561574757881101	9.504229511940832	-16.09846651650689	-1.245485863578931	3.708026819516185	-1.866675041975354	-3.402611135868436	6.951623318367357	0.034303586093552	-0.2028097254715684	-1.358206975941151	0.04133922444725355	-0.157844420506338	0.4913157112061943	-0.1519952100654056	-0.9576163298435996	-0.1859546138703601	0.1358894037026747
0.09650520557876997	-31.84185348876414	-30.00376120532767	6.782732530647285	-27.74354715370514	22.05384078732553	117.0142925976363	27.8154783435412	-0.2203141026997848	8.938530369981462	-64.75326581127133	42.59493475767648	6.877963717549392	14.69253781455819	8.752661773357566	-8.764219446548251	-3.603201640161113	-8.752208935928451	0.01753898787599865	47.33043539634404	0.6061351695045154	-0.0100500177995733	-4.838590155351862	0.7160146177807658	-0.2759545069774496	9.632035177413552	-16.81160604096131	-1.339132948061154	3.957646294587449	-1.998153529621236	-3.453224728730306	7.111918047208107	0.03498224537065153	-0.2102580254145239	-1.390807237652594	0.2098333657206807	-0.1599112754823958	0.5064876068295928	-0.17144543131651	-0.9811645908302241	-0.1921175855810127	0.1423292769937091
0.1008419453248002	-29.45611455606883	-34.13473368152449	8.971065567290509	-15.8452966043162	37.10019900048623	126.1729658062767	40.33196264986448	2.42176393402619	7.609440996931154	-66.5592688975733	47.33796593646515	7.252743865210169	9.54441013393966	6.47703222596441	-10.16558761541886	-8.757064089237305	-7.619068632547436	0.01359582910208981	48.52283037482228	2.0887137485216	-0.01319936176050677	-5.320330186220993	0.6864366865387432	-0.3011442949296472	9.711960526721999	-17.50671855293678	-1.439648025370856	4.299361367254049	-2.068300370632111	-3.527625422375613	7.269413012227722	0.03609992987317145	-0.2183302474011994	-1.43409195957399	0.3462485286354067	-0.1622107735554411	0.5243681199578791	-0.192155293575906	-1.00502414915863	-0.2016711476901153	0.1458478557034347
0.1054214354539589	-24.66336561929452	-35.06244522814862	12.45372494834926	-4.714531222521252	55.094645569042	133.6405132625318	54.46036282979494	5.670023289153517	6.031222053169998	-68.38314929912698	50.16615202565551	7.526627869294169	4.385027499779483	5.213708488742878	-11.92768142565138	-14.5177267456328	-6.276144279909816	0.008679582967294187	49.23985447956604	2.919463759766554	-0.01693390834785595	-5.954944065236605	0.6583602044699985	-0.3335625004517386	9.728728301150518	-18.15251856853989	-1.544806848322835	4.698047240310078	-2.05928485715259	-3.629505337439984	7.418195663660825	0.03769322267748121	-0.2268886820207938	-1.479410072678006	0.4348952430402525	-0.1648762743830456	0.5448720972872351	-0.2135665253079543	-1.028564119002353	-0.2138292562140224	0.1454425339488679
0.1101714545037473	-17.93742931264569	-31.96010393113591	17.05768457133126	5.033361461823564	77.33077538001785	138.245630664751	69.3595948093588	9.552402928170949	4.229890596569668	-70.20869213553156	50.64739658434605	7.670981241050401	-0.580139732885919	5.217751311299214	-14.07189269534747	-20.27334204330861	-4.729616875189294	0.002311565652468896	49.38067474686439	2.95084091357979	-0.0212631866407595	-6.748733599174168	0.633185709618727	-0.3745080673772785	9.669794438632463	-18.72293865842216	-1.652317680632152	5.133439718207724	-1.958820581214362	-3.75975736555299	7.552956690982795	0.03975730385264731	-0.2357638876188173	-1.522612218869339	0.4636388652437247	-0.1679666756367386	0.5676250080514593	-0.2350979109241088	-1.051205304858422	-0.2286994562823141	0.1403369375147865
0.1150170917444269	-9.919723749035818	-24.47098353971496	22.43445126670774	12.46299239210907	104.577224882692	139.0254469018494	84.15519051781416	13.98876136587382	2.250789145411627	-71.99183653368088	48.59340795108517	7.687145361022809	-5.169247177172096	6.59226499526351	-16.5970517247565	-25.55140199710648	-3.012789120482991	-0.005498170831429726	48.89912728024245	2.123385240747401	-0.02611751244689548	-7.693512707814245	0.6141714993894342	-0.4236288499866914	9.525911820441392	-19.20209783586199	-1.760340681059147	5.578372078266993	-1.762193077970128	-3.915323226251663	7.669382864953045	0.04225468963459778	-0.2447729965983831	-1.558672152744212	0.4258268090469922	-0.1713397025323211	0.5919156149636168	-0.2562667265808088	-1.072447155963703	-0.2454794177746831	0.1301046154140196
0.1198819285398158	-0.6335212043426957	-12.85528783058483	28.31161584148663	16.94833900614355	135.9967532890731	135.8365642007421	98.6581899652149	18.87866291698125	0.1230349397581563	-73.65302227869083	44.1123422709786	7.608296545434454	-9.254977849717987	9.268470047166135	-19.47103881960651	-30.44199486891767	-1.158896694539608	-0.01438660024692759	47.81381839399131	0.4833148339165001	-0.03133542609354023	-8.764683322436246	0.6052168288434472	-0.4789030152995613	9.291519827307557	-19.5848797795083	-1.867566003858403	6.028283338950651	-1.473611637142959	-4.088958126770331	7.76407722269375	0.04511247841892052	-0.2537145333522783	-1.586299703268329	0.3217018057386236	-0.1746473577777874	0.6167168084500582	-0.2767336661773138	-1.091834411478352	-0.2637387421337341	0.1147751877342758
0.1246892435043931	9.634135228374737	2.182052851664755	34.29127788079708	18.48590803325921	170.8232629992353	128.6774411170662	112.5909492591658	24.1230620831421	-2.130283813800006	-75.08787619883138	37.59237286571062	7.490057925671577	-12.77024556971054	12.99639343937097	-22.63017187461719	-34.92037100189593	0.8150788640772164	-0.02405895257798317	46.20521475895217	-1.824060767038316	-0.03668237314047824	-9.923466696946019	0.6119993283453097	-0.5360256863522723	8.965590450146458	-19.87782976236045	-1.973369733736293	6.471924069497037	-1.106285935754453	-4.269953326046183	7.834695896802453	0.04824980391345124	-0.2623860739049615	-1.601949107120905	0.1585748694267695	-0.177296059411996	0.6408067502304993	-0.2963588226842879	-1.108968249206059	-0.2828229244270788	0.09488019399204763
0.1293632224455918	20.48542258115513	19.56597222091369	39.94648930232501	17.33998054563438	208.0100626155426	117.9435631134246	125.7224194132087	29.59736213205208	-4.479854562341266	-76.18518056009809	29.64449435337165	7.393055426268742	-15.71831208526397	17.39818240491086	-25.97983984216534	-39.02901433210594	2.886862508708707	-0.03419959134906958	44.20254867833982	-4.577095949001562	-0.0418951707210206	-11.12026937086496	0.6396273867025769	-0.5895134306239949	8.552165138077394	-20.09589467991438	-2.077552123455884	6.899574332702861	-0.6812077039085507	-4.445513125352216	7.880018747822705	0.05157032397876649	-0.2705904025277353	-1.603008464541894	-0.04995850939464259	-0.1785926355783174	0.66290276380737	-0.3151555878673758	-1.123516878412546	-0.3020776188329537	0.07142615476780875
0.1338301540101398	31.22935655944843	38.02295652004275	44.83074348380862	13.82803585303818	246.6981030073184	104.2550670887003	137.6730789506249	35.12143498353765	-6.877367556697038	-76.85823887791081	20.99595184593957	7.364303354091226	-18.1507884921084	22.04082929336071	-29.40211666088911	-42.7267985287512	5.018440043093017	-0.0444037940991516	41.96281446177802	-7.517824167746909	-0.04673413005009899	-12.30195540642087	0.6916852291144375	-0.633731626048998	8.061799891379241	-20.25791705957255	-2.17985011624508	7.300183794624293	-0.2244950325900776	-4.603186800685227	7.900094282930718	0.05497474461344554	-0.2781422876699338	-1.588172709975976	-0.2860641484810929	-0.1779028231895848	0.6818832667943785	-0.3331903097225357	-1.135243030150958	-0.3210848581820636	0.04577659296570985
0.1380195921846578	41.16141964231903	56.26360660360954	48.60794936850206	8.450866023205233	285.9649228855707	88.49740564655961	148.100418587579	40.48705326176066	-9.263553509738287	-77.07035697485362	12.36930392977501	7.424746423289697	-20.14859162438907	26.51893840581479	-32.76748336270183	-45.95077935099223	7.160435912689992	-0.05404059773363373	39.64727819451145	-10.39625272959709	-0.05102010307585929	-13.4185514381963	0.7687653817628542	-0.6642690231666055	7.513211780047286	-20.38196728699634	-2.279375470679154	7.659977193153709	0.2360826099171057	-4.733284651888556	7.896753528162074	0.05836451145001409	-0.2848802299193671	-1.556810255749416	-0.5304316536459952	-0.1748427256460725	0.6969854417323947	-0.3504408970051926	-1.144076383272781	-0.3391291171242268	0.01946526150402772
0.1418654673351004	49.76515148482682	73.15827216288395	51.13891458254242	1.871959305506302	324.7581947314078	71.74232476745955	156.8234623455988	45.48487836601789	-11.56799817743221	-76.84645311181002	4.372012912819018	7.567193552674797	-21.79603684197099	30.51573046005308	-35.94988695100427	-48.67308491014521	9.249022591223653	-0.062772251717456	37.40039855884934	-13.00893538065567	-0.05471723524527881	-14.42920221536728	0.8678405207520186	-0.6789630079881341	6.931734581272789	-20.48270409782295	-2.374616804098447	7.968834014624266	0.6748692086598411	-4.830257157802562	7.873569697752004	0.06163686060092088	-0.2906901884138318	-1.510600599153505	-0.7652050573871486	-0.1694012814708249	0.707896087586288	-0.3667717001523614	-1.150145254233713	-0.3555096135502175	-0.006018561161870287
0.1453071283122631	56.80012827933827	87.89260585839962	52.49130751519213	-5.189302728428764	361.8123018238457	55.14239669946623	163.8467524329458	49.94194940885703	-13.71660601891011	-76.26859055806023	-2.572775829582701	7.763894355390207	-23.16252155543611	33.84225662317033	-38.83862400269304	-50.91544285277766	11.21331692518509	-0.0703759821697679	35.337080246711	-15.22234827966787	-0.05774119271235158	-15.30577539351727	0.9820526546069785	-0.6784684745507925	6.347792197271218	-20.56912521795217	-2.463361746004108	8.222656821770416	1.071223162038766	-4.893513816356172	7.835671168672993	0.06468685242327388	-0.2955112135596081	-1.453625255650894	-0.9763075403504911	-0.1619950031924252	0.71479232276954	-0.3818951279032856	-1.15377410955668	-0.3697092262400942	-0.02941163159648125
0.1482902993364854	62.28745090905255	100.0180471373071	52.90274225019721	-12.04538533829655	395.7003860435075	39.79378850965123	169.3296354731048	53.7389904649587	-15.63626019873685	-75.46215751997408	-8.245066462847975	7.979007267073721	-24.29416637371124	36.43674793657286	-41.34713493077763	-52.73840935108908	12.98075534021056	-0.07674300968523651	33.53857975344312	-16.97834470138978	-0.06009587495997709	-16.03347482365293	1.101766527657549	-0.6659420831742247	5.794101550331333	-20.64488688760989	-2.542975357620464	8.423210956544622	1.410970345566565	-4.927048577702287	7.789314622740937	0.06741470100242564	-0.2993415367192989	-1.391873603201404	-1.154674672173322	-0.1534022018399394	0.7182831390839092	-0.3954141562570348	-1.155452784080979	-0.381435137101771	-0.04978164757663821
0.1507679370955254	66.2878542563523	109.4279136439292	52.65665978430991	-18.23366894360097	425.157950531852	26.50668973117369	173.3974630452973	56.80307460856626	-17.26347776869329	-74.57135993524642	-12.60432547523549	8.180079155692502	-25.21363733774803	38.33264414463816	-43.41686746396059	-54.1592940571285	14.48817439128972	-0.08181075305183612	32.05477040356123	-18.28321201951777	-0.0618375289451141	-16.60889532531198	1.216390909520057	-0.6460992002183468	5.302050382239774	-20.7104278348273	-2.61091805459218	8.572629260774203	1.686386072271764	-4.938028152314695	7.741198237978354	0.06973304484471121	-0.302240583078724	-1.3313040751342	-1.296230033947379	-0.1446098596138313	0.7192634382087371	-0.4069246906254856	-1.155773985317645	-0.3905545546790564	-0.06654469449710768
0.1527009768984096	68.69547297404905	116.242543183249	51.98702036297357	-23.51545245987913	449.4267956364471	15.74864448340165	175.9834903558635	59.06864884933805	-18.54653237017465	-73.73714918940178	-15.73199681250102	8.344643079774695	-25.92602956852917	39.6243578658291	-45.01382870994816	-55.0487849272043	15.68503577985879	-0.08554143783658424	30.91154590720338	-19.18573896633059	-0.06304747800168758	-17.03651936878153	1.315504528391579	-0.624311700282385	4.898936316114264	-20.763931487088	-2.66496643623205	8.662480886192656	1.894916469146471	-4.935134943503729	7.697616269100902	0.07157031142931303	-0.3043040062598339	-1.275003770325766	-1.400805642283429	-0.1366595572379697	0.7187445635692201	-0.416064141853369	-1.155334312978242	-0.3964827289134824	-0.07941179159487956
0.1540589714577417	69.58132085094567	120.6871489470607	51.1485316056805	-27.52982647007479	467.8165608354137	7.823660475774133	177.1386058458013	60.51717434637041	-19.45075336745632	-73.0791088578419	-17.76629242585449	8.461137176763284	-26.42672121800777	40.4253851448774	-46.12245793108776	-55.30890420828776	16.53519922392138	-0.08800122526709023	30.11909315126371	-19.75212653052288	-0.06381337689741538	-17.32459486096036	1.390158482233794	-0.6056094843190127	4.60627725855789	-20.8029129644086	-2.70340718279019	8.691143437993691	2.03725040807793	-4.926814274649517	7.66387120706807	0.07287327748261463	-0.3056406390905555	-1.226460490661015	-1.470510669554207	-0.130491273966198	0.7176811641450688	-0.4225533281501633	-1.15466065311045	-0.3990861405597957	-0.08829494738559099
0.1548208116596206	69.53157862012493	122.9278759955287	50.54058488967303	-28.7424914153951	479.5991143097089	3.014170806602621	177.333156953242	61.18569052197323	-19.95519359650879	-72.68440171439144	-18.84409862592945	8.525933281124383	-26.70831664665609	40.834626024466	-46.73861563883406	-54.86069305876379	17.0100928212231	-0.08968463565196176	29.67911541942129	-20.04378687225404	-0.06421106232447089	-17.48147463759429	1.433829014306014	-0.5938751253113979	4.43884125458365	-20.8253005346114	-2.725120664295182	8.6674559516127	2.115392604146344	-4.919813082242928	7.643822122808912	0.07360791081772067	-0.3063473112162103	-1.190064743925028	-1.508089751670785	-0.1268183699564996	0.7168263081955916	-0.4262140191484184	-1.154150470269322	-0.3986130087403469	-0.09321090896509773
0.155	67.98800762755502	123.2305173749134	50.04469421818497	-27.8935572510413	485.5307332802971	0.9682562433590931	176.0900548086079	61.03908257185785	-20.06454383128708	-72.58893339214333	-19.09072619107955	8.541060718851085	-26.77465610187873	40.92660495514844	-46.88287545636442	-53.46530969802306	17.11841800827947	-0.09041154493436418	29.57615111173932	-20.10957234121888	-0.06430116312823898	-17.51786409819447	1.44428520696104	-0.5909849059561547	4.399130599438219	-20.83062041085624	-2.730241783820334	8.57752136111467	2.133581963364981	-4.91791956501276	7.638990684387247	0.07378103262974234	-0.3065088735463521	-1.163389827244227	-1.516759656965607	-0.125932248541969	0.7165979688698887	-0.4270768378172456	-1.154016659332077	-0.3949413963714468	-0.09435947645289486
0.1554542507337262	70.64803029570635	124.9240434159173	50.24402658503503	-31.27966666623534	486.7551998306324	-0.2164275836493772	178.4834566470564	61.982336667453	-20.37605020456081	-72.3424657343765	-19.70395389954464	8.579158334870289	-26.94304601850332	41.15239538326572	-47.24738905968761	-55.66544690901023	17.4023714404561	-0.09055886030413912	29.31605969075223	-20.27144929796712	-0.06452360682565984	-17.60922835343856	1.471105027314188	-0.5834353513063126	4.297912497550342	-20.84419905649015	-2.743246428841934	8.736584236772973	2.179356706037171	-4.912695146049355	7.626546328662387	0.07422041950787317	-0.3069103644585058	-1.179523998323897	-1.538440431213316	-0.1236479055225103	0.7159722788552154	-0.4292668748088906	-1.153653890760471	-0.4029259205522275	-0.09725738496850336
0.156515784775164	72.34799272797531	128.0121119633603	49.71316360333167	-34.30978042402023	499.6700238539526	-5.804261628042411	180.2773876400033	63.23092305097921	-21.07922136776202	-71.74184575848791	-21.06837137556668	8.666373961033045	-27.33801521694658	41.63817004249266	-48.09215067910714	-56.62975621698462	18.05656548374184	-0.09238780028193527	28.71369222686013	-20.62178712763517	-0.06500937577172484	-17.81768187324295	1.535514440659546	-0.5645452456844353	4.05839117676318	-20.87645598092772	-2.773751835267657	8.837284886259237	2.284368117277452	-4.898092492745522	7.596378937905618	0.07524968800171472	-0.3078026165365755	-1.157805980771586	-1.587375177650197	-0.1180971818841803	0.7142461280592552	-0.434397860308692	-1.152675051576934	-0.4097495181887511	-0.1039481747084873
0.1581644464118399	74.07675397843198	132.3251071815247	48.54102245835521	-38.49235095179962	521.5658876357052	-14.87752359203878	182.3260070971126	64.96629250009624	-22.16834580693244	-70.74194372748281	-22.98904421738821	8.79459852952462	-27.95670132128369	42.27359494293955	-49.38246351182801	-57.50478109900924	19.07561092932744	-0.09527386924144082	27.79445693683563	-21.08538114990254	-0.06566555937999424	-18.12686321227421	1.64027256045786	-0.5317413320330036	3.678595070916368	-20.92803157904265	-2.821391471507813	8.942360844194498	2.441621587941176	-4.86866971005038	7.546582396116344	0.07685286702679262	-0.3090564719446456	-1.111258477381901	-1.658240028752692	-0.1088876703487492	0.7108227188360324	-0.4423899827339991	-1.150794955273958	-0.4178104182811004	-0.1140921372395119
0.1603741041940474	75.20166318195797	137.2777701698905	46.39487136875107	-44.49959542469765	552.8063872486339	-27.27395904781463	184.1458208992754	67.02687505722679	-23.61819161227572	-69.27918391188149	-25.16458474518339	8.946012161963948	-28.79892445693586	42.89234444510542	-51.06445335967486	-58.23356710027036	20.44177906171111	-0.09879009489642746	26.59676270873269	-21.54570968143813	-0.06634636986304361	-18.51202707070523	1.78934346080665	-0.4812036240339244	3.156180840183898	-20.99992871619078	-2.885562587068375	9.037986509310111	2.640128915859015	-4.816144352422142	7.474453828082657	0.07900326356886056	-0.3104728652823867	-1.036698169856333	-1.74251842356104	-0.0954312451054848	0.7047946173755395	-0.453104418553798	-1.147603140133565	-0.4266457756482284	-0.127154789102442
0.1631098871668135	75.61665002926169	142.0549415957339	43.119884450877	-52.31474573000379	592.9777866519471	-42.34889170503168	185.7223456663666	69.2683649298603	-25.38194072430169	-67.28800810343867	-27.19090029132087	9.086517563141754	-29.86641548595025	43.28326208066648	-53.05924685584935	-58.99565079830357	22.11298359915827	-0.1027127181704147	25.17427780372831	-21.84752607346503	-0.06684930376658267	-18.93997246709455	1.986664585396201	-0.40847167724512	2.491780128074996	-21.09282541254861	-2.965065132179421	9.129516392334118	2.864294092586429	-4.730111410626898	7.377200959723115	0.08165170008968325	-0.3117808223208314	-0.9358760528754749	-1.828160914939077	-0.07705249012133009	0.6950184150133114	-0.4662667638079476	-1.142627628510264	-0.4364262633366265	-0.1423643653635529
0.1663286436775879	74.84404547453568	145.6356180395261	38.50352835902748	-61.84783584273902	642.0783525859898	-59.3147188959671	186.7479267321897	71.42543284910676	-27.38357756312725	-64.71821127983635	-28.59032491609765	9.159819010648585	-31.15845244361273	43.21813290886659	-55.26081649233771	-59.76277827037367	24.02160829064745	-0.1067157214852599	23.5943174673483	-21.80805938615879	-0.06669842764810907	-19.37092097106867	2.234504762252111	-0.3094162156130991	1.692608725469299	-21.20567976986493	-3.057692245215422	9.20771308775609	3.094205071911897	-4.599365506392502	7.252817318187537	0.08471530065707855	-0.3126414557902137	-0.8087171362799384	-1.899912252653432	-0.05314489515109037	0.6802438541199709	-0.4813730116234853	-1.135423636687569	-0.4468028717071207	-0.1587187423913063
0.1699796094921079	72.05487333185306	146.8756548928471	32.3355203424771	-73.01734176499527	700.4413796208714	-77.20223720926406	186.6398151883382	73.10820903685064	-29.50924277787477	-61.56199641209083	-28.8669313102196	9.08556189674993	-32.66716470212298	42.48899443475794	-57.5385956875423	-60.30673415709473	26.06448420672528	-0.110367434610875	21.9325312873053	-21.23929345941673	-0.06581845322653752	-19.7614733452431	2.531782358405962	-0.1813670766067812	0.775758698463752	-21.33488789591933	-3.159994916850574	9.247235810474683	3.306833839552079	-4.413526762252943	7.10123487599523	0.08806350097343929	-0.3126739188728802	-0.6539811502767863	-1.940549003437083	-0.02335397727101608	0.659273841042373	-0.497620684475358	-1.12570657083239	-0.4566662936397105	-0.175039051466927
0.17400520557877	66.55335371927006	144.6909758603981	24.59222100464228	-85.6453523616475	767.9613305806627	-94.68058965320624	184.927925324649	73.89372668560137	-31.60393214732212	-57.87554544631551	-27.58924460440444	8.765347169577325	-34.36921501894466	40.9571682817837	-59.74531938408526	-60.4409466367352	28.09701298182396	-0.1131978675336066	20.26416877213153	-19.98001913601838	-0.06447859488046104	-20.06912251450962	2.872294955000039	-0.02442505673563788	-0.2289186894904096	-21.47329623215802	-3.267127471920751	9.229071174994179	3.478417552710011	-4.165179114688888	6.925574450621211	0.09150683018277195	-0.311496405220514	-0.4746908411035535	-1.933157528340455	0.01221086581709202	0.6311748739106757	-0.5138537885161573	-1.113502677717202	-0.4652256300196759	-0.1900812891534505
0.1783419453248002	58.08212963454946	138.2833771745868	15.54615747801019	-99.3011081981392	843.6110585095523	-110.0414314699746	181.4550470928732	73.40335114468986	-33.47340051767152	-53.77893038255377	-24.48618809311991	8.099111985847642	-36.21404837137935	38.61184405155119	-61.7291814214643	-60.09807579581679	29.9342915382025	-0.1148033516828797	18.65450892538337	-17.93189968180025	-0.06267909898317797	-20.25805523174882	3.242942640657234	0.1572225110057106	-1.276675933109378	-21.60827995418679	-3.372649129611196	9.145728055533921	3.587866177018761	-3.852507678705368	6.733176619818854	0.0947976666467143	-0.308767269736925	-0.2794441895100193	-1.864226521662721	0.05276429259132205	0.5955387151764249	-0.5285087212940094	-1.099270866535134	-0.471956825586366	-0.2026967870385957
0.1829214354539589	46.68180470206919	127.3347205313169	5.696868195905343	-113.6166601153523	925.6985625610795	-121.5273258945927	176.2268251823157	71.33957755997514	-34.90460203194999	-49.45034673637422	-19.52722776756162	7.011026790586741	-38.1091240760972	35.59778426086531	-63.351392032497	-59.24950102156568	31.37168972608288	-0.1148286295530424	17.15131392997283	-15.09169645129238	-0.06046285239546269	-20.30497104366311	3.624029475973554	0.3549875421027693	-2.311302317750834	-21.72234482937136	-3.469149632100362	8.991461553400327	3.620480971204159	-3.48073311695609	6.535474425367653	0.09764104975772847	-0.3042475664829092	-0.07945593844585103	-1.726924396734595	0.09678676257244587	0.5526495127179178	-0.5397520390253773	-1.083927840692658	-0.4760234966344282	-0.2119958810206295
0.1876714545037473	32.51434608062279	112.1279248870503	-4.352831358588985	-128.5130369161976	1012.114572855951	-127.716599809498	169.2538982157768	67.52447434037677	-35.69308728106732	-45.09256995006171	-12.95806761965167	5.476978834135499	-39.93439971425737	32.21167982774858	-64.50352080232798	-57.83870879281884	32.20997946184535	-0.1128807977233111	15.77871451967761	-11.56638412866103	-0.05791181976856344	-20.20081205083387	3.991085158134189	0.5568441345268278	-3.269464287002104	-21.79535833364347	-3.548992048294398	8.777249207355903	3.570757434706135	-3.062251677079934	6.347681751718768	0.0997276741891594	-0.2978624811967723	0.108616028638425	-1.523389129032152	0.1421482423558485	0.5035428389928114	-0.54565839653352	-1.068835444734769	-0.4781212100614787	-0.2174664421882609
0.1925170917444269	16.15308679998698	93.6043842437041	-13.921374052376	-144.1939971611408	1099.863035570548	-127.5224466393178	160.7695403122431	62.0038403720494	-35.68837879869677	-40.89997489290907	-5.263879059893407	3.542933189727484	-41.54361977427647	28.87440671181899	-65.11649127859698	-55.93517299866199	32.30019307787796	-0.1087931479305276	14.54119424434806	-7.562895623501521	-0.05536261295489265	-19.95218900930849	4.317158685781211	0.7487523914577034	-4.089550665193329	-21.80435666473802	-3.604972522898873	8.510596713376133	3.443405883341102	-2.615650015411194	6.186204426117926	0.1007765161934539	-0.2896985256493807	0.2708142542704151	-1.265086867206373	0.1863438180309482	0.4499548805000446	-0.5444318858549154	-1.055523913813538	-0.4777915605314987	-0.2190178959308962
0.1973819285398158	-1.415495090676075	73.22476862828643	-22.34311953771283	-160.8754171962234	1185.361713232784	-120.5463219667985	151.2679002143803	55.07663949906598	-34.81855658461905	-37.0239781018881	2.912712825482162	1.326012235046962	-42.78643347490067	26.03774019365495	-65.16580776709755	-53.74510217474376	31.56728651865649	-0.1025171412832447	13.42898891493494	-3.356492331181321	-0.05264182810605622	-19.57798272893025	4.578577231233453	0.9178554990120245	-4.722255371374217	-21.7279319453191	-3.631536679536355	8.220673565163231	3.252715421876815	-2.162386145879085	6.06567646914811	0.1005939567159801	-0.2800058305215951	0.3913829466539754	-0.9712078737624813	0.226980918840187	0.3940597335171814	-0.5347506979334546	-1.045387434681502	-0.4758575576027244	-0.2169542313087486
0.2021892435043931	-19.02623127683241	52.71811236378441	-29.10606521965667	-178.688946441723	1264.914144211444	-107.0870460252251	141.3552923746292	47.23654564726795	-33.11378660690775	-33.54957189588684	10.90040895735133	-1.006732713094084	-43.54095385193454	24.10594413732998	-64.66445247154846	-51.53103615317818	30.03422584730389	-0.09427884555516619	12.42609014111913	0.7597801942549738	-0.04980086576353499	-19.10374521683619	4.757673334299192	1.054566943447814	-5.138940536489916	-21.5473860684071	-3.625241623793618	7.940702133979052	3.01936924631478	-1.723030627681445	5.99580328505472	0.09910135097018397	-0.2691370430451763	0.4589546134624927	-0.6649420613613012	0.2621615879399504	0.3381160006742758	-0.5159608873125432	-1.039329146328437	-0.4732336963923262	-0.2118686469369842
0.2068632224455918	-35.45683870164227	33.73187096292391	-33.88830100403618	-197.1371898570098	1335.384357554753	-88.200434793155	131.7072027950459	39.07552020405463	-30.70425574392019	-30.50088182822333	18.11471298264385	-3.272387583336358	-43.72948076556246	23.35081470699728	-63.65408555347479	-49.46817861990156	27.81687406751793	-0.08462860262235666	11.51773689537137	4.523798152262843	-0.04715113280958535	-18.55737715700581	4.846238547285243	1.154307609619747	-5.336751667899962	-21.24916586230281	-3.585113064160297	7.699177206243238	2.76633168442065	-1.314212265665502	5.978941506215712	0.09636211686754262	-0.2574801409731771	0.4688171315503657	-0.3692168449006304	0.2907915367326201	0.2841618314801356	-0.4882229727606126	-1.037501228317875	-0.4706132586098927	-0.2045116608444704
0.2113301540101398	-49.62649734691035	17.54216869472494	-36.5855078567561	-215.0660470313589	1394.776019285962	-65.61112702936296	122.9756055476468	31.18013754522448	-27.79427240806752	-27.85717124819871	24.13781651586507	-5.308805335830168	-43.33575369519931	23.85324721697201	-62.19916310260498	-47.60949724140244	25.09997435663016	-0.07432365669692592	10.69338638632038	7.74183867664085	-0.04494213013680854	-17.96529050560661	4.847119687239537	1.217985509260197	-5.338636904353018	-20.82926941496155	-3.513003717225859	7.525655716769049	2.515103853858904	-0.9464342832687028	6.009724818984932	0.09257303049798558	-0.2454234584993749	0.4203371338072971	-0.1029959017362689	0.3126972818175336	0.2337586366173386	-0.4525845098967807	-1.03929293695246	-0.4694154106127297	-0.19567925573489
0.2155195921846577	-60.89600215511709	4.888683456965174	-37.35551637076516	-231.3161678616498	1442.449868783343	-41.27527095977298	115.5788757362792	24.01641210674528	-24.63488232186205	-25.57915616993871	28.76471613986875	-7.003796467673607	-42.4074061036874	25.51318517112851	-60.38182049623776	-45.90129706978959	22.11503728151983	-0.06411711929436681	9.948914432554577	10.31027119227163	-0.04331972410379239	-17.35161340390174	4.771562987657981	1.250372289767664	-5.187389222038492	-20.2944127170199	-3.413233488109741	7.427009609206682	2.282694356634029	-0.6242236159658109	6.076444325659319	0.08802030132450495	-0.233317624458719	0.3222876300383655	0.1212561494072777	0.3284270327413361	0.1879242015214529	-0.4108429607748804	-1.043498858778319	-0.4698670040931574	-0.186126628966136
0.2193654673351004	-69.24921065745838	-4.061664118446985	-36.61743169992005	-245.2919154822596	1479.034167039349	-17.21287032824718	109.5657819434262	17.86777367843927	-21.48488275775756	-23.62778617736301	31.98451624998059	-8.306047367370329	-41.05157448475431	28.0659485291193	-58.30579317402586	-44.22970002693562	19.10639062615953	-0.05453877018471819	9.284060862571049	12.21245785072987	-0.04231529649600291	-16.73837048692143	4.638576791079728	1.259029792090173	-4.93584111557348	-19.66629772251668	-3.292595066860354	7.391027940422431	2.080227021337373	-0.3474999282290827	6.164339068687393	0.08305392063727239	-0.2215033049589392	0.1904429286832289	0.2981358415752552	0.3390498311743185	0.1472143747903419	-0.3654107031915121	-1.048714930379564	-0.4714872348988874	-0.1765108107762869
0.2228071283122631	-75.06811429852121	-9.59643500799746	-34.90804515172611	-257.1195288366208	1505.815878957072	4.992018656066363	104.7786836732234	12.85853699751395	-18.56378834060745	-21.97273772998811	33.94908566579684	-9.223192917831838	-39.41591524883817	31.15777292846325	-56.09540207046833	-42.59644335415306	16.29079020621962	-0.04585085560987863	8.701489590313901	13.50570107923929	-0.04186630833172271	-16.14751101205221	4.469982192724303	1.251828102011649	-4.637980749775122	-18.98028163369859	-3.159878845494423	7.405819801251005	1.913041361547385	-0.1135804660974687	6.258515217102066	0.07802301583460154	-0.2103189202556197	0.04112104335455824	0.4286096157855534	0.3457859543623654	0.111850095512075	-0.3190685118437128	-1.053669728756979	-0.4742366413881944	-0.1673775911244315
0.2257902993364854	-78.57446878483334	-12.32802440957195	-32.63584320756213	-266.6452390514401	1524.03165134105	24.36365110692491	101.2683646998976	9.029597377721647	-16.01827577882158	-20.5976976855001	34.91335504470237	-9.806606607194587	-37.66937150574149	34.40646983069646	-53.89362797846291	-41.18684888170418	13.82215592414561	-0.03836346944195017	8.205060851798837	14.29578192642973	-0.04184346327617623	-15.60154551004769	4.288470846829131	1.236002348695761	-4.339501585795108	-18.28297412700395	-3.025124805761739	7.460392921907911	1.781661586770785	0.08050579763727343	6.346899515712978	0.07326050171803322	-0.2001148445036947	-0.1102877979600465	0.5182599841475307	0.3497966313826701	0.08192699434127629	-0.274679530433108	-1.057523410158648	-0.4775821592523959	-0.1591525182950004
0.2282679370955254	-80.20744162236736	-13.08268976862694	-30.18064734006039	-273.740546119705	1535.46196967057	40.287976516912	98.95145447564092	6.287732609811441	-13.92929054912205	-19.49364835178807	35.17971816243335	-10.13273844933705	-35.98570573464897	37.4610837248531	-51.85295061700837	-40.07975421633667	11.78764238399271	-0.03228396273199209	7.798372125279123	14.71198025792234	-0.04208864450932125	-15.12294925655912	4.114725501470907	1.217311161393083	-4.073728034619624	-17.62722234233102	-2.898853223203031	7.542969543248818	1.683442841364733	0.2370178302652982	6.421553530418574	0.06905176414626962	-0.1912518747600083	-0.2516676567361318	0.5752560259866628	0.3520346524373846	0.05750481063251945	-0.2349517909560123	-1.059968217218127	-0.4814100981018649	-0.1521551406008196
0.2302009768984097	-80.95882418703478	-12.72873321701915	-28.03501894700075	-279.0798535140617	1542.432339043896	52.31826842388325	97.28618858955048	4.397060591936285	-12.34696512636103	-18.65439901183633	35.04836676686105	-10.28467150264032	-34.52672714592348	40.03865016424631	-50.12231853963493	-39.12062493487922	10.23802175034548	-0.02753225126656439	7.484271044237943	14.88430753375569	-0.04244606422474925	-14.73294681932683	3.965857257006228	1.199877649912947	-3.861180427262886	-17.06573551999178	-2.791125328211612	7.621830281437959	1.614223317661833	0.3570895830476018	6.478608219392002	0.06562362687115361	-0.1840785128451983	-0.3689387332113332	0.6084308772101872	0.3532006995782893	0.03865985069041902	-0.2022393590316445	-1.061155476713548	-0.484895164234123	-0.1466167206352122
0.2315589714577417	-81.27822277825796	-12.01161420316116	-26.43530148116931	-282.6331252863626	1546.561120747235	60.41993873276757	96.14011707675847	3.186406097195867	-11.27053324935438	-18.07604210752906	34.77879944365786	-10.33724457741517	-33.42639443781297	41.93681871415524	-48.83204019037331	-38.30524295277495	9.175645518896271	-0.02421560436712342	7.265160618195893	14.92571385468245	-0.04278294811727447	-14.44996483993853	3.854817970426352	1.186389570044486	-3.711704062577816	-16.64467321779643	-2.710563295865426	7.6825209884988	1.569639811481847	0.4407671010726131	6.517235490544392	0.06314562355014855	-0.1788986647411113	-0.4546626896862619	0.6257621191240617	0.3537592681221689	0.02550266904040141	-0.1784002982964779	-1.061511218151422	-0.4876865897513408	-0.1426938979628735
0.2323208116596206	-82.07445907944302	-11.80846873101929	-25.64967486086106	-282.8735163115197	1551.922146285847	63.8344049336786	94.98174153180879	2.279904594629198	-10.70147346553154	-17.75573297683727	34.56388472128406	-10.3471747794381	-32.78205468577305	43.02925757134832	-48.08088651499079	-36.55076185137958	8.557688238681049	-0.02284253412700979	7.142785600877849	14.92032497552171	-0.04300234730702522	-14.28791242703408	3.790339508629749	1.17843824875288	-3.628465128278056	-16.39875148324371	-2.66359208373541	7.65915014699234	1.546119401956785	0.4875598810536699	6.53815951738471	0.06173206960156361	-0.1759405382737387	-0.4970886264666082	0.6333224708277554	0.3539893564138788	0.01814447747822585	-0.1647283202579962	-1.061511510484761	-0.4872943687264223	-0.1404839477846197
0.2325	-88.56808587412431	-12.93849504362957	-27.41972476927943	-284.447395593432	1566.871450111593	60.14681634454909	89.61463033303363	0.604115880928747	-10.80837752859172	-17.68083744856019	34.50671915256382	-10.34747307369754	-32.62768986100691	43.28882993931963	-47.90133988968466	-30.81547819327769	8.453453787770538	-0.02207118320901479	7.114059018672186	14.91608417987451	-0.04305708190761376	-14.24945028383597	3.774954747960241	1.176531541150118	-3.608991457784309	-16.33989252612262	-2.652358250076608	7.298964527028033	1.540744267590994	0.4985554595852412	6.54298998863378	0.0613972597924092	-0.1752392429921277	-0.4415645004496911	0.6348751496276739	0.3540353993083997	0.01641582150392337	-0.1614822231342576	-1.061489217948208	-0.4732440673644865	-0.1399633237858237
0.2329542507337262	-80.69383720892158	-10.8763852644797	-24.45939817785695	-284.8638106328008	1549.594818427808	68.65608790900856	95.59356397427388	2.150534875307238	-10.17785569274548	-17.49174065805477	34.35055282192702	-10.34476160427971	-32.23157832054186	43.95106895630393	-47.44126051080063	-37.58504892921376	8.094689071708006	-0.02123891876364102	7.041331738369023	14.90027865835667	-0.04320112791712196	-14.15135353492922	3.735589223703284	1.171639248302908	-3.559844201001876	-16.18894363600932	-2.623561948777853	7.76553378324989	1.527386964656921	0.5264176580580329	6.55506679834183	0.06054462655747295	-0.1734519132121521	-0.5486642756267248	0.638426946797692	0.3541389593369426	0.01203667074727051	-0.1532021510995586	-1.061392950424073	-0.4909406816670596	-0.138642229653729
0.234015784775164	-79.6679480837736	-9.540625330831769	-22.80659804853013	-287.2613666134649	1549.498761717842	75.26917136659659	95.54283744173243	1.597188379819231	-9.360555827167534	-17.05420764491974	33.92301813842494	-10.31911192247973	-31.27924483752924	45.5203063933449	-46.33847308261443	-37.68715268945856	7.312221610330751	-0.01875512998728524	6.871906681543826	14.83521892569567	-0.04356696500063389	-13.91878028031324	3.641624331921786	1.159902951562297	-3.446506081165357	-15.82646276034512	-2.554488025513246	7.852690663588153	1.497681875019975	0.5914999488154912	6.582253534128775	0.05853117940033795	-0.1692214489880599	-0.6217463270708348	0.6445832176603639	0.3543116405746836	0.001817437263514049	-0.1335728781006437	-1.060934856829319	-0.4933603294324222	-0.1355486580007169
0.2356644464118399	-77.61162567548715	-7.127250741799791	-20.04550492156314	-289.527085165716	1549.244128608764	84.92363379746733	95.7217121705723	0.8575576248324577	-8.127311399035904	-16.38722130136474	33.08719796583734	-10.22620208544017	-29.72666302038935	48.00744920277763	-44.54842703885262	-37.51681875617774	6.113204865633645	-0.01526396938954064	6.61021279981443	14.65699206650824	-0.04421413367928079	-13.54826215755014	3.490548750339557	1.140949443437992	-3.276123643479494	-15.2364725066548	-2.442256237242539	7.999443681567159	1.455754059518254	0.6926955941898036	6.621136505971443	0.05534953682968943	-0.1625003635611018	-0.7418250511321244	0.6482335678901859	0.3544075728838266	-0.01402828539940976	-0.1023410565282799	-1.059521702716884	-0.4981013527266995	-0.1307308973035625
0.2378741041940474	-74.72109777375891	-3.00721514748767	-16.34215989600334	-293.108702223914	1547.188507519757	96.91512693246615	95.79221262692951	0.118174271465179	-6.588893862614899	-15.51851726894074	31.64623807833188	-10.00267731584585	-27.50805062435858	51.40439417224031	-42.0007834740632	-37.17083248798502	4.613672424681346	-0.01030178061394887	6.262053057528648	14.27414176554178	-0.04522500420588631	-13.03378572370112	3.279306937790464	1.114501158908213	-3.062920805121658	-14.39453997455429	-2.282407917686468	8.20890660198385	1.407588442712648	0.8291495260157892	6.665490609619408	0.05099145019235729	-0.1532007196199756	-0.905996184407746	0.6420222731435912	0.3542671339951097	-0.03526177915463502	-0.0591630544366214	-1.05613023869057	-0.5053724031703153	-0.1242616590174284
0.2406098871668135	-70.39487006608366	3.448689868737473	-11.60342489475199	-297.4945483612703	1541.440118717579	110.2653576867392	96.06247176583098	-0.2986877453867649	-4.878231462987973	-14.48572078364997	29.37251149310156	-9.575564800356743	-24.54961024408885	55.63872367874944	-38.61082436027808	-36.78032513854167	2.945828800381511	-0.003999609557087891	5.834576289840838	13.58061989053852	-0.04668639214914445	-12.36841257965409	3.006143545000428	1.080737617774679	-2.83223308089674	-13.27273756655565	-2.069711273867469	8.504752786773613	1.360555828581278	1.000658429518151	6.705244517131407	0.04546685106464576	-0.1412229809609844	-1.116030172686578	0.6172480523078289	0.3537807311682594	-0.06164096652181816	-0.003858836377876235	-1.049237263984734	-0.5163409282215458	-0.1162599947214096
0.2438286436775879	-63.99145208362016	12.75978768882736	-5.755801780517814	-301.6150679068406	1530.445183813415	123.5158632010568	96.88867346023272	-0.04656434096840734	-3.166206371115369	-13.33749920363314	26.04667715496588	-8.875772733848954	-20.78275644578158	60.52705042009394	-34.29305482094293	-36.35767652306721	1.273057461014705	0.003404632668699226	5.335754206722372	12.47342639638077	-0.04866509743422219	-11.54617758529935	2.672376017111234	1.040478010831538	-2.623461039225991	-11.84572589441293	-1.79906588640258	8.904456390416634	1.322477973397727	1.207976190628692	6.72582874351772	0.03881869835324231	-0.1264865974196274	-1.37147042422734	0.5651931854207641	0.3529269652543569	-0.09294987962235229	0.0633360023987616	-1.036805408793528	-0.5317242624375785	-0.1069020604761048
0.2474796094921079	-54.66369079613226	24.9376035948974	1.359828107757429	-302.1468630320207	1514.938752820051	134.5113971588627	98.9110393686661	1.133518657909022	-1.642193408860255	-12.13565547033412	21.50532624093377	-7.854563979829334	-16.15769339584021	65.7357333977743	-28.98159723115377	-35.35875552841345	-0.2515608168292685	0.01088081026110332	4.774045500252213	10.87362485868485	-0.05117953824369797	-10.56535286477628	2.283927910086563	0.9950578041495057	-2.490707272477287	-10.09890378239638	-1.466717353150018	9.402263477942544	1.300372804720508	1.452456139725661	6.708296882457221	0.03113687718568647	-0.10897529025147	-1.668966402405821	0.4787566036624817	0.351753856472282	-0.1289736075195143	0.1414962836069846	-1.016380772770814	-0.5510322561323231	-0.09642829499059061
0.25150520557877	-42.75449462821696	39.78927245290676	9.403248615245477	-299.0540134056072	1495.461004313751	141.0009806169612	101.8534286330447	3.374063444410945	-0.5353037311671187	-10.94797548616679	15.68907214700278	-6.500129720639888	-10.66631960689674	70.7577776944507	-22.65721482673011	-33.47121891685549	-1.41345542594311	0.01832631517569594	4.157284888037401	8.747793763263179	-0.05417528564981403	-9.431232781273785	1.852373196225895	0.9460476545858036	-2.499329545410249	-8.039551729839754	-1.072072975402236	9.983025982989226	1.299144399895011	1.735590742173015	6.630981945272016	0.02255699025388236	-0.08882000885784791	-1.997033897719282	0.3541275116741457	0.3503272828331541	-0.1694746420576007	0.2287188492749404	-0.9853898204531015	-0.5741680921759937	-0.08514457791202634
0.2558419453248002	-27.9768840658579	56.60838739888202	18.27100921761149	-291.2344748523454	1472.576225452493	141.2441506779892	106.1046859357338	6.812408987794552	-0.003685461648487376	-9.843937868779005	8.686514815304479	-4.849950111427639	-4.350218698095172	74.94071390128401	-15.375638413031	-30.81683937718123	-2.054247382150379	0.02521051924412673	3.493694901134558	6.125741328920401	-0.0575092938836044	-8.16107984611542	1.394408657211913	0.8944696403169097	-2.717983094043013	-5.706131159351654	-0.6195475521524627	10.66559366427119	1.320429145902472	2.057129057670091	6.472301433800455	0.01325872802543376	-0.06637560856356739	-2.351861995737966	0.1921833116054898	0.3485899031892943	-0.2140405209622843	0.3219434910894367	-0.9415766215701908	-0.602828983567158	-0.0734194704193494
0.2604214354539589	-10.67591500656688	74.16529181957996	27.68488204004115	-278.6985872487045	1447.624394947739	133.9725822142968	111.6648598006145	11.35654183205168	-0.1371812051219443	-8.883225606694131	0.7575192047563024	-2.99363426893193	2.690751772643019	77.56502670683959	-7.289545626643694	-27.49985288349849	-2.078822460135168	0.03118277143826659	2.79307515896607	3.108635491313558	-0.06094971610883147	-6.787088447336249	0.9299814515160223	0.840144479801254	-3.206011673312095	-3.173745163938592	-0.1201502643101378	11.42892041315559	1.361985081155401	2.413070626151668	6.214713792167496	0.003456837582087036	-0.04228279384006894	-2.719214393989084	-0.0008420309528336736	0.3462345818154837	-0.2619199592010516	0.4169628384566736	-0.8835363663663571	-0.6358286765470482	-0.0616710777668311
0.2651714545037473	8.147076664196355	90.81959416451524	37.22146452602108	-262.506178500189	1422.558384293769	118.6414631710459	118.1089747534671	16.65729638000207	-0.9175947079320927	-8.093835580228374	-7.678080722147711	-1.062955035492215	10.2844054592344	77.95988343231471	1.344707918688399	-23.53921570214865	-1.495461002600457	0.03602563910738024	2.067089021928866	-0.1367876460107852	-0.06419781010358724	-5.354492545264509	0.4797834753726198	0.7817130155977954	-3.99868785794802	-0.5536912881277325	0.4075101647272075	12.24204199574769	1.417931937848632	2.79488127654978	5.849096694163853	-0.006618198566526512	-0.01749859080845084	-3.085729693416571	-0.2137474989304414	0.3426985396281422	-0.3119698069343861	0.5086572076415675	-0.8112289689367926	-0.6722349341457532	-0.05034101881797214
0.2700170917444269	26.77208755444893	104.8286555941249	46.2915447664759	-245.2775042459886	1399.426110088662	95.69139782022961	124.4598293321252	22.12148191316385	-2.212989127742155	-7.473268883707358	-16.08225147751633	0.7894376342447005	18.21097344276602	75.66685904326489	10.18206573433719	-18.81408651024288	-0.4189086957012941	0.03974779252866886	1.333968856432186	-3.397808859520871	-0.06693511869055936	-3.921433376351812	0.06187262931216281	0.7167677511244783	-5.096478679425626	2.015913686298151	0.9372608184330367	13.04228639048209	1.479792677945572	3.188324733792837	5.378177125709891	-0.01671963740760796	0.006748512805313744	-3.433520601722869	-0.4317487446371718	0.3372118201855245	-0.3625497146629596	0.5914512504943448	-0.7263609383979768	-0.7092163933900133	-0.03986266873231462
0.2748819285398158	43.20889537917576	114.6038705141673	54.29146937943337	-230.0757103790349	1379.519163987495	66.63573200315918	129.4531903330395	26.99248647047136	-3.76652312110609	-6.962670966021415	-23.88766830679661	2.421042553460615	26.21290755692883	70.51991065721316	18.84104541371529	-13.11244007125159	0.9225020928536825	0.04226517257842857	0.6150446477741498	-6.450771651087746	-0.06887126649024569	-2.545836441848703	-0.3113114353675674	0.6428588869484656	-6.460495733072699	4.396768065995036	1.439676250540451	13.75190938560595	1.538282686436414	3.57642884168046	4.814974499741842	-0.02662063279312771	0.02919560420706691	-3.745667851857949	-0.639067337768593	0.3290067697024086	-0.4118301315870142	0.6602750855883293	-0.6318731803022651	-0.7430897573433779	-0.03061769447603779
0.2796892435043931	56.16985682018333	119.0311499309949	60.87777935556388	-219.1228886135967	1363.673501076267	34.19187770362282	132.4151166330936	30.5848248135232	-5.224711049949843	-6.500200105256793	-30.57389665761936	3.722097985054136	34.00927968496629	62.79349737108986	26.93281601702083	-6.484572112367718	2.211981145027756	0.04369454229028988	-0.06021407286325076	-9.092019387657146	-0.06982084010834999	-1.28656846019265	-0.6330814720508353	0.558751311287537	-8.013026751386503	6.452139416210318	1.881271532456326	14.33278041784522	1.584853098458292	3.939782565181103	4.18872249152336	-0.03607274066906618	0.04849197430342644	-4.019812443992101	-0.8209030422339705	0.3176156522402591	-0.4577590185202997	0.7108435399624879	-0.5327803333468595	-0.7721339235514461	-0.02287755994211675
0.2843632224455918	64.45566790573463	117.4111774397519	65.7357361066875	-214.0128273765571	1351.129903779813	1.417048051529093	132.4316995832891	32.15298568429536	-6.166818986244696	-5.945348884443225	-35.7828258735201	4.642519700141603	41.37660212204683	52.95779137311528	34.18467797862782	1.248047911567774	3.063993955740014	0.0443679441150428	-0.6705103337447402	-11.17983765930762	-0.06968399025675068	-0.1737076751972284	-0.9076802058422296	0.4636764535081156	-9.661669400875125	8.12233267528863	2.242928509349129	14.72251751486134	1.613595263701507	4.26514669778491	3.521999675347634	-0.04495809031334835	0.06407490491087942	-4.254215699602129	-0.9669963605008252	0.3028062554352332	-0.499050754588774	0.7417034287578196	-0.4323567608435361	-0.7927581541451411	-0.01680316348806583
0.2888301540101398	68.1417244342737	110.2545532455505	68.81846671227078	-215.4936615955908	1342.426712151462	-28.43070930136585	129.9201705731084	31.4916179690535	-6.367647326832945	-5.324570964191718	-39.33641300082267	5.179333219469234	48.05623679041303	42.02591170006244	40.32569374117256	9.497163688742717	3.26578037048658	0.04387249270879487	-1.182188964605768	-12.64200117727665	-0.06860535687220794	0.746633629299247	-1.132079409358923	0.3623152596075856	-11.28754312424291	9.309286260654083	2.493057971984153	14.93559181211375	1.621864722334447	4.535701999605307	2.870370182791952	-0.05293215005365914	0.07478683959130611	-4.454347901107647	-1.070926445877273	0.285406605018151	-0.5338246683477721	0.7514708848999929	-0.3386923627942272	-0.8051239813148571	-0.01234991934453764
0.2930195921846577	68.24540742683249	97.69353229822835	70.41223497580346	-220.5620266473527	1331.503019250594	-52.72047640380742	125.0511441190394	28.32048891702084	-5.482039785842641	-4.354332917446564	-41.28522657593575	5.392953019381175	54.01385197875398	30.37432350859353	45.42744754875699	17.82995591022811	2.467424326404787	0.04391532266915124	-1.608160348110822	-13.48839395347771	-0.06659604007224067	1.523507314030317	-1.333381485699665	0.2527843186883489	-12.8317718592082	10.15791031870866	2.662116627857827	14.9859565322873	1.609669844576493	4.760628260958721	2.218377233841377	-0.06030606257343124	0.08229283018222797	-4.643149052521876	-1.13389498592138	0.2654242458697336	-0.5634137807424543	0.7455562952823103	-0.2479193308618913	-0.8091504507567631	-0.00944935886632748
0.2968654673351004	65.16928150098883	82.6027180310867	70.36216167405763	-231.5212641940855	1323.535663182639	-70.44229563692957	118.9976605907754	23.47004054088546	-3.951437345460704	-3.451785887559347	-41.84459875114216	5.347221506366722	59.00368552393569	19.62542864650896	49.27259766524897	25.30913518405922	1.048376555883802	0.04333690028914217	-1.904869386661662	-13.80183295896997	-0.06428210818706934	2.07831126382583	-1.485767096511062	0.1496898393313703	-14.16394654661846	10.5044758249599	2.700153208794962	14.93859949009693	1.581864894965936	4.917599485276705	1.671194135790418	-0.06626763974353056	0.08447219333088121	-4.806376693032154	-1.158840840945722	0.2455251783605851	-0.5848865622253452	0.7225812187707896	-0.1755615641519711	-0.8083241947740305	-0.007726943194753692
0.3003071283122631	60.62265723711493	65.57065705899826	69.25050914986056	-243.2015206438491	1310.739986555407	-81.43772507549274	112.0254988293848	17.14963291553808	-1.707443745720596	-2.285686525937851	-41.37808902772954	5.147558020932537	63.17300619864807	9.627218023064627	52.20486783260452	31.72037243405602	-1.101665225033172	0.04254883572795171	-2.121915911455828	-13.70899574733287	-0.06183767364644169	2.516018586376291	-1.625195712669241	0.04904525826656214	-15.30503082337451	10.6405697989848	2.683266527324357	14.81606320665128	1.542953004937881	5.034619175583133	1.17101947757681	-0.07147640597926147	0.08474721180972172	-4.965052685800117	-1.15616302176193	0.2255823209744301	-0.6017142171834395	0.6926947273363301	-0.1107397073892972	-0.8029436532656888	-0.007009921066166921
0.3032902993364854	56.05856138268214	46.77523653989955	67.66263139338292	-250.0053085244521	1286.635597322708	-86.54591107144223	104.2415576023546	9.666887682981182	1.214682881800837	-0.4861594710696906	-40.10003373438672	4.859483356465303	66.67752534617378	-0.1069035503481288	54.5602451096625	37.23248742211042	-3.986032691013615	0.04213721467597581	-2.305556909907588	-13.26986353782398	-0.05898377317850444	2.950339544834352	-1.790218644861017	-0.05598491376440345	-16.30469817880266	10.83178129642794	2.685589072575739	14.64057195019361	1.492207283973542	5.146165169804053	0.6491616785272569	-0.07679707646192171	0.08614167126133543	-5.13733424006863	-1.131167671392434	0.2050365269389028	-0.6181078719906167	0.6640010322551425	-0.04175094455733752	-0.7945488360230428	-0.007023066538372126
0.3057679370955254	49.7319136741398	32.43930371093059	64.92445543068408	-264.2401099142634	1275.219259894126	-88.33625805970973	97.25261854481529	3.236006403570898	3.431995901224646	0.4296650340720394	-38.64173127671891	4.55122762415764	69.14873946000974	-6.570413488729836	55.83983356120886	41.290254169977	-6.237587240662585	0.03940352626063821	-2.36002107417268	-12.77012532077973	-0.05702767070701405	3.117181287193908	-1.870722263587721	-0.1277469898620277	-16.95692793602696	10.53419703380025	2.552890018341182	14.44921545143987	1.448940238897308	5.180079422174049	0.3641764141836933	-0.07966186294511207	0.08190691281772355	-5.238074278436196	-1.097871497284304	0.1899680730361327	-0.6245125502601582	0.627283813623687	-0.008526802374632103	-0.7851834702757519	-0.007249615324160009
0.3077009768984096	42.89534917922236	23.66272802186729	61.72861942994308	-284.2290452546092	1277.251096836225	-88.45578104066952	91.99624984341801	-1.472147260608739	4.766100904928479	0.3564859076108782	-37.50392719289061	4.298712851620501	70.72790158516766	-9.756068468164864	56.30457648032034	43.7604237488466	-7.649857342999739	0.0362415659027598	-2.322691438809393	-12.4107652879396	-0.05614935025372235	3.052176048767953	-1.866508708626134	-0.1632449441311562	-17.294414025751	9.888243813772711	2.325856251683804	14.30816076919689	1.422961317948697	5.147276774739194	0.3046677635581613	-0.08014782757794331	0.07368603896311388	-5.279847442087149	-1.07097272247997	0.1811241821723008	-0.6220820402755612	0.5890912082853711	-0.008049866267887479	-0.7786080529694397	-0.007542593381928763
0.3090589714577417	36.7618220787427	18.49584945054833	58.95150806953535	-302.2849371910837	1280.843778730082	-88.03877015993163	87.628660676655	-4.781489886472233	5.606494805621459	0.05620556233486251	-36.73658994894827	4.124516739135588	71.72873261579657	-11.36945619149466	56.47402131515987	45.42706713576107	-8.561622815177987	0.03404165814515719	-2.273987998429296	-12.18221935260534	-0.05576089787571858	2.945372425625106	-1.842277746421916	-0.1814191076525322	-17.47018317604841	9.310988767870038	2.127558845993249	14.18804684059352	1.408297474187463	5.105014826381114	0.316392255491184	-0.07992551908676912	0.06643944410567515	-5.292890907767551	-1.052871935698833	0.1758697491727692	-0.6179700605861839	0.5597101576488069	-0.01585054755902088	-0.7731748676198218	-0.007811593338117085
0.3098208116596206	29.28803451104231	16.27413535481895	56.41936731851423	-318.7451051019353	1283.130352438176	-88.5616309632764	81.65251884144627	-6.993727900494311	6.110868972689111	-0.1547196026722588	-36.31512211078419	4.028705516084064	72.26871871752036	-12.14891048362388	56.54178350718048	48.20581796535859	-9.046293751201249	0.0332616918470619	-2.24295964899853	-12.05992018324755	-0.05559028936232537	2.874431152074994	-1.824919077332089	-0.1903540386214754	-17.55445572992592	8.965282854270976	2.008711714601803	13.96633779267871	1.400904563435682	5.077682880510335	0.3336264275398568	-0.07969902944022265	0.06210864375295455	-5.265398668507979	-1.042976989313126	0.1730985418176105	-0.6152117777844484	0.5428295465222326	-0.02178967405813051	-0.7637582422356257	-0.007980758932378061
0.31	27.19612132726456	15.80647586397606	55.74751337811352	-323.1074850365387	1283.593384104809	-88.73683315827196	79.94410754872185	-7.543924398733941	6.234784602731168	-0.2049507996241324	-36.21614690352946	4.006343619300205	72.39469195912585	-12.32700830157783	56.55690021824697	49.00989764923055	-9.160109580525656	0.0331132947360159	-2.235565836763509	-12.03130847524745	-0.05555211971832941	2.857432701179518	-1.820753013253877	-0.192420241479352	-17.57337784813006	8.88329733041231	1.98042417024444	13.90070016516612	1.399200698630625	5.071133555730657	0.3381244107773933	-0.07964322470121302	0.06108099244367621	-5.255945908277988	-1.040655318881359	0.1724512617335281	-0.6145483023275865	0.5388504523589485	-0.02324597763023062	-0.7609753073134242	-0.008021872801607884
