DataType=double
version=3
OpenSimVersion=4.5
endheader
time	pelvis_tilt_moment	pelvis_list_moment	pelvis_rotation_moment	pelvis_tx_force	pelvis_ty_force	pelvis_tz_force	hip_flexion_r_moment	hip_adduction_r_moment	hip_rotation_r_moment	hip_flexion_l_moment	hip_adduction_l_moment	hip_rotation_l_moment	lumbar_extension_moment	lumbar_bending_moment	lumbar_rotation_moment	knee_angle_r_moment	knee_adduction_r_moment	knee_angle_r_beta_force	knee_angle_l_moment	knee_adduction_l_moment	knee_angle_l_beta_force	arm_flex_r_moment	arm_add_r_moment	arm_rot_r_moment	arm_flex_l_moment	arm_add_l_moment	arm_rot_l_moment	ankle_angle_r_moment	ankle_angle_l_moment	elbow_flex_r_moment	elbow_flex_l_moment	pro_sup_r_moment	pro_sup_l_moment	subtalar_angle_r_moment	subtalar_angle_l_moment	wrist_flex_r_moment	wrist_dev_r_moment	wrist_flex_l_moment	wrist_dev_l_moment	mtp_angle_r_moment	mtp_angle_l_moment
0	121.3983970924072	-81.4330489975853	-29.95221599604463	62.57455264864694	206.4461959761795	44.30181501751262	-1.393132994389124	-41.15732823000831	9.002452257992832	31.45718937318883	17.96098281565173	-11.14135425824979	83.14366082058031	10.59010879748136	-6.093135163294741	26.39259915277539	-16.4146726091342	-0.02532805568244047	1.448271619888277	13.02388709690323	0.01648696210828895	-5.331166625686193	2.959828800154225	0.9284427145746932	2.203555408100906	4.23951053954808	1.245274305619636	0.4037299680480128	3.542047999125332	-1.285800266666682	1.566774669417869	0.03934163279019851	0.0005191561393364519	-1.240165206448246	-0.4486935645190943	0.0686096176779559	0.1767638417970053	0.3687847962237145	-0.1489656813139441	-0.004371622263633183	-0.1463586136348767
0.0004927087852480694	115.5688060689898	-78.35196262128296	-30.50616850097433	48.64725359042569	206.9408778530393	40.5182216283725	-6.688772391716077	-40.67001773816897	9.076609521569043	31.15249016263866	17.04103746519461	-10.7842784649372	83.1861197479915	10.67776489693039	-6.174188066455645	27.30010148727959	-16.34637306430838	-0.02220036363716611	1.399110531241461	12.55963509776614	0.01637025363639103	-5.332717149218393	2.952495373587694	0.9239690047522153	2.290533293866497	4.247742696259643	1.268710068298622	0.404763727812172	3.554687272338044	-1.287528242484646	1.601302447863146	0.0391879605305735	0.001036434862121016	-1.242673882392756	-0.4776999548990628	0.06796666142086771	0.1767613812549509	0.3746169201502557	-0.1521615725617661	-0.009585712837619581	-0.1461561072231485
0.001644115066457508	113.9876343827715	-72.58141755158806	-28.66426170506141	47.9038800899813	208.3575114752351	33.48661266813726	-8.217211601331021	-37.65266772924574	8.844100614925157	30.43949691115169	14.87347245529801	-9.96116060896752	83.27924358010587	10.92960587623418	-6.361314503024156	28.49399482204131	-15.09915210827666	-0.02266737159736809	1.29324183278985	11.47073269721738	0.01607368674511462	-5.336446397977924	2.935274146310282	0.9135029707462066	2.493309347857369	4.25905162370863	1.320925994558772	0.348387409776508	3.584363985355177	-1.293591903187927	1.682382282390187	0.0388675359934966	0.002116739203054108	-1.158480454143785	-0.5458673028934504	0.06641364576633828	0.1769511985118921	0.3876700182617593	-0.159805412310505	-0.008983485892263054	-0.1456949385174545
0.003432356695983019	112.6859885533565	-63.71768923604333	-25.86825929145334	45.58624394069437	207.3473118985088	23.60567256807684	-9.658649374808419	-33.31027739253224	8.453267691598814	29.30811424760224	11.50822753335031	-8.728411746721724	83.37859118865882	11.61020061187972	-6.627169524432762	29.467329170603	-13.28804903175294	-0.02244686361026199	1.212976195666771	9.786428478190141	0.015535187450368	-5.342304653443471	2.907640048432298	0.8973803550854077	2.792171446846459	4.226183154550317	1.384159504674265	0.3094126774102796	3.630022764003696	-1.315982802672293	1.80767882019621	0.03863546539879451	0.002951149778323336	-1.037494049050809	-0.6529080431780512	0.0637156850946963	0.1785146359843292	0.4037972192373782	-0.1724930911653881	-0.01074162648892751	-0.1449519891148806
0.005829089867451537	111.4295397877872	-51.30620785626738	-22.24099408477845	38.92787540213141	197.5030997440086	13.10017518828528	-11.64918400179114	-28.03333039396928	8.072599487970246	27.66628641160799	7.159259535323487	-7.200975072248213	83.34281755926008	13.53713592707592	-6.880272497294671	30.32333995554496	-11.15952508569197	-0.02083502590935069	1.438758140045325	7.594596762028133	0.01466885023696023	-5.349898162198414	2.867054175411542	0.8764393648447472	3.113572712650601	4.001001548537089	1.402038514072363	0.281276961893096	3.685865470453215	-1.392379669684618	1.967980684380058	0.03929584402388586	0.0009922297198651231	-0.8833362740536854	-0.7982045078502836	0.05911664759976702	0.1851620560011715	0.4097195834237318	-0.1919144946421146	-0.01496859962550531	-0.1436534956683108
0.008796491359919972	110.7468519165022	-35.05104706926424	-17.68883284431677	27.42311225688394	171.2522673283701	4.940702049909323	-14.12843442403212	-22.19437789880067	7.887475000674659	25.32025050702129	2.123848024067738	-5.507791087509711	82.98441333702166	17.69781247446231	-6.991889688107559	31.21167921216682	-8.958203040846971	-0.01778386214298246	2.323102426292695	4.996826781041194	0.01395549826598384	-5.358757802262851	2.80947350072293	0.8509219160409101	3.34362159044089	3.393561486555777	1.29987810032736	0.2870795086502956	3.735580990058835	-1.568820891773355	2.145954625843256	0.04180785997062308	-0.00706721675632227	-0.7025854726635768	-0.9785475815630432	0.05158932845077643	0.2014492692769377	0.3877166220313301	-0.2197215574897771	-0.02425743841948198	-0.1411291525712084
0.01228775618942049	108.8999354825895	-15.91655789002382	-12.38274963089983	13.33422528878782	141.847000969061	-4.359952675443232	-17.57912804694468	-15.7899203506503	7.747059596334955	22.30209048890524	-4.133755378118713	-3.569312976715699	82.43732845209659	22.69697501134891	-7.050519714475675	32.48588274701341	-6.639352878673755	-0.01434858640763633	3.379227067335204	1.781735730560549	0.01485754899422474	-5.364748407161287	2.73287194544001	0.8151301551310787	3.567795576539875	2.627666109677419	1.158626338223374	0.2977693384341309	3.770117102648403	-1.778216930105024	2.346080328024358	0.04456829084466291	-0.01737603380312891	-0.5069743519423049	-1.191675654209167	0.04189314615562197	0.2209968879110472	0.3569751719701574	-0.2525689828981806	-0.03488176978472147	-0.1373504681904395
0.01624782228925581	105.5111208159878	4.740686096717998	-6.425686153553019	0.01842154264068085	120.8725064677871	-17.22737302501934	-21.30174108459653	-8.986979210655988	7.444097192982412	18.72302685671757	-11.9701845230863	-1.406670498289046	81.79645053159271	27.27392178691712	-7.138541308441507	33.87389175339009	-4.175813504100677	-0.01134143375990729	4.193780801752146	-2.159484606531893	0.01597282995977719	-5.36083947355008	2.635440153439865	0.7645896354347281	3.885453295452207	1.906940146575079	1.055111844350275	0.3359191999909195	3.788088220056346	-1.960603531600875	2.578852008983071	0.04616109667877089	-0.02634421712910362	-0.3132941969834783	-1.433933242601308	0.03076680729113113	0.2381712882375905	0.3358554714552131	-0.287999826427386	-0.0465666212274575	-0.1326040952017375
0.02061423583687663	101.0481456503708	26.30476173635676	-0.1757619368152079	-14.6712849174433	97.16991958820168	-28.9260655961624	-25.39858957393376	-2.697022760946661	7.256716216239652	14.38730381947846	-20.48077289900497	0.6803109959838045	80.82760330170433	32.53088438651938	-7.116796178566887	35.36818322123891	-2.074907769764426	-0.008075419021761475	5.267003436203003	-6.475628203324041	0.01737217623235493	-5.345758648391309	2.51718525520817	0.7023009362696254	4.160132654240869	0.996386620788976	0.8991006142595732	0.4047413628024367	3.764109268858067	-2.173940711490292	2.82474286833199	0.04790014320118485	-0.03804232751074199	-0.139272504541021	-1.68795545854536	0.0172271748198448	0.2587298597668259	0.3027610844365278	-0.3280951708300033	-0.06000112472701735	-0.1260834740723348
0.0253181352773377	95.22383631139409	46.94719792744833	5.983601483173987	-29.11248371271256	76.20965983742916	-39.58190559315356	-29.41171270609343	2.556068476168607	7.133486203710732	9.349771485768027	-29.32271286548991	2.556079248177184	79.55907631239184	37.6535819550035	-7.021396870996311	36.70906090372472	-0.5052510214178687	-0.004806375219683225	6.451355797858485	-11.01113948667687	0.01881071661774941	-5.312834805848233	2.37917417176774	0.6271169826897702	4.439343396593223	0.001446364760621821	0.7300517520909775	0.5169222751348559	3.685288674102772	-2.384678049328554	3.085515783246293	0.04905617235466164	-0.0505576573152875	-0.007171416572421888	-1.937122061499077	0.001837290103796688	0.2796081148272795	0.2669345138981738	-0.371095245939602	-0.07461969250252007	-0.1176833569875573
0.03028533698130559	87.93055370514776	65.03160810939279	11.61790900063001	-42.80173179439666	58.41574236169823	-47.82777945628109	-33.10997936116096	6.226494362012797	7.145700784548653	3.674655698735458	-37.74467815042995	4.053156788332688	77.94257345162897	42.31432791408145	-6.851802812477498	37.74402550541576	0.3091665552645403	-0.001491364416975074	7.809208716527118	-15.45391308148389	0.01782802246422847	-5.256435653959675	2.22504857940634	0.5410736955002151	4.727098511020817	-1.06454122854758	0.5534535012851221	0.6824838062958462	3.538393246212737	-2.584780679584868	3.358792596030581	0.04954877876942221	-0.06357187950379828	0.06350578419134825	-2.160460921256975	-0.01501010018027079	0.3002112293599101	0.2295229414056438	-0.4163436650267556	-0.09066676016860314	-0.1071921838646606
0.03543750502895751	78.85820688479336	79.1701707960934	16.2656313890249	-55.91557946205208	43.23259494818132	-52.35337948681092	-36.57284090910118	7.987355858971554	7.402498605519085	-2.557589243974525	-44.83969531146808	5.059142317203412	75.93717701251478	46.25154936300591	-6.608652450443536	38.46646709620452	0.2209126645777681	0.002004900537007186	9.444715733200141	-19.43895915598084	0.01648271342503146	-5.173191881100371	2.060432352540884	0.4477229545168182	5.019642987269309	-2.198905214594099	0.3699032473913344	0.893707775996739	3.31403525028599	-2.770311770506066	3.640027477996054	0.0494465325071306	-0.07697286473680864	0.06157374841631302	-2.335894567075637	-0.03279625066642	0.3203156462528971	0.1904496771514537	-0.4631074214650781	-0.1075019099104744	-0.09444996449301128
0.04069338655285454	68.80423332785725	88.01333299870626	19.74504701965143	-67.63048923636447	30.37403890356585	-52.22182127337179	-38.91464485486384	7.693333834177626	7.918843562814196	-9.152895450198006	-49.85395567921764	5.562730078815978	73.5370080335734	49.08233168541712	-6.317161788456012	38.3383333717302	-0.7558594110689508	0.005804542141672749	11.38045617499474	-22.65314496878503	0.01496324296500076	-5.061205850507567	1.891715200446138	0.3510587651116353	5.33615824752654	-3.363367087361987	0.1929666025333061	1.13140140565571	3.012543929395608	-2.930091457227368	3.927666120997611	0.04868717030233444	-0.09005001676711899	-0.01128997573964971	-2.445874128739949	-0.05074566467091086	0.3389616598651415	0.1527912699482078	-0.5103293600225454	-0.1219692397475657	-0.07952886847234844
0.04597009311582306	57.95076662502423	91.3596421955574	21.9743830667238	-77.13959192752455	19.37607073721477	-47.34724267951497	-40.14372892408142	5.81981055468607	8.71120768177717	-15.87270249103949	-52.18612722021389	5.633214148610667	70.73741390352546	50.65141533282376	-5.997193791405239	37.55633835534368	-2.409293759316778	0.009033046566939852	13.65722279779503	-24.84360311402453	0.01408973402892322	-4.923117253334984	1.726209296847394	0.2560020943837177	5.674911043478402	-4.545526760132652	0.02460253420803671	1.366481248989094	2.640687575874761	-3.062043374343636	4.217075630163996	0.04743138306671002	-0.102624718295222	-0.1382307145682291	-2.47889530460248	-0.06813529424498994	0.3560040959426909	0.1168783379917631	-0.557136636502483	-0.132647732377701	-0.06259119703111327
0.05118440789980219	46.25803461946276	89.65776397452674	22.90855809346665	-84.81780804776781	10.3817460345842	-38.46914419504908	-40.58852196565828	2.936351758725606	9.7451075949858	-22.44581281441991	-51.62627273554835	5.408785872509675	67.57060665601981	50.86015606161857	-5.679618140149916	36.29038285432915	-4.488040603827449	0.01199888294102696	16.23873384788763	-25.90150446633186	0.01373622720336112	-4.765359731744667	1.570439280086727	0.166909194255853	6.039403306165266	-5.717240435089535	-0.1290821334269552	1.5642733127829	2.214831331180114	-3.163063419219483	4.504294512278229	0.04579476109254849	-0.1143268019047508	-0.2973782127901015	-2.43338679625231	-0.08425041032533175	0.3711189233130009	0.08410768259305673	-0.6025508299814364	-0.1377669893604365	-0.04406690053702394
0.0562540980850057	34.27111124248626	83.7138951499893	22.72289912723958	-90.4985918965958	3.103499163833447	-26.42213726961841	-40.17604436765265	-0.3925182862108159	10.92296597864706	-28.64148419098888	-48.3186071664438	5.047005321580532	64.09172291566621	49.80229872127306	-5.391359436511419	34.58199800746443	-6.716803757121126	0.01489430888559059	19.05931703265875	-25.8565617771904	0.0127026097417321	-4.59829466542529	1.42949242892883	0.08726825698243046	6.419740287145466	-6.859972022162367	-0.267645881050635	1.730919276859242	1.756216089581505	-3.235360061723662	4.783724193741238	0.04396734520522994	-0.1250581443362702	-0.4710877602611733	-2.31690662295768	-0.09857655413949704	0.3843978000216501	0.05456154122984849	-0.645728799343795	-0.1389044720412871	-0.02454647731796049
0.06109921172279988	22.73801678498253	74.6407845835964	21.73219777416992	-93.55244985190501	-2.304558858077073	-12.35713541831134	-38.73903743908352	-3.643463693957201	12.10066362520623	-34.25275406421779	-42.76822328914472	4.685920738928065	60.39007017864152	47.68034071841801	-5.157934661148928	32.50037695911893	-8.826041924961789	0.01756776289388195	22.00266137835646	-24.87256057154467	0.01116817804619949	-4.434208229931532	1.306442043798705	0.01911639689930145	6.804274940168387	-7.951126229393062	-0.3904277549390476	1.898205179768458	1.289620110099227	-3.282473612808833	5.049967590958541	0.04210700935964856	-0.1347263977827027	-0.6469558289424099	-2.145039460863593	-0.1108015518032751	0.3959701380612992	0.02841693228290854	-0.6859144445957877	-0.1398148856498208	-0.004798488295921943
0.0656433386566332	12.37243444923797	63.72314052235792	20.29884683167244	-93.59331600034372	-6.019259475197288	2.573405699038709	-36.2043509216803	-6.408744779069409	13.1375370067903	-39.15077819390993	-35.6922889824518	4.416104486640085	56.58262969984792	44.80044280640342	-4.996221024917541	30.16268451401043	-10.60379636914563	0.01983123811474637	24.93720920407176	-23.19895256219197	0.009370159546088186	-4.285395681857556	1.202529379058615	-0.03686356090393317	7.176842104738861	-8.971554144639562	-0.4986547689916292	2.066293609492335	0.8386739559273018	-3.310177852236963	5.297526210061015	0.04036189585420008	-0.143345818157472	-0.8091619307316679	-1.937768895056903	-0.1208446808449711	0.4061033006527685	0.005404645421366872	-0.7225123250616166	-0.1410264266337955	0.01436042640572571
0.06981481562497333	3.633890292808061	52.09575895184543	18.74633849772633	-90.74678544471227	-8.096663498873497	17.35926564967325	-32.66418330539698	-8.546850950300023	13.95111363337858	-43.28357933605456	-27.88824282464061	4.274782637126818	52.81142223870781	41.50030490313314	-4.913947870820228	27.68647772487988	-11.97159633751297	0.02256243841825564	27.72907589466839	-21.12187054225464	0.007485785894586413	-4.161763420552313	1.117554720244792	-0.08113960090338934	7.522336301790292	-9.902755009709781	-0.5933689979324064	2.260312456769668	0.4234289039306882	-3.324227309754623	5.521642789837022	0.03883069615843115	-0.1509372991287781	-0.9556190528306577	-1.716095084184221	-0.1287996948633562	0.4150148951789103	-0.01469692717151785	-0.7550745442511242	-0.1452512002063161	0.03217040361152587
0.07354785659418331	-3.355080760587171	40.7709750978013	17.30278103554423	-85.61582482106019	-8.701998955899896	31.17227334240733	-28.44658766102471	-10.0449760790213	14.51640755527943	-46.66354753758807	-20.0917815659226	4.255430234748433	49.21901327831653	38.11715815961263	-4.90655276770705	25.24132837836374	-12.93119509771002	0.024358205495063	30.26466935176619	-18.91284480449008	0.005716389072141306	-4.068499326793862	1.04964986379665	-0.1151847345377458	7.828866074758831	-10.72862552923746	-0.6753718460749139	2.479936894329501	0.05823722673500181	-3.330159822386609	5.718683241622962	0.03756854636500589	-0.1575252527793214	-1.084053402702037	-1.498826405153977	-0.1349173874710166	0.4228812115481045	-0.03207104960940002	-0.7833163358027218	-0.1528282586038813	0.04801430980056044
0.07678359065557917	-8.782939695082419	30.56451050320416	16.06522558518965	-79.62486941964276	-8.348054160550191	43.35776862736518	-24.09355634875171	-11.00410420768294	14.86861297193325	-49.34419499143264	-12.90378636515062	4.325533949838424	45.95338393385347	34.93292854281565	-4.959889345223211	22.95843465111609	-13.55529197978456	0.02542618123439042	32.45881709196414	-16.79877638749051	0.004186821914014416	-4.006339026662331	0.9969184918488783	-0.140632973361197	8.088242009441053	-11.43637065962567	-0.7450369994448556	2.687710884012983	-0.2483286861744471	-3.332023356667791	5.885984334870009	0.03658854488086727	-0.1631164975989092	-1.188620747166812	-1.300922605550235	-0.1394811889687042	0.4297534864297701	-0.0468090796003155	-0.807066843096699	-0.1606085250639901	0.06147285453330113
0.07947099168744461	-13.09170486737858	21.96890913643091	15.01765304283434	-74.71240883848655	-7.581038623510764	53.52747511591832	-20.24361222625535	-11.66824961147377	15.10386968896843	-51.39725265950975	-6.752145963381555	4.44348190699284	43.14540287000047	32.16196399291547	-5.052021755996794	20.88334502405674	-13.99271124462628	0.02627839436027644	34.25816364798072	-14.94643866433461	0.002922713111706657	-3.971350757673087	0.957318585426354	-0.1591111868834739	8.296520424744905	-12.01679845545631	-0.8022989776208376	2.872190553148172	-0.4929220697110077	-3.332412594004175	6.021980958732543	0.03587229267239633	-0.1676997586981401	-1.274239274146953	-1.132836472361249	-0.1427780027377583	0.4355836427866803	-0.05890835389802343	-0.8262562774029885	-0.1679236561133574	0.07232913365833701
0.08156768768021185	-16.2179698657896	15.23332752243499	14.23683833895038	-71.03985338334445	-6.841030051314704	61.51582703178264	-17.0126419867367	-12.12801142083597	15.25163165968406	-52.89310771291567	-1.901994571832821	4.570433408777236	40.899093899726	29.95034502345061	-5.156765730639618	19.07092798148268	-14.29163298529412	0.02695629855551981	35.63670279193373	-13.46385720839205	0.001939733667445323	-3.956228950837743	0.9288362427661396	-0.1720460625791695	8.453256526993719	-12.46390906346531	-0.8467506308932049	3.031083178362353	-0.675970774700773	-3.332641524526469	6.126004676025494	0.03538252082473958	-0.1712480690331941	-1.342066741953126	-1.000932004028936	-0.14506461201717	0.4402558607667112	-0.06829152387950152	-0.8408818470856869	-0.1746377757386505	0.08052930454065423
0.08304065359974588	-17.98621209385669	10.43499767886171	13.79693748155271	-68.19859636277049	-6.468387619475607	67.27566287461573	-14.35532353089658	-12.42702129544957	15.32023914812002	-53.89051274704329	1.505919150666442	4.676301292294535	39.29433341689448	28.38303350607168	-5.248733845746755	17.58050938549609	-14.46906303970394	0.02736301223770112	36.58749170878712	-12.41230660814019	0.001249752966592178	-3.952695394304442	0.9099996165379742	-0.1804438944664046	8.559871548426973	-12.77454688060528	-0.8779145952212537	3.165693181939465	-0.7999193050743358	-3.333033970339612	6.197912764157102	0.03507743983764355	-0.1737306590275245	-1.39262779270785	-0.9085006121361174	-0.1465330262933566	0.4436214773214856	-0.07486486721035787	-0.8509733129687189	-0.1808540948870535	0.0861212779196054
0.08386699317952337	-16.58875797608573	7.908618775188124	14.22716900777046	-56.92139113115427	-4.204842469537937	70.12338978319269	-10.87908058788691	-11.56404632712984	14.91483793969108	-54.43143309493146	3.41140889518684	4.741224584257917	38.38527410812763	27.50201188288647	-5.307253258595043	17.60627898686289	-13.96631797516669	0.02433476056677036	37.11340421273776	-11.82120535858906	0.0008623650647110975	-3.953464329295235	0.8998386821941016	-0.1849270720008072	8.618290137511254	-12.94743777408844	-0.8953867990976252	3.246212032283268	-0.8676348767647755	-3.333404716532003	6.237805361819243	0.03492106762757502	-0.1751206237787279	-1.386731404146795	-0.8568909195394704	-0.1473097674110777	0.4455441970584083	-0.07854845170287073	-0.8565675578432507	-0.1849909369818027	0.08919027428108885
0.08406135207201153	4.022153331699528	3.032432541036067	19.63802562715509	-19.3831847072224	-15.00274283863544	78.19173588236627	7.965807390009131	-9.981830662829632	13.17319057497992	-54.55676059851343	3.858538616222223	4.757040039097047	38.17060034998902	27.29479404901973	-5.321757732449177	12.53437653804921	-12.21057473455367	0.01475068856787216	37.23625533773752	-11.68219610190567	0.0007711810004424201	-3.9539439643773	0.8974904469574234	-0.1859589463227309	8.631877472449544	-12.98795133560036	-0.8994959237756657	3.737315157787915	-0.8833637539608066	-3.333511541642412	6.247140029263226	0.03488587111445035	-0.1754473144242457	-1.374577586487145	-0.8447869656896689	-0.1474877129863409	0.4460002980975983	-0.07941457358987289	-0.8578762986180077	-0.2037942150293672	0.08990458422606942
0.08455406085725958	-19.3069325311824	5.683765622183044	13.47927761113103	-63.52224269679528	-5.647840540506635	73.02361648042972	-11.25122398185059	-12.4394456090374	15.27544844860805	-54.87127856027784	4.989845202285476	4.798027885364022	37.62498931197992	26.76968320346327	-5.35980924599969	16.2201968953119	-14.48916003292456	0.02709874522233665	37.54617811343552	-11.32998320117569	0.0005398681596220714	-3.955681725858533	0.8916080023888223	-0.1885374877547287	8.666053914125987	-13.09038924683513	-0.9099125919582285	3.274948775811881	-0.9228908465926976	-3.333819953066433	6.270720120118919	0.03479939116456116	-0.1762751399592875	-1.42867490835783	-0.8141719374715533	-0.1479308829252957	0.4471634074958996	-0.08160988058777585	-0.8611819469792668	-0.1845204985275331	0.09170210103878976
0.08570546713846902	-21.5604000327956	2.314540546621264	12.8751512982162	-64.34174279909573	-5.582134651525337	77.22259891724167	-10.0112631339734	-12.70976787428641	15.39671953415642	-55.58876962755371	7.618684161418297	4.89856875050093	36.34252024475865	25.5449787610405	-5.456016758064472	14.9885362853146	-14.69197542268301	0.0281575239186083	38.26153999677237	-10.5089138274688	-1.869246810694541e-06	-3.962739012354665	0.8782475940422031	-0.1943644290468061	8.744369125508072	-13.3282350928324	-0.9342585994905011	3.294684627447678	-1.013269785213792	-3.334777711358294	6.325345863986692	0.03461287343053615	-0.1782080554120764	-1.453093622285988	-0.7430785545163644	-0.1489234646001107	0.4499215892678262	-0.08673898333645039	-0.8688390902262193	-0.1819200926135947	0.09582549126771535
0.08749370876799453	-23.73557897156805	-2.885217975899134	12.32116428457434	-61.69672266157531	-4.775979390072067	83.71837348464774	-6.964584766319056	-12.74520679554237	15.38888459754041	-56.65632238197485	11.64657127548321	5.066572918667988	34.33235511995063	23.65634706706316	-5.626343697315695	13.20323806117259	-14.76273089377937	0.02847977836193853	39.3455544045995	-9.244365491297476	-0.0008481398367248315	-3.982437498600676	0.8585443883771973	-0.2029102238504347	8.861465496020902	-13.69308548341509	-0.9720972533801464	3.363027048416283	-1.147832462832009	-3.337064986621006	6.408814556552993	0.03436778023902332	-0.181207455325588	-1.484998616967262	-0.6342393520468246	-0.1503520104373865	0.4543256110559145	-0.09470545080719847	-0.8805425718409493	-0.1809452287230207	0.1020001729777433
0.08989044193946306	-26.12912649633711	-9.638234986108223	11.75876035775512	-57.6951839150214	-3.28285813103745	92.29197255071625	-2.474969861402202	-12.67059621423101	15.30703948868729	-58.00362122892579	16.90097213147012	5.310132247171534	31.60946621993206	21.17113516201742	-5.896287981155494	10.6648993055263	-14.78088978317398	0.02846161919436736	40.74017617988936	-7.584551233869524	-0.001997305423063566	-4.026644259351257	0.8339925061555374	-0.2135713396543295	9.009035862821447	-14.17256106520162	-1.02290713463267	3.48897970034375	-1.316330372240387	-3.342054046048174	6.517935320990757	0.03412703013489321	-0.185227074574819	-1.530889982604137	-0.492311943169953	-0.1520729752888861	0.4604814572476914	-0.1053920062027793	-0.8958655300345033	-0.18248694425612	0.1097962064011111
0.0928578434319315	-28.54914341707406	-17.34738193484021	11.29292809604357	-51.75166692625173	-0.2239961042039056	102.3447519491539	3.396365661046401	-12.26048798426264	15.07014960274189	-59.5515411738972	23.09839612158868	5.631361176196535	28.20578736549589	18.21062859400427	-6.300211544020001	7.636452979617971	-14.63633766221255	0.02786703820519245	42.36051414926838	-5.614967333406808	-0.003457045665024374	-4.111858217810306	0.8061663089578706	-0.2259133602161728	9.175440480541496	-14.74923827621719	-1.086027889527073	3.655658878659454	-1.504604808392228	-3.352084478872235	6.648407902960376	0.03397183011008531	-0.190211381087761	-1.58075985737326	-0.3247516543092404	-0.1539473149331498	0.4685492448752941	-0.1186474682488633	-0.9142570857476324	-0.1857164193771526	0.11860250509229
0.09634910826143198	-30.6511548723099	-25.29917780827205	11.09767792064853	-43.18645630360459	5.395375274347415	113.1877917256151	10.66292824682101	-11.32318348660981	14.59278415620543	-61.22587522472224	29.82430679672906	6.020144118882262	24.18039437565897	14.96577798180076	-6.880394338942015	4.378351978844302	-14.22784212463943	0.02624258850722377	44.09361829862921	-3.467579164858241	-0.005251609834223411	-4.259025293791519	0.7764937734741435	-0.2399220784546873	9.346053318096164	-15.40043755286358	-1.160608604238512	3.85482447714914	-1.694891028975969	-3.370686841575358	6.794963380221899	0.03399673206701764	-0.1960970525084507	-1.626599994011175	-0.1422510892854849	-0.1558792525029759	0.4787429831383919	-0.1342734474316195	-0.9350732854417492	-0.1904352614839797	0.1276224926171156
0.1003091743612673	-33.48260047849493	-32.3235164864519	10.9956814026428	-32.53413321876259	16.31299720481279	123.2641601182764	18.03018707006019	-9.718385496898245	13.86538734309362	-62.9708638388467	36.53554923261483	6.449890686357305	19.62979103374896	11.7026189124786	-7.685013820955897	1.874493922303151	-13.51937763846867	0.02337251270847435	45.80177339990816	-1.321964579456331	-0.007426563537607261	-4.492672609899243	0.7462150900381298	-0.2561574757686841	9.504229511852003	-16.09846651653662	-1.245485863594926	4.039307875387593	-1.86667504196935	-3.402611135861319	6.951623318345803	0.03430358609383966	-0.2028097254719137	-1.657271378833519	0.04133922444021314	-0.1578444205040427	0.4913157112062274	-0.1519952100690863	-0.9576163298420055	-0.1953764026835957	0.1358894037025132
0.1046755879088882	-34.75135322799899	-38.13401733370189	11.71285287263479	-20.94846456050682	29.67515778993955	133.2491847914464	27.17542159271487	-7.699570485037943	12.86735835707659	-64.7532658111912	42.59493475784428	6.877963717547984	14.69253781448124	8.752661773453994	-8.764219446606525	-1.220345565479816	-12.57668552608486	0.01970362601370535	47.33043539634102	0.6061351695621248	-0.0100500177994913	-4.838590155346864	0.7160146177592002	-0.2759545069891332	9.632035177474359	-16.81160604096443	-1.339132948053735	4.277704855	-1.99815352962404	-3.453224728731739	7.111918047229216	0.03498224537052197	-0.2102580254145392	-1.688394828276179	0.2098333657240876	-0.1599112754836745	0.5064876068292339	-0.1714454313145191	-0.9811645908324326	-0.2023189659545558	0.14232927699378
0.1093794873493492	-32.31392271489374	-42.0653824913316	13.91993298406748	-9.390946482384727	42.80901522118475	143.4358312244984	39.53040748485184	-5.271965219917664	11.55739020777817	-66.55926889755206	47.33796593637909	7.25274386521057	9.544410134035914	6.477032225909456	-10.16558761537462	-6.000702638509054	-11.40620968424917	0.01527250792304805	48.52283037480477	2.088713748502973	-0.01319936176057562	-5.320330186229293	0.6864366865498316	-0.3011442949252165	9.711960526689847	-17.50671855292282	-1.439648025372652	4.638376116809248	-2.068300370630502	-3.527625422380136	7.269413012213298	0.03609992987318422	-0.218330247401104	-1.73305821774842	0.3462485286344394	-0.1622107735552097	0.5243681199588476	-0.1921552935765331	-1.005024149156925	-0.214132620359507	0.1458478557034051
0.1143466890533171	-27.15958457931603	-42.68323399215291	17.33505903633494	1.230691871918779	57.89325952287535	151.9891249531203	53.68936325917049	-2.192470584716386	9.92883476007365	-68.38314929918837	50.1661520257133	7.526627869294645	4.385027499658078	5.213708488774553	-11.92768142568049	-11.4557660220167	-9.958110205428801	0.009803426679595776	49.23985447959088	2.919463759770003	-0.0169339083477429	-5.954944065222151	0.6583602044654097	-0.3335625004513927	9.728728301199304	-18.15251856855008	-1.544806848318396	5.065649458999607	-2.059284857154863	-3.629505337434606	7.418195663678609	0.03769322267747854	-0.2268886820209528	-1.776639115576935	0.4348952430404761	-0.1648762743826985	0.5448720972861768	-0.2135665253067009	-1.028564119004277	-0.2292471227732995	0.1454425339489159
0.119498857100969	-19.81594673809354	-39.07064448224671	21.69886304995828	10.56589177602502	76.32279393886387	157.5127946894968	68.73199112861394	1.653047952974585	7.969641342007645	-70.20869213541785	50.64739658436061	7.670981241048147	-0.5801397328266358	5.21775131136867	-14.07189269531433	-16.84950049938542	-8.201818818219868	0.002758969777657154	49.38067474683366	2.950840913603987	-0.02126318664087489	-6.748733599182995	0.633185709608834	-0.3745080673839378	9.669794438562112	-18.72293865840793	-1.652317680639111	5.528485104030313	-1.958820581212283	-3.759757365554158	7.552956690958703	0.03975730385249332	-0.2357638876185477	-1.81021063013816	0.4636388652448775	-0.1679666756375665	0.5676250080517206	-0.2350979109261152	-1.051205304855889	-0.2472580651112963	0.1403369375147294
0.1247547386248661	-11.12388823681146	-30.80451824888758	26.54380819119553	17.46691867891242	99.0573062990382	158.7904556565038	83.60246423818944	6.226622786128022	5.709389936823428	-71.99183653390848	48.59340795101632	7.687145361028648	-5.169247177252505	6.592264995113565	-16.59705172477851	-21.63805962736397	-6.157701371019447	-0.005739118332987049	48.89912728029731	2.123385240689255	-0.02611751244670613	-7.693512707813248	0.6141714994169468	-0.4236288499728895	9.525911820524707	-19.20209783587239	-1.760340681049726	5.990135821130194	-1.762193077973383	-3.915323226260823	7.66938286497763	0.04225468963512757	-0.2447729965985073	-1.825783980868745	0.425826809044263	-0.1713397025311081	0.5919156149648461	-0.2562667265783273	-1.072447155966075	-0.266937342580106	0.1301046154141176
0.1300314451878346	-1.182668341364113	-18.11813105240529	31.52470002987771	21.08508896507057	125.3192016388017	155.5053936098857	98.05228429804473	11.45551567618211	3.163936916205326	-73.65302227845356	44.11234227108068	7.608296545427775	-9.254977849640008	9.268470047368153	-19.47103881958017	-25.91578981358797	-3.845144498139705	-0.01529098828170698	47.81381839394079	0.4833148339837154	-0.03133542609375678	-8.764683322435639	0.605216828807587	-0.4789030153160532	9.291519827228697	-19.58487977949395	-1.867566003866694	6.443154890242736	-1.473611637139129	-4.088958126759056	7.764077222671004	0.0451124784183311	-0.2537145333521396	-1.820940260125739	0.321701805741694	-0.1746473577791627	0.6167168084485674	-0.2767336661794547	-1.091834411476171	-0.2876665326256964	0.1147751877341518
0.1352457599718137	9.632546093246512	-1.74019270991522	36.20107113259539	21.27578747581873	154.5196975052029	147.5441427219727	111.751216084126	17.23955473228209	0.3541183301531987	-75.08787619884892	37.59237286554629	7.490057925671207	-12.77024556959955	12.99639343909137	-22.63017187467389	-29.66444880879792	-1.280656851801353	-0.02557038077551577	46.20521475893042	-1.824060767080248	-0.03668237314048704	-9.923466696939711	0.6119993283730635	-0.5360256863398245	8.965590450178372	-19.87782976239791	-1.973369733737157	6.872890226760137	-1.106285935753479	-4.269953326035354	7.834695896818682	0.04824980391343781	-0.2623860739054897	-1.791579365079903	0.1585748694243856	-0.1772960594104301	0.6408067502292444	-0.2963588226840401	-1.108968249208108	-0.3085102204170976	0.09488019399204793
0.1403154501570172	20.87725498770277	17.18875909519275	40.1587007195472	18.25180838206869	185.8295287083088	135.2785550251127	124.4653285328684	23.42965717076088	-2.679662154419233	-76.18518056023741	29.64449435359941	7.393055426273461	-15.71831208559452	17.39818240525925	-25.97983984206987	-32.95706424048265	1.500963965719606	-0.03625486526751256	44.20254867841809	-4.577095948972382	-0.04189517072086898	-11.12026937086799	0.6396273866759488	-0.5895134306356815	8.552165138038012	-20.09589467986378	-2.077552123454779	7.271265640440422	-0.6812077039129026	-4.445513125373539	7.880018747799397	0.05157032397901862	-0.2705904025269985	-1.736689941346357	-0.04995850939248271	-0.1785926355801394	0.6629027638098532	-0.3151555878679519	-1.123516878409479	-0.3288607506080669	0.07142615476788701
0.1451605637948114	31.8471979434245	37.28645216080677	43.03121079161149	12.3854413577297	218.6656467107236	119.4238936643033	135.8534784119657	29.79425168503845	-5.859582029888038	-76.85823887775868	20.99595184576886	7.364303354088342	-18.15078849170318	22.04082929313737	-29.40211666101958	-35.80994535801759	4.430845074834786	-0.04693418637725663	41.96281446169882	-7.517824167759434	-0.0467341300502685	-12.3019554064425	0.6916852291307712	-0.6337316260432964	8.06179989144521	-20.25791705961444	-2.179850116241137	7.631063118631626	-0.2244950325847593	-4.603186800678397	7.90009428296249	0.05497474461343987	-0.27814228767049	-1.657990337190446	-0.2860641484820825	-0.1779028231887113	0.6818832667937618	-0.3331903097206169	-1.135243030154904	-0.3484169150912462	0.04577659296555465
0.1497046907286447	41.84081857168133	57.15882704068486	44.59807926695119	4.295297463128332	252.3702946188662	101.0218351271979	145.6198186451346	36.06881360413746	-9.088898644585235	-77.07035697502523	12.36930392975459	7.424746423295232	-20.14859162481586	26.51893840570502	-32.76748336258016	-38.21758102324743	7.422069331329861	-0.05697262380511955	39.64727819456473	-10.39625272963748	-0.05102010307544026	-13.41855143815558	0.7687653817957569	-0.6642690231508306	7.513211780080892	-20.38196728697595	-2.279375470673433	7.942324078063438	0.2360826099047973	-4.733284651902503	7.896753528158473	0.05836451145042609	-0.284880229919189	-1.558341091950054	-0.5304316536474463	-0.1748427256451541	0.6969854417340067	-0.3504408970045303	-1.144076383271456	-0.366551079949136	0.01946526150458504
0.1538761676969849	50.35950705401227	75.57670378415419	44.8637413177581	-5.159639534750283	286.1356256742729	81.36227471532364	153.6342221632412	41.97823385732438	-12.25104431993235	-76.84645311150103	4.372012912995854	7.567193552656636	-21.79603684139757	30.5157304604864	-35.94988695104758	-40.1940277723508	10.36640094572896	-0.06604714542927863	37.40039855878491	-13.00893538054972	-0.05471723524605355	-14.42920221540713	0.8678405206679088	-0.6789630080233464	6.931734581101215	-20.48270409780637	-2.374616804116505	8.197899217443579	0.6748692086819398	-4.830257157759361	7.873569697712375	0.06163686059965967	-0.2906901884135484	-1.442943102784237	-0.7652050573834621	-0.1694012814726189	0.7078960875807792	-0.3667717001564282	-1.150145254230803	-0.3825701466764919	-0.006018561162917657
0.1576092086661948	57.189366389075	91.66070252003928	44.03066662127237	-15.06632916508357	318.8590477469861	61.81284402476051	159.9429590151945	47.29442742231157	-15.22781631913075	-76.26859055863595	-2.572775829712507	7.763894355425451	-23.16252155615282	33.84225662273149	-38.83862400268045	-41.78458886967128	13.15186945404302	-0.07395053514872763	35.33708024687785	-15.22234827981179	-0.05774119271150878	-15.30577539348591	0.9820526546944277	-0.6784684745144647	6.347792197447866	-20.56912521797531	-2.463361745986026	8.395842923810267	1.071223162013147	-4.89351381640961	7.835671168717241	0.06468685242474081	-0.295511213559948	-1.319043147048805	-0.9763075403555801	-0.1619950031908347	0.7147923227766794	-0.381895127899071	-1.153774109560129	-0.3959359155892337	-0.02941163159529009
0.1608449427275907	62.4179682821951	104.9210260108194	42.46474892177376	-24.57803917221984	349.1437435854679	43.70393792664614	164.7698838267361	51.85264459807995	-17.90309288868571	-75.4621575196177	-8.245066463040111	7.979007267058096	-24.29416637319629	36.43674793647551	-41.34713493087203	-43.08242119647257	15.66640476286516	-0.08058915700784867	33.53857975325437	-16.97834470136342	-0.06009587496015248	-16.03347482365699	1.101766527666539	-0.6659420831699197	5.794101550394679	-20.64488688762945	-2.542975357614847	8.540984611713155	1.41097034557749	-4.92704857767845	7.789314622761461	0.06741470100231406	-0.2993415367193824	-1.195717766932708	-1.154674672172449	-0.1534022018384488	0.7182831390800709	-0.3954141562553251	-1.155452784083211	-0.4063626443708985	-0.04978164757717982
0.1635323437594561	66.04914908556378	115.2428690420348	40.50428363858924	-33.31648795044072	375.8288444821906	27.98626553027415	168.1940220112995	55.54345258439823	-20.17801665692648	-74.57135993488825	-12.60432547471285	8.180079155657552	-25.21363733807778	38.33264414531863	-43.4168674637995	-44.10913945972942	17.81475568740275	-0.08582309791271277	32.0547704036397	-18.28321201934223	-0.06183752894595234	-16.60889532535183	1.216390909378203	-0.6460992002813182	5.302050381810992	-20.71042783479273	-2.61091805463951	8.635207897211362	1.686386072284783	-4.938028152301887	7.741198237865083	0.06973304484314347	-0.3022405830781625	-1.080985146372209	-1.296230033941009	-0.1446098596201838	0.7192634382088072	-0.4069246906374973	-1.155773985307515	-0.4136538852053761	-0.06654469449751324
0.1656290397522234	67.76028456280622	122.7202526558935	38.38833989395484	-40.92784064144754	398.5770501961562	15.13209544713533	169.9613086972621	58.25060700420918	-21.97455319452512	-73.73714918964693	-15.73199681292895	8.344643079789229	-25.92602956711691	39.62435786509973	-45.01382870999431	-44.59056144508993	19.51891341076152	-0.08953446469109312	30.91154590707511	-19.18573896642532	-0.06304747800101211	-17.03651936874854	1.315504528549849	-0.6243117002125596	4.898936316590307	-20.76393148703673	-2.66496643616671	8.660833404853056	1.894916469140415	-4.935134943486242	7.697616269207636	0.07157031143010428	-0.3043040062598561	-0.9776634502094539	-1.400805642285644	-0.1366595572296753	0.7187445635644115	-0.4160641418373008	-1.155334312987122	-0.4168697268586984	-0.07941179159496098
0.1671020056717574	68.83215034623763	127.6222513411887	36.74301582562997	-46.03337868084198	415.0011109461065	6.023512889072492	171.1125460398536	60.10082635368038	-23.25218212721393	-73.07910885807925	-17.76629242548802	8.461137176784908	-26.42672122160485	40.42538514630758	-46.12245793148407	-44.87687236299561	20.73224793886343	-0.09219085402466937	30.11909315153911	-19.75212653055335	-0.06381337689769792	-17.32459486097174	1.390158481998958	-0.6056094844352833	4.606277257951472	-20.80291296471731	-2.703407182924201	8.662335354642483	2.037250408072754	-4.926814274693435	7.663871206983544	0.07287327748047012	-0.3056406390955104	-0.899155214852325	-1.470510669557774	-0.1304912739812454	0.7176811641517266	-0.4225533281819721	-1.154660653107276	-0.4178390484808275	-0.08829494738503799
0.1679283452515349	69.60351612789424	130.2081463613779	35.85206555776778	-47.93506070961111	424.2774964685627	0.9190937080404638	171.8908175222599	61.13116384386386	-23.98495880211772	-72.68440171942534	-18.8440986288268	8.525933281585528	-26.70831663968008	40.83462602099446	-46.73861563856695	-44.91494511049813	21.42487597725286	-0.09399415000893618	29.67911541985063	-20.04378687379132	-0.06421106231915567	-17.48147463761906	1.433829015331327	-0.5938751248430894	4.438841257472949	-20.82530053400127	-2.72512066382823	8.645606505486608	2.115392604047933	-4.919813082493346	7.643822123397394	0.07360791083648799	-0.3063473112038353	-0.849463822256265	-1.508089751730154	-0.126818369911213	0.7168263082222223	-0.4262140190367487	-1.154150470310376	-0.4167720185171802	-0.09321090896196499
0.168122704144023	66.08326905855077	130.2540555608147	34.91126361924297	-43.490757242935	434.3299045296303	-2.790407244855572	168.8648106814379	60.72952246395435	-24.20768717047459	-72.58893340535502	-19.09072619391367	8.541060719630154	-26.77465608615663	40.92660493875725	-46.8828754551239	-41.40614086342069	21.59919078447473	-0.09514914378474507	29.57615111420192	-20.10957234366749	-0.06430116311515117	-17.51786409976707	1.444285209641004	-0.5909849049029772	4.399130605373968	-20.83062040913928	-2.730241782728299	8.411532852632467	2.133581963021864	-4.917919566847245	7.638990685381409	0.0737810326991285	-0.3065088735048547	-0.7864203419303918	-1.516759657025442	-0.1259322484805945	0.7165979691198372	-0.4270768375653086	-1.154016659386361	-0.4071162737109509	-0.09435947644020704
0.1686154129292711	70.47799524213967	132.3707404551716	35.10156655478644	-51.11943828122487	431.1916708767787	-3.017923246335442	172.7871605774392	62.03490449405204	-24.5593480699634	-72.3424657299737	-19.70395389737853	8.579158334520001	-26.94304602625658	41.15239538722327	-47.24738905929311	-45.55340964769413	21.97579895179408	-0.09498385598157408	29.31605969033711	-20.2714492968598	-0.0645236068297545	-17.60922835290119	1.471105026374719	-0.5834353516599635	4.297912495154719	-20.84419905683098	-2.743246429200468	8.70601285041724	2.179356706111821	-4.912695145557592	7.626546328154209	0.074220419487805	-0.3069103644660025	-0.8270117385790033	-1.538440431176139	-0.1236479055472328	0.7159722787943027	-0.4292668748952377	-1.153653890720729	-0.4213963650042133	-0.09725738497044609
0.1697668192104805	70.48413268553065	135.6920284207616	33.45393491937485	-55.87172757461772	445.4864247838713	-10.39699440993284	173.0680695183607	63.30665958445762	-25.53025420141038	-71.74184575891563	-21.0683713761041	8.666373961046057	-27.33801521235004	41.63817004012641	-48.09215067932595	-45.64589267555636	22.90138660482	-0.0965500998855521	28.71369222670148	-20.62178712769687	-0.06500937577127258	-17.81768187363688	1.535514441002824	-0.5645452455792612	4.058391177501585	-20.87645598079482	-2.773751835148047	8.740399699869299	2.284368117280174	-4.898092492967652	7.596378938050789	0.07524968800821119	-0.3078026165348731	-0.7743050661459787	-1.58737517764891	-0.1180971818790092	0.7142461280891143	-0.4343978602792664	-1.152675051588684	-0.4268238969511492	-0.1039481747091237
0.171555060840006	71.91005645232264	140.503783638536	31.1820303236343	-62.06332799149072	465.793528457053	-21.10291633257226	174.7137812317063	65.41599659644376	-27.04882090583611	-70.74194372613492	-22.98904421698503	8.7945985294512	-27.95670132375568	42.27359494482512	-49.3824635118956	-46.4409383173227	24.35183245502852	-0.09949023346414883	27.79445693666825	-21.08538114966159	-0.06566555938114783	-18.12686321204872	1.640272560161945	-0.5317413321363595	3.678595070321603	-20.92803157924986	-2.821391471618257	8.832277638883273	2.441621587963042	-4.868669709850465	7.546582396033616	0.07685286702106608	-0.3090564719473581	-0.6972304182148783	-1.658240028745987	-0.1088876703540307	0.7108227188093692	-0.4423899827591823	-1.150794955270666	-0.4357039896793993	-0.1140921372399477
0.1739517940114746	72.33413102893309	146.0433764566796	27.54421412837047	-70.72917924116854	495.5296498316599	-35.79571663837845	175.7725907379664	67.92789930924766	-29.07717262883443	-69.27918391315947	-25.16458474533565	8.946012162034719	-28.79892445599141	42.89234444399644	-51.06445335952182	-46.97900915088058	26.29593781698916	-0.1029955625827446	26.59676270898391	-21.54570968164137	-0.06634636986195083	-18.51202707079706	1.78934346099676	-0.4812036239625925	3.156180840549465	-20.99992871601057	-2.885562586992163	8.89099575886798	2.640128915832359	-4.816144352552541	7.474453828116179	0.07900326357305387	-0.3104728652793991	-0.5774842481122453	-1.742518423566359	-0.09543124510176329	0.7047946173927349	-0.4531044185373018	-1.14760314013237	-0.44443470591025	-0.1271547891016682
0.176919195503943	71.70324556213606	151.4277686578719	22.48534255940873	-81.67507046461563	534.4195636240042	-53.71166167803571	176.3010277843914	70.65252147097593	-31.54341110184658	-67.28800810291254	-27.19090029143404	9.086517563125902	-29.866415486139	43.28326208106162	-53.05924685588906	-47.47807266364607	28.6725376982907	-0.1069289527738602	25.1742778035963	-21.84752607343458	-0.06684930376706341	-18.93997246705706	1.986664585338599	-0.4084716772630079	2.491780127954826	-21.0928254126283	-2.965065132207798	8.925318192390183	2.864294092600236	-4.730111410573102	7.377200959720597	0.08165170008798217	-0.3117808223224694	-0.4187018807071393	-1.828160914940197	-0.07705249012152877	0.6950184150065467	-0.4662667638136873	-1.142627628512163	-0.4532645632249784	-0.1423643653639337
0.1804104603334435	69.85156125079592	155.5741780906305	16.00459714810451	-94.44400933088878	582.2377592013223	-73.76526845960231	176.2783564646249	73.30633994247265	-34.33449328129085	-64.71821127992845	-28.59032491587171	9.159819010631763	-31.15845244356528	43.21813290891186	-55.26081649234657	-48.09098768681118	31.38350630298353	-0.1111174125988084	23.59431746739932	-21.80805938609708	-0.06669842764811969	-19.370920971113	2.234504762232684	-0.3094162156292475	1.692608725403976	-21.20567976983081	-3.057692245218631	8.938515567025298	3.094205071911381	-4.599365506411866	7.25281731815512	0.08471530065724109	-0.3126414557894655	-0.2250488191938412	-1.899912252649697	-0.05314489515346333	0.6802438541221597	-0.4813730116251492	-1.135423636683615	-0.4622248983725249	-0.1587187423914677
0.1843705264332789	65.90747169920557	157.2639881021591	8.038950999478324	-109.0218738450728	639.5738953097227	-94.74513976430369	175.1221044944237	75.43414091391648	-37.28055830236464	-61.56199641223321	-28.86693131043375	9.085561896777957	-32.66716470200603	42.48899443459215	-57.53859568752536	-48.71331282048909	34.2785283123623	-0.1150392458423872	21.93253128730654	-21.23929345950259	-0.06581845322635384	-19.76147334520679	2.531782358443618	-0.181367076584813	0.7757586985784437	-21.33488789592929	-3.15999491683752	8.907907349428614	3.30683383954763	-4.413526762245638	7.101234876032164	0.08806350097377658	-0.3126739188731296	0.001226804714818036	-1.94054900344115	-0.02335397726834931	0.6592738410414158	-0.4976206844716538	-1.125706570836235	-0.4701735252551091	-0.175039051466612
0.1887369399808997	59.06415502783552	155.3096010634367	-1.261228641661267	-125.059011315105	706.7894231147129	-115.0545722319858	172.2991746949418	76.51168130287441	-40.1520603064185	-57.87554544616732	-27.58924460426084	8.76534716955674	-34.36921501919808	40.9571682818909	-59.74531938413569	-49.18427708875282	37.14771439093893	-0.1181788711287066	20.26416877211771	-19.98001913595823	-0.06447859488054665	-20.0691225145253	2.872294954976926	-0.02442505674867723	-0.2289186895236303	-21.47329623216557	-3.267127471926341	8.811137338923762	3.478417552711655	-4.165179114694809	6.925574450614262	0.09150683018249406	-0.3114964052206737	0.2541102098046847	-1.933157528337385	0.01221086581537253	0.6311748739115263	-0.5138537885175005	-1.113502677716484	-0.4760327975828106	-0.190081289153577
0.1934408394213607	49.10385670734395	148.8150485609941	-11.39127623422476	-141.5552359840519	783.1893701942756	-132.6656099078441	167.6985530354342	76.0650784079848	-42.66593242825744	-53.77893038247986	-24.48618809312208	8.099111985840953	-36.2140483712321	38.61184405162032	-61.72918142141331	-49.41665647690981	39.72503369470924	-0.1201947111960463	18.65450892537055	-17.93189968178944	-0.06267909898326617	-20.25805523174411	3.242942640646919	0.1572225110028036	-1.276675933155188	-21.60827995418255	-3.37264912961612	8.641584882227212	3.587866177021263	-3.852507678695253	6.733176619805861	0.09479766664650635	-0.3087672697368318	0.5203848856701532	-1.864226521662836	0.0527642925913742	0.5955387151751197	-0.5285087212952901	-1.099270866534092	-0.4792601222713397	-0.2026967870386788
0.1984080411253286	36.26816611846245	137.4033810627372	-21.60472891821957	-157.6018590352183	867.1121613634754	-145.4206475401479	161.4979612285265	73.74081034750583	-44.51156569870039	-49.45034673680793	-19.52722776772981	7.011026790635544	-38.10912407596884	35.59778426053409	-63.35139203252685	-49.43659660461422	41.71442684877186	-0.120807389830701	17.15131393003539	-15.09169645139517	-0.06046285239512131	-20.3049710436729	3.624029476037128	0.3549875421276432	-2.311302317630701	-21.7223448293547	-3.469149632082687	8.40212891027358	3.620480971195372	-3.480733116984575	6.535474425391485	0.09764104975882593	-0.3042475664826509	0.7821747474166723	-1.726924396737676	0.09678676257434797	0.5526495127215406	-0.5397520390213536	-1.083927840694221	-0.4793221186779365	-0.2119958810202699
0.2035602091729806	21.04028809778875	121.3509220237652	-31.08305570324375	-172.7337689530332	956.2084192649547	-151.4791287912171	153.9750932965831	69.36730602195374	-45.39024683144643	-45.09256994954426	-12.95806761947714	5.476978834078933	-39.93439971454718	32.21167982811771	-64.50352080229366	-49.32597219864476	42.82501028512551	-0.1196538566523223	15.77871451959885	-11.56638412854987	-0.05791181976894351	-20.20081205080901	3.991085158056774	0.5568441344981112	-3.269464287135827	-21.7953583336671	-3.548992048314933	8.120643279364561	3.57075743471618	-3.062251677041627	6.347681751692884	0.09972767418782102	-0.2978624811970747	1.014289402652272	-1.523389129029162	0.1421482423537485	0.5035428389878909	-0.5456583965381547	-1.068835444733022	-0.4775584785844495	-0.2174664421886566
0.2088160906968776	4.344620584865282	101.6164480020724	-39.00748050631299	-186.7758814113187	1047.173805116067	-149.4419689135706	145.6492468085949	63.03726221015551	-45.07787752862841	-40.8999748932293	-5.263879059974634	3.542933189759906	-41.5436197740109	28.87440671157302	-65.11649127864716	-49.25185030612629	42.82872679107814	-0.1166202517623047	14.54119424440553	-7.562895623559393	-0.05536261295470318	-19.95218900934057	4.317158685832536	0.7487523914748537	-4.089550665106999	-21.80435666472897	-3.604972522886294	7.824709176954802	3.443405883335864	-2.615650015439144	6.186204426137844	0.1007765161943347	-0.2896985256493148	1.194226018379331	-1.265086867207786	0.1863438180321067	0.4499548805037598	-0.5444318858519085	-1.055523913815198	-0.4744082014787155	-0.2190178959307171
0.2140927972598461	-12.84676230997736	79.68066445947325	-44.79794777498024	-200.0722822258036	1136.526197106783	-138.9062686592637	136.9978733112329	55.09097828950703	-43.47646367844432	-37.02397810162652	2.91271282557563	1.326012235015433	-42.78643347518181	26.03774019388909	-65.1658077670521	-49.34971072147536	41.60822198603413	-0.1115373750743851	13.42898891488701	-3.356492331126549	-0.0526418281061891	-19.57798272890366	4.578577231188752	0.917855498996784	-4.722255371453366	-21.72793194532562	-3.631536679547206	7.552279850646807	3.252715421880433	-2.162386145858277	6.065676469127764	0.1005939567153292	-0.2800058305214324	1.301413970564929	-0.9712078737607682	0.226980918839003	0.3940597335143409	-0.5347506979362135	-1.045387434679621	-0.4712578571116497	-0.2169542313088862
0.2193071120438252	-29.967637223636	57.25735975549572	-48.30459230584562	-213.5075836816228	1221.402674600016	-120.6137410568023	128.1282807750628	46.00930783412287	-40.65731863816272	-33.54957189615532	10.90040895723309	-1.006732713057289	-43.54095385164824	24.10594413712525	-64.66445247157536	-49.51413779634474	39.19429359112363	-0.1042667378996067	12.42609014115461	0.7597801941907052	-0.04980086576333917	-19.10374521684948	4.757673334346239	1.05456694346614	-5.138940536386598	-21.5473860683896	-3.625241623779142	7.319233275913887	3.019369246309683	-1.723030627701529	5.995803285080767	0.09910135097084027	-0.2691370430454554	1.326922026753719	-0.6649420613630499	0.262161587941548	0.3381160006769265	-0.5159608873089598	-1.039329146330827	-0.4685310912214565	-0.2118686469367539
0.2243768022290288	-46.30604118401227	36.03702797129294	-49.63350388865078	-227.133468462462	1299.231781858749	-96.33002999664802	119.2650355243743	36.41562778682848	-36.86532508404625	-30.50088182794864	18.11471298277236	-3.272387583376611	-43.72948076576823	23.35081470718001	-63.65408555344855	-49.44420121483933	35.77265788256664	-0.09509779246473277	11.51773689534321	4.523798152332118	-0.04715113280984349	-18.55737715700608	4.846238547234454	1.15430760959844	-5.336751668016648	-21.2491658623203	-3.585113064175997	7.132565665095651	2.766331684427445	-1.314212265645944	5.978941506185517	0.09636211686681243	-0.2574801409728631	1.272132500622337	-0.3692168448991104	0.2907915367306762	0.2841618314775936	-0.4882229727644131	-1.037501228315079	-0.4663627381217188	-0.204511660844799
0.2292219158668229	-60.54060149099096	17.49381528039232	-48.92374279897528	-240.027636928863	1367.081853248322	-68.21228438010471	111.2082851421631	27.06790482860441	-32.43882526284752	-27.8571712484474	24.13781651576016	-5.308805335791092	-43.3357536950929	23.85324721687278	-62.19916310263976	-49.12273417401259	31.63948063138349	-0.0848454106582759	10.69338638635494	7.741838676577174	-0.04494213013658908	-17.96529050560871	4.847119687281331	1.217985509276913	-5.338636904264384	-20.82926941495062	-3.51300371721402	7.03046321504841	2.515103853852926	-0.9464342832864845	6.009724819008995	0.09257303049852655	-0.245423458499654	1.138998741677437	-0.1029959017379396	0.3126972818189708	0.233758636619686	-0.4525845098939431	-1.039292936954717	-0.4667605862862654	-0.195679255734593
0.2337660428006562	-71.90753758865398	2.575457751277441	-46.57236480028655	-251.6097968689579	1423.318674380671	-38.59885283044589	104.4339472709356	18.57687029898487	-27.76531873111843	-25.57915616985715	28.7647161399204	-7.003796467694892	-42.40740610383432	25.51318517109712	-60.38182049623194	-48.5381634224322	27.16045086943473	-0.07426247129732527	9.94891443252844	10.31027119230318	-0.04331972410376844	-17.35161340387382	4.771562987643352	1.250372289765165	-5.187389222011485	-20.29441271703316	-3.413233488109313	7.023263892880589	2.282694356633078	-0.6242236159569657	6.076444325670806	0.08802030132449751	-0.2333176244588306	0.9419189313060508	0.1212561494094864	0.3284270327412269	0.1879242015202187	-0.4108429607745872	-1.043498858779624	-0.4701560352553759	-0.1861266289661089
0.2379375197689964	-80.58806380754108	-8.423097852669422	-43.23844098925104	-261.8883979182035	1468.198275774716	-9.962215702383599	98.79299967157301	11.27525382607794	-23.22460546469076	-23.62778617730038	31.98451624982194	-8.30604736734751	-41.05157448435925	28.06594852896182	-58.30579317396374	-47.50020851683508	22.70574166890098	-0.06381472297759821	9.284060862567358	12.21245785069183	-0.04231529649627094	-16.73837048696077	4.638576791091567	1.259029792088453	-4.935841115730129	-19.66629772249991	-3.292595066874909	7.079985308557901	2.080227021346674	-0.3474999282190347	6.164339068628543	0.08305392063693702	-0.2215033049583142	0.7073054607860239	0.2981358415706369	0.3390498311745219	0.1472143747890643	-0.3654107031955393	-1.04871493037331	-0.4750811464306803	-0.1765108107766385
0.2416705607382064	-86.72157600038494	-15.66767652159508	-39.45912206741345	-271.1486511542863	1502.088232222809	16.08548943114222	94.30539272093687	5.360584388972797	-19.09346970099854	-21.97273772990492	33.94908566609492	-9.223192917880175	-39.41591524953488	31.15777292890782	-56.09540207060368	-46.24899600637232	18.58146357943554	-0.05392709509623451	8.701489590330139	13.50570107932218	-0.04186630833158519	-16.14751101204052	4.469982192692262	1.251828102004592	-4.637980749634844	-18.98028163375394	-3.159878845488017	7.19509314024329	1.91304136154042	-0.1135804661153191	6.25851521717229	0.0780230158347455	-0.2103189202568307	0.4561439324012692	0.4286096157910008	0.345785954360985	0.1118500955149041	-0.3190685118408799	-1.053669728765134	-0.4816883599752013	-0.1673775911242053
0.2449062947996022	-90.40594578712623	-19.73884692631276	-35.59003365184218	-278.9694995294113	1525.882677781856	38.53648798143145	91.1088211421413	0.8741587199194516	-15.54251684217908	-20.5976976856401	34.91335504441571	-9.806606607151855	-37.66937150480773	34.40646983007439	-53.89362797827311	-45.05503638307301	14.9936293247775	-0.04512985386127642	8.20506085175359	14.29578192635591	-0.04184346327614405	-15.60154551002987	4.288470846879119	1.236002348711422	-4.339501585873954	-18.28297412688274	-3.025124805747754	7.363898073468248	1.781661586773578	0.08050579765537912	6.346899515645043	0.07326050171805021	-0.2001148445016536	0.2062585636063477	0.5182599841445221	0.3497966313849443	0.08192699433803395	-0.2746795304319525	-1.057523410149563	-0.4902034143108465	-0.1591525182951034
0.2475936958314676	-92.17865460941532	-21.48907336376651	-31.98920034928153	-285.0499634063094	1541.509456461455	56.74606605512579	89.03189223463799	-2.329427006983668	-12.67058967576317	-19.49364835242879	35.17971816252136	-10.13273844927762	-35.98570573539413	37.46108372535296	-51.85295061721272	-43.98988374503335	12.06442304326789	-0.03778476135569267	7.798372125525702	14.71198025784095	-0.04208864450903461	-15.12294925658652	4.11472550143417	1.217311161382318	-4.07372803451036	-17.62722234247146	-2.898853223219572	7.552063331375856	1.683442841350551	0.2370178302343687	6.421553530493286	0.06905176414685285	-0.1912518747622793	-0.02094691670359117	0.5752560259842847	0.3520346524354561	0.05750481063695759	-0.2349517909580074	-1.059968217228367	-0.4990528396363252	-0.1521551406001555
0.2496903918242349	-92.92037798661372	-21.7981315816165	-29.03031915349984	-289.9931417425466	1551.095537105164	70.48337004627855	87.6332496432433	-4.490130590873498	-10.50353920689824	-18.65439900963826	35.04836676749173	-10.28467150294624	-34.52672714629207	40.03865016508223	-50.12231853936516	-43.13404295890832	9.841992065889029	-0.03188432027508439	7.48427104367185	14.88430753421526	-0.04244606422572422	-14.73294681924841	3.965857256890605	1.199877649877791	-3.86118042747509	-17.06573551990569	-2.791125328220992	7.732425045243177	1.614223317695858	0.3570895831300973	6.478608219323071	0.065623626868728	-0.1840785128437319	-0.2103664216936116	0.6084308772260332	0.353200699576365	0.03865985067958247	-0.2022393590339716	-1.061155476705244	-0.5076030004604591	-0.1466167206369304
0.2511633577437689	-93.50263281519823	-21.48954186091268	-27.0145070370266	-293.9435046767466	1557.054931785829	79.57325953399368	86.44121769667356	-5.881855769506783	-9.044499663102298	-18.07604211336553	34.77879944206076	-10.33724457670715	-33.42639443343027	41.93681871099166	-48.83204019031613	-42.30260614489074	8.328367193948317	-0.02747524475845292	7.265160619117015	14.92571385361536	-0.04278294811342311	-14.44996484014568	3.854817970959825	1.186389570215017	-3.71170406173666	-16.64467321706305	-2.710563295616602	7.864691464994172	1.569639811371805	0.4407671007418379	6.517235490586166	0.06314562356181472	-0.1788986647307929	-0.3476718188646407	0.6257621191065101	0.3537592681330016	0.02550266908030945	-0.1784002982512364	-1.061511218143696	-0.5144173185664379	-0.1426938979582305
0.2519896973235464	-96.08157459457354	-21.25845637748501	-26.65484918528016	-299.1021765004951	1563.01063651259	83.3277323936336	83.87567462797691	-6.94255130817101	-8.334332428835886	-17.75573296739464	34.56388472075832	-10.34717478008104	-32.78205468190274	43.0292575698286	-48.08088651512804	-40.7363377235563	7.531842425939511	-0.02384222399276542	7.142785599544244	14.92032497648462	-0.04300234731661372	-14.28791242730319	3.790339508315818	1.178438248553701	-3.628465131016158	-16.3987514844713	-2.663592084294667	7.849173062219191	1.546119402249272	0.4875598816917933	6.538159516739263	0.06173206957709787	-0.1759405382906047	-0.4077260049522681	0.6333224707909079	0.3539893564085816	0.01814447739820134	-0.1647283203703258	-1.061511510436378	-0.5152133593021707	-0.1404839477964086
0.2521840562160345	-109.4728238173041	-22.61224435134132	-30.67081516156919	-307.487140138649	1587.989002576967	75.01566769346769	72.82088095535146	-9.346160446987069	-8.82207110379405	-17.68083741987002	34.50671915710092	-10.34747307622691	-32.62768990549354	43.28882995666437	-47.90133989700738	-31.35830865775459	7.486853401031033	-0.01884794750917312	7.114059015341344	14.91608418351113	-0.04305708192831981	-14.24945028346648	3.77495474556103	1.176531540430562	-3.608991460156292	-16.33989253535814	-2.652358252163627	7.141944183844132	1.54074426816131	0.4985554607036154	6.5429899903171	0.06139725974661175	-0.175239243124222	-0.2874604783683981	0.634875149583517	0.3540353992573824	0.01641582140908743	-0.1614822234804838	-1.061489218265513	-0.4870337452217175	-0.1399633238041256
0.2526767650012827	-93.70210936317869	-20.6997690220833	-24.88126825104668	-297.5497518393271	1562.018035286608	88.52870223214157	85.38999534822213	-7.141138362395649	-7.62808484141218	-17.49174066222727	34.3505528226143	-10.34476160403004	-32.23157832621963	43.95106895882891	-47.44126051034429	-41.34541203922669	6.845535199512163	-0.02312995158521627	7.041331738868757	14.90027865796258	-0.04320112791194122	-14.15135353437448	3.735589223634114	1.171639248367843	-3.559844199494011	-16.18894363525589	-2.62356194845961	7.985091816000403	1.527386964501405	0.526417657896615	6.555066798733497	0.06054462656470699	-0.1734519132042536	-0.4832208521953402	0.6384269468192193	0.3541389593389315	0.01203667076732276	-0.1532021510336894	-1.061392950453174	-0.5195445462167011	-0.1386422296471611
0.2538281712824921	-92.03064608620208	-19.66554099357622	-22.70415517703304	-298.7276346041842	1562.481975773223	96.12637947102158	85.98242628335669	-7.746980057047628	-6.530728211491315	-17.05420764419941	33.92301813837656	-10.31911192255022	-31.27924483618404	45.52030639216202	-46.33847308279582	-41.5274066398319	5.744100046812719	-0.02052151802809263	6.871906681568723	14.83521892581732	-0.04356696500179236	-13.91878028050639	3.641624331921884	1.159902951532322	-3.446506081587639	-15.82646276061848	-2.554488025612402	8.115007086124754	1.49768187504895	0.5914999488232769	6.582253534012141	0.05853117939974128	-0.169221448989461	-0.5890660344439378	0.6445832176591312	0.3543116405715014	0.001817437262422186	-0.1335728781219649	-1.06093485682075	-0.5221132236229233	-0.1355486580020324
0.2556164129120176	-90.22228532401243	-17.6306876675477	-19.64148763205811	-301.367565296332	1563.829802490797	106.666653317693	86.10251702007021	-8.666867867197871	-4.947037914776795	-16.3872213016985	33.08719796633464	-10.22620208550999	-29.72666302028472	48.00744920385532	-44.54842703877011	-41.07292938522679	4.112708528185401	-0.01597093323047444	6.610212799819883	14.65699206662375	-0.04421413367874909	-13.54826215757128	3.490548750333214	1.140949443438806	-3.276123643293279	-15.23647250643079	-2.442256237181631	8.294234996970841	1.455754059502513	0.6926955941390391	6.621136506007405	0.05534953683112187	-0.1625003635588733	-0.7517265589866581	0.6482335679007677	0.3544075728827683	-0.01402828539375213	-0.1023410565162716	-1.059521702718233	-0.5264960067593191	-0.1307308973032985
0.2580131460834861	-87.7674684055637	-13.90858719921121	-15.67183748754224	-306.0000902240641	1563.583149309113	119.5629636204026	85.99059851204773	-9.586631967121992	-2.978100025903753	-15.5185172688546	31.64623807792748	-10.00267731576448	-27.5080506242701	51.4043941717153	-42.0007834739921	-40.30413116043783	2.074845445941258	-0.009305563718422616	6.262053057561534	14.27414176541153	-0.04522500420620377	-13.03378572364206	3.279306937778599	1.114501158908229	-3.062920805246905	-14.39453997464356	-2.282407917715674	8.55965561712841	1.407588442722318	0.8291495260717539	6.665490609589921	0.05099145019061133	-0.1532007196211507	-0.9763018783983918	0.6420222731335035	0.3542671339965724	-0.03526177916136226	-0.05916305444228145	-1.056130238688562	-0.5344007687722975	-0.1242616590174998
0.2609805475759545	-84.00952438351831	-7.741828203804398	-10.79697053458994	-312.1543146679718	1559.295616188337	133.5791017035175	85.95801641260709	-10.11837472419233	-0.8241962297231318	-14.4857207837327	29.37251149328793	-9.575564800394181	-24.54961024419439	55.63872367895122	-38.61082436038554	-39.29796157179518	-0.1608864936445115	-0.000669946143324468	5.834576289806744	13.58061989059749	-0.0466863921488667	-12.3684125796832	3.006143545023477	1.080737617780843	-2.832233080766155	-13.27273756652417	-2.069711273847343	8.935309331815054	1.360555828573435	1.00065842947838	6.70524451717118	0.04546685106578396	-0.1412229809608658	-1.261355195162687	0.6172480523138824	0.3537807311678727	-0.06164096651687684	-0.003858836373659441	-1.04923726398854	-0.5471280695934566	-0.1162599947212455
0.264471812405455	-78.48815534090878	1.549321314139229	-5.118104777063292	-319.1201836420775	1548.987221255956	146.8441487248413	86.15698986953282	-9.868034038167119	1.253218616206205	-13.33749920349482	26.04667715487606	-8.875772733841607	-20.78275644573994	60.52705041992685	-34.29305482082214	-37.92468483921535	-2.334084167290152	0.009854213155920249	5.335754206702043	12.47342639636615	-0.04866509743436646	-11.54617758524762	2.672376017094997	1.040478010831156	-2.623461039310376	-11.84572589441616	-1.799065886412835	9.427738654688127	1.322477973402299	1.207976190667046	6.725828743485896	0.03881869835271229	-0.1264865974191975	-1.599675228934313	0.5651931854185652	0.3529269652554262	-0.09294987962732809	0.06333600239632825	-1.03680540879006	-0.5650570692690327	-0.1069020604762043
0.2684318785052903	-70.04613680962822	14.32966532654148	1.483717777065139	-323.4866180448888	1531.59330698954	157.0358057369074	87.36917109602709	-8.380817720118838	2.929310308839902	-12.13565547066886	21.50532624085826	-7.854563979792024	-16.15769339579576	65.73573339768438	-28.98159723126388	-35.87386920773192	-4.137905315406728	0.02128849956212098	4.774045500312134	10.87362485862937	-0.05117953824349586	-10.56535286483566	2.283927910124412	0.9950578041553145	-2.490707272406154	-10.09890378239097	-1.466717353140089	10.03941704755692	1.30037280471475	1.45245613968095	6.708296882477608	0.03113687718651059	-0.1089752902516947	-1.979414547693	0.4787566036614783	0.3517538564715902	-0.1289736075136052	0.1414962836090149	-1.016380772772834	-0.5883016760190147	-0.09642829499036545
0.2727982920529112	-57.94236450988047	30.56204065909592	9.021923714749027	-323.0117356406311	1506.614901087669	161.9213982862981	90.16980565352725	-5.28887557869048	3.918735639627524	-10.947975485815	15.68907214709098	-6.500129720678704	-10.66631960700791	70.75777769458394	-22.65721482669156	-33.1744075641185	-5.281682292257953	0.03304095977133203	4.157284887984367	8.747793763323383	-0.05417528565006036	-9.431232781247719	1.85237319619658	0.9460476545794589	-2.499329545468895	-8.039551729870395	-1.072072975416036	10.79360875461246	1.299144399901808	1.73559074220299	6.63098194526253	0.02255699025322366	-0.08882000885808328	-2.392594836851674	0.3541275116750137	0.3503272828333716	-0.1694746420613988	0.2287188492725872	-0.9853898204525797	-0.6188520491896707	-0.08514457791231021
0.2775021914933722	-42.24178462314326	49.66726160986666	17.27765201110843	-316.6986824289871	1474.941701493952	159.3650272643655	94.61685201098062	-0.4370023959504366	3.947287965677177	-9.843937868955328	8.686514815267657	-4.849950111410773	-4.350218697968706	74.94071390122224	-15.37563841302275	-29.83500427332701	-5.490261091940044	0.04467734086366865	3.493694901156637	6.125741328893666	-0.05750929388346337	-8.161079846118145	1.394408657222794	0.8944696403196359	-2.717983094019933	-5.706131159322248	-0.6195475521430722	11.66906192653603	1.32042914589861	2.057129057659786	6.472301433800059	0.01325872802568967	-0.06637560856320235	-2.816835812573424	0.1921833116054482	0.3485899031892581	-0.2140405209611456	0.3219434910908603	-0.9415766215697572	-0.656239045527811	-0.07341947041919464
0.2824693931973402	-23.35303105898836	70.45226668567639	26.03336483396104	-304.0235116712807	1438.80203873789	147.8376222310454	100.6691478051039	6.124945687552685	2.852939913537067	-8.883225606583835	0.7575192047635946	-2.993634268941479	2.690751772534142	77.56502670683538	-7.289545626667713	-25.91455692271854	-4.608181281975497	0.05575106679982303	2.793075158945697	3.108635491327395	-0.06094971610890353	-6.787088447338186	0.929981451516793	0.840144479801735	-3.206011673314437	-3.173745163962369	-0.1201502643156223	12.63201743133733	1.361985081157636	2.413070626154075	6.214713792172596	0.003456837582077654	-0.04228279384037936	-3.229353855147296	-0.0008420309528471108	0.3462345818156405	-0.2619199592011165	0.4169628384559953	-0.88353636636718	-0.6991210002819361	-0.06167107776691175
0.2876215612449921	-1.991175165235969	91.21209241810666	35.09355830538532	-285.1210064035719	1401.250723291648	126.8546718264868	108.2017658503547	14.1157676239983	0.6366091855996494	-8.09383558036655	-7.678080722125433	-1.062955035482959	10.28440545938281	77.95988343239927	1.344707918725039	-21.58872967588028	-2.642814901762294	0.06571998698580622	2.067089021961504	-0.1367876460226844	-0.06419781010352317	-5.354492545275082	0.4797834753644716	0.7817130155945867	-3.998687857953743	-0.5536912880915138	0.407510164735003	13.65172008499354	1.417931937846429	2.794881276542593	5.849096694155729	-0.006618198566543332	-0.01749859080802185	-3.613411460210908	-0.2137474989305098	0.34269853962758	-0.3119698069337208	0.5086572076425381	-0.8112289689355594	-0.746671730376659	-0.0503410188179137
0.2928774427688891	20.15501158900515	110.0119758207262	44.041456111004	-262.4976906604767	1365.980992212484	97.01041758254109	116.3840827263889	22.93057816056902	-2.516855960957855	-7.473268883563076	-16.08225147748892	0.7894376342267126	18.21097344250235	75.66685904324733	10.18206573430343	-16.84275956675691	0.2144800021043764	0.07445190762982382	1.333968856407042	-3.397808859493435	-0.06693511869061683	-3.921433376330129	0.06187262930786655	0.7167677511238492	-5.096478679418492	2.015913686255389	0.9372608184226614	14.66546877912567	1.479792677946987	3.188324733805554	5.378177125719542	-0.01671963740783533	0.006748512804781281	-3.953180408484816	-0.4317487446362263	0.3372118201857039	-0.3625497146644767	0.5914512504929882	-0.726360938399414	-0.7960697196650898	-0.03986266873235791
0.2981541493318576	40.59780413747392	125.0098481011185	52.25839589389159	-240.4678586877334	1335.881909412655	60.02756738504507	123.6673843877239	31.67385187556828	-6.238979776901658	-6.962670966063051	-23.88766830681677	2.421042553469305	26.21290755732749	70.51991065720077	18.84104541376522	-11.42011186655804	3.607099942952816	0.08196558569423665	0.6150446477792878	-6.450771651100677	-0.06887126649027776	-2.545836441867505	-0.3113114353678201	0.6428588869481716	-6.460495733097063	4.396768066033236	1.439676250548086	15.58313859490545	1.538282686437902	3.576428841676318	4.814974499728417	-0.02662063279307092	0.02919560420753653	-4.234890247662652	-0.6390673377696235	0.3290067697024193	-0.4118301315866067	0.6602750855892363	-0.6318731803005508	-0.8431172708574798	-0.03061769447612214
0.3033684641158367	56.85263965527967	134.7744141935353	59.14539971554854	-223.7796923798837	1313.283615555906	18.80816535112035	128.4878966011791	39.33474148964171	-9.999781857034424	-6.500200105265002	-30.57389665758813	3.722097985048518	34.00927968443175	62.79349737116352	26.93281601695074	-4.944311842929094	7.046823609212721	0.08873029981379665	-0.06021407285654357	-9.092019387648234	-0.06982084010827205	-1.286568460179289	-0.633081472050104	0.5587513112876681	-8.013026751346867	6.452139416175044	1.88127153245093	16.33389501148065	1.584853098455179	3.939782565178529	4.188722491542444	-0.0360727406690059	0.04849197430295304	-4.459161368861042	-0.8209030422326953	0.3176156522400187	-0.4577590185197936	0.7108435399620442	-0.5327803333491216	-0.8847850747297414	-0.02287755994196779
0.3084381543010403	67.61316507092529	138.1243647537398	64.45937322198476	-214.7358526410175	1297.82748009894	-22.77325853649765	129.9547053330144	44.8830751589077	-13.09438295062963	-5.945348884532434	-35.78282587368297	4.642519700171784	41.37660212255474	52.95779137284838	34.18467797867295	2.730011887082425	9.90763319589762	0.09481196583061891	-0.6705103337437528	-11.17983765936465	-0.06968399025675431	-0.1737076752088048	-0.9076802058151944	0.4636764535159949	-9.661669400901859	8.122332675319631	2.242928509356078	16.86942923835053	1.613595263702999	4.265146697781208	3.521999675328687	-0.04495809031302045	0.06407490491140944	-4.641932814275544	-0.9669963605039886	0.3028062554362154	-0.4990507545882852	0.7417034287584261	-0.4323567608412391	-0.9179014325841773	-0.01680316348806753
0.3132832679388344	73.09766518095154	134.8242172656034	68.22869010380636	-213.9563126022919	1290.965810568279	-60.54277656358192	128.7599314046438	47.67549354158154	-14.96130179727147	-5.324570963989852	-39.3364130006348	5.179333219429582	48.05623679011167	42.02591170039829	40.32569374114699	11.11266930183726	11.69365880546488	0.09908801222288005	-1.182188964631995	-12.64200117719889	-0.06860535687231747	0.746633629302229	-1.132079409391008	0.3623152595985525	-11.28754312423365	9.309286260614783	2.493057971972123	17.22788782831707	1.621864722336625	4.535701999613808	2.870370182808546	-0.05293215005417656	0.07478683959060206	-4.813561576075776	-1.070926445873886	0.2854066050173209	-0.5338246683489485	0.7514708848987478	-0.338692362796487	-0.9433623547278503	-0.01234991934471733
0.3178273948726678	75.15519195332654	124.2276642923321	70.90531946254276	-217.2124082140397	1287.003372695462	-90.77940820749726	125.926041926345	47.04142221239537	-14.95469727155798	-4.354332917788362	-41.28522657606107	5.392953019419489	54.01385197877332	30.37432350835483	45.42744754876114	19.5001073661512	11.78744476611242	0.102296695046763	-1.608160348059241	-13.48839395355449	-0.06659604007195222	1.523507314040733	-1.333381485678075	0.2527843186950138	-12.83177185917927	10.15791031877205	2.662116627880444	17.46652774058049	1.609669844568637	4.760628260942917	2.218377233835518	-0.06030606257287435	0.08229283018297909	-5.024760243366025	-1.133894985923164	0.265424245869912	-0.5634137807404185	0.7455562952849397	-0.2479193308606092	-0.9622787758957818	-0.009449358865946354
0.3219988718410079	73.69390770758382	108.9517536136848	71.94445230299843	-227.8947779656907	1290.120995217673	-112.0563083278784	122.1827836663485	43.37846911005894	-13.44638924735383	-3.451785887019308	-41.84459875097291	5.347221506309768	59.00368552421013	19.62542864664475	49.2725976652828	27.07123508414404	10.47915529501044	0.1030483902417494	-1.904869386734344	-13.80183295885174	-0.06428210818755013	2.078311263811981	-1.485767096539591	0.1496898393219426	-14.16394654669817	10.50447582487544	2.700153208761657	17.63560707653515	1.581864894979053	4.917599485308878	1.671194135780586	-0.06626763974423777	0.08447219333045017	-5.263200987498893	-1.15884084094345	0.2455251783606305	-0.584886562229638	0.72258121876676	-0.1755615641515635	-0.9770246643842001	-0.007726943195377492
0.3257319128102178	70.7268152333875	89.79432522826927	71.78810956014826	-240.3510890778052	1290.4248676923	-124.0600847189728	117.912592362495	36.90030196073061	-10.48622771123741	-2.285686526704309	-41.37808902807264	5.147558021025244	63.17300619846525	9.627218022860481	52.20486783256497	33.29795620574792	7.724066013483365	0.1020169882809774	-2.12191591133605	-13.70899574753244	-0.06183767364593297	2.516018586375845	-1.625195712605583	0.04904525828635015	-15.30503082328917	10.64056979907167	2.683266527359462	17.75781410546091	1.54295300492384	5.034619175539905	1.171019477590157	-0.0714764059782399	0.08474721180980216	-5.544134107089597	-1.156163021768314	0.225582320975501	-0.6017142171774389	0.6926947273406345	-0.1107397073904164	-0.9871352311037676	-0.007009921065411401
0.3289676468716137	67.99313016786385	67.54297573342049	70.93016657558375	-248.2981331508504	1279.179841896361	-128.0288267999005	113.2487777553025	28.20669290553468	-6.390388463833041	-0.4861594701965846	-40.10003373377214	4.859483356344918	66.67752534599161	-0.1069035499903848	54.56024510978815	38.09720337085866	3.732241405337861	0.1004450736282292	-2.305556910060464	-13.26986353754774	-0.05898377317876383	2.950339544857862	-1.790218644998957	-0.05598491380797654	-16.30469817890995	10.83178129641688	2.685589072559845	17.84631291012926	1.492207283980887	5.146165169841809	0.64916167848222	-0.07679707646358686	0.08614167126243572	-5.868430947691007	-1.131167671380126	0.2050365269339731	-0.6181078719960184	0.6640010322518893	-0.04175094455068121	-0.993157465144232	-0.007023066538986433
0.3316550479034791	62.64349837870831	49.30976104484395	68.37203124839381	-265.1335657720846	1279.162757132778	-127.6441723044568	108.5998096251001	19.82477103402262	-2.884227882967902	0.4296650337442758	-38.64173127740873	4.551227624236952	69.14873946040824	-6.570413488602908	55.83983356094683	41.56650647321334	0.1765144610848741	0.0963598201352002	-2.360021074093216	-12.77012532099097	-0.05702767070761797	3.117181287151802	-1.870722263414308	-0.1277469898010481	-16.95692793587773	10.53419703359961	2.552890018295093	17.86397802869741	1.448940238913148	5.180079422182861	0.3641764143217148	-0.07966186294376115	0.08190691281327345	-6.114611472682824	-1.097871497299814	0.1899680730460433	-0.6245125502606763	0.6272838136230293	-0.008526802395781879	-0.9938586882046268	-0.007249615324407079
0.3337517438962464	55.72607867692444	36.86967203145858	64.89474311438465	-288.777943358723	1290.980202458363	-125.4542365168546	104.5796593618129	12.91792051145965	-0.3678061818696357	0.3564859071607813	-37.50392719229503	4.298712851604122	70.72790158394758	-9.756068469318436	56.30457648051015	43.94360564676189	-2.489638023673149	0.09181026955755081	-2.322691438787471	-12.41076528785653	-0.05614935025200422	3.052176048860542	-1.866508708785803	-0.1632449441954444	-17.29441402584256	9.888243814140413	2.325856251792324	17.83701503040768	1.422961317903546	5.147276774681483	0.304667763359258	-0.08014782757810965	0.07368603897088333	-6.271922591976034	-1.070972722462859	0.181124182158858	-0.6220820402688946	0.5890912082907492	-0.008049866236999631	-0.9910228806082662	-0.007542593380501773
0.3352247098157805	49.94594486795013	28.58655546515462	61.90067289637369	-308.736812388905	1302.773300407839	-122.8886179667518	101.5771233622142	7.744288264260924	1.395844836304786	0.05620556263809373	-36.7365899499374	4.12451673919394	71.72873262065633	-11.36945619021772	56.4740213154159	45.50571621418325	-4.424596903742365	0.08792577000646429	-2.273987998434274	-12.18221935281899	-0.05576089787820423	2.945372425397571	-1.842277746255196	-0.1814191075842275	-17.47018317623384	9.310988767699715	2.127558845928798	17.76963705347616	1.408297474257293	5.105014826450655	0.3163922556222787	-0.0799255190871894	0.06643944409917368	-6.366297342932423	-1.052871935730572	0.1758697491889521	-0.6179700605960119	0.5597101576486705	-0.01585054758261467	-0.984340287688356	-0.007811593340436233
0.3360510493955579	46.15803567965487	24.51356957841379	59.99576713490814	-321.3615996858478	1306.448381653768	-121.0205374465824	99.28558458710806	4.860348673403533	2.329931008787931	-0.1547195802739676	-36.31512210585351	4.028705514214262	72.26871872378608	-12.14891048728275	56.54178350784919	45.92916036909624	-5.470523668597519	0.08664667624342898	-2.242959655300716	-12.05992017900716	-0.0555902893636146	2.874431152862853	-1.824919078117398	-0.1903540389216284	-17.55445573007827	8.96528285240128	2.008711713777718	17.67923355152241	1.400904563570386	5.077682880987306	0.3336264271614415	-0.07969902946335769	0.06210864373224978	-6.39636061814962	-1.042976989088912	0.1730985417784805	-0.6152117778358004	0.5428295463971535	-0.02178967401489054	-0.9752890643407863	-0.007980758938754759
0.3362454082880461	45.18710853527735	23.58381615948733	59.52207598253174	-324.4599363677567	1307.138964122604	-120.5582725584974	98.66583370636398	4.170595393566881	2.549585376612683	-0.2049507766368732	-36.21614689841862	4.0063436173787	72.39469196542034	-12.32700830538478	56.55690021892535	46.03422609896031	-5.717836782778543	0.08638990558553589	-2.235565843229595	-12.03130847087736	-0.05555211971956105	2.857432701994571	-1.820753014064858	-0.1924202417894835	-17.57337784827828	8.883297328492208	1.980424169396905	17.65136475191302	1.399200698766361	5.071133556218404	0.3381244103843339	-0.07964322472494272	0.06108099242253529	-6.401503714207703	-1.040655318649536	0.1724512616928795	-0.6145483023800193	0.5388504522301107	-0.02324597758513094	-0.9726139439210471	-0.008021872808075446
