DataType=double
version=3
OpenSimVersion=4.5
endheader
time	hip_flexion_r	knee_angle_r	ankle_angle_r
0	6.983772664023043	188.6695696980336	50.35709488160389
0.0004542507337261803	6.381871139425883	185.998328900676	50.10269385972301
0.001515784775164009	6.34336027240461	185.9907072619255	50.23928820139552
0.003164446411839883	5.832371376941616	185.1688350498496	51.01645949046718
0.005374104194047435	4.672019935476975	183.5006258219174	52.74953887883241
0.008109887166813518	2.881458052760955	181.0703239634365	58.79469589742253
0.01132864367758793	0.5900384170471185	177.112535494054	65.42579038521656
0.01497960949210789	-2.045621129888033	171.112675257469	70.53610438702847
0.01900520557876997	-5.097628484652759	163.2137156097891	75.65740967629399
0.02334194532480019	-8.488391959183552	152.8865578757066	79.37783982305152
0.02792143545395889	-12.09475699376211	140.0653192019249	81.81271510462349
0.0326714545037473	-15.69878499142033	125.3946766639378	82.55185456471902
0.03751709174442691	-19.62822262179802	107.7993166190296	81.24897896917092
0.04238192853981579	-23.1757899943816	89.39277448976107	78.71152247337128
0.04718924350439309	-26.23661035727288	70.82169484721996	74.09809104085272
0.0518632224455918	-28.63119543551674	52.98031117394079	67.70704657952555
0.05633015401013977	-30.28709515891995	36.60705961526403	61.17480481445502
0.06051959218465776	-31.23632224644446	22.01242486613466	54.13039822478373
0.06436546733510043	-31.56028174417581	9.42553159621103	47.80610663139812
0.06780712831226307	-31.16711069070499	-0.6219742149094856	42.37508349046317
0.07079029933648544	-30.11925315444282	-8.035513429071184	38.18505444310681
0.07326793709552543	-29.22748898847729	-14.33014978576708	34.81670156632457
0.07520097689840965	-28.55009711591192	-19.41096983731325	32.3187476423611
0.0765589714577417	-28.00478553265056	-22.82931047151213	30.64687026582305
0.07732081165962061	-27.2156063862498	-23.32098645997801	29.82549595611778
0.0775	-26.37533481948702	-21.45093567388592	29.72348917958804
0.07795425073372618	-27.33787242159615	-26.14350760696511	28.71063805013538
0.07901578477516402	-27.19679871916837	-29.78742581069065	26.87662505769729
0.08066444641183987	-26.57863611854771	-34.38921135851946	24.3701050814955
0.08287410419404742	-25.25642011888485	-39.4884523134596	21.34182236996106
0.08560988716681352	-22.93467661898734	-44.13674254142146	17.53425964733634
0.08882864367758794	-19.47246122500763	-47.44845400363675	13.32326845355728
0.09247960949210787	-15.05032124055851	-50.53133752978091	8.596272137128341
0.09650520557876997	-9.380449857966923	-51.60657737054291	3.992182747715001
0.1008419453248002	-2.608219909218228	-52.28040475914189	-0.839414110167521
0.1054214354539589	5.312685425859257	-51.97271221082849	-5.190901481765675
0.1101714545037473	14.53398534166972	-49.15400446893568	-7.979294692434415
0.1150170917444269	24.73866253464173	-43.95221181002731	-9.103304559449583
0.1198819285398158	35.50307909439977	-37.45777931980632	-9.054236320732201
0.1246892435043931	46.50844315754035	-29.98097067839677	-8.131598084893451
0.1293632224455918	57.35447712032773	-22.15477176799579	-6.769823217076983
0.1338301540101398	67.58446773469817	-14.83262468961007	-5.018833501039154
0.1380195921846578	76.84587768235633	-8.453265803949726	-3.071135922409724
0.1418654673351004	84.90861719725231	-3.273036891208122	-1.172131648334819
0.1453071283122631	91.65705620512534	0.6122098488986154	0.4594693505963434
0.1482902993364854	97.09002513796189	3.299069272967028	1.656906815131709
0.1507679370955254	101.2652911118143	4.978206115645669	2.426220179859484
0.1527009768984096	104.3057487777555	5.92975924275202	2.692397381850013
0.1540589714577417	106.3310462482832	6.423461894825046	2.559424313314917
0.1548208116596206	107.4780029020376	6.817147634439799	2.032456339714932
0.155	107.7041459964503	7.697503904940369	1.597128552994256
0.1554542507337262	108.2982426961921	6.788395545772033	2.847442428134945
0.156515784775164	109.6383160286329	6.836840616057884	4.367426736050801
0.1581644464118399	111.6402410536723	6.810264120417671	6.060187413040174
0.1603741041940474	114.0609354812779	6.371519658472117	7.938877988645413
0.1631098871668135	116.6133157471488	5.144761234498603	9.828628426391781
0.1663286436775879	118.9514962757703	2.709923471039129	11.63651900641083
0.1699796094921079	120.6827076405242	-1.408736648848119	13.1281865957822
0.17400520557877	121.4250048193962	-7.594782038540863	14.26795308410917
0.1783419453248002	120.8969488475198	-15.96179680792789	14.9048151370482
0.1829214354539589	118.8801657454741	-26.51967487163463	14.55603675807594
0.1876714545037473	115.1890180386841	-39.1656662990661	13.9895402768896
0.1925170917444269	109.7892234989324	-53.75396229566798	12.80719575440002
0.1973819285398158	102.7980341589841	-69.99973883787071	11.18890906587008
0.2021892435043931	94.4367564751216	-87.5548112464727	9.186627640530208
0.2068632224455918	85.12656297005273	-105.6989537651974	6.580959541764699
0.2113301540101398	75.42908410644725	-123.3501199752783	3.803807367379878
0.2155195921846577	65.92890906778719	-139.5011316756012	0.7621727559242846
0.2193654673351004	57.0861266102586	-153.5271848027318	-2.448158270560164
0.2228071283122631	49.15472707866554	-165.385933794668	-5.409712604776832
0.2257902993364854	42.30191382527138	-175.2424507715928	-8.384252384246178
0.2282679370955254	36.63686028092414	-183.176222343911	-10.9447566867455
0.2302009768984097	32.25865894332082	-189.1930196221068	-12.84476268938377
0.2315589714577417	29.25986376800723	-193.2379234427995	-13.94196957714416
0.2323208116596206	27.66056833245565	-195.2397773868148	-14.20883815152718
0.2325	28.46643044018226	-193.0093095973865	-14.00677480576018
0.2329542507337262	26.25505940576988	-197.255348427029	-15.49429916204078
0.234015784775164	23.96404682240015	-200.3698347104585	-17.76586487083954
0.2356644464118399	20.45515004272986	-205.0550721612317	-20.7422997484483
0.2378741041940474	15.69642705030495	-211.2726034927107	-24.2787568598828
0.2406098871668135	9.672036218014767	-218.881881791063	-28.02413108429575
0.2438286436775879	2.725629584057778	-227.0568067781575	-31.97527091277067
0.2474796094921079	-4.298584059700488	-233.9111906475475	-36.41113620933952
0.25150520557877	-11.24130011609446	-238.8891762404127	-40.95064517617971
0.2558419453248002	-17.59674950981218	-241.2317316487298	-44.86381109342839
0.2604214354539589	-23.00736394850351	-240.5418472219672	-48.17077244317851
0.2651714545037473	-27.22767499446979	-236.5414236916135	-50.17701985829034
0.2700170917444269	-30.15750570258184	-229.2785704616202	-51.00756959594214
0.2748819285398158	-31.81086152262789	-218.8355123705254	-50.90403790222874
0.2796892435043931	-32.14588437811489	-205.4076970766381	-49.56714789829751
0.2843632224455918	-31.20988667724814	-188.6964767437526	-47.46465928722716
0.2888301540101398	-28.9550871708977	-170.1483717554296	-44.90360651735532
0.2930195921846577	-25.80147369611635	-149.4637530295172	-41.7837353564768
0.2968654673351004	-22.15166337089197	-129.6644414053829	-38.45504859512455
0.3003071283122631	-18.58460023037256	-110.967126475499	-35.07264818692745
0.3032902993364854	-15.14276826953671	-92.25453514793097	-30.35984161637293
0.3057679370955254	-12.72914571355052	-79.42856941755181	-28.17652467083671
0.3077009768984096	-11.64139433182802	-73.72189674003693	-27.3985916269129
0.3090589714577417	-11.25307240200343	-71.94629107005159	-27.07602428409211
0.3098208116596206	-11.1035985228748	-70.19896035595809	-26.9808978416437
0.31	-11.07556647231333	-69.72150719140248	-26.96781412352487
