DataType=double
version=3
OpenSimVersion=4.5
endheader
time	hip_flexion_r	knee_angle_r	ankle_angle_r	hip_flexion_r_u	knee_angle_r_u	ankle_angle_r_u
0	0.4463481471699127	0.3518502204352238	0.05028168247800019	-2.177630077750582	1.059503612530281	-5.554749352725963
0.0004542507337261803	0.4453596491190768	0.352350838718446	0.04776361940766582	-2.174627673646776	1.14445400140515	-5.531936130518653
0.001515784775164009	0.4430547727762642	0.3536703883465192	0.04191948753372055	-2.167909531519117	1.341690423869828	-5.478765835174891
0.003164446411839883	0.4394891080035072	0.3561350313989746	0.03295552236405946	-2.157762752999694	1.647944275044293	-5.395250139728809
0.005374104194047435	0.4347345091233991	0.3602269820978528	0.02115931855794981	-2.146134700626048	2.055133778074111	-5.281087642474485
0.008109887166813518	0.4288785483853826	0.3665334422764446	0.006915404647507672	-2.135697768532888	2.554120786500296	-5.129143643953928
0.01132864367758793	0.4220151816896059	0.3756860575504998	-0.009276683403793257	-2.13013996610503	3.130797018551952	-4.928376285392861
0.01497960949210789	0.4142363145527234	0.3882845714500401	-0.02682217718861034	-2.132727868141914	3.767026364615912	-4.679972066871264
0.01900520557876997	0.4056260000740434	0.4048148276253459	-0.04507579793820665	-2.14710482173128	4.440239806953384	-4.385345317364106
0.02334194532480019	0.3962561788681652	0.4255754458737064	-0.06336929327250883	-2.176481715922072	5.126611537073551	-4.048500590478481
0.02792143545395889	0.386187172579199	0.4506118705497758	-0.08106738415707224	-2.223711811011085	5.797718118130419	-3.678920025121851
0.0326714545037473	0.3754746549781401	0.4796782864246687	-0.09761452273780669	-2.289645559667297	6.429164473174009	-3.287677498515829
0.03751709174442691	0.3641802318751626	0.5122369807275735	-0.1125797367783697	-2.375230890547051	6.994911906875895	-2.890173462829841
0.04238192853981579	0.3523782611655969	0.5474691841796707	-0.1256873276462431	-2.479591224429405	7.474628432493681	-2.500571524696213
0.04718924350439309	0.3401781351095238	0.5843639592895349	-0.1368139208526487	-2.598516203487215	7.859884690011947	-2.132149835890455
0.0518632224455918	0.3277367443748698	0.621808812570406	-0.1459927017867587	-2.727032566050672	8.14892688969443	-1.800468239117933
0.05633015401013977	0.3152636632051628	0.65868317314765	-0.1533809308138957	-2.858831571289821	8.348780579291503	-1.51234007577099
0.06051959218465776	0.3030177013090537	0.6939376948547246	-0.1592000464059328	-2.987943103596576	8.471249363128658	-1.270594037613903
0.06436546733510043	0.2912943408090647	0.7266483921911899	-0.1637021857019799	-3.108856257072673	8.531437891621724	-1.074737837294692
0.06780712831226307	0.2804081013753092	0.7560457737370924	-0.1671287446526178	-3.217077594121024	8.546078083854118	-0.9196086226493074
0.07079029933648544	0.2706737312008774	0.7815262262011646	-0.169690006463921	-3.308583026455105	8.533010091180326	-0.7996111023132684
0.07326793709552543	0.262384757372927	0.8026368990270372	-0.1715573366124445	-3.382079310146951	8.505402134689701	-0.709126478310329
0.07520097689840965	0.2557928765305479	0.8190482978612539	-0.1728646831363493	-3.437924618947681	8.472796741409667	-0.6443137857570629
0.0765589714577417	0.2510980174071878	0.8305352700674968	-0.1737103545896485	-3.476356320192198	8.444033610343084	-0.6015325717685753
0.07732081165962061	0.2484415191565051	0.8369615733987026	-0.174159824592065	-3.497445000221775	8.426287730157908	-0.578536243707775
0.0775	0.2478143826259097	0.8384710805746438	-0.1742630133236033	-3.502290989671283	8.42214278299075	-0.5731956720337816
0.07795425073372618	0.2462206967040559	0.8422944269821178	-0.1745203602784286	-3.514543061457691	8.411168690979427	-0.5599364793998145
0.07901578477516402	0.2424744561104425	0.8512075937934391	-0.1750989290043892	-3.543590917928754	8.381182892413552	-0.5304555004960863
0.08066444641183987	0.2365955948308149	0.8649827669098955	-0.1759381350888775	-3.587912204717446	8.328314834924901	-0.4882686421644209
0.08287410419404742	0.2286035784935697	0.8832971051409229	-0.1769599985484649	-3.645321768696674	8.246396996285689	-0.4377601551816652
0.08560988716681352	0.2185389592936811	0.905703233265355	-0.1780825588687279	-3.711370394053773	8.131577078822435	-0.3846186605407222
0.08882864367758794	0.2064798641769558	0.9316419403561945	-0.1792370218008813	-3.779793376048498	7.983840897357828	-0.3349824847957854
0.09247960949210787	0.1925597393272355	0.9604669326067277	-0.1803819097278476	-3.842955052012837	7.804651187615757	-0.2950593218877033
0.09650520557876997	0.1769823273497962	0.9914714973537126	-0.1815128304554652	-3.892433021406191	7.598314755522924	-0.2698984935309756
0.1008419453248002	0.1600344812252542	1.023936323577674	-0.1826609372394073	-3.918596155666797	7.37325381520616	-0.2630657650397712
0.1054214354539589	0.1420887745149934	1.057152949803119	-0.1838908695754292	-3.91280407905095	7.133574315121658	-0.2774349232077555
0.1101714545037473	0.1235966303162896	1.090459545056908	-0.1852794747371494	-3.866007643053165	6.892521629562935	-0.3094237442889112
0.1150170917444269	0.1050732645268951	1.123299533063514	-0.1868783601464676	-3.771145426660292	6.666061244593569	-0.3514240989699058
0.1198819285398158	0.08706205077617543	1.155233503760988	-0.1886964882909293	-3.624756734209884	6.46778912743979	-0.3959676296493093
0.1246892435043931	0.07008903217876156	1.185921071236924	-0.1907017866846615	-3.427775496102726	6.305131387070867	-0.4375806967337299
0.1293632224455918	0.05461518762854517	1.215092083218452	-0.1928312217274369	-3.185019658612103	6.183394266816313	-0.4725207617752729
0.1338301540101398	0.0409943628828226	1.242516462903071	-0.1950040692446507	-2.905902709654089	6.100782285405005	-0.4990620894802151
0.1380195921846578	0.02944074812255226	1.267964250313438	-0.1971333280571219	-2.603191790281412	6.052352770630161	-0.516033434200061
0.1418654673351004	0.02001769333306747	1.29119161745358	-0.1991359983057222	-2.292012832814764	6.029932628592155	-0.524245682979708
0.1453071283122631	0.01264577365283859	1.31193319318467	-0.2009439093397493	-1.988013647736814	6.02568969959073	-0.5253824838195742
0.1482902993364854	0.007131269181267885	1.329915926033969	-0.2025072935168203	-1.706396838011561	6.031593783597307	-0.5221989553428599
0.1507679370955254	0.00320576232097719	1.344871878043121	-0.203795187927436	-1.46058764335639	6.042043940203811	-0.5170497088706454
0.1527009768984096	0.0005735384427378865	1.356561473328306	-0.2047898774316394	-1.26188360602019	6.052561733158784	-0.5120621208887837
0.1540589714577417	-0.001043316735544086	1.364786306165293	-0.2054828110942608	-1.118841122817746	6.061020626125575	-0.508426446284258
0.1548208116596206	-0.001864702829698084	1.369405849039985	-0.2058694162051963	-1.037410617101475	6.065998774449689	-0.5066479367265524
0.155	-0.002048878938470167	1.370492862830318	-0.2059601826661224	-1.018122620584188	6.067252493971916	-0.506300285462141
0.1554542507337262	-0.002500229145393384	1.373249667275336	-0.2061899549299197	-0.9690619789112023	6.070493222848777	-0.5052638895604935
0.156515784775164	-0.003467650079775342	1.379697490026961	-0.2067243762664511	-0.8533855565707791	6.077644603491699	-0.5013520006346517
0.1581644464118399	-0.004724669148248983	1.389726823730512	-0.2075441971530546	-0.6709604786451393	6.088986382330024	-0.4927203848560562
0.1603741041940474	-0.005932679951694053	1.403197714620181	-0.2086165410831496	-0.4215395505509396	6.103587548064967	-0.4771771007356738
0.1631098871668135	-0.006655737050870691	1.419918411913663	-0.2098897956491145	-0.1058891367992132	6.119560926541006	-0.4527881496591415
0.1663286436775879	-0.006388130794724778	1.43963864980652	-0.2112930136206497	0.2734234705196468	6.132452618950369	-0.4181308498960581
0.1699796094921079	-0.004592685650839035	1.462037805785669	-0.2127383547625805	0.7111752619410148	6.135313513518847	-0.3727337605051204
0.17400520557877	-0.0007490958316800911	1.486709033732803	-0.214129191897986	1.198898129677408	6.117703117594239	-0.3174868556593426
0.1783419453248002	0.005591452836528843	1.513143631106346	-0.215369083409839	1.724827699290209	6.067258745711387	-0.2538655371250433
0.1829214354539589	0.01475226015608544	1.540725736083486	-0.2163760364302934	2.274431862227601	5.970596641452923	-0.186171564227565
0.1876714545037473	0.026884630583836	1.568741062521191	-0.2170981236547695	2.830990824793855	5.815284051188252	-0.1183160289757206
0.1925170917444269	0.04193535664551307	1.596404512315697	-0.2175110434585841	3.37672044518708	5.590797088637995	-0.05305738038956198
0.1973819285398158	0.05963566133655795	1.622904224606597	-0.2176238370394845	3.894443393158085	5.290434798169885	0.005355502399705614
0.2021892435043931	0.07951444143898112	1.647461889934775	-0.2174758436449262	4.36907674776786	4.912269322933015	0.05463701344917959
0.2068632224455918	0.1009339898413351	1.669399998325322	-0.2171291589617981	4.789110826805075	4.460941019898699	0.09165041548183961
0.2113301540101398	0.1231441803300464	1.688213445624423	-0.2166631523894083	5.147937643281961	3.949321865116326	0.1149565716448562
0.2155195921846577	0.145345479829688	1.703628639219756	-0.2161566029578694	5.444125092316992	3.3984886181472	0.1247187597626684
0.2193654673351004	0.1667487081962245	1.715632038816211	-0.2156791352479126	5.680692244520269	2.834719264028385	0.121545026788727
0.2228071283122631	0.1866221583173722	1.724455194683499	-0.2152810438275509	5.86351200574383	2.285769727128669	0.1080711205065059
0.2257902993364854	0.2043225622468363	1.730523397105484	-0.2149869820058238	5.999920030806304	1.77759415404191	0.08762577518422132
0.2282679370955254	0.2193122273339909	1.734381555120639	-0.2147982464356022	6.097704237297783	1.333542907218584	0.06363043004212665
0.2302009768984097	0.2311650441293749	1.736613363263388	-0.2146969129399844	6.16428265262618	0.973602306580573	0.04064184794083836
0.2315589714577417	0.239564922089986	1.73775977356422	-0.2146539147579545	6.206040291639126	0.7139078634380454	0.02238258211222854
0.2323208116596206	0.2443012665068673	1.738247395430057	-0.2146409645208168	6.227716376626873	0.5658991670839444	0.01164764201452773
0.2325	0.2454176431371642	1.738345653366858	-0.2146390957855308	6.232640482776396	0.5308804907831992	0.009096067834676091
0.2329542507337262	0.2482516693586388	1.738566710311906	-0.214636466498813	6.245004655037341	0.4420894074739126	0.002372510885115808
0.234015784775164	0.254895252971343	1.73892412201996	-0.2146431413000049	6.271547247155969	0.2307759975213819	-0.01535108754795322
0.2356644464118399	0.2652659598817194	1.739030326894444	-0.2146939744398724	6.308248904283894	-0.1032333711206359	-0.04712493838087539
0.2378741041940474	0.279251038065313	1.738296344123298	-0.2148517287530514	6.348132465836102	-0.5633971060483471	-0.09697207062386326
0.2406098871668135	0.2966694984829772	1.735955068425779	-0.2152127353338918	6.382930412505836	-1.151665116611561	-0.1686375803849822
0.2438286436775879	0.3172524048263414	1.731099262235027	-0.215907627347927	6.402677922379256	-1.869937598334159	-0.2652647963610617
0.2474796094921079	0.3406305034014683	1.722742469239562	-0.2170990539191837	6.399594362228575	-2.712066056792307	-0.3900890301305311
0.25150520557877	0.36633850541722	1.709914067008625	-0.2189771886597477	6.368000083841086	-3.664708536760283	-0.5460750471088263
0.2558419453248002	0.3938282672149844	1.691765174803588	-0.2217434557305828	6.305039202125851	-4.706796154187611	-0.732466399618436
0.2604214354539589	0.4224975665409553	1.66768037943412	-0.2255805572953933	6.211552550438436	-5.811243899647721	-0.9458617383180252
0.2651714545037473	0.4517257884046293	1.637375437951015	-0.2306259909238355	6.091696123830373	-6.945488318309112	-1.180088191387384
0.2700170917444269	0.4809115674443634	1.600968203689587	-0.2369373210922431	5.952129140094426	-8.075478583255205	-1.425548073521522
0.2748819285398158	0.5095029937923529	1.559007621841504	-0.2444768362407523	5.800870603772552	-9.166586642527115	-1.673954352945703
0.2796892435043931	0.5370195551716922	1.512460409569391	-0.2531080697898263	5.646627926439471	-10.1878604473722	-1.915860466650122
0.2843632224455918	0.563062773714376	1.462656859770274	-0.2625972283923163	5.49803760348111	-11.11005473225575	-2.142899011174443
0.2888301540101398	0.5873172150121411	1.411205786869992	-0.2726347508348866	5.363173720789429	-11.91262351142544	-2.349365774074796
0.2930195921846577	0.6095402981202767	1.359863617014256	-0.2828630213916005	5.24815466311763	-12.58315401121707	-2.531317862480462
0.2968654673351004	0.6295419263645106	1.310414308379557	-0.2928987677540116	5.1557625231494	-13.11968887393309	-2.685528996846985
0.3003071283122631	0.6471619868456038	1.264528189922312	-0.3023633927092783	5.085588126345932	-13.53469839810608	-2.812575029401306
0.3032902993364854	0.6622555175119814	1.223685614345214	-0.3109031075170681	5.035215020277295	-13.83795565237093	-2.910322080252199
0.3057679370955254	0.6746871741234171	1.189131423868816	-0.3182040382006454	5.000916301120661	-14.04953257939787	-2.982207653807965
0.3077009768984096	0.6843311726347683	1.161828950495703	-0.324020964303576	4.977451637659155	-14.19690174142446	-3.036012571364713
0.3090589714577417	0.6910799057141765	1.142482264256741	-0.3281689635986224	4.961955801704002	-14.29567684150606	-3.072865846796605
0.3098208116596206	0.6948568945454903	1.131570508013738	-0.3305178438071898	4.953423669228999	-14.34997422869336	-3.093529865827606
0.31	0.6957443014215294	1.128998025996067	-0.3310726098148515	4.951443906800725	-14.36247265152499	-3.098333839774992
