DataType=double
version=3
OpenSimVersion=4.5
endheader
time	RightLeg_1	RightLeg_2	RightLeg_3	RightLeg_4
0	0.0142052608032165	0.1468922025294296	0.1716001880518132	0.1502940293381216
0.0004542507337261803	0.002332981516143398	0.1504364645233653	0.1685877747353282	0.1397997634189641
0.001515784775164009	0.001511901841236282	0.146015371130945	0.1728239885526677	0.1431208417072979
0.003164446411839883	0.0009716457827185051	0.138756780164193	0.1773239856173771	0.1494652517415702
0.005374104194047435	0.0004141195489189856	0.1277758122405819	0.1814310168293784	0.1605384050489537
0.008109887166813518	0.000113823748042766	0.1134415347094165	0.1843694991238682	0.1773270866932459
0.01132864367758793	7.74554659192494e-05	0.09712735523535923	0.1861155435076288	0.1979986005737539
0.01497960949210789	0.0001115365518117812	0.08030350778856944	0.1861777227944326	0.2205872593748362
0.01900520557876997	0.0002375111509677904	0.06275685580262012	0.1830399861984536	0.2463228007752692
0.02334194532480019	0.0007006068256508484	0.04570283272687172	0.1759920632723047	0.2730842441765088
0.02792143545395889	0.001380443437708379	0.03029993479805096	0.164449751130795	0.2985832682354325
0.0326714545037473	0.0009016907189903785	0.01765016301591358	0.1481476904621645	0.3206416485904592
0.03751709174442691	0.0003113143424272975	0.008542292883261113	0.126138073046616	0.3361230335983704
0.04238192853981579	8.034282463025914e-05	0.003446125408554511	0.1017546824542438	0.3453442909276265
0.04718924350439309	4.796170370107513e-05	0.002021034296652063	0.07674646036402105	0.3476644964672228
0.0518632224455918	4.222362184370776e-05	0.003957825245030425	0.0533557513034662	0.3428954324590853
0.05633015401013977	4.685527561331491e-05	0.009004964400062493	0.0332145688413263	0.3315912731914892
0.06051959218465776	6.661995923866392e-05	0.0163669641053016	0.01739428203343616	0.3147222765819774
0.06436546733510043	0.0001414185641470828	0.02550959302157842	0.006196636292888785	0.2937270327837055
0.06780712831226307	0.0002975159237607628	0.03584117227885329	0.0003527192110939202	0.2706800562707358
0.07079029933648544	0.0003993249954607314	0.04699472048609524	4.047792048676513e-05	0.2474022236070829
0.07326793709552543	0.0004050364016198497	0.05711706040319025	4.33438342414034e-05	0.2248572694888475
0.07520097689840965	0.0003847331794685324	0.06549744010886643	4.046583196225281e-05	0.2050929702799043
0.0765589714577417	0.000440501936345288	0.07155472750065901	0.0001950565493592756	0.1906009067503673
0.07732081165962061	0.001531447334522652	0.07472515252499473	0.002844023642093634	0.1869041071273534
0.0775	0.004625367147425821	0.0744956752082491	0.007353997386309563	0.1949521872337908
0.07795425073372618	0.0005528745375158671	0.07802961303830198	0.001246125557605113	0.1754238381875343
0.07901578477516402	0.0001570210359969514	0.08301296066409666	0.00046568016586351	0.1603723972249183
0.08066444641183987	8.124122224610095e-05	0.09089049123863509	0.00124715109431263	0.1388791067217733
0.08287410419404742	5.599819660179513e-05	0.1021897006547254	0.005120769194753628	0.1098767361844178
0.08560988716681352	4.552532272407997e-05	0.1166590450656179	0.01361329643005734	0.07463999964145304
0.08882864367758794	0.000101660505447966	0.1336423213663392	0.02766710330074347	0.03617069895844736
0.09247960949210787	0.009390647139270635	0.150378785349346	0.04757130140586432	0.003951803832190385
0.09650520557876997	0.03745043847821378	0.1618803945595999	0.07507637899351205	1.834919632717864e-05
0.1008419453248002	0.07534634048639799	0.173735620158551	0.1073284569782042	1.619800076008419e-05
0.1054214354539589	0.1189213795292555	0.1868443382582979	0.1437094164358141	3.520061927855421e-05
0.1101714545037473	0.1654299929407196	0.2007316747461297	0.1842450695860673	0.00241874463974114
0.1150170917444269	0.2109843391998251	0.2156236579784718	0.2276980324708728	0.00405490284797044
0.1198819285398158	0.2548272899655722	0.2315169600794902	0.2725407881083778	0.00191233448719915
0.1246892435043931	0.298452398984589	0.2468662856573162	0.3178818675725958	9.090149201095977e-05
0.1293632224455918	0.3422907322512954	0.2606727620151504	0.3624636986479552	1.130207536690265e-05
0.1338301540101398	0.3851158897698861	0.2726267759058053	0.4046067890352907	3.270867876797522e-05
0.1380195921846578	0.425940487167498	0.2824360771012779	0.4428156873775511	0.0001806003158285325
0.1418654673351004	0.4638317694279929	0.2900765778436908	0.4759968421679953	0.0004345221041854569
0.1453071283122631	0.4978955376422913	0.2957033101230797	0.5035864363809892	0.0006175066259387288
0.1482902993364854	0.5274548777126302	0.2994841573251669	0.5255550735155403	0.0007439499909687661
0.1507679370955254	0.5519970690937621	0.3016510315224652	0.5421900319316969	0.0008545849224751013
0.1527009768984096	0.5711409281136809	0.3025218553767651	0.5541159681286109	0.001011910658589549
0.1540589714577417	0.5847290911732766	0.302436981849505	0.5619384812677757	0.001369301160230028
0.1548208116596206	0.5935175302895843	0.3012441878697654	0.5663553624128201	0.003281124231273017
0.155	0.6029403183420943	0.295981047431816	0.5665920061562164	0.01503974014467977
0.1554542507337262	0.5986237288604443	0.3020869532284903	0.5695695176231764	0.001764587880254294
0.156515784775164	0.6083502955274546	0.3027505785277097	0.5746216948260544	0.001032643795446445
0.1581644464118399	0.623997757419783	0.3028855343901589	0.581827231171585	0.0007248642338316988
0.1603741041940474	0.6449382564620396	0.3022418162008096	0.5897539690861368	0.0005296330703970063
0.1631098871668135	0.6705443698309048	0.3003648571132337	0.5966228984349562	0.0003874581166747115
0.1663286436775879	0.7000059341750366	0.2966852059562226	0.6000699742485529	0.0002786254367196381
0.1699796094921079	0.732373994473295	0.2904165554410283	0.5971119177763634	0.0001774353350389789
0.17400520557877	0.7664797609124704	0.2807415184009323	0.5845500596939992	7.739514976429087e-05
0.1783419453248002	0.8008272862657325	0.267214957179995	0.5604043888536308	1.381672624474514e-05
0.1829214354539589	0.8339877086096545	0.2495019238545219	0.5241409759867567	2.693313868195043e-06
0.1876714545037473	0.8643684616295593	0.2279217959605767	0.4760685133348048	1.965768296840209e-05
0.1925170917444269	0.8914091086363609	0.2027409792142016	0.4176088775696309	2.357873432726855e-05
0.1973819285398158	0.9156514660292533	0.1744221822852419	0.3514046875103148	2.045147728849806e-05
0.2021892435043931	0.9382481583730942	0.1433181690594976	0.2805268073046545	1.743712213716077e-05
0.2068632224455918	0.9594906844478066	0.110749216225254	0.2100059602749346	1.528602482256004e-05
0.2113301540101398	0.9784002689822836	0.08009176411104221	0.1461659756840043	1.420621346556444e-05
0.2155195921846577	0.9937573046010566	0.05452058082003646	0.09466653532218212	1.398250615738634e-05
0.2193654673351004	1.00534531052886	0.03568178079271316	0.05806615724866709	1.448501597300676e-05
0.2228071283122631	1.01497145737691	0.02304661536681533	0.03414950209066667	1.586195286653621e-05
0.2257902993364854	1.024439974929516	0.01502820559829022	0.01913354943667384	1.828631522596271e-05
0.2282679370955254	1.03438590609775	0.01007414796922453	0.009774045854531682	2.163575266791571e-05
0.2302009768984097	1.04413948984645	0.007238377744607897	0.004206678643393856	2.388122754892635e-05
0.2315589714577417	1.052206576313888	0.006264159710912926	0.001801944962007874	1.695870797630652e-05
0.2323208116596206	1.057654184912263	0.007028888904283125	0.002033550539147734	0.0002539951673884365
0.2325	1.05953246110191	0.01790565876262332	0.01961378357388776	0.002179051092148515
0.2329542507337262	1.061552616136088	0.005844478300386048	0.0007383477574637621	4.948153047533078e-05
0.234015784775164	1.068925976663201	0.004892413008782025	7.790771399996356e-05	3.258935544331852e-05
0.2356644464118399	1.082160690356816	0.004620804805600782	2.076824261557548e-05	4.660768630574564e-05
0.2378741041940474	1.102622303781638	0.004391336197295126	2.765815534376295e-05	5.582172672346654e-05
0.2406098871668135	1.131486338851839	0.004069253139636055	2.295411365255038e-05	5.7586589880102e-05
0.2438286436775879	1.168353964962922	0.00678330100481167	0.004503390481984867	2.30028044522645e-05
0.2474796094921079	1.211110958394447	0.020543053310183	0.02518635255433837	0.0003008925890448285
0.25150520557877	1.25821219459086	0.04616664228480986	0.0622155922587871	0.0009692238154607125
0.2558419453248002	1.308863836772006	0.0853367292096341	0.1173694902303981	0.00184654324542799
0.2604214354539589	1.364906783433348	0.1361770873054234	0.188621160902867	0.00318655687858887
0.2651714545037473	1.428034426968013	0.1957121651379245	0.2724730679400598	0.00539920077399431
0.2700170917444269	1.491192451725972	0.2619592752536998	0.365121532764376	0.008055209682678574
0.2748819285398158	1.532053896066918	0.3360723723792927	0.4637380566917076	0.009634784144822221
0.2796892435043931	1.528523709609887	0.4198531942121017	0.5647392317479333	0.008753726104554408
0.2843632224455918	1.469829545693114	0.511042779614308	0.6638772640648316	0.006468768365060021
0.2888301540101398	1.367846586678021	0.6022189686501517	0.7547702652429563	0.00289568138342533
0.2930195921846577	1.238758873709647	0.6869540869687385	0.831800473451726	0.001420622536109111
0.2968654673351004	1.097797810401062	0.760766417419884	0.8916697988240846	0.0001545994886933375
0.3003071283122631	0.9569771065309834	0.8206235007380703	0.9337800491942562	0.0005603680511218796
0.3032902993364854	0.8267121974800852	0.8658922418720593	0.959923673643404	0.004497884622720699
0.3057679370955254	0.7151944215509159	0.8975130647565599	0.973038084258505	0.006199374841691293
0.3077009768984096	0.6270093720931448	0.9180839797264388	0.9772166468000578	0.004018839776678783
0.3090589714577417	0.5648950016631215	0.9303665189560142	0.9768810045450951	0.0005366452585984211
0.3098208116596206	0.5315655545737672	0.9364628933582512	0.9760949773457912	0.0001055179175827019
0.31	0.5238761249127962	0.9378173197656046	0.9758646957192916	0.0001427463481452413
