DataType=double
version=3
OpenSimVersion=4.5
endheader
time	pelvis_tilt_moment	pelvis_list_moment	pelvis_rotation_moment	pelvis_tx_force	pelvis_ty_force	pelvis_tz_force	hip_flexion_r_moment	hip_adduction_r_moment	hip_rotation_r_moment	hip_flexion_l_moment	hip_adduction_l_moment	hip_rotation_l_moment	lumbar_extension_moment	lumbar_bending_moment	lumbar_rotation_moment	knee_angle_r_moment	knee_adduction_r_moment	knee_angle_r_beta_force	knee_angle_l_moment	knee_adduction_l_moment	knee_angle_l_beta_force	arm_flex_r_moment	arm_add_r_moment	arm_rot_r_moment	arm_flex_l_moment	arm_add_l_moment	arm_rot_l_moment	ankle_angle_r_moment	ankle_angle_l_moment	elbow_flex_r_moment	elbow_flex_l_moment	pro_sup_r_moment	pro_sup_l_moment	subtalar_angle_r_moment	subtalar_angle_l_moment	wrist_flex_r_moment	wrist_dev_r_moment	wrist_flex_l_moment	wrist_dev_l_moment	mtp_angle_r_moment	mtp_angle_l_moment
0	85.05899422657426	-71.99545864007355	-32.65186492326072	29.92957769352387	227.7666978633923	33.28255906974883	-35.34802708277412	-37.78468372235513	10.83309593070793	31.45718937412633	17.9609828125494	-11.1413542577561	83.1436608146371	10.59010878846057	-6.09313516356344	44.54171108954432	-16.09819727883266	-0.02851162446729083	1.448271617750886	13.02388709610297	0.01648696211432193	-5.331166625412238	2.959828801547553	0.9284427152442576	2.203555409712934	4.239510539595559	1.245274305984508	-0.467951324137574	3.542047998954384	-1.285800267261276	1.566774669841006	0.03934163281743677	0.0005191561459681471	-1.124336695757924	-0.4486935644946635	0.06860961772547132	0.1767638418804141	0.3687847962980546	-0.1489656813399044	0.02660617688149268	-0.1463586136252592
0.0004542507337261803	84.34136836375656	-71.32451479257894	-33.08294385433838	22.98852666945234	230.1503812455704	31.5654271101693	-35.34665755704238	-38.41987156812518	10.63931319838705	31.15249016356168	17.04103746246293	-10.78427846451709	83.18611974264586	10.67776488892587	-6.174188066708659	42.85968312875747	-16.36017974419727	-0.0255088269799819	1.399110529307452	12.55963509707454	0.01637025364179746	-5.332717148976305	2.952495374833748	0.9239690053504271	2.290533295314284	4.247742696288204	1.268710068622579	0.3105411564806458	3.554687272185706	-1.287528243019391	1.601302448245436	0.03918796055506907	0.001036434868001312	-1.281504044134838	-0.4776999548761483	0.06796666146321995	0.1767613813297547	0.3746169202162536	-0.152161572585582	-0.04441399045563474	-0.1461561072146026
0.001515784775164009	83.47884302256236	-66.29498134763766	-31.42787812900302	24.27255640437784	234.8173223900118	24.78878254289653	-35.83233448591918	-35.77601669856816	10.32910200215219	30.43949691178804	14.87347245733956	-9.961160609417028	83.27924358232065	10.92960588121448	-6.36131450301821	43.57551188915421	-15.27105105013805	-0.0261113111856176	1.293241833349096	11.47073269790072	0.0160736867422055	-5.336446398129055	2.935274145670784	0.913502970433603	2.493309347097713	4.259051623548289	1.320925994355856	0.7746188983881449	3.584363985436362	-1.293591902951996	1.682382282217433	0.03886753598269999	0.002116739199383932	-1.302973982422084	-0.5458673028855995	0.06641364574316856	0.176951198476346	0.3876700182192297	-0.1598054123032719	-0.09157372233692873	-0.1456949385222037
0.003164446411839883	83.6623089480569	-57.64257744716001	-28.49824188306771	25.90013142136846	236.2338756640478	14.66847884691663	-35.70518652043361	-31.18581118626497	9.806211519054594	29.30811424732655	11.50822753208678	-8.728411746455269	83.37859118716108	11.61020060886931	-6.627169524467737	44.14865826603314	-13.3429828574047	-0.02651191831109981	1.212976195256387	9.786428477771569	0.0155351874522802	-5.342304653336892	2.907640048806429	0.8973803552689383	2.792171447373134	4.226183154655788	1.384159504811109	1.084128416310568	3.630022763950441	-1.315982802827984	1.807678820321624	0.0386354654052731	0.002951149780412887	-1.23958774920062	-0.6529080431817841	0.06371568510771462	0.178514636007037	0.4037972192662855	-0.1724930911713681	-0.1248983548435948	-0.1449519891117859
0.005374104194047435	84.86868712689875	-44.97456335618809	-24.47053341496151	24.39470000087695	227.3941790000434	3.540103281353183	-35.41513821921633	-25.12758364951604	9.214943673171687	27.66628641173328	7.159259535716558	-7.200975072330324	83.3428175601732	13.53713592828347	-6.880272497214721	44.39886583330577	-10.83860252529713	-0.02561999866834943	1.438758140242659	7.59459676216322	0.01466885023596299	-5.349898162253954	2.86705417527206	0.8764393647745856	3.113572712329831	4.001001548477334	1.402038513994157	1.220609934926034	3.685865470482123	-1.392379669602622	1.967980684293022	0.03929584402091255	0.0009922297190673168	-1.093243966024895	-0.7982045078526417	0.05911664759539478	0.1851620559900745	0.4097195834067666	-0.1919144946366905	-0.1425194535548277	-0.1436534956697973
0.008109887166813518	86.47329224716917	-27.765383516832	-19.43005606958898	17.53202451315815	201.2807252040383	-5.89701507957621	-35.95944048760322	-17.97405236587241	8.785864477824394	25.3202505069516	2.123848024133454	-5.507791087517825	82.98441333661026	17.69781247426029	-6.991889688159535	44.89206472703601	-8.029621097502579	-0.02319037048893122	2.323102426240508	4.996826781053841	0.01395549826637675	-5.358757802248184	2.809473500744863	0.8509219160532482	3.343621590584602	3.393561486591242	1.299878100361581	1.19786035190491	3.735580990046543	-1.568820891809295	2.14595462588532	0.04180785997158637	-0.007067216756069583	-0.8715406690048279	-0.9785475815586964	0.05158932845098964	0.2014492692813139	0.3877166220388822	-0.2197215574927635	-0.1471202392229088	-0.141129152570733
0.01132864367758793	87.73673911679509	-7.454712531675741	-13.49648935020414	8.800257118189194	171.0815721550237	-16.62732821949661	-36.8264744764595	-9.951497189929462	8.315427019397234	22.30209048879921	-4.133755378312768	-3.569312976674524	82.43732845224574	22.69697501119082	-7.050519714481188	45.51170913848624	-4.919340193705817	-0.02030284346121137	3.379227067394773	1.781735730492688	0.01485754899408476	-5.364748407166108	2.732871945445873	0.8151301551325384	3.567795576497092	2.627666109648784	1.158626338211441	1.069425549586409	3.770117102653535	-1.778216930090959	2.346080328015053	0.04456829084433356	-0.01737603380348596	-0.6014117326043678	-1.191675654214441	0.04189314615608396	0.220996887909691	0.3569751719677826	-0.2525689828977892	-0.1409632799232555	-0.137350468190568
0.01497960949210789	87.68722337660678	14.46252455048248	-6.95533928342612	0.1079889815249828	148.4759664450627	-30.90285214216014	-37.82011295995994	-1.495246612886114	7.628055904178307	18.72302685690335	-11.97018452285574	-1.406670498338496	81.79645053160486	27.27392178722508	-7.138541308407252	46.04743019438708	-1.603207188609071	-0.0174592226507051	4.19378080170214	-2.159484606445111	0.01597282995973498	-5.360839473547363	2.635440153416889	0.7645896354252971	3.885453295433182	1.906940146596329	1.055111844348419	0.8671785987783681	3.78808822005637	-1.960603531597096	2.578852008974108	0.04616109667863671	-0.02634421712882884	-0.3078598476459076	-1.433933242596463	0.03076680729042234	0.2381712882366774	0.3358554714545384	-0.2879998264264201	-0.1246132011416712	-0.1326040952018268
0.01900520557876997	85.09759345851167	37.29159867744833	-0.5529668150503275	-13.48101354131549	123.3128614169023	-44.00034247255982	-40.49336768938415	6.068708973089611	7.110642909355074	14.38730381929251	-20.48077289921929	0.6803109960271654	80.82760330156697	32.53088438615146	-7.116796178603526	46.91925092961155	1.159801362557799	-0.01355572647713144	5.26700343623059	-6.475628203406348	0.01737217623253179	-5.345758648387912	2.517185255244857	0.7023009362859941	4.16013265429394	0.9963866207761317	0.8991006142694959	0.6555422779108271	3.764109268853876	-2.173940711503576	2.824742868348609	0.0479001432017227	-0.03804232751074177	-0.03664303358471749	-1.687955458548787	0.01722717482096202	0.2587298597688787	0.3027610844388496	-0.3280951708313335	-0.1058707211366943	-0.1260834740720793
0.02334194532480019	82.52554640839828	58.65415664466227	5.918494939180658	-25.37387815618877	99.49485299470012	-55.21672666004601	-41.84682773384348	12.33260129636639	6.585933772762298	9.349771485828876	-29.32271286538118	2.55607924815931	79.5590763124877	37.65358195523579	-7.021396870980064	47.1259300962055	3.366524897277679	-0.009752140322717748	6.451355797863317	-11.01113948663869	0.01881071661761675	-5.312834805854444	2.379174171742303	0.6271169826779427	4.43934339655135	0.001446364762794194	0.7300517520820451	0.3883138141876442	3.685288674106062	-2.384678049320707	3.085515783234379	0.04905617235427095	-0.05055765731544004	0.2157784880600762	-1.937122061497916	0.001837290102916271	0.2796081148261249	0.266934513896153	-0.3710952459387222	-0.07605322251930451	-0.1176833569877386
0.02792143545395889	77.4261654592016	76.55543267931606	11.42847596322212	-39.0942188205567	79.60753549544262	-63.13234343257832	-43.6080006685995	15.96928953867728	6.311162978654268	3.674655698828881	-37.74467815044701	4.053156788328427	77.9425734516271	42.31432791399932	-6.851802812472481	46.95514233576601	4.345869634293471	-0.005245703516946573	7.80920871648218	-15.45391308147913	0.0178280224642896	-5.256435653954401	2.225048579417946	0.5410736955056417	4.727098511047228	-1.064541228537706	0.5534535012923691	0.3361708842611462	3.538393246211172	-2.584780679587906	3.358792596036353	0.04954877876952568	-0.06357187950361087	0.3493911708479571	-2.160460921256103	-0.01501010017986038	0.3002112293602637	0.2295229414072121	-0.4163436650270685	-0.06244437218806112	-0.1071921838645697
0.0326714545037473	70.47586929341212	89.62374763233404	15.84058986625707	-52.99182689924672	62.06817757897642	-66.30946415530062	-45.04351134958365	16.87879095114976	6.380846736103213	-2.557589244088783	-44.83969531143079	5.059142317207028	75.93717701252129	46.25154936312973	-6.608652450449384	46.21902836058653	4.072085441231684	-0.0003087412118863465	9.444715733260027	-19.43895915598181	0.01648271342491533	-5.173191881106023	2.060432352520926	0.4477229545076913	5.019642987226339	-2.198905214606737	0.3699032473811545	0.4170362374033133	3.314035250289106	-2.770311770498232	3.64002747798699	0.04944653250693148	-0.07697286473695608	0.3734481140493884	-2.335894567076668	-0.03279625066703108	0.3203156462519296	0.1904496771492758	-0.4631074214645656	-0.05729886926156459	-0.09444996449317992
0.03751709174442691	62.06215610326993	96.7362655417852	18.99002360599422	-66.60425251375017	46.72110488330839	-64.07666240245216	-45.66577256085395	15.05226364484029	6.865188688124473	-9.152895450111387	-49.8539556792992	5.562730078817138	73.53700803362175	49.08233168525098	-6.317161788453411	44.56802681780989	2.575977917218907	0.005166283390018806	11.38045617494572	-22.65314496879784	0.01496324296508152	-5.061205850504683	1.891715200468049	0.3510587651213752	5.336158247556876	-3.363367087357193	0.1929666025400185	0.6187778071965659	3.012543929393631	-2.930091457231965	3.927666121003854	0.04868717030251818	-0.09005001676703861	0.2864844085163168	-2.445874128739977	-0.05074566467014302	0.338961659865789	0.1527912699496629	-0.5103293600229396	-0.05971436569329742	-0.07952886847221358
0.04238192853981579	51.70897203299861	98.30561057717186	20.77341632681638	-79.53077180199176	33.53494798537035	-57.07924707420401	-46.17002046580767	11.39113237620593	7.806516367832661	-15.87270249111019	-52.18612722014711	5.633214148610469	70.73741390340498	50.65141533291528	-5.997193791400574	42.61415777332997	0.1923458727657157	0.01021902849309468	13.65722279782458	-24.84360311401635	0.01408973402897926	-4.923117253333031	1.726209296841926	0.2560020943824119	5.674911043489077	-4.545526760126677	0.02460253421011016	0.8630107571054666	2.640687575872983	-3.062043374349073	4.217075630166509	0.04743138306680961	-0.1026247182952045	0.1197918831035452	-2.478895304601868	-0.06813529424521787	0.3560040959433292	0.1168783379921878	-0.5571366365025877	-0.06544011589169493	-0.06259119703108526
0.04718924350439309	40.53059950095609	94.75173464219159	21.38726947620657	-90.51703975958952	21.98425470349416	-45.95733653698507	-45.87468111658406	6.687874105906332	9.078314865500539	-22.44581281435644	-51.62627273556004	5.408785872506467	67.57060665605867	50.86015606161658	-5.679618140168901	40.14354212375521	-2.667289213689023	0.01494404841151393	16.23873384786752	-25.90150446632516	0.01373622720326977	-4.765359731745129	1.570439280079694	0.1669091942510995	6.039403306139589	-5.71724043510638	-0.1290821334339833	1.115647310251292	2.214831331182698	-3.163063419210963	4.504294512274582	0.04579476109232911	-0.1143268019049204	-0.09450278131967746	-2.433386796252317	-0.08425041032561412	0.3711189233118302	0.08410768259155804	-0.6025508299814362	-0.07162404017457284	-0.04406690053711395
0.0518632224455918	28.90232784117272	87.2713379929157	20.98509941352218	-99.44015201460216	11.89478727424346	-31.96934467712979	-44.93703577215119	1.813564332502917	10.53793623542959	-28.64148419100274	-48.31860716646242	5.047005321582805	64.09172291580546	49.80229872128975	-5.391359436481333	37.37038757529901	-5.605572707102383	0.01943686813243416	19.05931703266457	-25.85656177719954	0.01270260974173006	-4.598294665430741	1.429492428931022	0.08726825698441765	6.419740287154742	-6.859972022137701	-0.2676458810447651	1.327393309145323	1.756216089581521	-3.235360061726993	4.783724193739017	0.04396734520528361	-0.1250581443360173	-0.3203330760722285	-2.316906622958257	-0.09857655413933807	0.3843978000222304	0.05456154123110461	-0.6457287993432699	-0.07501956180479372	-0.02454647731794581
0.05633015401013977	17.78783938115296	77.01956306957052	19.88193896625666	-105.6968663080672	3.121979822018773	-16.25568679989725	-43.01867000640379	-2.652401249278494	11.99284985627168	-34.2527540643286	-42.76822328919982	4.685920738935405	60.39007017840121	47.68034071820896	-5.157934661189721	34.23618867251901	-8.306056864012561	0.02359405859979456	22.00266137837663	-24.87256057157269	0.01116817804640332	-4.434208229922332	1.306442043826202	0.01911639691169131	6.804274940212084	-7.951126229421886	-0.3904277549366619	1.501955824381684	1.28962011009418	-3.282473612817424	5.049967590973679	0.04210700936002382	-0.1347263977829813	-0.5353483510414632	-2.145039460864124	-0.11080155180237	0.3959701380623592	0.02841693228347911	-0.6859144445972412	-0.07605528909964232	-0.004798488295732796
0.06051959218465776	8.383747442730709	65.21959696511114	18.52915754657045	-107.8597758159943	-4.450746188788031	0.1108006659735707	-39.61069346305556	-6.220269908378961	13.22431479101003	-39.15077819377024	-35.69228898228349	4.416104486628446	56.58262969997956	44.80044280679265	-4.996221024875457	30.7797189717226	-10.48187885771323	0.0269400718594737	24.93720920405871	-23.19895256212848	0.009370159545768053	-4.285395681867508	1.202529379004165	-0.03686356092901932	7.176842104656129	-8.97155414460836	-0.4986547689997418	1.644974907869107	0.8386739559349472	-3.310177852223934	5.297526210037521	0.04036189585354877	-0.1433458181571308	-0.7191682925819314	-1.937768895054915	-0.1208446808469994	0.4061033006510211	0.005404645419504917	-0.7225123250595451	-0.07492928285780168	0.01436042640539502
0.06436546733510043	-0.1652427640284913	53.22516094199006	16.91436862001168	-107.991472577636	-9.823992720455649	15.69096015879573	-35.95720484448824	-8.866426178262586	14.23460527631963	-43.28357933622555	-27.88824282493299	4.27478263713942	52.81142223859524	41.500304902468	-4.913947870867543	27.52614860868854	-12.17242218071569	0.03074130788828872	27.72907589466294	-21.12187054235515	0.007485785895201884	-4.161763420541842	1.117554720339979	-0.08113960086101379	7.522336301968888	-9.902755009735172	-0.5933689979090202	1.780569941505917	0.4234289039161109	-3.32422730978731	5.52164278988101	0.03883069615983448	-0.1509372991289677	-0.8774291820907318	-1.716095084187239	-0.1287996948602801	0.4150148951831075	-0.01469692716628085	-0.7550745442546647	-0.07551785965583963	0.03217040361215184
0.06780712831226307	-7.682043990834416	41.84931203635323	15.26672108792864	-106.0111011383574	-12.33144839109055	29.68369926532944	-32.25287429877585	-10.6846045438815	14.99590217458943	-46.66354753720211	-20.09178156543051	4.255430234728292	49.2190132787121	38.1171581607717	-4.90655276763674	24.70247620480509	-13.40651981168303	0.03348158966930228	30.26466935174902	-18.91284480430438	0.005716389070883761	-4.068499326797586	1.049649863622252	-0.1151847346143138	7.828866074396443	-10.72862552922085	-0.6753718461270237	1.983570559999193	0.0582372267645257	-3.330159822300733	5.718683241540365	0.03756854636191109	-0.1575252527794064	-1.025555395161278	-1.49882640514824	-0.1349173874757779	0.4228812115370305	-0.03207104962089077	-0.7833163357966674	-0.08483403398250208	0.04801430979934571
0.07079029933648544	-12.82118241243988	31.40997342943309	14.05707040788321	-100.9163012192833	-13.26257643101184	42.13148567309386	-27.62499071864683	-11.8274558704129	15.44212229759773	-49.34419499202014	-12.90378636575431	4.325533949863416	45.95338393307378	34.93292854138883	-4.959889345344069	21.96037905976606	-14.18240892072991	0.03490615371144719	32.45881709203064	-16.79877638773374	0.004186821915491103	-4.006339026673862	0.9969184920588767	-0.1406329732692588	8.088242009821382	-11.43637065967328	-0.7450369993966177	2.266781099569701	-0.2483286862085804	-3.332023356782405	5.885984334955656	0.03658854488487723	-0.1631164975992172	-1.162208313346818	-1.300922605558689	-0.1394811889632899	0.4297534864449705	-0.04680907958987049	-0.8070668431027275	-0.1019903979229499	0.06147285453469496
0.07326793709552543	-16.94150962614627	22.62459778828581	13.04495055439844	-96.02044741537274	-12.71906230571655	52.32732596743196	-23.55488079069457	-12.58114720687666	15.7384632881038	-51.3972526586518	-6.752145962946468	4.443481906961471	43.14540287121072	32.16196399419326	-5.052021755823833	19.66472671358856	-14.71738787163621	0.03582271840639743	34.25816364779225	-14.94643866410211	0.002922713110293526	-3.971350757655224	0.9573185852475612	-0.1591111869609197	8.296520424469009	-12.01679845536137	-0.8022989776433338	2.577731283280053	-0.4929220696785794	-3.332412593889073	6.021980958666721	0.03587229266840086	-0.1676997586971962	-1.287914638414128	-1.132836472353498	-0.1427780027417893	0.4355836427713466	-0.05890835390255697	-0.8262562773982403	-0.1235161373072131	0.07232913365710654
0.07520097689840965	-20.02874314572932	15.7474674551465	12.29076092470299	-91.60411325744876	-11.23171933048324	60.12719919857316	-20.21300332547398	-13.05726145908936	15.92111090038512	-52.89310771398331	-1.90199457219795	4.570433408815317	40.89909389830004	29.95034502239622	-5.156765730697551	17.8948940046469	-15.06922690825504	0.03631700396676185	35.63670279219608	-13.46385720863785	0.001939733669037829	-3.956228950848163	0.9288362429144128	-0.1720460625177669	8.453256527281358	-12.46390906349724	-0.8467506308599551	2.891457460054895	-0.6759707747371011	-3.332641524661228	6.126004676080477	0.03538252082914378	-0.1712480690330509	-1.398962345082688	-1.000932004035727	-0.1450646120154171	0.4402558607840384	-0.06829152387305515	-0.8408818470884589	-0.1470691784697573	0.08052930454196186
0.0765589714577417	-21.55508982255146	10.75007159825753	11.9603496081306	-86.73140310886845	-9.412922756609113	65.6658453657702	-17.23842595646025	-13.30944190478765	15.97769872765577	-53.8905127471926	1.505919151764155	4.676301292293381	39.29433341708044	28.3830335069916	-5.248733846031487	16.60697808855419	-15.24053377575855	0.0361839147743601	36.58749170901977	-12.4123066078697	0.001249752966287382	-3.952695394296322	0.9099996164625528	-0.1804438944935647	8.559871548367015	-12.77454688072272	-0.8779145952507235	3.209255846910771	-0.7999193050689033	-3.333033970266096	6.197912764190266	0.03507743983487027	-0.1737306590298968	-1.494425865384772	-0.9085006121251973	-0.1465330262933774	0.4436214773112286	-0.07486486721564842	-0.8509733129752362	-0.1722104097592508	0.0861212779190326
0.07732081165962061	-20.54471176831309	7.698190233681942	12.35008981302392	-77.08045777276962	-6.442139286640284	68.73260348795611	-13.86986318835527	-12.95407525247283	15.73706767326987	-54.43143309691946	3.411408893049913	4.741224584336122	38.38527410409539	27.50201188011249	-5.307253258323732	16.28437736445588	-15.00422295244457	0.03400922038840754	37.11340421295153	-11.82120535952001	0.0008623650692082992	-3.953464329108018	0.8998386825311444	-0.1849270718439274	8.618290138091933	-12.94743777412626	-0.8953867990389157	3.525930156807717	-0.8676348768617901	-3.333404716783967	6.237805361881089	0.03492106763520925	-0.1751206237804361	-1.559713245136667	-0.8568909195766342	-0.147309767403285	0.4455441970877199	-0.07854845169491467	-0.8565675578414133	-0.1985900021577064	0.08919027428504482
0.0775	-0.4848840758757262	1.795043624114815	17.64558044715521	-45.36925216583204	-18.74389684570964	78.02094322263576	4.830737374334039	-12.48850406918021	14.33129078858079	-54.55676057965716	3.858538610184592	4.757040038451875	38.17060037595223	27.29479405337645	-5.321757730643685	9.771666330403532	-13.78201512197284	0.02698562555478215	37.23625533125333	-11.68219610065685	0.0007711809690947795	-3.953943964665454	0.8974904451867135	-0.1859589471173709	8.631877465991241	-12.98795133545794	-0.8994959245970047	4.201186215110656	-0.8833637532197374	-3.333511539688368	6.24714002773546	0.03488587105387736	-0.1754473144290929	-1.618205277728428	-0.844786965721823	-0.1474877130072209	0.4460002978704883	-0.07941457376271349	-0.8578762985061459	-0.2324012913646584	0.08990458420336575
0.07795425073372618	-22.56976315437174	5.931719728106827	11.72014790646653	-81.17088812289013	-8.344486664751102	71.2960016720843	-13.83500667555117	-13.24277522733593	15.90885217248072	-54.87127855977084	4.989845203728201	4.798027885355736	37.62498931262259	26.76968320425001	-5.359809246409607	15.1999755814964	-15.23712198192157	0.03568804936624413	37.54617811346866	-11.32998320068077	0.0005398681604182852	-3.955681725995021	0.891608002426254	-0.1885374877615532	8.66605391476979	-13.09038924675568	-0.9099125918432907	3.396446223009306	-0.9228908466209845	-3.333819953187826	6.270720120315854	0.03479939116802255	-0.1762751399555813	-1.549353033818352	-0.8141719374380384	-0.1479308829304024	0.4471634075102427	-0.0816098805592462	-0.861181946998254	-0.1841452378258447	0.09170210103944405
0.07901578477516402	-24.7679909504809	3.10286947954036	11.00273731770256	-83.43526540324325	-10.45478561351027	75.3486508060996	-12.78301724218473	-13.18935128303482	15.96266801033319	-55.58876962662082	7.618684161048177	4.898568750460005	36.34252024592191	25.54497876184461	-5.456016757644466	13.76937034005462	-15.31573591472268	0.03689641117310513	38.26153999645371	-10.50891382743079	-1.869249203521363e-06	-3.962739012331242	0.8782475938756413	-0.1943644291038856	8.74436912480941	-13.3282350927465	-0.9342585995765238	3.163361165675792	-1.013269785156124	-3.334777711193786	6.325345863790405	0.03461287342620323	-0.1782080554118408	-1.510236654115119	-0.7430785545233435	-0.148923464599963	0.4499215892487389	-0.08673898335653046	-0.86883909020865	-0.1583318166982718	0.09582549126588709
0.08066444641183987	-26.54962445297275	-1.680712609480854	10.42211667178817	-81.78316934641713	-11.96416170222599	81.81408069975349	-9.597236068295235	-12.90478200446714	15.87043306711355	-56.65632238325683	11.64657127554836	5.066572918716002	34.33235511882524	23.65634706618534	-5.626343697533652	11.62607163322743	-15.25943091007431	0.03725357683490602	39.34555440501364	-9.244365491471077	-0.0008481398350879499	-3.982437498605516	0.8585443885176411	-0.2029102237931534	8.861465496397422	-13.69308548348313	-0.972097253337969	3.017877378052286	-1.147832462868314	-3.337064986724732	6.408814556651089	0.034367780242336	-0.1812074553258949	-1.488556894627705	-0.6342393520506331	-0.1503520104351709	0.4543256110687983	-0.09470545079772619	-0.8805425718488367	-0.1378458890485056	0.10200017297884
0.08287410419404742	-28.47591315957528	-8.054380978111432	9.866272695751103	-77.87659060393656	-12.2019564832987	90.24841121260218	-4.878623549515474	-12.4536399937921	15.68310748610823	-58.00362122809235	16.90097213141238	5.310132247141134	31.60946622041686	21.17113516247607	-5.896287981107921	8.852778506995854	-15.12996952917408	0.03695092883502173	40.74017617961062	-7.584551233759184	-0.001997305423906773	-4.02664425934348	0.8339925060718087	-0.2135713396911081	9.009035862668236	-14.17256106520031	-1.02290713465437	2.973942122420932	-1.316330372222019	-3.342054045996312	6.517935320962932	0.03412703013311141	-0.185227074575161	-1.492083763578754	-0.4923119431668063	-0.1520729752909096	0.4604814572409144	-0.1053920062071822	-0.8958655300333602	-0.124867228558566	0.1097962064005691
0.08560988716681352	-30.32007758745885	-15.5356031589165	9.470092567443219	-71.2400777792094	-10.25501321517667	100.1576440335885	1.380403626453816	-11.69797784495987	15.34024886210512	-59.55154117427717	23.09839612164937	5.631361176211596	28.20578736548327	18.21062859382832	-6.300211544001424	5.629853656245156	-14.85508676084336	0.03585338230004458	42.36051414940342	-5.61496733344907	-0.003457045664671409	-4.111858217825842	0.8061663089968681	-0.2259133601993961	9.175440480598068	-14.74923827618224	-1.08602788951274	3.046233809863369	-1.504604808400484	-3.352084478899104	6.648407902960133	0.03397183011082222	-0.1902113810871533	-1.520433539472946	-0.3247516543101323	-0.1539473149323168	0.4685492448789695	-0.1186474682461318	-0.914257085746359	-0.1212205429350795	0.118602505092556
0.08882864367758794	-31.92462003653556	-23.4438457602427	9.387455154863968	-61.39149444508936	-4.79320673895225	110.8070867787684	9.057883865799287	-10.50437577451627	14.78432327294616	-61.22587522459648	29.82430679665373	6.020144118876063	24.18039437553233	14.9657779818269	-6.880394338977321	2.274486323689511	-14.36733681002785	0.03360949840001327	44.09361829857758	-3.467579164858325	-0.005251609834450173	-4.259025293778897	0.7764937734585479	-0.2399220784609877	9.346053318045174	-15.40043755291028	-1.160608604253617	3.246242632257916	-1.694891028970043	-3.370686841555258	6.794963380222423	0.0339967320664647	-0.1960970525092596	-1.572583704586386	-0.1422510892864138	-0.1558792525030171	0.4787429831358257	-0.1342734474346269	-0.9350732854428154	-0.1286404942974248	0.1276224926169075
0.09247960949210787	-34.74471225052365	-30.6730620973388	9.365940196181839	-50.15226692502021	7.133659786669867	120.6092388219924	16.56255651602059	-8.908791340346243	14.0913358599913	-62.97086383889454	36.5355492326436	6.449890686358897	19.62979103384395	11.70261891242778	-7.685013820941151	-0.3089986275565815	-13.73320528408287	0.03051418647995801	45.80177339992326	-1.321964579456277	-0.00742656353733925	-4.492672609899841	0.7462150900519947	-0.2561574757633173	9.504229511917973	-16.09846651650918	-1.245485863581392	3.582064206335519	-1.866675041975921	-3.402611135875593	6.951623318353554	0.03430358609444306	-0.2028097254712402	-1.655668261720954	0.04133922444093123	-0.1578444205039185	0.4913157112077122	-0.1519952100663304	-0.9576163298420481	-0.1510722094679039	0.1358894037027455
0.09650520557876997	-34.19906574548573	-37.49572751067861	10.77262388398705	-38.028153601638	19.18146297523334	131.7134169433818	27.60760528376613	-7.236122491868639	13.18873008275517	-64.75326581118362	42.59493475789644	6.877963717549504	14.69253781440722	8.752661773586397	-8.764219446575995	-4.903639468389618	-13.00038449333539	0.0271312725960146	47.3304353963504	0.6061351695757562	-0.01005001779966394	-4.838590155346806	0.7160146177426909	-0.2759545069953373	9.632035177428907	-16.81160604095623	-1.33913294805905	4.199084047509269	-1.998153529620069	-3.453224728725291	7.111918047218668	0.03498224537003558	-0.2102580254147695	-1.796377744509771	0.2098333657246113	-0.1599112754840928	0.5064876068286429	-0.1714454313156536	-0.9811645908315667	-0.1925467470213059	0.142329276993625
0.1008419453248002	-30.07800478989776	-42.3704818937409	13.72550722264887	-24.91471953986997	32.12618201992223	142.7609443560626	41.7690641438944	-5.019710093611927	11.95565267022494	-66.55926889753187	47.33796593632714	7.252743865208323	9.544410134079667	6.477032225817632	-10.16558761541541	-10.95354248467516	-11.99158171064209	0.02265600704798403	48.52283037478887	2.088713748493878	-0.01319936176052315	-5.320330186232271	0.6864366865596623	-0.3011442949213019	9.711960526707477	-17.50671855294101	-1.43964802537258	4.99616411451896	-2.068300370631672	-3.527625422382049	7.269413012220664	0.03609992987351507	-0.2183302474010633	-1.958739036252753	0.346248528633849	-0.1622107735548495	0.5243681199590496	-0.1921552935764514	-1.005024149157773	-0.2446797454132906	0.1458478557034616
0.1054214354539589	-22.58083478359298	-43.95258252473374	18.15671191653853	-10.92199739611118	47.21036693998555	152.2871792295314	58.30761800462807	-1.961810186311435	10.32568107451479	-68.38314929923345	50.16615202573296	7.526627869296422	4.385027499624957	5.213708488765999	-11.92768142566363	-17.72630718038486	-10.60608874963854	0.01660362991840406	49.23985447960634	2.919463759767323	-0.01693390834765056	-5.954944065222201	0.6583602044716312	-0.333562500449353	9.728728301222223	-18.1525185685403	-1.544806848314047	5.896707620829656	-2.059284857156918	-3.629505337442098	7.418195663681574	0.03769322267749919	-0.2268886820209504	-2.116849148254978	0.4348952430406016	-0.1648762743827836	0.5448720972870702	-0.2135665253057903	-1.028564119004332	-0.3020736276973534	0.1454425339489774
0.1101714545037473	-12.87491856060863	-41.083521149939	23.57826128637285	2.759017527421172	66.18778925423999	158.5664481107946	75.68923537369314	2.076928900410767	8.28734732225217	-70.20869213534326	50.64739658437566	7.670981241046508	-0.5801397327789657	5.217751311447539	-14.07189269530466	-24.20210405110303	-8.802963339819472	0.0085370724231459	49.38067474681801	2.950840913620741	-0.02126318664109513	-6.748733599182268	0.6331857095901895	-0.3745080673910932	9.669794438499421	-18.7229386584081	-1.652317680647282	6.777340509433162	-1.958820581207525	-3.759757365539711	7.552956690944681	0.03975730385210807	-0.2357638876185917	-2.238065011314604	0.463638865245376	-0.1679666756377978	0.5676250080500647	-0.2350979109279296	-1.05120530485482	-0.356656798267863	0.1403369375145721
0.1150170917444269	-1.553533581931939	-33.35857852375587	29.57744869974499	15.29796884420855	89.54471933672005	160.5576412119644	93.04311150744263	7.054224840052534	5.854445902668385	-71.99183653391783	48.59340795101722	7.687145361028472	-5.169247177310707	6.592264995111474	-16.59705172479262	-29.86774770306774	-6.594314912658724	-0.001576623479540209	48.89912728029499	2.123385240687121	-0.02611751244655071	-7.693512707807932	0.6141714994224383	-0.4236288499711334	9.525911820571366	-19.2020978358739	-1.760340681044297	7.551353695200115	-1.762193077976847	-3.915323226267253	7.669382864989336	0.04225468963531487	-0.2447729965984833	-2.301345371528326	0.4258268090443733	-0.1713397025311573	0.5919156149653404	-0.2562667265770996	-1.072447155967071	-0.4021929193837481	0.1301046154142334
0.1198819285398158	11.12775600750943	-21.01578980958426	35.77025904922156	25.84116350927764	116.4819967243593	157.964414018171	109.9645033649936	12.83651587025182	3.064451563253506	-73.6530222784925	44.11234227102403	7.608296545428921	-9.25497784958675	9.26847004725775	-19.47103881958203	-34.6923981132551	-4.027226936527601	-0.01339554024785636	47.81381839394636	0.4833148339639105	-0.03133542609379363	-8.764683322443991	0.6052168288191614	-0.4789030153110707	9.291519827211454	-19.58487977950082	-1.867566003869604	8.167695117323026	-1.473611637138002	-4.088958126761261	7.764077222666048	0.04511247841847998	-0.2537145333522062	-2.297154084571975	0.3217018057406021	-0.1746473577787166	0.6167168084491665	-0.2767336661801469	-1.091834411475705	-0.4344996692822444	0.1147751877341197
0.1246892435043931	25.02123066667738	-4.859622974469163	41.79876054908492	33.76587629843598	145.58685971286	150.9862630104499	126.3233884497265	19.24406634946788	-0.01601384677703521	-75.08787619882042	37.59237286564463	7.490057925670818	-12.77024556965695	12.99639343923434	-22.63017187467084	-38.91122359563788	-1.177370381454492	-0.02645635503033493	46.20521475893788	-1.8240607670509	-0.03668237314051941	-9.923466696936394	0.6119993283547032	-0.5360256863478901	8.965590450180891	-19.87782976238825	-1.973369733735235	8.607597512854413	-1.10628593575317	-4.269953326032281	7.834695896820543	0.04824980391319733	-0.2623860739053585	-2.227142298971013	0.1585748694259898	-0.1772960594111594	0.6408067502286576	-0.2963588226835315	-1.108968249208323	-0.451517761638811	0.09488019399201519
0.1293632224455918	39.42832378726741	13.93426727174557	47.20150951694951	38.46459789384978	176.0512885662711	140.0083235334877	141.6963572342818	26.02061842219506	-3.277128878705696	-76.18518056024972	29.64449435345	7.393055426274008	-15.71831208544688	17.39818240507348	-25.97983984206744	-42.65758944551373	1.844568546259203	-0.04014147388206994	44.20254867839502	-4.577095949012142	-0.04189517072082403	-11.12026937086855	0.6396273867031324	-0.5895134306229264	8.552165138055585	-20.09589467986967	-2.077552123453338	8.898230865212652	-0.6812077039133461	-4.445513125374259	7.880018747801955	0.05157032397928707	-0.2705904025271115	-2.107385602845864	-0.04995850939472823	-0.178592635578817	0.6629027638101413	-0.3151555878676104	-1.123516878409626	-0.4563278877621318	0.07142615476794907
0.1338301540101398	53.21541799889704	33.94182509753157	51.51341648825949	39.60153898495005	207.8616764551283	125.5758084308518	155.4203147145745	32.82740217301235	-6.57667551319993	-76.85823887778146	20.99595184589943	7.364303354087485	-18.15078849192997	22.04082929327128	-29.40211666102831	-45.88386808419084	4.902970873640759	-0.05366214687157807	41.96281446173089	-7.51782416773077	-0.04673413005027505	-12.30195540644008	0.6916852291085993	-0.6337316260541246	8.061799891424105	-20.25791705961825	-2.179850116244921	9.094931106879486	-0.2244950325853249	-4.603186800680141	7.900094282959998	0.05497474461325169	-0.2781422876705426	-1.961800087534173	-0.2860641484804726	-0.1779028231899638	0.681883266793837	-0.3331903097215176	-1.13524303015483	-0.455400203274871	0.04577659296553729
0.1380195921846578	65.58109490939675	53.73310301972428	54.4767266762161	37.44011123960791	240.587983180179	108.6518372333538	167.1492285301692	39.36959722575369	-9.797793331953109	-77.07035697495974	12.36930392974082	7.424746423294004	-20.14859162466689	26.51893840582776	-32.76748336252526	-48.63658877524762	7.890499035477198	-0.06612832207308865	39.6472781945382	-10.39625272963276	-0.05102010307548054	-13.41855143815393	0.7687653817892243	-0.6642690231512005	7.513211780059447	-20.3819672869482	-2.279375470671887	9.252145793224894	0.2360826099062804	-4.733284651897442	7.896753528145685	0.05836451145041466	-0.2848802299187319	-1.810648854689645	-0.5304316536472709	-0.1748427256448611	0.6969854417332797	-0.3504408970045064	-1.144076383269869	-0.4544419707651012	0.01946526150452594
0.1418654673351004	76.09965729532598	72.07090159651868	56.07896622180019	32.7854918691135	273.4455517380634	90.47482248978523	176.8309703273955	45.40315652410788	-12.83829272069957	-76.8464531116703	4.372012912847921	7.567193552665273	-21.79603684140461	30.51573045998875	-35.94988695116679	-50.99640689903006	10.71482330937924	-0.07711094686040632	37.40039855880872	-13.00893538060679	-0.05471723524584676	-14.42920221541643	0.8678405207217458	-0.6789630080053137	6.931734581217612	-20.48270409786147	-2.374616804109581	9.404419999044192	0.6748692086770653	-4.830257157777168	7.873569697753986	0.06163686060019313	-0.2906901884144137	-1.667483029889942	-0.7652050573858858	-0.1694012814716171	0.7078960875832911	-0.3667717001540031	-1.150145254235282	-0.4565995243530696	-0.00601856116269156
0.1453071283122631	84.40009426008424	88.08992574479896	56.42140779853395	26.56197945819802	305.6668664078235	72.23211045104577	184.3775808283855	50.72753456429211	-15.61642548746637	-76.26859055860515	-2.572775829502699	7.763894355420778	-23.16252155622732	33.8422566233134	-38.8386240025493	-52.89995895743756	13.30394337107178	-0.0863857527565727	35.33708024690732	-15.22234827976386	-0.05774119271165146	-15.30577539348147	0.9820526546341123	-0.678468474535602	6.347792197336238	-20.56912521790838	-2.46336174599008	9.546586318147341	1.07122316201602	-4.893513816399795	7.835671168673561	0.06468685242426087	-0.2955112135588167	-1.53527833850739	-0.976307540353466	-0.1619950031923992	0.7147923227751096	-0.3818951279010445	-1.153774109555136	-0.461506387281543	-0.0294116315954775
0.1482902993364854	90.55153274812045	101.2988917061974	55.81647345143875	19.81649279293157	335.9702261047213	55.1562809285676	189.9901151433676	55.21335868229392	-18.05882568969373	-75.46215751885971	-8.245066463087069	7.979007267019729	-24.29416637315104	36.43674793624108	-41.34713493103156	-54.36529916146505	15.58922065123589	-0.09393892572947832	33.5385797530605	-16.978344701242	-0.06009587496084946	-16.03347482363834	1.101766527629169	-0.6659420831866552	5.79410155024171	-20.64488688773742	-2.542975357650927	9.66463850820837	1.410970345594833	-4.927048577614865	7.789314622753905	0.06741470100065872	-0.2993415367213679	-1.415090300268775	-1.154674672168515	-0.1534022018385001	0.7182831390725982	-0.3954141562623599	-1.155452784084926	-0.4672372352038932	-0.049781647577709
0.1507679370955254	95.07345545753655	111.584517644484	54.71314783346752	13.46943246141049	362.5014470047179	40.37497552898088	194.1688913475202	58.84102196822411	-20.11104476123583	-74.5713599363939	-12.60432547473386	8.18007915573865	-25.21363733800016	38.3326441455251	-43.41686746348827	-55.57792416862615	17.51739297710774	-0.09990406662003987	32.0547704039768	-18.28321201960498	-0.0618375289443835	-16.60889532539167	1.216390909499803	-0.6460992002288433	5.302050382239593	-20.71042783457104	-2.610918054553105	9.756287381630287	1.68638607224593	-4.938028152444359	7.741198237912722	0.06973304484700826	-0.302240583074648	-1.31005808154736	-1.296230033948985	-0.1446098596186079	0.719263438225728	-0.406924690619552	-1.155773985307266	-0.4722022417481424	-0.066544694496248
0.1527009768984096	97.84485878381206	119.0770990453131	53.35800287250763	7.725174114560097	384.4822504114154	28.44201091433923	196.824984322534	61.54738107899379	-21.72118645528018	-73.73714918858808	-15.73199681334201	8.344643079746273	-25.92602956746975	39.62435786407403	-45.01382871047197	-56.40521538004376	19.03817476007955	-0.1042240165521809	30.91154590678754	-19.18573896634386	-0.06304747800200172	-17.03651936871977	1.315504528550567	-0.6243117002189669	4.898936316353074	-20.76393148735959	-2.66496643624373	9.796955003930988	1.894916469166698	-4.935134943396975	7.697616269223083	0.07157031142835313	-0.3043040062643891	-1.219032922726059	-1.400805642285637	-0.1366595572285017	0.7187445635548897	-0.4160641418523002	-1.155334312993738	-0.4742604545662046	-0.07941179159562328
0.1540589714577417	99.22724784246356	124.0287904555734	52.09057271506997	3.054810356665364	400.7296901259288	19.85375778346867	198.2412451694084	63.36027848352987	-22.85866161605432	-73.07910885810574	-17.76629242510589	8.461137176777445	-26.4267212204501	40.42538514711664	-46.12245793122411	-56.88987839481113	20.11847001656455	-0.107017958502234	30.11909315163224	-19.75212653047786	-0.06381337689820624	-17.32459486099023	1.390158481887417	-0.6056094844707958	4.606277257763355	-20.80291296452054	-2.703407182912341	9.791277688957987	2.0372504080839	-4.926814274634054	7.663871206893791	0.07287327747911887	-0.3056406390918136	-1.146087102359467	-1.470510669555728	-0.1304912739819319	0.717681164143447	-0.4225533281810752	-1.154660653096636	-0.4732369493886971	-0.0882949473856319
0.1548208116596206	99.45539049168619	126.7120689243665	51.13743379284728	-0.4406404533151402	410.3806138795738	14.88630328368015	198.5860845896249	64.31621477740501	-23.50421371046708	-72.6844017130868	-18.8440986248809	8.525933281011515	-26.70831664206808	40.83462602496733	-46.73861563925777	-57.07847283675225	20.7376910087971	-0.1083256273323085	29.67911541901714	-20.04378687166064	-0.06421106232540612	-17.48147463747292	1.433829014359175	-0.5938751252533967	4.438841255909391	-20.82530053455144	-2.725120664129717	9.741993914133847	2.115392604185017	-4.919813081980767	7.643822123271907	0.07360791081630247	-0.3063473112187176	-1.093996661776766	-1.508089751639473	-0.1268183699398309	0.7168263081574623	-0.4262140190964993	-1.154150470320803	-0.4689318417381695	-0.09321090896790593
0.155	102.7779947180153	126.7212963872491	52.35485712753403	12.04987230789345	412.5021502286427	13.89454146666375	201.2527152116116	64.68036514643465	-23.74437995445277	-72.5889334022344	-19.09072618414734	8.541060719012705	-26.77465609215331	40.92660496387965	-46.88287544890211	-55.62042815678374	20.90596244982911	-0.1127956759550364	29.57615111434001	-20.10957234098239	-0.06430116311624798	-17.5178640989413	1.444285207076065	-0.5909849058627969	4.399130602453995	-20.83062040635066	-2.730241782731963	9.717502046674468	2.133581963034015	-4.917919566491108	7.638990684034622	0.0737810326675018	-0.306508873469681	-1.069658107905807	-1.516759656891324	-0.1259322485658716	0.7165979690413506	-0.4270768376074107	-1.154016659226427	-0.4672097233720883	-0.09435947644481255
0.1554542507337262	100.4246501872492	128.7643778464312	50.64713968330085	-1.533420638027621	418.0714814073542	10.94020904762155	199.5439312996107	65.14158724737585	-24.016385106765	-72.34246573838342	-19.70395390271477	8.579158335277789	-26.94304602379989	41.15239537902474	-47.24738905963541	-57.29532442786277	21.21747911521123	-0.1098280599675735	29.31605969146172	-20.27144929957405	-0.06452360682100647	-17.6092283532709	1.471105027981523	-0.583435351035082	4.297912497960066	-20.84419905663916	-2.743246428798415	9.797219643259226	2.179356705911514	-4.912695146393375	7.62654632867624	0.07422041951757719	-0.3069103644576237	-1.074081211376372	-1.538440431283266	-0.1236479055083729	0.7159722789041064	-0.4292668748048881	-1.153653890750649	-0.4738769684510225	-0.0972573849618123
0.156515784775164	101.6695871826385	132.1040342430516	49.62152720253751	-4.648899082703117	431.1302742016413	4.33154624448116	200.8615628084542	66.48410813034694	-24.86486916022246	-71.74184575477956	-21.0683713735104	8.66637396066735	-27.33801521410994	41.63817004493415	-48.09215067880454	-57.81245082933399	22.019709544037	-0.1119185619408578	28.71369222611815	-20.62178712640425	-0.06500937577537831	-17.81768187339921	1.535514440142363	-0.564545245906761	4.058391175944223	-20.8764559807686	-2.773751835350911	9.888926362876381	2.284368117375883	-4.898092492555992	7.596378937699926	0.07524968799346687	-0.3078026165364347	-1.040639221296303	-1.587375177599305	-0.118097181900033	0.7142461280338752	-0.4343978603282431	-1.152675051561865	-0.4820810660768968	-0.1039481747132352
0.1581644464118399	103.0798572497379	136.8685337333696	47.76394408910421	-9.250190828179093	452.4004903583721	-6.09875111155182	202.4934195384274	68.45778535763496	-26.19675606162264	-70.74194372874996	-22.98904421876332	8.794598529705535	-27.95670132230359	42.27359494126397	-49.38246351234044	-58.33595955175615	23.28259566698324	-0.1151370396538883	27.79445693706752	-21.08538115051029	-0.06566555937903362	-18.12686321219482	1.640272560716933	-0.5317413319207498	3.678595071298894	-20.92803157932436	-2.821391471497594	9.972886476369371	2.441621587913772	-4.868669710063209	7.546582396276769	0.07685286702950411	-0.3090564719477564	-0.9729058309064134	-1.658240028781305	-0.1088876703381405	0.7108227188393786	-0.4423899827282264	-1.150794955291156	-0.4903786097785354	-0.1140921372376661
0.1603741041940474	103.7839632419356	142.4352049224271	44.70201161592152	-16.52865337809703	482.5844902456215	-20.18562251636698	203.7872493496737	70.8558492893377	-27.96641991944439	-69.27918391173624	-25.16458474439929	8.946012161891353	-28.79892445701272	42.89234444597133	-51.06445335927363	-58.85129557477799	24.97212138011684	-0.1188715770645425	26.59676270872472	-21.54570968118868	-0.06634636986277438	-18.51202707071	1.789343460718472	-0.4812036240704733	3.156180840077581	-20.9999287159808	-2.885562587054153	10.03110406682103	2.640128915852219	-4.816144352460754	7.474453827997013	0.07900326356919585	-0.3104728652792381	-0.8684016938755639	-1.742518423546101	-0.09543124511028585	0.7047946173789865	-0.453104418553686	-1.147603140122324	-0.4979394645268855	-0.1271547891026663
0.1631098871668135	103.6897147674089	147.9039436944637	40.36290328482438	-25.93732081062866	521.6051569382736	-37.26053790058229	204.7590197746212	73.48905665260499	-30.1080186739317	-67.28800810331195	-27.19090029165583	9.086517563165669	-29.86641548566647	43.28326208050969	-53.05924685597876	-59.45329619940478	27.02944823806018	-0.1230552096449772	25.1742778037019	-21.84752607354711	-0.06684930376704798	-18.93997246710559	1.986664585405756	-0.408471677238885	2.491780128041353	-21.09282541262783	-2.965065132192855	10.07120070831619	2.864294092599117	-4.730111410593123	7.377200959742382	0.0816517000888024	-0.3117808223223431	-0.730703350137656	-1.828160914946027	-0.07705249011951315	0.6950184150100885	-0.4662667638094852	-1.142627628513869	-0.5052137507605629	-0.1423643653638273
0.1663286436775879	102.0666568944793	152.1610022773772	34.55213011568274	-37.43090477857416	570.0629475436631	-56.53003078191622	204.9217609613326	76.00939707984966	-32.51261844932121	-64.71821127991475	-28.5903249159424	9.159819010636646	-31.15845244369358	43.21813290890726	-55.26081649230636	-60.04034218421313	29.35736076102856	-0.1272648714747175	23.594317467356	-21.80805938611919	-0.06669842764792086	-19.37092097108005	2.23450476224492	-0.3094162156206139	1.692608725454207	-21.20567976982819	-3.057692245213299	10.08449692930403	3.094205071907612	-4.599365506410496	7.252817318166812	0.08471530065743893	-0.3126414557894495	-0.5622572448041538	-1.899912252650043	-0.05314489515252162	0.680243854121565	-0.4813730116240442	-1.135423636684641	-0.5122897258734826	-0.1587187423913008
0.1699796094921079	98.17275610128375	153.9911623640968	27.19279784959392	-50.83713585875985	628.3942203069362	-76.82106014060541	203.7972423181703	77.99692633727589	-35.02664135328752	-61.56199641215398	-28.86693131042783	9.085561896770535	-32.66716470195279	42.48899443449534	-57.53859568758811	-60.50686964851771	31.81623841297175	-0.131007247386333	21.93253128730726	-21.23929345948345	-0.06581845322653318	-19.76147334523009	2.531782358437025	-0.1813670765920108	0.7757586985255664	-21.33488789595934	-3.159994916847776	10.06288675718238	3.306833839551983	-4.413526762244567	7.101234876022989	0.08806350097355253	-0.3126739188734675	-0.3682194085265182	-1.940549003441024	-0.02335397726920801	0.6592738410416233	-0.4976206844739207	-1.125706570835681	-0.5192508516999806	-0.1750390514667761
0.17400520557877	91.76359744019663	152.2598697967546	18.52444755474448	-65.47227777750958	696.1132509944315	-96.40350595196142	201.3138241658582	79.04262075832585	-37.44256431695437	-57.8755454462859	-27.5892446041987	8.765347169560991	-34.36921501924959	40.95716828207053	-59.74531938407197	-60.90674519332642	34.21450349608323	-0.1339230515973464	20.2641687721468	-19.98001913596353	-0.06447859488039762	-20.06912251451424	2.872294954973869	-0.02442505674670903	-0.2289186894904345	-21.47329623212653	-3.267127471917196	10.01517502772667	3.478417552707081	-4.165179114700887	6.925574450617138	0.09150683018267902	-0.3114964052202593	-0.1603651227693178	-1.933157528336824	0.01221086581552573	0.6311748739120425	-0.5138537885155561	-1.113502677716386	-0.526756924547088	-0.190081289153428
0.1783419453248002	81.9571182602575	146.0071606726181	8.790665313928196	-80.52854914832945	773.61799475905	-113.734046627058	196.8075645129839	78.5982438455263	-39.5232967339426	-53.77893038240184	-24.48618809314456	8.099111985836673	-36.21404837118756	38.6118440515083	-61.72918142145148	-60.73785536133359	36.32112256066054	-0.1355081081662601	18.65450892534702	-17.93189968178128	-0.06267909898334045	-20.25805523174622	3.242942640647816	0.1572225110022409	-1.276675933151865	-21.60827995420285	-3.372649129618209	9.905866354470955	3.587866177023699	-3.852507678689644	6.733176619810877	0.09479766664643574	-0.3087672697370101	0.05606206262036464	-1.864226521662753	0.05276429259145739	0.5955387151744569	-0.528508721295564	-1.099270866534791	-0.5333835201083512	-0.2026967870387679
0.1829214354539589	69.13595074983995	134.9022233547566	-1.316911988121018	-95.58138169944569	858.7831005251696	-126.6398747048329	190.5800552116236	76.37957533083458	-40.99893521050338	-49.45034673667234	-19.52722776765672	7.011026790617853	-38.10912407610752	35.59778426071745	-63.35139203250279	-60.21040425515223	37.880165574968	-0.1353891614917734	17.15131393002212	-15.09169645135833	-0.06046285239522878	-20.30497104366982	3.624029476012752	0.3549875421180264	-2.311302317691182	-21.72234482935529	-3.469149632090914	9.7477852070972	3.620480971197977	-3.480733116976778	6.53547442537632	0.09764104975839472	-0.3042475664827609	0.2628756178228426	-1.726924396736567	0.09678676257350165	0.5526495127205606	-0.5397520390233986	-1.083927840692921	-0.5388868380939689	-0.2119958810203832
0.1876714545037473	53.73523259846253	119.1895082304223	-11.03280365039986	-109.9434261158147	949.3828142448883	-133.4587233861512	182.8637759925205	72.20936453859842	-41.61853184350269	-45.09256994983004	-12.95806761961933	5.47697883411802	-39.93439971436215	32.21167982785175	-64.50352080231437	-59.27918566592764	38.64210757431232	-0.1332984055199897	15.77871451963802	-11.56638412862713	-0.05791181976872442	-20.20081205081407	3.991085158101845	0.5568441345155366	-3.269464287058522	-21.79535833365964	-3.548992048303524	9.551494685665235	3.57075743471048	-3.062251677058506	6.347681751708848	0.09972767418857031	-0.2978624811968693	0.4410381114931441	-1.523389129031604	0.1421482423551652	0.5035428389900853	-0.5456583965355259	-1.068835444734161	-0.5434567968955791	-0.2174664421883952
0.1925170917444269	36.45036661883407	99.8042359849801	-19.63097608812386	-123.7937043657392	1042.296594484247	-132.9274944173425	173.9903766269702	66.14280505904382	-41.19844967880691	-40.89997489299596	-5.263879059840272	3.542933189723462	-41.54361977414714	28.87440671181214	-65.1164912786229	-58.04536372292031	38.42045786075509	-0.1290520901742359	14.54119424437156	-7.562895623491045	-0.05536261295486236	-19.95218900933522	4.317158685794296	0.7487523914606744	-4.089550665155774	-21.8043566647299	-3.604972522893088	9.319605248219984	3.443405883339952	-2.615650015426508	6.186204426128184	0.1007765161937721	-0.2896985256493978	0.5756838010660164	-1.265086867205432	0.1863438180309336	0.4499548805020422	-0.5444318858534538	-1.055523913814546	-0.5457328826878461	-0.2190178959309187
0.1973819285398158	17.97052530786384	78.17019248655045	-26.59058103290867	-137.6288341271352	1134.422643986693	-124.7820756543973	164.2036748725233	58.43727828073209	-39.66736886079471	-37.0239781017175	2.912712825494651	1.326012235035241	-42.78643347505012	26.03774019373212	-65.16580776707418	-56.49684843148778	37.12699533993996	-0.1224811542785682	13.42898891490389	-3.356492331161468	-0.0526418281061692	-19.57798272891142	4.578577231207999	0.9178554990034136	-4.72225537144606	-21.72793194533131	-3.631536679546681	9.058151215955924	3.252715421880148	-2.162386145861133	6.065676469128946	0.1005939567155368	-0.2800058305214783	0.6551998310023399	-0.9712078737624064	0.2269809188396763	0.3940597335148588	-0.5347506979360531	-1.045387434679708	-0.5450623810055093	-0.2169542313088546
0.2021892435043931	-0.6519068788229703	56.04331673768235	-31.56202949205141	-152.0447978827852	1222.062762536602	-109.4521616735888	154.009071016682	49.60667665104544	-37.08086135653447	-33.5495718961964	10.90040895723942	-1.00673271305564	-43.54095385179977	24.10594413718157	-64.66445247156601	-54.80224674258201	34.79735532544252	-0.1137291822322807	12.42609014115747	0.7597801941865625	-0.04980086576326134	-19.10374521684015	4.757673334342595	1.054566943465058	-5.138940536367936	-21.54738606838693	-3.625241623776605	8.79332797238601	3.019369246307352	-1.723030627705582	5.995803285085825	0.09910135097089734	-0.2691370430453734	0.6701438220382379	-0.66494206136272	0.2621615879412163	0.3381160006773098	-0.5159608873084384	-1.039329146331236	-0.5419101966029937	-0.2118686469366465
0.2068632224455918	-18.24932435105113	35.16363891308989	-34.42058400801583	-167.1961165010472	1301.751122185881	-88.18511775918326	144.0209985635178	40.30701062118683	-33.62192138174796	-30.50088182787335	18.11471298273904	-3.272387583378587	-43.72948076560327	23.35081470707403	-63.65408555347084	-53.11377101727015	31.59073804871655	-0.1032471054235689	11.5177368953308	4.523798152334803	-0.04715113280995751	-18.55737715701813	4.846238547242701	1.15430760960069	-5.336751668034977	-21.24916586232886	-3.58511306417914	8.561613110537674	2.766331684431112	-1.314212265640371	5.978941506181946	0.09636211686671878	-0.2574801409730394	0.6159560024219378	-0.3692168448998652	0.2907915367311913	0.2841618314770428	-0.4882229727649641	-1.037501228314901	-0.5378449598747902	-0.2045116608449477
0.2113301540101398	-33.80028769161034	16.93590508549189	-35.27084535676553	-182.4872055380297	1371.032928620108	-62.99404763590418	134.8118104056653	31.20123485954524	-29.57166131407074	-27.85717124861058	24.13781651585064	-5.308805335792289	-43.33575369525256	23.85324721705081	-62.19916310260123	-51.43187993493751	27.76112507179002	-0.0917297330701335	10.69338638637211	7.741838676581764	-0.04494213013633475	-17.96529050559396	4.847119687278487	1.217985509278326	-5.338636904216351	-20.82926941492275	-3.513003717205348	8.401216922601467	2.515103853845001	-0.9464342833022473	6.009724819016427	0.09257303049892629	-0.2454234584993633	0.4933284417584833	-0.1029959017354012	0.3126972818186234	0.2337586366214505	-0.4525845098923795	-1.039292936954999	-0.5354890864221312	-0.1956792557343114
0.2155195921846577	-46.53292922218967	2.249223548798113	-34.38904969272908	-196.9235886942393	1428.556219262343	-36.07457470184147	126.8717081605097	22.85577503950186	-25.26036867997614	-25.57915616955205	28.76471613984317	-7.003796467703853	-42.40740610365837	25.5131851709804	-60.38182049625256	-49.7217335370314	23.61827875041545	-0.08000764023536427	9.948914432511781	10.31027119231525	-0.04331972410422592	-17.35161340389681	4.77156298762531	1.250372289754384	-5.187389222122411	-20.29441271706849	-3.413233488125997	8.329635353823239	2.282694356646599	-0.6242236159288166	6.076444325647611	0.08802030132362876	-0.2333176244590527	0.312781869131735	0.1212561494057484	0.3284270327408655	0.1879242015169601	-0.4108429607778554	-1.043498858777928	-0.5361391971742451	-0.1861266289666131
0.2193654673351004	-56.31948473320691	-8.585187573391574	-32.27483744911847	-210.1149593082523	1474.195556270192	-9.593736012878061	120.3055718177715	15.63991032164258	-21.01815636311046	-23.62778617765338	31.9845162498839	-8.306047367333612	-41.05157448454209	28.06594852902861	-58.30579317396018	-47.96492344207958	19.48598215131751	-0.06868458339311562	9.284060862579333	12.21245785067205	-0.04231529649573471	-16.73837048692906	4.638576791116273	1.259029792102238	-4.93584111558944	-19.66629772246288	-3.292595066854048	8.334695480452806	2.080227021330987	-0.3474999282483266	6.164339068661077	0.0830539206378591	-0.2215033049581445	0.09508041916425827	0.2981358415749435	0.3390498311751578	0.1472143747923844	-0.3654107031913129	-1.048714930375958	-0.5392228290350546	-0.176510810776042
0.2228071283122631	-63.42362855393171	-15.77580801415079	-29.47154142103289	-221.9356771258323	1508.835561819822	14.730472706706	115.0265868380039	9.723888936183549	-17.11462763898621	-21.97273772958166	33.9490856661304	-9.223192917905568	-39.41591524944474	31.15777292899642	-56.09540207058127	-46.19267746353065	15.63996931325817	-0.0581911609361799	8.70148959035413	13.50570107936287	-0.04186630833213828	-16.14751101207613	4.469982192646915	1.251828101983534	-4.637980749787175	-18.98028163378499	-3.159878845509738	8.400026925824585	1.913041361555338	-0.1135804660868184	6.258515217136495	0.07802301583362364	-0.2103189202569573	-0.1383855457375636	0.4286096157873525	0.3457859543595015	0.1118500955116538	-0.3190685118453002	-1.053669728762102	-0.5443171202055015	-0.1673775911248085
0.2257902993364854	-68.14933824466232	-19.90084792898197	-26.42321186121631	-232.1174672801514	1533.682711464552	35.78698699337438	110.9971958723055	5.137908725018967	-13.73870699359492	-20.5976976857939	34.91335504420817	-9.806606607117216	-37.66937150485117	34.40646982970395	-53.89362797836725	-44.54160617874913	12.28457305838595	-0.04895361192985648	8.205060851604451	14.29578192629211	-0.04184346327550025	-15.60154550996018	4.288470846965767	1.236002348751272	-4.339501585659894	-18.28297412689127	-3.025124805727232	8.498043568287038	1.781661586759416	0.08050579763324195	6.346899515703449	0.07326050171974696	-0.2001148445021435	-0.3645080253130117	0.5182599841482978	0.3497966313888072	0.08192699434045081	-0.274679530427556	-1.057523410155364	-0.5497566021749243	-0.1591525182944424
0.2282679370955254	-70.68524585312036	-21.73499737021905	-23.40343185405393	-240.1807253498768	1550.034139680487	53.09514240800428	108.3270106902654	1.830347992405937	-10.97807340089081	-19.49364835233612	35.1797181627113	-10.13273844929912	-35.98570573507508	37.46108372575844	-51.8529506170711	-43.28101525959769	9.530077669507554	-0.04134426258810488	7.798372125754316	14.71198025788737	-0.04208864450993825	-15.12294925673242	4.114725501333627	1.217311161328196	-4.073728034822671	-17.62722234243658	-2.89885322324397	8.626556545178087	1.683442841371287	0.2370178302403133	6.421553530399702	0.06905176414480019	-0.1912518747612073	-0.5705343826899986	0.5752560259766731	0.3520346524294783	0.05750481063691946	-0.2349517909634983	-1.059968217218627	-0.5557706872043547	-0.15215514060111
0.2302009768984097	-71.90277008754765	-22.14159049974849	-20.81431325384309	-246.4683707166305	1560.120652378207	66.28636439794514	106.571654529432	-0.4215025276046145	-8.877513569764556	-18.65439901023558	35.04836676739969	-10.28467150290365	-34.52672714685403	40.03865016467063	-50.1223185394805	-42.3640524034118	7.429705457338708	-0.03536302810036653	7.484271043543348	14.88430753414306	-0.04244606422430592	-14.73294681903457	3.965857256999795	1.199877649940955	-3.861180427037904	-17.06573551986744	-2.791125328168085	8.758837366166397	1.614223317657716	0.3570895831266034	6.478608219440462	0.06562362687087023	-0.1840785128440392	-0.7422625354893463	0.6084308772372169	0.3532006995832808	0.0386598506785393	-0.2022393590229087	-1.061155476716138	-0.5618143458168879	-0.1466167206353084
0.2315589714577417	-72.66213248430836	-21.88795568329439	-18.99463916022171	-251.4253567947639	1566.017659237909	75.2231692083634	105.2590663366555	-1.861199741571493	-7.449494256656038	-18.07604211278418	34.77879944203287	-10.33724457671186	-33.42639443435087	41.93681871111475	-48.83204019035676	-41.68049411218989	5.998341798230491	-0.03096271622600663	7.265160619251738	14.9257138536267	-0.04278294811458606	-14.44996484025351	3.854817970881047	1.186389570175675	-3.711704062105142	-16.64467321724084	-2.710563295693584	8.861418712210146	1.569639811400771	0.4407671007613099	6.517235490516375	0.06314562355910863	-0.1788986647342368	-0.8664588173322114	0.6257621190948854	0.3537592681288492	0.0255026690811032	-0.1784002982657962	-1.061511218138919	-0.5666931343991577	-0.1426938979592245
0.2323208116596206	-71.31457153052889	-21.67856856771717	-17.30987979379348	-249.8022138883629	1568.879491905518	80.18565821828471	105.9397404816183	-2.439751058913766	-6.62105283981834	-17.75573297901909	34.56388471685669	-10.3471747786413	-32.78205467896549	43.02925756441643	-48.08088651513619	-41.21380559187175	5.147264950947006	-0.02974848383006842	7.142785599265185	14.92032497420881	-0.04300234730138935	-14.28791242645908	3.79033950994664	1.178438249283032	-3.628465126720648	-16.3987514828361	-2.663592083488188	8.968317064007472	1.546119401857504	0.4875598808538103	6.538159517580691	0.06173206962477393	-0.1759405382654493	-0.9525054277715457	0.6333224708281688	0.3539893564701708	0.01814447749800546	-0.1647283202158518	-1.061511510494332	-0.5720083193244356	-0.1404839477792848
0.2325	-65.06882698047306	-22.3314538060965	-14.56233810059777	-230.7479932417216	1572.120985018162	80.73748766664767	111.0437917616096	-2.096909592498793	-6.306418309256369	-17.68083740990119	34.5067191610738	-10.34747307768984	-32.62768989443993	43.28882996273697	-47.90133989549631	-39.77156595795937	4.69457416066434	-0.03475220120680483	7.11405901631929	14.91608418584296	-0.04305708194629732	-14.24945028600136	3.774954743693742	1.176531539371861	-3.608991465698465	-16.33989253570921	-2.652358252815748	9.090810148835745	1.540744268639284	0.4985554610403893	6.542989988797403	0.06139725970924437	-0.1752392431109513	-1.01527172475971	0.6348751495194579	0.3540353991429974	0.01641582136103761	-0.1614822236189264	-1.061489218125606	-0.5783959826657207	-0.1399633238265866
0.2329542507337262	-72.70068004366794	-21.20773243784128	-16.88774721852795	-255.4450136684286	1570.864761092385	84.21103044230992	104.3900977916325	-3.148147932616725	-6.012457977724139	-17.49174065350402	34.35055282599051	-10.34476160523735	-32.23157832729645	43.95106896353469	-47.44126051031808	-41.00575199925662	4.552745032358362	-0.02676012036335873	7.041331738667163	14.90027865986189	-0.04320112792196336	-14.15135353484578	3.735589222499193	1.171639247886864	-3.559844202163047	-16.1889436363182	-2.623561948969697	8.979148088921962	1.527386964762333	0.5264176584878911	6.555066798244303	0.06054462653416218	-0.1734519132190431	-0.9976810137364596	0.6384269468175814	0.3541389593003963	0.01203667069433441	-0.1532021511304085	-1.061392950422651	-0.5716295895353497	-0.13864222965914
0.234015784775164	-72.43063299036768	-20.34930428225608	-15.23084633869081	-258.4737520486698	1573.44202267312	90.92462514517482	103.8691924035384	-3.996961547520414	-4.966808802776168	-17.05420764503022	33.92301813783845	-10.31911192239319	-31.27924483624828	45.52030639149993	-46.33847308283281	-40.5735690541948	3.502613814526946	-0.02362298442726576	6.871906681628516	14.83521892556435	-0.0435669650010749	-13.91878028049221	3.641624332020092	1.159902951567392	-3.446506081390422	-15.82646276055386	-2.554488025579451	9.053861990833481	1.497681875031422	0.5914999487728955	6.582253534046727	0.05853117940195207	-0.16922144898906	-1.091289368650817	0.6445832176522269	0.3543116405739199	0.001817437268714014	-0.1335728781157666	-1.060934856822952	-0.5732114860741916	-0.13554865800101
0.2356644464118399	-71.64736279198047	-18.52765914930524	-12.56998448523495	-262.9707673431727	1576.351121193248	100.8874093106514	103.2132657977226	-5.135641471748166	-3.393687362127565	-16.38722130192137	33.08719796625202	-10.22620208547533	-29.72666302030954	48.00744920369508	-44.54842703872277	-39.86686752138843	1.91830598455938	-0.0187383013034928	6.610212799836526	14.6569920665728	-0.04421413367848671	-13.5482621575133	3.490548750378304	1.140949443464757	-3.276123643274486	-15.23647250640818	-2.442256237174078	9.198547527187134	1.45575405949544	0.6926955941506888	6.621136506003976	0.05534953683145979	-0.1625003635586841	-1.245036295464934	0.6482335679008223	0.3544075728863421	-0.01402828539487651	-0.1023410565150162	-1.059521702717216	-0.5777806757151445	-0.1307308973029874
0.2378741041940474	-70.34256041109707	-15.06014188542506	-9.055663443566743	-270.0814325206675	1577.583592255055	113.3130277244726	102.2365322742036	-6.321447307516527	-1.429629413673052	-15.51851726883483	31.64623807794667	-10.00267731577128	-27.50805062438426	51.40439417182856	-42.0007834740416	-38.99192996045639	-0.05594281299310589	-0.01178603644539428	6.262053057511383	14.27414176542005	-0.04522500420608232	-13.03378572366113	3.279306937762974	1.114501158897492	-3.062920805166429	-14.39453997463773	-2.282407917706794	9.422096864817259	1.407588442719543	0.8291495260449009	6.665490609615055	0.05099145019108081	-0.1532007196210317	-1.45638099008623	0.6420222731354642	0.3542671339942152	-0.0352617791584135	-0.05916305444047315	-1.056130238691217	-0.5858362961371182	-0.1242616590173878
0.2406098871668135	-67.43440909971692	-9.258340763473765	-4.484745122718877	-278.4383444029968	1574.66703170796	127.203585698545	101.6229387024392	-7.140885141010004	0.7720936906153248	-14.48572078378444	29.37251149328522	-9.575564800387959	-24.54961024394066	55.63872367880481	-38.61082436035473	-38.14664157607003	-2.262138572639981	-0.003165876865230344	5.834576289889032	13.5806198905913	-0.0466863921490643	-12.36841257969716	3.006143545034279	1.080737617785847	-2.832233080852613	-13.27273756653027	-2.069711273856858	9.7622768760097	1.360555828577624	1.000658429496417	6.705244517143951	0.04546685106549136	-0.1412229809608352	-1.729126517128862	0.6172480523112112	0.3537807311693396	-0.06164096651876504	-0.003858836375576685	-1.049237263985715	-0.5990829138215463	-0.1162599947214281
0.2438286436775879	-62.71179715337492	-0.4792148158155508	0.9718539557237036	-287.66029231081	1565.930195787019	140.7032184211194	101.3235526828228	-7.254504860167678	2.946796452609458	-13.33749920340346	26.0466771548725	-8.875772733848757	-20.78275644591579	60.52705042001612	-34.29305482083681	-37.12109297975586	-4.446408694213241	0.007055441894111308	5.335754206644555	12.47342639637491	-0.04866509743430952	-11.54617758523807	2.672376017087727	1.04047801082791	-2.623461039281707	-11.84572589442363	-1.799065886411724	10.20652810158275	1.322477973401726	1.207976190661811	6.725828743497161	0.03881869835261864	-0.1264865974193921	-2.050775666280544	0.5651931854198613	0.352926965254686	-0.09294987962682794	0.06333600239660873	-1.036805408791375	-0.6167416345919162	-0.1069020604761741
0.2474796094921079	-55.34517024358422	11.5255111607351	7.365516000737826	-294.7129002955551	1551.087470160342	151.4706516325158	101.8863418729115	-6.304293781433056	4.801231848813476	-12.13565547077981	21.5053262408515	-7.854563979782501	-16.1576933957441	65.73573339764519	-28.98159723125342	-35.43691174156812	-6.347365260377826	0.01797568638341107	4.774045500336681	10.87362485861546	-0.05117953824341386	-10.56535286482842	2.283927910130553	0.9950578041589795	-2.490707272393715	-10.0989037823733	-1.466717353134789	10.73508954215025	1.300372804712012	1.452456139680108	6.708296882476901	0.03113687718681013	-0.1089752902513457	-2.406255905337713	0.4787566036615043	0.3517538564720531	-0.1289736075135277	0.1414962836098741	-1.016380772772448	-0.6374065329429536	-0.0964282949902508
0.25150520557877	-44.82730084355249	26.7613350774142	14.59311583782115	-298.1285511721103	1529.323049912187	157.3638127180709	103.6782795905082	-3.94650869716923	6.035333622187796	-10.94797548580816	15.68907214711179	-6.500129720683869	-10.66631960706454	70.75777769463825	-22.65721482669555	-33.15208819551083	-7.663978934237603	0.02911849628987098	4.157284887974892	8.747793763330602	-0.05417528565003313	-9.431232781249129	1.852373196193648	0.9460476545781199	-2.49932954545686	-8.039551729869345	-1.072072975414875	11.34708144266894	1.299144399901218	1.735590742198623	6.630981945267353	0.02255699025316715	-0.08882000885822494	-2.778871965037605	0.3541275116755737	0.3503272828330394	-0.1694746420608577	0.2287188492728387	-0.9853898204531459	-0.6608212246681802	-0.08514457791229627
0.2558419453248002	-31.07556347200921	44.63901863316229	22.48406201043779	-296.6839499011762	1501.404375220567	156.2657092154768	106.8849858542157	-0.01179016443500913	6.409090945842177	-9.843937868861783	8.686514815237301	-4.849950111411045	-4.350218697927753	74.94071390113794	-15.37563841303869	-30.24895581221176	-8.160432363292252	0.0400634617908151	3.493694901148778	6.125741328894309	-0.05750929388357296	-8.161079846120364	1.39440865722396	0.8944696403192813	-2.717983094037221	-5.706131159342245	-0.6195475521488387	12.06692350172547	1.320429145901763	2.057129057667569	6.472301433798566	0.01325872802547379	-0.06637560856345281	-3.161961946670781	0.1921833116045303	0.3485899031894467	-0.2140405209620301	0.3219434910900374	-0.941576621569838	-0.6901386312385996	-0.07341947041930026
0.2604214354539589	-14.48459736160048	64.09411529887174	30.75670270489448	-290.2149049451174	1468.460387822351	146.7489307927212	111.4187236124663	5.483834795800346	5.73960808505533	-8.883225606688004	0.7575192048118902	-2.993634268942404	2.690751772556981	77.56502670694623	-7.289545626638416	-26.89245763699513	-7.650900075215717	0.05048558970987491	2.793075158967143	3.108635491330055	-0.06094971610882405	-6.787088447340741	0.92998145151221	0.840144479800921	-3.206011673311424	-3.173745163938172	-0.1201502643104007	12.85930417929107	1.361985081154961	2.413070626147543	6.214713792168942	0.003456837582295369	-0.04228279383998856	-3.52988255326037	-0.0008420309520273117	0.3462345818154023	-0.2619199592004164	0.4169628384566185	-0.8835363663665194	-0.7232023260231425	-0.06167107776683937
0.2651714545037473	4.057405113050759	83.51908493696129	39.10900187588436	-278.9891123105068	1433.099554936637	128.1194390415901	116.9562664684626	12.2539421064492	4.001917134504183	-8.093835580321459	-7.678080722170506	-1.062955035478771	10.2844054593386	77.95988343231619	1.344707918703645	-23.07530192274051	-6.115779232163132	0.06002995850440437	2.067089021949112	-0.1367876460305061	-0.06419781010355979	-5.354492545272545	0.4797834753692376	0.7817130155957459	-3.9986878579532	-0.5536912881072173	0.4075101647318253	13.69143668019003	1.417931937847863	2.79488127654637	5.849096694158275	-0.006618198566657962	-0.01749859080826832	-3.865729785598833	-0.2137474989312204	0.3426985396277998	-0.311969806934141	0.5086572076421678	-0.8112289689359824	-0.7590400657758682	-0.05034101881794526
0.2700170917444269	23.5095103601242	101.1735473767097	47.2788357492398	-264.4283552779666	1397.324500550426	101.1279882417886	123.1127398678983	19.85098647898416	1.345598950260069	-7.473268883533418	-16.08225147746651	0.7894376342205125	18.21097344260398	75.66685904327259	10.18206573431509	-19.11288215075869	-3.689689770752942	0.06852938023823188	1.333968856405832	-3.397808859483098	-0.06693511869065284	-3.921433376339478	0.06187262930649576	0.7167677511229089	-5.096478679429501	2.01591368625728	0.937260818421942	14.53388782269679	1.4797926779479	3.188324733803784	5.378177125716227	-0.0167196374077343	0.006748512804922946	-4.158279799670809	-0.4317487446360589	0.337211820185582	-0.362549714664224	0.5914512504928431	-0.7263609383990857	-0.7962318196694196	-0.03986266873240801
0.2748819285398158	40.53172676055422	115.3568503718761	54.341367833097	-251.4219811990282	1364.709921891196	66.73757235849487	127.5614862715981	27.3031434342621	-1.953904935528961	-6.962670966128764	-23.88766830687339	2.42104255348321	26.21290755718546	70.51991065712045	18.84104541375148	-14.05059619677214	-0.6521529813875745	0.07631852573231743	0.6150446477869499	-6.450771651124888	-0.06887126649021121	-2.54583644185261	-0.3113114353587644	0.6428588869516468	-6.460495733081906	4.396768066032337	1.439676250549426	15.25843391596118	1.538282686436113	3.576428841677799	4.814974499731353	-0.02662063279312599	0.02919560420736778	-4.384304718182264	-0.6390673377702547	0.3290067697028057	-0.4118301315867692	0.6602750855894266	-0.6318731803007833	-0.8294525970808828	-0.0306176944760121
0.2796892435043931	53.50252199027357	124.8337049664118	59.96971535411739	-243.0186392066778	1336.372115436422	27.98024866624689	129.383197290807	33.82635621076881	-5.428476665592346	-6.500200105217209	-30.57389665749707	3.722097985031276	34.00927968455153	62.7934973712986	26.93281601696458	-7.939327408601489	2.57982152995023	0.08371324677317712	-0.06021407286560287	-9.09201938761651	-0.06982084010828737	-1.286568460188028	-0.6330814720655421	0.5587513112828553	-8.01302675135217	6.452139416185513	1.881271532452949	15.83436036238927	1.584853098455441	3.939782565176685	4.188722491541605	-0.0360727406690205	0.04849197430317598	-4.549586623447739	-0.8209030422311527	0.3176156522394306	-0.457759018519703	0.7108435399623099	-0.532780333349008	-0.8579689722789087	-0.02287755994203568
0.2843632224455918	61.92604188224805	128.4079040408465	64.20944246578517	-239.6121542577444	1312.686861305552	-11.44250222353719	128.4044530918131	38.56848857693434	-8.413813071450459	-5.94534888451589	-35.7828258737497	4.642519700179693	41.37660212250962	52.95779137275053	34.18467797865972	-0.7800647705701147	5.401278919004066	0.09059145635098795	-0.6705103337448826	-11.17983765938076	-0.06968399025681052	-0.173707675209135	-0.9076802058036866	0.4636764535193039	-9.661669400904049	8.12233267529859	2.242928509349996	16.25375023771976	1.613595263704816	4.265146697784201	3.521999675329988	-0.04495809031301146	0.06407490491109724	-4.681341837687333	-0.9669963605053349	0.3028062554367325	-0.4990507545885182	0.7417034287576607	-0.4323567608415877	-0.8813524462705644	-0.01680316348810373
0.2888301540101398	65.84266706310385	125.9872085340822	67.05691095201396	-242.1736129732149	1295.446152218515	-47.67555688011382	125.1658274731131	40.98535410818718	-10.4217349138588	-5.324570964030766	-39.33641300060025	5.179333219428138	48.05623679003204	42.02591170045802	40.32569374115955	6.938124894039457	7.365796738337595	0.09619692971413968	-1.182188964630521	-12.64200117719574	-0.06860535687222102	0.7466336293085838	-1.132079409397697	0.3623152595970121	-11.28754312422441	9.309286260641107	2.493057971980964	16.56204018141135	1.621864722333874	4.535701999608813	2.870370182808704	-0.05293215005413449	0.07478683959090549	-4.810345786986149	-1.070926445872953	0.2854066050168997	-0.5338246683483325	0.7514708848998942	-0.3386923627961978	-0.9022114809378137	-0.01234991934461672
0.2930195921846577	66.72543321218969	117.1242081400968	68.89186807476079	-247.4297681860375	1278.827815248259	-77.26962514400176	120.3521197646312	40.50179940082047	-10.86157765069758	-4.354332917768194	-41.28522657608938	5.392953019422878	54.01385197890308	30.37432350831066	45.42744754876072	14.48693600990108	7.898703538081026	0.1018679961290347	-1.608160348051767	-13.48839395356013	-0.0665960400720397	1.523507314037328	-1.333381485673311	0.2527843186962875	-12.83177185919559	10.1579103187509	2.662116627872654	16.81968066056614	1.609669844570825	4.760628260949846	2.218377233831373	-0.06030606257289034	0.08229283018291142	-4.986144586725513	-1.133894985924128	0.2654242458703713	-0.5634137807413317	0.7455562952838889	-0.247919330860316	-0.9229052337046186	-0.009449358866023064
0.2968654673351004	64.43720945867409	104.3390399295586	69.2610998036436	-258.8129033497722	1268.210621707805	-98.90368294183736	114.7313655538348	37.54684359663316	-10.06971934707358	-3.451785887130953	-41.84459875095727	5.347221506314009	59.00368552407051	19.62542864665812	49.272597665263	21.16995397820083	7.261429268964318	0.1060497748472931	-1.904869386722211	-13.80183295886079	-0.06428210818741276	2.078311263815297	-1.485767096546795	0.1496898393189197	-14.16394654666811	10.50447582489386	2.700153208768993	17.07287484507158	1.58186489497529	4.917599485299775	1.671194135788009	-0.06626763974440786	0.08447219333025038	-5.198095224680255	-1.15884084094285	0.2455251783597888	-0.5848865622285875	0.722581218767671	-0.1755615641523599	-0.9459174837877553	-0.007726943195237194
0.3003071283122631	60.76811684179258	88.09615748593332	68.6198475664134	-271.1055189978266	1255.502961317789	-112.2015324012261	108.6391380695865	32.18472270815217	-7.97956147678164	-2.285686526318027	-41.37808902797961	5.147558020989776	63.17300619853776	9.627218022991771	52.20486783259506	26.74043337828689	5.315257654609257	0.1089330948434275	-2.121915911392436	-13.70899574745765	-0.06183767364627581	2.516018586357344	-1.62519571260929	0.04904525828574258	-15.3050308233445	10.64056979902215	2.683266527340246	17.31684395754461	1.542953004933233	5.034619175554379	1.171019477583367	-0.07147640597817828	0.08474721180978789	-5.460630470715363	-1.156163021767102	0.2255823209761746	-0.6017142171789519	0.692694727338468	-0.1107397073897484	-0.9686349746058101	-0.007009921065826631
0.3032902993364854	57.82982920592626	68.71758556754513	67.58999854487331	-277.626906999066	1233.295982115797	-117.9272519938275	102.6793104545403	24.84532095715549	-4.761454665473686	-0.4861594707732051	-40.10003373409348	4.859483356416114	66.67752534589722	-0.1069035503979254	54.56024510974407	31.02555311565374	2.148765746340651	0.1110066490585998	-2.305556910028979	-13.26986353770758	-0.05898377317807694	2.950339544918538	-1.790218644954238	-0.05598491379157394	-16.30469817881165	10.83178129653974	2.685589072609338	17.54613218846824	1.492207283964424	5.146165169818905	0.649161678491231	-0.07679707646293149	0.08614167126326377	-5.774873700216382	-1.131167671382896	0.2050365269349461	-0.6181078719934294	0.6640010322577564	-0.04175094455138884	-0.9888243997106817	-0.007023066538180571
0.3057679370955254	52.65143724303569	52.99956599402508	65.12017293092977	-292.3607887550617	1224.840088212978	-119.3660352624619	97.24833420761702	17.8365915621113	-2.020665565779574	0.4296650343305028	-38.64173127681479	4.551227624137582	69.14873946125687	-6.570413487811004	55.83983356103467	34.11364845571722	-0.6651236438363336	0.1100236840915277	-2.360021074004439	-12.77012532075324	-0.05702767070894373	3.117181286959476	-1.870722263505965	-0.1277469898403746	-16.95692793607843	10.53419703336119	2.552890018192677	17.69185169928559	1.448940238942602	5.180079422201285	0.3641764142951233	-0.07966186294508243	0.08190691281134754	-6.01489364643303	-1.097871497298392	0.189968073042532	-0.6245125502630944	0.6272838136105002	-0.008526802393898719	-1.001858941603946	-0.007249615325922075
0.3077009768984096	46.06976362601824	42.64287642867033	61.86423647722733	-313.8490338105624	1230.026814968474	-118.7381050631432	92.76256159773013	12.16734449796699	-0.1211974205027424	0.3564859064709784	-37.50392719303575	4.298712851731073	70.72790158204795	-9.75606847040619	56.30457648041127	36.13565127293413	-2.708836821776199	0.1080275845723465	-2.322691438944226	-12.410765288163	-0.05614935024986033	3.052176049244033	-1.866508708682228	-0.1632449441404595	-17.29441402551663	9.88824381450635	2.325856251951665	17.74377366257693	1.422961317853909	5.14727677468543	0.3046677634116156	-0.08014782757670236	0.07368603897367687	-6.15914181433019	-1.070972722461118	0.1811241821641753	-0.6220820402687149	0.5890912083102033	-0.008049866240769171	-1.006136283807846	-0.007542593377988779
0.3090589714577417	40.34089402417592	36.14441139969048	59.04266013466491	-332.5596387670252	1235.679941316655	-117.3559952785951	89.14575613227792	8.015779988310992	1.164483246664972	0.05620556335711857	-36.73658994920692	4.1245167390556	71.72873262217925	-11.36945618902493	56.47402131536407	37.31414959609118	-4.136562720407574	0.1064947477040897	-2.273987998266297	-12.18221935249129	-0.05576089788064353	2.945372424941282	-1.842277746345298	-0.1814191076428959	-17.47018317656428	9.31098876717593	2.127558845709087	17.68251322062516	1.408297474314743	5.105014826437008	0.3163922555441139	-0.07992551908889382	0.06643944409528296	-6.224941817739158	-1.05287193573357	0.1758697491831014	-0.6179700605957175	0.5597101576206853	-0.01585054757576487	-0.9995734166706051	-0.007811593343315517
0.3098208116596206	37.64587492559223	32.12899726852636	57.54670958291006	-341.8921814329906	1242.259386811965	-116.1860636163163	87.84040784637905	5.539601802670311	1.927577799855865	-0.1547196084382527	-36.31512210595822	4.0287055160958	72.26871867865798	-12.14891048655722	56.54178350554313	38.21297679189064	-4.995592993812685	0.1041549790779114	-2.242959650620409	-12.05992018286674	-0.05559028932761403	2.874431156515669	-1.824919077976079	-0.1903540386229316	-17.5544557255816	8.965282859142135	2.008711716633314	17.52419688375307	1.400904562514079	5.077682879955354	0.3336264276452986	-0.0796990294342181	0.06210864380740599	-6.230317239726843	-1.042976988990877	0.1730985417624205	-0.6152117777068923	0.5428295467321135	-0.02178967400318743	-0.9832136581325555	-0.00798075889522314
0.31	37.02519112683032	31.15354555352972	57.19399524292979	-344.0302286274507	1243.985392067201	-115.8731076174251	87.55782570554773	4.938148770040875	2.112917016695981	-0.2049508055555025	-36.21614689854647	4.006343619311757	72.39469191898503	-12.32700830466471	56.55690021655487	38.44782202991792	-5.204862842213426	0.1035073134768912	-2.235565838425772	-12.03130847485049	-0.0555521196825313	2.857432705763422	-1.820753013921213	-0.1924202414820216	-17.57337784366561	8.883297335434168	1.980424172338617	17.47624071768772	1.399200697680357	5.071133555162249	0.3381244108784434	-0.07964322469506827	0.06108099249992749	-6.228945813880734	-1.040655318549168	0.17245126167653	-0.6145483022480092	0.5388504525748627	-0.02324597757280258	-0.9783144761070184	-0.008021872763298417
