DataType=double
version=3
OpenSimVersion=4.5
endheader
time	ground_force_1_vx	ground_force_1_vy	ground_force_1_vz	ground_force_1_px	ground_force_1_py	ground_force_1_pz	ground_moment_1_mx	ground_moment_1_my	ground_moment_1_mz
0	0.01928705139391224	-0.06368442301215786	0.001646078384677183	-0.173941657692975	0.0066373	0.2582712284632009	0	-0.000143956068323756	0
0.0004542507337261803	0.0190053496599137	-0.062760147031583	0.001643249789416144	-0.1714778539527285	0.0066373	0.2584255941565053	0	-0.0001396471698875951	0
0.001515784775164009	0.01836787567024922	-0.06066800865098021	0.001633875567920145	-0.1657310149014414	0.0066373	0.2587906150914472	0	-0.0001301700203959434	0
0.003164446411839883	0.01743636078382968	-0.0576090455272131	0.001611759655537536	-0.1568365522798587	0.0066373	0.2593671786567425	0	-0.000117035142401848	0
0.005374104194047435	0.01629343176187447	-0.05385230642694539	0.00157005735117916	-0.1449762383229427	0.0066373	0.2601519318241908	0	-0.0001020807837866531	0
0.008109887166813518	0.01502969218568943	-0.04969301150579123	0.001503907042519157	-0.130391770258269	0.0066373	0.261128680179577	0	-8.697068239475259e-05	0
0.01132864367758793	0.01373785925340772	-0.0454343529522018	0.00141332822335006	-0.1133846330274161	0.0066373	0.2622633136231132	0	-7.28672398378484e-05	0
0.01497960949210789	0.01251575742096783	-0.04139557721180354	0.00129705149768501	-0.09430805489759589	0.0066373	0.2634965400964329	0	-6.070467838345073e-05	0
0.01900520557876997	0.01143827514095533	-0.0378230867680279	0.001159401955202196	-0.07355239640718245	0.0066373	0.2647402311917753	0	-5.042243149107007e-05	0
0.02334194532480019	0.01055727370425033	-0.03488919038845521	0.001005277812360763	-0.05154107320677492	0.0066373	0.2658842687194107	0	-4.133444604495774e-05	0
0.02792143545395889	0.009905669643979436	-0.03270509037332091	0.0008375887865476291	-0.02870928306207338	0.0066373	0.2668052992940975	0	-3.24408070831734e-05	0
0.0326714545037473	0.009492183031795049	-0.03130400997516262	0.0006580178463884699	-0.005491384682920625	0.0066373	0.2673834903067249	0	-2.263664921683168e-05	0
0.03751709174442691	0.00931886183352749	-0.03069813622991413	0.000467366308741848	0.01769481279950247	0.0066373	0.2675250649815926	0	-1.098812555881923e-05	0
0.04238192853981579	0.009387565912845418	-0.03089883616645444	0.0002651587498945038	0.04044690176660118	0.0066373	0.2671820206303517	0	3.19170959075103e-06	0
0.04718924350439309	0.009684244208992689	-0.03186397109162824	4.52528126104145e-05	0.06240470212128929	0.0066373	0.2663589522888226	0	2.052225067356251e-05	0
0.0518632224455918	0.01019892719484819	-0.03356423458269844	-0.0001943805375892078	0.08325604253727489	0.0066373	0.2651089038344419	0	4.131749133310192e-05	0
0.05633015401013977	0.01091422749472151	-0.03594351649776079	-0.0004508375857381773	0.1027249783568743	0.0066373	0.2635342010065836	0	6.554655893322277e-05	0
0.06051959218465776	0.01179875414801938	-0.03889685186533222	-0.0007204459692661373	0.1205774388811014	0.0066373	0.2617639665966182	0	9.274759349059818e-05	0
0.06436546733510043	0.01279749056274141	-0.04223859331460596	-0.000992781431774272	0.1366199273710313	0.0066373	0.25993385520072	0	0.000121817900309543	0
0.06780712831226307	0.0138557360550971	-0.04578234057755	-0.001256288949694617	0.150696107910419	0.0066373	0.2581677030112519	0	0.0001512659791553625	0
0.07079029933648544	0.01487334638200637	-0.04919201144186301	-0.001496028514144865	0.1626816577834392	0.0066373	0.2565669852435633	0	0.0001791952250513713	0
0.07326793709552543	0.01579291891834048	-0.05227344504739276	-0.001703120367211309	0.172481946449004	0.0066373	0.2552053833221477	0	0.0002039731024642282	0
0.07520097689840965	0.01658015607483804	-0.05490832964692	-0.001867782283550225	0.180031024796091	0.0066373	0.2541311464744064	0	0.0002242235184803069	0
0.0765589714577417	0.01715171921904238	-0.05682100790874957	-0.001984295108154473	0.185283462997687	0.0066373	0.2533737765689007	0	0.0002388335765109172	0
0.07732081165962061	0.01748430493035583	-0.05793324652138779	-0.002049775872509074	0.1882115315810106	0.0066373	0.2529487545128747	0	0.0002471588443597347	0
0.0775	0.01756239714385184	-0.05819451389046256	-0.002065339007840383	0.1888983018524615	0.0066373	0.2528488218948463	0	0.000249136300603206	0
0.07795425073372618	0.01776421500102228	-0.05886935827932337	-0.002104618600275091	0.1906358965763162	0.0066373	0.2525955809288596	0	0.0002541681563992004	0
0.07901578477516402	0.0182398233057894	-0.06045844222156734	-0.002193561167537389	0.194677991555224	0.0066373	0.252004882679226	0	0.0002658427987618786	0
0.08066444641183987	0.01900082154605781	-0.0629977409221871	-0.002326764961461123	0.2009045948207178	0.0066373	0.2510930428785416	0	0.0002839800445618337	0
0.08287410419404742	0.02005000959737884	-0.06649134519939584	-0.00249147275336078	0.2091529460817907	0.0066373	0.2498884596067935	0	0.0003078787188914268	0
0.08560988716681352	0.02140031883381607	-0.07097430076609434	-0.002670479525131993	0.2192120259070966	0.0066373	0.248438833782055	0	0.0003365630079340379	0
0.08882864367758794	0.023050740909367	-0.07643189123194942	-0.002835940212403123	0.2308247537511286	0.0066373	0.2468148279558983	0	0.0003681480459216949	0
0.09247960949210787	0.02495563742765943	-0.08269809835896488	-0.002942479137121273	0.2437002016903093	0.0066373	0.2451111067350172	0	0.0003990843866116671	0
0.09650520557876997	0.0270438198824855	-0.08952466600729631	-0.002936492496836899	0.25752262955976	0.0066373	0.2434415015830136	0	0.0004248272429818572	0
0.1008419453248002	0.0291909304210446	-0.09649532452188958	-0.002757163234556659	0.2719601103836063	0.0066373	0.2419290285239079	0	0.0004396972015767615	0
0.1054214354539589	0.03123165073950926	-0.1030759055022924	-0.002356236742788177	0.2866740669493237	0.0066373	0.2406908248834362	0	0.0004382901298250659	0
0.1101714545037473	0.03295752542920896	-0.1086097663075601	-0.001711953896370562	0.301327974301387	0.0066373	0.2398213238933019	0	0.0004163691332668475	0
0.1150170917444269	0.03385294184978271	-0.1114422709610039	-0.0008704797371564061	0.3155993992167062	0.0066373	0.2393777111677855	0	0.0003668297443624814	0
0.1198819285398158	0.02045255721132037	-0.06706254698160126	-0.001345190668818545	0.3291916981671839	0.0066373	0.2393710014152456	0	-9.569800617564029e-06	0
0.1246892435043931	-0.6744582864540795	2.243070738898001	-0.1012575262937651	0.341848433561234	0.0066373	0.2397650825940711	0	-0.01883329974290628	0
0.1293632224455918	-7.23479702862944	24.20640572063646	-1.340131360488856	0.2627520160300552	0.0066373	0.2555390324238059	0	0.0006342183165841259	0
0.1338301540101398	-16.44992261819306	55.48152349916991	-3.713836810628766	0.2707989934878131	0.0066373	0.2570826345076669	0	0.0006626129107238365	0
0.1380195921846578	-25.32106398990759	86.22620092391325	-6.762548005051459	0.2769743020536536	0.0066373	0.2585639103507951	0	0.0006862784409427114	0
0.1418654673351004	-33.31432321371175	114.7273286585656	-10.302259755059	0.2816404799146123	0.0066373	0.2598876119108836	0	0.0007055832408153773	0
0.1453071283122631	-40.23019678853517	140.3762554670862	-14.20931859729765	0.2850591331954451	0.0066373	0.26113952536819	0	0.0006181100494511149	0
0.1482902993364854	-48.66862136344707	172.3195422549663	-19.34056649362958	0.2879937903689567	0.0066373	0.2645057192611251	0	-0.002251062207720311	0
0.1507679370955254	-61.59890887850102	221.6214758232281	-27.20942608811949	0.2908352255335819	0.0066373	0.2704348733131197	0	-0.01273308141701612	0
0.1527009768984096	-72.46448054770018	265.4398041945515	-35.3464379825698	0.2927630381594339	0.0066373	0.2740993215309109	0	-0.0272191345555961	0
0.1540589714577417	-80.38300366344721	299.9254243205557	-42.71600228069351	0.2942950518876624	0.0066373	0.2757537442656624	0	-0.04499725406412836	0
0.1548208116596206	-84.9867382694535	322.0362490270354	-48.04864524259008	0.2953350703499723	0.0066373	0.2762934930214866	0	-0.06088348566292545	0
0.155	-86.07218445559803	327.4865778830327	-49.40069982786018	0.2955884123310165	0.0066373	0.2763888746906673	0	-0.06537197457776234	0
0.1554542507337262	-88.65820284693291	341.6023129576087	-53.15117002629501	0.2962269502871123	0.0066373	0.2765934352187305	0	-0.07882758456529615	0
0.156515784775164	-93.3484363762195	375.1980739475105	-63.14353970076822	0.2976167711544832	0.0066373	0.2769471120041104	0	-0.1234211257567068	0
0.1581644464118399	-90.57992421851687	426.8697662898945	-82.26669373175305	0.2993600419046704	0.0066373	0.2773533170729833	0	-0.2637204879101951	0
0.1603741041940474	-47.50336804993101	492.3401513775299	-96.02134964343784	0.3009999174205475	0.0066373	0.2777686881681956	0	-0.5595795201672189	0
0.1631098871668135	32.44704881733291	563.976323462757	-52.03618853500101	0.3022779182344857	0.0066373	0.2781231100710264	0	-0.5442678570007713	0
0.1663286436775879	63.08769032639064	635.3876642491778	57.30238691395007	0.3033655353582164	0.0066373	0.2783813937444112	0	-0.4803392758838765	0
0.1699796094921079	51.36014769544885	745.5759069434886	164.4794385550817	0.3069712539951788	0.0066373	0.2786176487601143	0	-0.3762905172147839	0
0.17400520557877	18.11165611974559	902.3767191626866	251.193060778495	0.3134902142323333	0.0066373	0.2764794553473507	0	-0.01683977988749419	0
0.1783419453248002	-16.60541493903514	1024.856636392861	303.4752929349247	0.3179724257248461	0.0066373	0.2744269337794375	0	0.1495846401382437	0
0.1829214354539589	-49.44391371625189	1128.176331562109	336.1624893079822	0.3227831087809225	0.0066373	0.2722110681262616	0	0.2878699314869451	0
0.1876714545037473	-87.54851022123131	1243.089439232916	365.6874280590748	0.3301531019996067	0.0066373	0.2684846894000657	0	0.5131930634344144	0
0.1925170917444269	-129.6081641471561	1322.475877726318	379.307125218524	0.3375548519990422	0.0066373	0.2643710477186926	0	0.6720673343603636	0
0.1973819285398158	-164.1566340529395	1392.756445422996	389.1809521938099	0.3469962711934028	0.0066373	0.2597043240818436	0	0.8620508691835553	0
0.2021892435043931	-208.261561683294	1452.347877549021	388.2519374021517	0.3580646749204858	0.0066373	0.2559580921967551	0	1.035342311848417	0
0.2068632224455918	-259.3938093335706	1500.936629032592	374.4839098664804	0.3698138222934418	0.0066373	0.2526075370699286	0	1.109321100124294	0
0.2113301540101398	-302.4684140030799	1542.038931176196	357.2530661521939	0.3823848089667334	0.0066373	0.2504200415918195	0	1.192497763184853	0
0.2155195921846577	-336.8482855467405	1540.538359738361	324.4904268415534	0.3918352963478697	0.0066373	0.2490501894005819	0	1.16578887659661	0
0.2193654673351004	-358.7834951370909	1507.834710816319	284.2813289484711	0.3986344915946298	0.0066373	0.2481366059086682	0	1.161648379800853	0
0.2228071283122631	-373.7420896251169	1464.909061019124	240.8999653765721	0.4037064205190102	0.0066373	0.2475723493553676	0	1.154572449046901	0
0.2257902993364854	-383.3208571886353	1423.278412272266	198.8673693748335	0.407621814920972	0.0066373	0.2472368881223238	0	1.206206212467394	0
0.2282679370955254	-389.3249854288911	1389.003568243944	160.846841723925	0.4105968922017848	0.0066373	0.2470599874351105	0	1.25327561923779	0
0.2302009768984097	-392.774268051823	1363.463485618141	128.4354575669107	0.4128050419027271	0.0066373	0.2469668093156528	0	1.327193888710305	0
0.2315589714577417	-394.2722777160099	1346.632454785819	104.7754183287824	0.4142882052982141	0.0066373	0.2469263697367805	0	1.370371492639852	0
0.2323208116596206	-394.8215636370945	1337.530272524399	90.46290781311424	0.4151090804254357	0.0066373	0.2469077268219948	0	1.408321259328355	0
0.2325	-394.8827142785653	1335.4414521692	87.20062693605897	0.4152976409876394	0.0066373	0.2469048672784727	0	1.413111931480019	0
0.2329542507337262	-394.9934594479562	1330.248242847083	78.60875072431938	0.4157770766549353	0.0066373	0.2468971437399655	0	1.432794354087722	0
0.234015784775164	-394.801213403618	1318.85947015242	58.31034238416512	0.416881057492724	0.0066373	0.246883919274646	0	1.47899232909504	0
0.2356644464118399	-393.1780771301258	1303.331148795514	26.14600792827434	0.4185506130509662	0.0066373	0.2468732409178249	0	1.546462142128297	0
0.2378741041940474	-388.2132057778371	1286.7829829755	-17.9667431017022	0.4207062281482319	0.0066373	0.2468680439269507	0	1.61367675944714	0
0.2406098871668135	-377.5711351197342	1272.931568944776	-71.24503546610515	0.4232284803076457	0.0066373	0.2468643507590269	0	1.622070288703455	0
0.2438286436775879	-360.7328817239218	1264.757453279102	-125.9746099551249	0.4259701144845034	0.0066373	0.2468530726748454	0	1.520948862915055	0
0.2474796094921079	-342.1021614448238	1263.515070207991	-170.969885709763	0.4287584136295875	0.0066373	0.2468338795775803	0	1.340756795991378	0
0.25150520557877	-326.4076922088522	1268.701178063866	-203.3935227757499	0.4314912727810324	0.0066373	0.2468054635353982	0	1.175417926820745	0
0.2558419453248002	-316.1726509780397	1278.502230681603	-224.6689770401519	0.4341219392639095	0.0066373	0.2467634589355077	0	1.067261265224321	0
0.2604214354539589	-308.7480913355705	1290.579852803361	-240.9522221023226	0.4367367065198467	0.0066373	0.2466697859609849	0	1.017627991775948	0
0.2651714545037473	-304.6184843472541	1302.46609822622	-251.8618691197794	0.4394099968203184	0.0066373	0.2464700401953708	0	1.018770883439758	0
0.2700170917444269	-295.2419572284657	1312.229745356536	-267.0509318062203	0.4423905329350777	0.0066373	0.2460536799019074	0	1.055265285327221	0
0.2748819285398158	-285.7092215699001	1317.554889488218	-279.1229449228708	0.4457822650925485	0.0066373	0.245340400066419	0	1.137162230862075	0
0.2796892435043931	-281.9109165887213	1317.617746435758	-281.9061587896688	0.4495230307080023	0.0066373	0.2442783756880706	0	1.321205446275231	0
0.2843632224455918	-274.6765156288192	1313.215611512371	-283.5517826509839	0.4537073075286844	0.0066373	0.2428033754406737	0	1.677612211105045	0
0.2888301540101398	-269.69811074352	1304.15448231782	-272.230086059715	0.4582483220219814	0.0066373	0.24093387922762	0	2.517845726917646	0
0.2930195921846577	-261.8597078037045	1290.604720787017	-235.6874371613581	0.4630547846165781	0.0066373	0.238725543165638	0	4.36764948734497	0
0.2968654673351004	-254.1331995660999	1271.930216998007	-152.5883504365543	0.4679693067331295	0.0066373	0.2362821962806333	0	6.826362547350828	0
0.3003071283122631	-245.6772306056788	1249.021003573948	-35.84113516639799	0.4728016903156458	0.0066373	0.2337415944306844	0	7.695338494680215	0
0.3032902993364854	-238.2640706016352	1224.51928313583	71.9400723322731	0.4772379984052918	0.0066373	0.2313127575623641	0	6.504506359551998	0
0.3057679370955254	-233.4412678359056	1202.827219413781	144.7433077281908	0.4808457174069584	0.0066373	0.2292591570214816	0	4.892565667835175	0
0.3077009768984096	-235.0832706560202	1186.108617994555	187.4092233293994	0.4834389372389645	0.0066373	0.227719736077802	0	3.627849479082748	0
0.3090589714577417	-233.2422585841472	1175.127670004738	207.8066625743434	0.4851559601648017	0.0066373	0.2266808427798695	0	2.964670827748758	0
0.3098208116596206	-233.1784534742065	1169.140846510233	216.4546090630978	0.4860831045226882	0.0066373	0.2261158527180746	0	2.639016172602286	0
0.31	-232.7708220401109	1167.803333684305	218.2586650515726	0.4862991360907457	0.0066373	0.225984474719849	0	2.575134920970978	0
