DataType=double
version=3
OpenSimVersion=4.5
endheader
time	ground_force_1_vx	ground_force_1_vy	ground_force_1_vz	ground_force_1_px	ground_force_1_py	ground_force_1_pz	ground_moment_1_mx	ground_moment_1_my	ground_moment_1_mz
0	0.01928705139391224	-0.06368442301215786	0.001646078384677183	-0.173941657692975	0.0066373	0.2582712284632009	-0.0008649303274918766	-0.000143956068323756	0.004977066036406251
0.0004542507337261803	0.0190053496599137	-0.062760147031583	0.001643249789416144	-0.1714778539527285	0.0066373	0.2584255941565053	-0.0008472696853004977	-0.0001396471698875951	0.004859392755427203
0.001515784775164009	0.01836787567024922	-0.06066800865098021	0.001633875567920145	-0.1657310149014414	0.0066373	0.2587906150914472	-0.0008069132818963647	-0.0001301700203959434	0.004591460392558283
0.003164446411839883	0.01743636078382968	-0.0576090455272131	0.001611759655537536	-0.1568365522798587	0.0066373	0.2593671786567425	-0.0007468357658050922	-0.000117035142401848	0.004195424654810575
0.005374104194047435	0.01629343176187447	-0.05385230642694539	0.00157005735117916	-0.1449762383229427	0.0066373	0.2601519318241908	-0.0006711615832896185	-0.0001020807837866531	0.003701127572666728
0.008109887166813518	0.01502969218568943	-0.04969301150579123	0.001503907042519157	-0.130391770258269	0.0066373	0.261128680179577	-0.0005847522205799777	-8.697068239475259e-05	0.003142833948768345
0.01132864367758793	0.01373785925340772	-0.0454343529522018	0.00141332822335006	-0.1133846330274161	0.0066373	0.2622633136231132	-0.0004929702216759556	-7.28672398378484e-05	0.002556565877895351
0.01497960949210789	0.01251575742096783	-0.04139557721180354	0.00129705149768501	-0.09430805489759589	0.0066373	0.2634965400964329	-0.000401432243634495	-6.070467838345073e-05	0.001979345415713402
0.01900520557876997	0.01143827514095533	-0.0378230867680279	0.001159401955202196	-0.07355239640718245	0.0066373	0.2647402311917753	-0.0003147635619254535	-5.042243149107007e-05	0.001440421781950486
0.02334194532480019	0.01055727370425033	-0.03488919038845521	0.001005277812360763	-0.05154107320677492	0.0066373	0.2658842687194107	-0.0002361215816369476	-4.133444604495774e-05	0.0009603111277905345
0.02792143545395889	0.009905669643979436	-0.03270509037332091	0.0008375887865476291	-0.02870928306207338	0.0066373	0.2668052992940975	-0.0001669146223738407	-3.24408070831734e-05	0.0005492398282133247
0.0326714545037473	0.009492183031795049	-0.03130400997516262	0.0006580178463884699	-0.005491384682920625	0.0066373	0.2673834903067249	-0.0001067019767123026	-2.263664921683168e-05	0.0002061865976553439
0.03751709174442691	0.00931886183352749	-0.03069813622991413	0.000467366308741848	0.01769481279950247	0.0066373	0.2675250649815926	-5.36805172805776e-05	-1.098812555881923e-05	-7.914933520353684e-05
0.04238192853981579	0.009387565912845418	-0.03089883616645444	0.0002651587498945038	0.04044690176660118	0.0066373	0.2671820206303517	-5.161895584798162e-06	3.19170959075103e-06	-0.0003243343248315609
0.04718924350439309	0.009684244208992689	-0.03186397109162824	4.52528126104145e-05	0.06240470212128929	0.0066373	0.2663589522888226	4.167857970016468e-05	2.052225067356251e-05	-0.0005465373993799741
0.0518632224455918	0.01019892719484819	-0.03356423458269844	-0.0001943805375892078	0.08325604253727489	0.0066373	0.2651089038344419	8.896313636214673e-05	4.131749133310192e-05	-0.0007639494580679103
0.05633015401013977	0.01091422749472151	-0.03594351649776079	-0.0004508375857381773	0.1027249783568743	0.0066373	0.2635342010065836	0.0001378221723489926	6.554655893322277e-05	-0.0009896142376319369
0.06051959218465776	0.01179875414801938	-0.03889685186533222	-0.0007204459692661373	0.1205774388811014	0.0066373	0.2617639665966182	0.0001882671124877162	9.274759349059818e-05	-0.001230260093353776
0.06436546733510043	0.01279749056274141	-0.04223859331460596	-0.000992781431774272	0.1366199273710313	0.0066373	0.25993385520072	0.0002390699165830052	0.000121817900309543	-0.001482814149257913
0.06780712831226307	0.0138557360550971	-0.04578234057755	-0.001256288949694617	0.150696107910419	0.0066373	0.2581677030112519	0.0002885165358550492	0.0001512659791553625	-0.001741660573808637
0.07079029933648544	0.01487334638200637	-0.04919201144186301	-0.001496028514144865	0.1626816577834392	0.0066373	0.2565669852435633	0.0003338358579659881	0.0001791952250513713	-0.00198603224455465
0.07326793709552543	0.01579291891834048	-0.05227344504739276	-0.001703120367211309	0.172481946449004	0.0066373	0.2552053833221477	0.0003729817037760013	0.0002039731024642282	-0.002206404784081331
0.07520097689840965	0.01658015607483804	-0.05490832964692	-0.001867782283550225	0.180031024796091	0.0066373	0.2541311464744064	0.0004048634464380893	0.0002242235184803069	-0.002395785761963413
0.0765589714577417	0.01715171921904238	-0.05682100790874957	-0.001984295108154473	0.185283462997687	0.0066373	0.2533737765689007	0.0004275910181898443	0.0002388335765109172	-0.002533054399444675
0.07732081165962061	0.01748430493035583	-0.05793324652138779	-0.002049775872509074	0.1882115315810106	0.0066373	0.2529487545128747	0.0004405445821780908	0.0002471588443597347	-0.002613115423598013
0.0775	0.01756239714385184	-0.05819451389046256	-0.002065339007840383	0.1888983018524615	0.0066373	0.2528488218948463	0.0004435884071668883	0.000249136300603206	-0.002631875446428218
0.07795425073372618	0.01776421500102228	-0.05886935827932337	-0.002104618600275091	0.1906358965763162	0.0066373	0.2525955809288596	0.0004513708425240513	0.0002541681563992004	-0.002680417396214413
0.07901578477516402	0.0182398233057894	-0.06045844222156734	-0.002193561167537389	0.194677991555224	0.0066373	0.252004882679226	0.0004695240621248209	0.0002658427987618786	-0.002795096193074895
0.08066444641183987	0.01900082154605781	-0.0629977409221871	-0.002326764961461123	0.2009045948207178	0.0066373	0.2510930428785416	0.0004979293698317447	0.0002839800445618337	-0.002978878414650804
0.08287410419404742	0.02005000959737884	-0.06649134519939584	-0.00249147275336078	0.2091529460817907	0.0066373	0.2498884596067935	0.0005359870901181655	0.0003078787188914268	-0.003233250663824048
0.08560988716681352	0.02140031883381607	-0.07097430076609434	-0.002670479525131993	0.2192120259070966	0.0066373	0.248438833782055	0.0005830930782409131	0.0003365630079340379	-0.003561808648762616
0.08882864367758794	0.023050740909367	-0.07643189123194942	-0.002835940212403123	0.2308247537511286	0.0066373	0.2468148279558983	0.0006380256127185717	0.0003681480459216949	-0.003965177734291853
0.09247960949210787	0.02495563742765943	-0.08269809835896488	-0.002942479137121273	0.2437002016903093	0.0066373	0.2451111067350172	0.0006981842963144967	0.0003990843866116671	-0.00443420455552085
0.09650520557876997	0.0270438198824855	-0.08952466600729631	-0.002936492496836899	0.25752262955976	0.0066373	0.2434415015830136	0.0007603437301179784	0.0004248272429818572	-0.004953644859220046
0.1008419453248002	0.0291909304210446	-0.09649532452188958	-0.002757163234556659	0.2719601103836063	0.0066373	0.2419290285239079	0.0008201498144386117	0.0004396972015767615	-0.005496507878332574
0.1054214354539589	0.03123165073950926	-0.1030759055022924	-0.002356236742788177	0.2866740669493237	0.0066373	0.2406908248834362	0.0008727578360925563	0.0004382901298250659	-0.006027332177909584
0.1101714545037473	0.03295752542920896	-0.1086097663075601	-0.001711953896370562	0.301327974301387	0.0066373	0.2398213238933019	0.0009127071926184403	0.0004163691332668475	-0.006507634846645374
0.1150170917444269	0.03385294184978271	-0.1114422709610039	-0.0008704797371564061	0.3155993992167062	0.0066373	0.2393777111677855	0.0009225042472066846	0.0003668297443624814	-0.006987735051655466
0.1198819285398158	0.02045255721132037	-0.06706254698160126	-0.001345190668818545	0.3291916981671839	0.0066373	0.2393710014152456	0.0003114406317671084	-9.569800617564029e-06	-0.01121784365516148
0.1246892435043931	-0.6744582864540795	2.243070738898001	-0.1012575262937651	0.341848433561234	0.0066373	0.2397650825940711	-0.03259829539965894	-0.01883329974290628	-0.213873736031152
0.1293632224455918	-7.23479702862944	24.20640572063646	-1.340131360488856	0.353359004774712	0.0066373	0.2404851604157348	-0.3644001334939018	-0.229702757252952	-2.193269530678306
0.1338301540101398	-16.44992261819306	55.48152349916991	-3.713836810628766	0.3635662384884282	0.0066373	0.2414323982137147	-0.8682989527104712	-0.6013049723851277	-5.146868083454877
0.1380195921846578	-25.32106398990759	86.22620092391325	-6.762548005051459	0.3723777265261823	0.0066373	0.2425006392985505	-1.385074837246117	-1.051223073601948	-8.226274847397644
0.1418654673351004	-33.31432321371175	114.7273286585656	-10.302259755059	0.3797739710459697	0.0066373	0.2435906900762916	-1.869702307440189	-1.5532120544514	-11.25859328943966
0.1453071283122631	-40.23019678853517	140.3762554670862	-14.20931859729765	0.3858011291804818	0.0066373	0.2446211993499019	-2.318780753031828	-2.095392513362527	-14.14178416465969
0.1482902993364854	-48.66862136344707	172.3195422549663	-19.34056649362958	0.390556301649329	0.0066373	0.2455328428338014	-3.269397381216479	-2.909251870396287	-17.67352499635357
0.1507679370955254	-61.59890887850102	221.6214758232281	-27.20942608811949	0.3941641527251092	0.0066373	0.2462888605767994	-5.351274977869747	-4.311621926923271	-22.89990933941716
0.1527009768984096	-72.46448054770018	265.4398041945515	-35.3464379825698	0.396758245216289	0.0066373	0.2468702649267827	-7.227675453402149	-5.676218713897305	-27.60446739834345
0.1540589714577417	-80.38300366344721	299.9254243205557	-42.71600228069351	0.3984634350483986	0.0066373	0.2472702415771703	-8.542926629981695	-6.784243647691164	-31.24274652027006
0.1548208116596206	-84.9867382694535	322.0362490270354	-48.04864524259008	0.399377177999401	0.0066373	0.2474910223796859	-9.275439608196827	-7.507793840350035	-33.50533008828906
0.155	-86.07218445559803	327.4865778830327	-49.40069982786018	0.3995875574832262	0.0066373	0.2475425608438146	-9.446780606245753	-7.685867772886517	-34.05832414865797
0.1554542507337262	-88.65820284693291	341.6023129576087	-53.15117002629501	0.4001130872796526	0.0066373	0.2476724436002835	-9.879477629889122	-8.1645804566735	-35.48774468088273
0.156515784775164	-93.3484363762195	375.1980739475105	-63.14353970076822	0.4012981776853868	0.0066373	0.2479712243417963	-10.87169724181968	-9.375085941162316	-38.90106403456385
0.1581644464118399	-90.57992421851687	426.8697662898945	-82.26669373175305	0.4030193436052507	0.0066373	0.2484216950243429	-12.35003474229069	-11.41205264604385	-44.2490218907004
0.1603741041940474	-47.50336804993101	492.3401513775299	-96.02134964343784	0.405114155030704	0.0066373	0.2489922359305397	-14.16780285079575	-11.92374753440865	-51.25961950554056
0.1631098871668135	32.44704881733291	563.976323462757	-52.03618853500101	0.4074492042173942	0.0066373	0.2496354234072375	-16.06638078860264	-5.092639363003069	-59.31411520249094
0.1663286436775879	63.08769032639064	635.3876642491778	57.30238691395007	0.4099944597021644	0.0066373	0.2502794957656763	-17.85559931767709	7.402636440357593	-67.75070318030339
0.1699796094921079	51.36014769544885	745.5759069434886	164.4794385550817	0.4127370098106408	0.0066373	0.2508539841798446	-20.6999193995094	18.44594753107582	-78.85639931567658
0.17400520557877	18.11165611974559	902.3767191626866	251.193060778495	0.4156176107717403	0.0066373	0.2513030972570469	-22.71855941399336	26.09283908626438	-92.15738502585675
0.1783419453248002	-16.60541493903514	1024.856636392861	303.4752929349247	0.4185872915634661	0.0066373	0.2515519812450446	-23.44354691204423	30.30386244557727	-103.115812974487
0.1829214354539589	-49.44391371625189	1128.176331562109	336.1624893079822	0.4215936707189927	0.0066373	0.251551162443271	-23.30801660385552	32.48276780853352	-111.4757372868827
0.1876714545037473	-87.54851022123131	1243.089439232916	365.6874280590748	0.42459346801664	0.0066373	0.2512975012973727	-21.36521202056735	33.54413490387811	-117.3978216330652
0.1925170917444269	-129.6081641471561	1322.475877726318	379.307125218524	0.4275722334559747	0.0066373	0.2508046343457035	-17.94125443304176	33.05798358315418	-119.0458155528817
0.1973819285398158	-164.1566340529395	1392.756445422996	389.1809521938099	0.4304854434175954	0.0066373	0.250143450724714	-13.3159679920153	31.784965624355	-116.2800827382748
0.2021892435043931	-208.261561683294	1452.347877549021	388.2519374021517	0.433262769367011	0.0066373	0.2494490348877698	-9.453415567549886	28.87556172940646	-109.2137928651416
0.2068632224455918	-259.3938093335706	1500.936629032592	374.4839098664804	0.435943604485029	0.0066373	0.2487389274844091	-5.80653783033269	24.87036711663635	-99.25661236130037
0.2113301540101398	-302.4684140030799	1542.038931176196	357.2530661521939	0.4384730412374597	0.0066373	0.2480688517408948	-3.625626284712304	20.51903005172893	-86.49023774231306
0.2155195921846577	-336.8482855467405	1540.538359738361	324.4904268415534	0.4407901368512527	0.0066373	0.247503422959289	-2.382853036367663	16.53014034360879	-75.41680969033473
0.2193654673351004	-358.7834951370909	1507.834710816319	284.2813289484711	0.442856709212143	0.0066373	0.2470648999314348	-1.615955472261819	13.3486887568849	-66.67979471295936
0.2228071283122631	-373.7420896251169	1464.909061019124	240.8999653765721	0.4446338117834074	0.0066373	0.2467628812737416	-1.185797127379612	10.71144729528191	-59.95490630709051
0.2257902993364854	-383.3208571886353	1423.278412272266	198.8673693748335	0.4461129693551345	0.0066373	0.2465760047008757	-0.9406211067755841	8.607510439378526	-54.78362916958135
0.2282679370955254	-389.3249854288911	1389.003568243944	160.846841723925	0.4472868719234554	0.0066373	0.2464823621416853	-0.8023235936754745	6.929859021437255	-50.96251275219841
0.2302009768984097	-392.774268051823	1363.463485618141	128.4354575669107	0.4481696840252881	0.0066373	0.2464465984838902	-0.7092884739314052	5.664942452733266	-48.21839821606516
0.2315589714577417	-394.2722777160099	1346.632454785819	104.7754183287824	0.4487683569331962	0.0066373	0.2464442073472581	-0.649295522208055	4.792940540688923	-46.43209123760316
0.2323208116596206	-394.8215636370945	1337.530272524399	90.46290781311424	0.4490983999721385	0.0066373	0.2464495505102289	-0.6128246871405043	4.30219605227932	-45.46174383622039
0.2325	-394.8827142785653	1335.4414521692	87.20062693605897	0.4491747586724061	0.0066373	0.246452036258645	-0.6047293147060095	4.188402690159213	-45.24090723625166
0.2329542507337262	-394.9934594479562	1330.248242847083	78.60875072431938	0.4493678455483109	0.0066373	0.2464591067711931	-0.5826979080115038	3.900300995003815	-44.6840612962954
0.234015784775164	-394.801213403618	1318.85947015242	58.31034238416512	0.4498115567045791	0.0066373	0.2464834987916388	-0.528098346057071	3.241094520456881	-43.43070074240181
0.2356644464118399	-393.1780771301258	1303.331148795514	26.14600792827434	0.4504799840799407	0.0066373	0.2465426393607557	-0.4308833071685267	2.251302445692001	-41.61454382351148
0.2378741041940474	-388.2132057778371	1286.7829829755	-17.9667431017022	0.4513365473919205	0.0066373	0.2466615694647071	-0.2656878244340284	0.9831935695738334	-39.41457356588553
0.2406098871668135	-377.5711351197342	1272.931568944776	-71.24503546610515	0.4523417394299769	0.0066373	0.2468685956973525	0.005403516002942865	-0.4505021238188105	-37.05918661168484
0.2438286436775879	-360.7328817239218	1264.757453279102	-125.9746099551249	0.4534649780088119	0.0066373	0.247191445582449	0.4279596568794766	-1.82064361127192	-34.7743335692609
0.2474796094921079	-342.1021614448238	1263.515070207991	-170.969885709763	0.4547009822170862	0.0066373	0.2476498539448387	1.030995909934427	-2.81549459570829	-32.77882637020905
0.25150520557877	-326.4076922088522	1268.701178063866	-203.3935227757499	0.4560576298007286	0.0066373	0.2482513562797564	1.8344058281212	-3.34926945531456	-31.16736609162603
0.2558419453248002	-316.1726509780397	1278.502230681603	-224.6689770401519	0.4575409185385495	0.0066373	0.248982290307263	2.836780858295535	-3.492723054852433	-29.94121724291343
0.2604214354539589	-308.7480913355705	1290.579852803361	-240.9522221023226	0.4591261072691456	0.0066373	0.2498066118745638	4.04832432581642	-3.40865885663759	-28.89530952338562
0.2651714545037473	-304.6184843472541	1302.46609822622	-251.8618691197794	0.4607640943161079	0.0066373	0.2506611789363207	5.45881612304985	-3.082813694258535	-27.81298804648315
0.2700170917444269	-295.2419572284657	1312.229745356536	-267.0509318062203	0.4623674589672343	0.0066373	0.2514714283834611	7.109330710355096	-2.680044760718651	-26.21431656018325
0.2748819285398158	-285.7092215699001	1317.554889488218	-279.1229449228708	0.4638332221186042	0.0066373	0.2521694551801332	8.997654955658755	-1.950150032329544	-23.78312668962145
0.2796892435043931	-281.9109165887213	1317.617746435758	-281.9061587896688	0.4651358623632977	0.0066373	0.252664943043536	11.05028997924009	-0.715883063286519	-20.57174406113115
0.2843632224455918	-274.6765156288192	1313.215611512371	-283.5517826509839	0.4662360018608015	0.0066373	0.2529009978793768	13.26035542566251	0.8986583465423141	-16.45287698880271
0.2888301540101398	-269.69811074352	1304.15448231782	-272.230086059715	0.4671211391766829	0.0066373	0.2528603468460279	15.55395620276499	3.318943733829535	-11.57152426309035
0.2930195921846577	-261.8597078037045	1290.604720787017	-235.6874371613581	0.4678168079431312	0.0066373	0.2525565509371908	17.85036392320787	6.867084067496619	-6.145889785747357
0.2968654673351004	-254.1331995660999	1271.930216998007	-152.5883504365543	0.4683680927252578	0.0066373	0.2520380470309975	20.04034266389885	10.76959721371074	-0.5072279535035236
0.3003071283122631	-245.6772306056788	1249.021003573948	-35.84113516639799	0.4688281420970654	0.0066373	0.2513731577873113	22.02219295827171	12.16942863017721	4.963045183720766
0.3032902993364854	-238.2640706016352	1224.51928313583	71.9400723322731	0.469228144535438	0.0066373	0.2506460143428954	23.67394573357711	10.53469735129983	9.808220518736057
0.3057679370955254	-233.4412678359056	1202.827219413781	144.7433077281908	0.4695781710243613	0.0066373	0.2499415179262429	24.87730665798642	8.089780285884514	13.55291148499509
0.3077009768984096	-235.0832706560202	1186.108617994555	187.4092233293994	0.469873926516749	0.0066373	0.2493300821992538	25.63221777249919	6.165872201416884	16.0895761208084
0.3090589714577417	-233.2422585841472	1175.127670004738	207.8066625743434	0.4700982874472212	0.0066373	0.2488681315122338	26.07289691178572	5.010599449966871	17.69468785630432
0.3098208116596206	-233.1784534742065	1169.140846510233	216.4546090630978	0.4702295053368519	0.0066373	0.2485982723889331	26.28511516558581	4.44984740779792	18.53509037236249
0.31	-232.7708220401109	1167.803333684305	218.2586650515726	0.470261288422145	0.0066373	0.2485335349733857	26.33286773552845	4.323498989969456	18.7290519725129
