DataType=double
version=3
OpenSimVersion=4.5
endheader
time	pelvis_tilt_moment	pelvis_list_moment	pelvis_rotation_moment	pelvis_tx_force	pelvis_ty_force	pelvis_tz_force	hip_flexion_r_moment	hip_adduction_r_moment	hip_rotation_r_moment	hip_flexion_l_moment	hip_adduction_l_moment	hip_rotation_l_moment	lumbar_extension_moment	lumbar_bending_moment	lumbar_rotation_moment	knee_angle_r_moment	knee_adduction_r_moment	knee_angle_r_beta_force	knee_angle_l_moment	knee_adduction_l_moment	knee_angle_l_beta_force	arm_flex_r_moment	arm_add_r_moment	arm_rot_r_moment	arm_flex_l_moment	arm_add_l_moment	arm_rot_l_moment	ankle_angle_r_moment	ankle_angle_l_moment	elbow_flex_r_moment	elbow_flex_l_moment	pro_sup_r_moment	pro_sup_l_moment	subtalar_angle_r_moment	subtalar_angle_l_moment	wrist_flex_r_moment	wrist_dev_r_moment	wrist_flex_l_moment	wrist_dev_l_moment	mtp_angle_r_moment	mtp_angle_l_moment
0	85.13683256080468	-71.99189975646777	-32.64380279487519	29.9373582099949	227.5772013783221	33.29804504660348	-35.28977756719844	-37.78224598338702	10.82762452524454	31.45718937412633	17.9609828125494	-11.1413542577561	83.1436608146371	10.59010878846057	-6.09313516356344	44.50053370323862	-16.09693032895148	-0.02850122750612871	1.448271617750886	13.02388709610297	0.01648696211432193	-5.331166625412238	2.959828801547553	0.9284427152442576	2.203555409712934	4.239510539595559	1.245274305984508	-0.4793059116892257	3.542047998954384	-1.285800267261276	1.566774669841006	0.03934163281743677	0.0005191561459681471	-1.12454297377797	-0.4486935644946635	0.06860961772547132	0.1767638418804141	0.3687847962980546	-0.1489656813399044	0.02825324588368272	-0.1463586136252592
0.0004542507337261803	86.68116615904901	-71.47869705696444	-32.47118691909511	28.6418267220543	229.56614748513	31.8366871068502	-33.29518505795627	-37.99218493733206	10.55235950224552	31.15249016356168	17.04103746246293	-10.78427846451709	83.18611974264586	10.67776488892587	-6.174188066708659	42.61886142396454	-16.12037725018599	-0.02684967630474411	1.399110529307452	12.55963509707454	0.01637025364179746	-5.332717148976305	2.952495374833748	0.9239690053504271	2.290533295314284	4.247742696288204	1.268710068622579	0.2300655381803708	3.554687272185706	-1.287528243019391	1.601302448245436	0.03918796055506907	0.001036434868001312	-1.251852900739734	-0.4776999548761483	0.06796666146321995	0.1767613813297547	0.3746169202162536	-0.152161572585582	-0.03494193136513839	-0.1461561072146026
0.001515784775164009	82.82281141461124	-65.74091240012932	-31.29865291369491	24.42531862504745	234.7041929812858	24.28759859066428	-36.57835420729379	-35.35143265237128	10.36384909726532	30.43949691178804	14.87347245733956	-9.961160609417028	83.27924358232065	10.92960588121448	-6.36131450301821	44.20452775610976	-15.11571404559272	-0.02655392479390914	1.293241833349096	11.47073269790072	0.0160736867422055	-5.336446398129055	2.935274145670784	0.913502970433603	2.493309347097713	4.259051623548289	1.320925994355856	0.6201291239341069	3.584363985436362	-1.293591902951996	1.682382282217433	0.03886753598269999	0.002116739199383932	-1.26893743739628	-0.5458673028855995	0.06641364574316856	0.176951198476346	0.3876700182192297	-0.1598054123032719	-0.07810522115067497	-0.1456949385222037
0.003164446411839883	82.55405463236413	-57.19742199001261	-28.70020024282134	22.85460953304457	235.3574569375415	14.29933494968429	-36.82510606965349	-31.12877756063763	9.843593560057204	29.30811424732655	11.50822753208678	-8.728411746455269	83.37859118716108	11.61020060886931	-6.627169524467737	44.33595948490214	-13.34905105301795	-0.02582905842499952	1.212976195256387	9.786428477771569	0.0155351874522802	-5.342304653336892	2.907640048806429	0.8973803552689383	2.792171447373134	4.226183154655788	1.384159504811109	0.9549495068612972	3.630022763950441	-1.315982802827984	1.807678820321624	0.0386354654052731	0.002951149780412887	-1.218989322727066	-0.6529080431817841	0.06371568510771462	0.178514636007037	0.4037972192662855	-0.1724930911713681	-0.1131716737198747	-0.1449519891117859
0.005374104194047435	83.27859821339716	-44.72843374267238	-24.94920256700441	19.02606467969738	226.2649415014316	3.371862985166246	-36.91100531781451	-25.45437337880648	9.277822367173732	27.66628641173328	7.159259535716558	-7.200975072330324	83.3428175601732	13.53713592828347	-6.880272497214721	44.3335494083389	-11.02274668382834	-0.02419564669997516	1.438758140242659	7.59459676216322	0.01466885023596299	-5.349898162253954	2.86705417527206	0.8764393647745856	3.113572712329831	4.001001548477334	1.402038513994157	1.13395935434674	3.685865470482123	-1.392379669602622	1.967980684293022	0.03929584402091255	0.0009922297190673168	-1.090863738712192	-0.7982045078526417	0.05911664759539478	0.1851620559900745	0.4097195834067666	-0.1919144946366905	-0.1344111312340716	-0.1436534956697973
0.008109887166813518	84.81865508150318	-27.73316585622532	-19.96956661061985	12.05039533653314	200.3685695621035	-5.865956235195593	-37.46052389164487	-18.50440058357716	8.873394305854966	25.3202505069516	2.123848024133454	-5.507791087517825	82.98441333661026	17.69781247426029	-6.991889688159535	44.78943780115183	-8.313362747727885	-0.02176238053991243	2.323102426240508	4.996826781053841	0.01395549826637675	-5.358757802248184	2.809473500744863	0.8509219160532482	3.343621590584602	3.393561486591242	1.299878100361581	1.149482508076077	3.735580990046543	-1.568820891809295	2.14595462588532	0.04180785997158637	-0.007067216756069583	-0.8822271998589568	-0.9785475815586964	0.05158932845098964	0.2014492692813139	0.3877166220388822	-0.2197215574927635	-0.1424613696982393	-0.141129152570733
0.01132864367758793	85.86019389882338	-7.481947319630416	-14.05121517319725	3.404098368941078	170.4394191518468	-16.54966111743903	-38.51331646550799	-10.55525460481765	8.438711916387113	22.30209048879921	-4.133755378312768	-3.569312976674524	82.43732845224574	22.69697501119082	-7.050519714481188	45.55607112265471	-5.259043543873743	-0.01903786421272652	3.379227067394773	1.781735730492688	0.01485754899408476	-5.364748407166108	2.732871945445873	0.8151301551325384	3.567795576497092	2.627666109648784	1.158626338211441	1.026642956971882	3.770117102653535	-1.778216930090959	2.346080328015053	0.04456829084433356	-0.01737603380348596	-0.6170386074441668	-1.191675654214441	0.04189314615608396	0.220996887909691	0.3569751719677826	-0.2525689828977892	-0.1372241213083134	-0.137350468190568
0.01497960949210789	85.67719367886828	14.4212413476502	-7.488620022055367	-4.891181072311241	148.1459980892567	-30.84066609811354	-39.62028754603727	-2.103531646750791	7.780688934775502	18.72302685690335	-11.97018452285574	-1.406670498338496	81.79645053160486	27.27392178722508	-7.138541308407252	46.25046008257652	-1.969433533062089	-0.01643718006556397	4.19378080170214	-2.159484606445111	0.01597282995973498	-5.360839473547363	2.635440153416889	0.7645896354252971	3.885453295433182	1.906940146596329	1.055111844348419	0.8330387455056747	3.78808822005637	-1.960603531597096	2.578852008974108	0.04616109667863671	-0.02634421712882884	-0.3273112064740062	-1.433933242596463	0.03076680729042234	0.2381712882366774	0.3358554714545384	-0.2879998264264201	-0.1221660354161012	-0.1326040952018268
0.01900520557876997	84.44143922619827	37.06358475140787	-0.7676544387036386	-15.60589028232661	122.6027000516394	-43.69194270837373	-41.08068842795461	5.61708689471026	7.206403953051939	14.38730381929251	-20.48077289921929	0.6803109960271654	80.82760330156697	32.53088438615146	-7.116796178603526	46.8608736889681	0.9044783427702717	-0.01314976671075627	5.26700343623059	-6.475628203406348	0.01737217623253179	-5.345758648387912	2.517185255244857	0.7023009362859941	4.16013265429394	0.9963866207761317	0.8991006142694959	0.6222367516912808	3.764109268853876	-2.173940711503576	2.824742868348609	0.0479001432017227	-0.03804232751074177	-0.04809331447696061	-1.687955458548787	0.01722717482096202	0.2587298597688787	0.3027610844388496	-0.3280951708313335	-0.1025970465061512	-0.1260834740720793
0.02334194532480019	81.57113919280479	58.30582538428138	5.633752523884565	-27.52069029482308	99.6242378201699	-54.92443574038053	-42.62445474888244	11.76227985565423	6.709879658427157	9.349771485828876	-29.32271286538118	2.55607924815931	79.5590763124877	37.65358195523579	-7.021396870980064	47.15397248658601	3.040578578729834	-0.009396498795284487	6.451355797863317	-11.01113948663869	0.01881071661761675	-5.312834805854444	2.379174171742303	0.6271169826779427	4.43934339655135	0.001446364762794194	0.7300517520820451	0.4657242255788426	3.685288674106062	-2.384678049320707	3.085515783234379	0.04905617235427095	-0.05055765731544004	0.1780470501815896	-1.937122061497916	0.001837290102916271	0.2796081148261249	0.266934513896153	-0.3710952459387222	-0.08372598779510865	-0.1176833569877386
0.02792143545395889	76.61822532997172	76.37586270227689	11.24765653886056	-40.26939331080959	80.00746950583229	-63.06588732074655	-44.28265101838173	15.62864694423133	6.418125602572877	3.674655698828881	-37.74467815044701	4.053156788328427	77.9425734516271	42.31432791399932	-6.851802812472481	47.11375747314258	4.116600203358501	-0.005217552882299671	7.80920871648218	-15.45391308147913	0.0178280224642896	-5.256435653954401	2.225048579417946	0.5410736955056417	4.727098511047228	-1.064541228537706	0.5534535012923691	0.417871722649142	3.538393246211172	-2.584780679587906	3.358792596036353	0.04954877876952568	-0.06357187950361087	0.3158366453801024	-2.160460921256103	-0.01501010017986038	0.3002112293602637	0.2295229414072121	-0.4163436650270685	-0.07086869867779409	-0.1071921838645697
0.0326714545037473	69.33438091697883	89.83265006259293	15.67501841511886	-53.76152791662659	63.12883589892215	-66.75568446055914	-46.06841621414936	16.86847833572061	6.475047905119682	-2.557589244088783	-44.83969531143079	5.059142317207028	75.93717701252129	46.25154936312973	-6.608652450449384	46.72396421716836	3.96211377146064	-0.0005548398020081696	9.444715733260027	-19.43895915598181	0.01648271342491533	-5.173191881106023	2.060432352520926	0.4477229545076913	5.019642987226339	-2.198905214606737	0.3699032473811545	0.489117815651695	3.314035250289106	-2.770311770498232	3.64002747798699	0.04944653250693148	-0.07697286473695608	0.3477873640956627	-2.335894567076668	-0.03279625066703108	0.3203156462519296	0.1904496771492758	-0.4631074214645656	-0.06568954915770749	-0.09444996449317992
0.03751709174442691	60.96470770268964	97.26812698406775	18.86280932578189	-66.94111352915883	47.86186668819509	-64.88482689520471	-46.71830659459806	15.34630695624769	6.913334536136984	-9.152895450111387	-49.8539556792992	5.562730078817138	73.53700803362175	49.08233168525098	-6.317161788453411	45.20462624609132	2.604441171511752	0.004769423860761663	11.38045617494572	-22.65314496879784	0.01496324296508152	-5.061205850504683	1.891715200468049	0.3510587651213752	5.336158247556876	-3.363367087357193	0.1929666025400185	0.6411781467093012	3.012543929393631	-2.930091457231965	3.927666121003854	0.04868717030251818	-0.09005001676703861	0.2791731853813305	-2.445874128739977	-0.05074566467014302	0.338961659865789	0.1527912699496629	-0.5103293600229396	-0.06340921594986904	-0.07952886847221358
0.04238192853981579	51.1161312346211	98.91595088369945	20.72367268870057	-79.36775234015045	34.112944682253	-57.88664293715713	-46.81937049971607	11.83084298949111	7.789673541616042	-15.87270249111019	-52.18612722014711	5.633214148610469	70.73741390340498	50.65141533291528	-5.997193791400574	43.08247576699975	0.3254662956079727	0.009799318230931831	13.65722279782458	-24.84360311401635	0.01408973402897926	-4.923117253333031	1.726209296841926	0.2560020943824119	5.674911043489077	-4.545526760126677	0.02460253421011016	0.8279755437699904	2.640687575872983	-3.062043374349073	4.217075630166509	0.04743138306680961	-0.1026247182952045	0.1319574008304305	-2.478895304601868	-0.06813529424521787	0.3560040959433292	0.1168783379921878	-0.5571366365025877	-0.06276525970437642	-0.06259119703108526
0.04718924350439309	40.3202762283545	95.39048106904039	21.38266668421248	-90.18569284268459	21.92979077963093	-46.67974197950598	-46.22448957725548	7.193351791108748	9.011316153960003	-22.44581281435644	-51.62627273556004	5.408785872506467	67.57060665605867	50.86015606161658	-5.679618140168901	40.44371844318716	-2.470952792578437	0.01456357457813786	16.23873384786752	-25.90150446632516	0.01373622720326977	-4.765359731745129	1.570439280079694	0.1669091942510995	6.039403306139589	-5.71724043510638	-0.1290821334339833	1.019830776887929	2.214831331182698	-3.163063419210963	4.504294512274582	0.04579476109232911	-0.1143268019049204	-0.06431383554715664	-2.433386796252317	-0.08425041032561412	0.3711189233118302	0.08410768259155804	-0.6025508299814362	-0.06242923190544575	-0.04406690053711395
0.0518632224455918	29.17215712849992	87.76579191448113	21.04200239965812	-98.96075631716545	11.11556096289175	-32.40109216351289	-44.86513785974925	2.255251378056727	10.43471092680576	-28.64148419100274	-48.31860716646242	5.047005321582805	64.09172291580546	49.80229872128975	-5.391359436481333	37.39556008445868	-5.397231791258952	0.01913324696556951	19.05931703266457	-25.85656177719954	0.01270260974173006	-4.598294665430741	1.429492428931022	0.08726825698441765	6.419740287154742	-6.859972022137701	-0.2676458810447651	1.200759916825779	1.756216089581521	-3.235360061726993	4.783724193739017	0.04396734520528361	-0.1250581443360173	-0.2811088715986878	-2.316906622958257	-0.09857655413933807	0.3843978000222304	0.05456154123110461	-0.6457287993432699	-0.06205171205277082	-0.02454647731794581
0.05633015401013977	18.70102010941251	77.32509361647037	20.0713875179797	-104.2866358080968	1.933932247482687	-16.38614577453862	-42.36205073235816	-2.228007163392382	11.83607818231348	-34.2527540643286	-42.76822328919982	4.685920738935405	60.39007017840121	47.68034071820896	-5.157934661189721	34.04158244205331	-8.05992698110864	0.02310242762231043	22.00266137837663	-24.87256057157269	0.01116817804640332	-4.434208229922332	1.306442043826202	0.01911639691169131	6.804274940212084	-7.951126229421886	-0.3904277549366619	1.376243566558772	1.28962011009418	-3.282473612817424	5.049967590973679	0.04210700936002382	-0.1347263977829813	-0.4926517430045456	-2.145039460864124	-0.11080155180237	0.3959701380623592	0.02841693228347911	-0.6859144445972412	-0.06249026312025174	-0.004798488295732796
0.06051959218465776	9.831677604292736	65.2449169410762	18.84527839120058	-105.500632185603	-5.681991431495391	0.3080464388658442	-38.42331096626428	-5.889140022543623	13.03650974371386	-39.15077819377024	-35.69228898228349	4.416104486628446	56.58262969997956	44.80044280679265	-4.996221024875457	30.40030168430162	-10.23889064887014	0.02625435158771011	24.93720920405871	-23.19895256212848	0.009370159545768053	-4.285395681867508	1.202529379004165	-0.03686356092901932	7.176842104656129	-8.97155414460836	-0.4986547689997418	1.571436548770423	0.8386739559349472	-3.310177852223934	5.297526210037521	0.04036189585354877	-0.1433458181571308	-0.6871804496862517	-1.937768895054915	-0.1208446808469994	0.4061033006510211	0.005404645419504917	-0.7225123250595451	-0.06578307479992773	0.01436042640539502
0.06436546733510043	1.176844074050877	53.12835107602166	17.22547732924085	-105.4124461023978	-10.50903716283817	15.9309049371391	-34.80981566399566	-8.625045813480671	14.06180918791721	-43.28357933622555	-27.88824282493299	4.27478263713942	52.81142223859524	41.500304902468	-4.913947870867543	27.21837976305816	-11.97130510846092	0.02997688080064981	27.72907589466294	-21.12187054235515	0.007485785895201884	-4.161763420541842	1.117554720339979	-0.08113960086101379	7.522336301968888	-9.902755009735172	-0.5933689979090202	1.763920987430474	0.4234289039161109	-3.32422730978731	5.52164278988101	0.03883069615983448	-0.1509372991289677	-0.8608110391780192	-1.716095084187239	-0.1287996948602801	0.4150148951831075	-0.01469692716628085	-0.7550745442546647	-0.07212530786376414	0.03217040361215184
0.06780712831226307	-6.525642783910257	41.70404047670787	15.55426973055738	-103.3342637021824	-12.49796110408245	29.89041890026008	-31.23569695939032	-10.49501238577826	14.83938637901967	-46.66354753720211	-20.09178156543051	4.255430234728292	49.2190132787121	38.1171581607717	-4.90655276763674	24.51221437753553	-13.23592473736598	0.03266018140661156	30.26466935174902	-18.91284480430438	0.005716389070883761	-4.068499326797586	1.049649863622252	-0.1151847346143138	7.828866074396443	-10.72862552922085	-0.6753718461270237	2.001548216164027	0.0582372267645257	-3.330159822300733	5.718683241540365	0.03756854636191109	-0.1575252527794064	-1.01900345517778	-1.49882640514824	-0.1349173874757779	0.4228812115370305	-0.03207104962089077	-0.7833163357966674	-0.08515320070965657	0.04801430979934571
0.07079029933648544	-11.94875124841097	31.26725619978168	14.29342717955341	-98.33893391557604	-12.92087608208502	42.24473917893583	-26.83646219047155	-11.67694024505199	15.30833235345533	-49.34419499202014	-12.90378636575431	4.325533949863416	45.95338393307378	34.93292854138883	-4.959889345344069	21.9178971942529	-14.04255312825258	0.0340816325389143	32.45881709203064	-16.79877638773374	0.004186821915491103	-4.006339026673862	0.9969184920588767	-0.1406329732692588	8.088242009821382	-11.43637065967328	-0.7450369993966177	2.305627878910519	-0.2483286862085804	-3.332023356782405	5.885984334955656	0.03658854488487723	-0.1631164975992172	-1.162757791551652	-1.300922605558689	-0.1394811889632899	0.4297534864449705	-0.04680907958987049	-0.8070668431027275	-0.1047947972061054	0.06147285453469496
0.07326793709552543	-15.9179994414243	22.41479566091398	13.33412224808028	-92.9298783521663	-12.23853875917048	52.50001697904587	-22.61774535714658	-12.4316452316559	15.59134715484211	-51.3972526586518	-6.752145962946468	4.443481906961471	43.14540287121072	32.16196399419326	-5.052021755823833	19.63644381434457	-14.567759999111	0.03485855134653327	34.25816364779225	-14.94643866410211	0.002922713110293526	-3.971350757655224	0.9573185852475612	-0.1591111869609197	8.296520424469009	-12.01679845536137	-0.8022989776433338	2.630258305428584	-0.4929220696785794	-3.332412593889073	6.021980958666721	0.03587229266840086	-0.1676997586971962	-1.290986525559785	-1.132836472353498	-0.1427780027417893	0.4355836427713466	-0.05890835390255697	-0.8262562773982403	-0.1274874381285226	0.07232913365710654
0.07520097689840965	-18.57845435543666	15.43308719428128	12.69944876814976	-87.64423863449719	-10.89162294741109	60.46208342151573	-18.89215870398599	-12.88152749499032	15.73743740495204	-52.89310771398331	-1.90199457219795	4.570433408815317	40.89909389830004	29.95034502239622	-5.156765730697551	17.79104526879609	-14.88436731585666	0.03512431869849546	35.63670279219608	-13.46385720863785	0.001939733669037829	-3.956228950848163	0.9288362429144128	-0.1720460625177669	8.453256527281358	-12.46390906349724	-0.8467506308599551	2.951667971144908	-0.6759707747371011	-3.332641524661228	6.126004676080477	0.03538252082914378	-0.1712480690330509	-1.401325327898239	-1.000932004035727	-0.1450646120154171	0.4402558607840384	-0.06829152387305515	-0.8408818470884589	-0.1512347416178304	0.08052930454196186
0.0765589714577417	-19.45226227488661	10.23558848395059	12.53907755815505	-82.09787528122204	-9.731695229894719	66.36568551034618	-15.32807180773523	-13.16668229093609	15.76233844788795	-53.8905127471926	1.505919151764155	4.676301292293381	39.29433341708044	28.3830335069916	-5.248733846031487	16.22194116091216	-15.03854964315492	0.03488509166348674	36.58749170901977	-12.4123066078697	0.001249752966287382	-3.952695394296322	0.9099996164625528	-0.1804438944935647	8.559871548367015	-12.77454688072272	-0.8779145952507235	3.281028088576722	-0.7999193050689033	-3.333033970266096	6.197912764190266	0.03507743983487027	-0.1737306590298968	-1.497491198737236	-0.9085006121251973	-0.1465330262933774	0.4436214773112286	-0.07486486721564842	-0.8509733129752362	-0.1763480869033013	0.0861212779190326
0.07732081165962061	-15.81166850175247	6.085621433898442	13.57102788304692	-72.55895324888812	-11.09865927147354	71.47393794760815	-9.522148619141763	-13.34410590610346	15.51886828629259	-54.43143309691946	3.411408893049913	4.741224584336122	38.38527410409539	27.50201188011249	-5.307253258323732	14.00377091060012	-14.9257198016885	0.03339233044377114	37.11340421295153	-11.82120535952001	0.0008623650692082992	-3.953464329108018	0.8998386825311444	-0.1849270718439274	8.618290138091933	-12.94743777412626	-0.8953867990389157	3.691419659888509	-0.8676348768617901	-3.333404716783967	6.237805361881089	0.03492106763520925	-0.1751206237804361	-1.585986479509012	-0.8568909195766342	-0.147309767403285	0.4455441970877199	-0.07854845169491467	-0.8565675578414133	-0.2056994337456339	0.08919027428504482
0.0775	-8.482480097574864	3.954223906095981	15.59539478697426	-55.00615705094921	-11.93623133927494	74.23390609058428	-2.38392953545661	-12.47227257809634	14.78497063179623	-54.55676057965716	3.858538610184592	4.757040038451875	38.17060037595223	27.29479405337645	-5.321757730643685	12.84398370831342	-14.14563413648296	0.0287269535594429	37.23625533125333	-11.68219610065685	0.0007711809690947795	-3.953943964665454	0.8974904451867135	-0.1859589471173709	8.631877465991241	-12.98795133545794	-0.8994959245970047	3.982442389764685	-0.8833637532197374	-3.333511539688368	6.24714002773546	0.03488587105387736	-0.1754473144290929	-1.601593237945152	-0.844786965721823	-0.1474877130072209	0.4460002978704883	-0.07941457376271349	-0.8578762985061459	-0.2243487079494359	0.08990458420336575
0.07795425073372618	-19.27187781166391	4.978668092585997	12.60319224635782	-76.08979600808533	-10.35750088112664	72.82271134049647	-10.83134178792919	-13.26432553080737	15.67083222036012	-54.87127855977084	4.989845203728201	4.798027885355736	37.62498931262259	26.76968320425001	-5.359809246409607	14.09053536724217	-15.05733778345393	0.03448310130907572	37.54617811346866	-11.32998320068077	0.0005398681604182852	-3.955681725995021	0.891608002426254	-0.1885374877615532	8.66605391476979	-13.09038924675568	-0.9099125918432907	3.503375802992701	-0.9228908466209845	-3.333819953187826	6.270720120315854	0.03479939116802255	-0.1762751399555813	-1.559619602490033	-0.8141719374380384	-0.1479308829304024	0.4471634075102427	-0.0816098805592462	-0.861181946998254	-0.1892335550917235	0.09170210103944405
0.07901578477516402	-23.12268758531768	2.704572010578187	11.47893566467772	-79.20599341030578	-10.32601169933508	75.84396733897418	-11.28699512239502	-13.04455747954025	15.77566873704568	-55.58876962662082	7.618684161048177	4.898568750460005	36.34252024592191	25.54497876184461	-5.456016757644466	13.60560354134854	-15.13841211363484	0.03562730073811729	38.26153999645371	-10.50891382743079	-1.869249203521363e-06	-3.962739012331242	0.8782475938756413	-0.1943644291038856	8.74436912480941	-13.3282350927465	-0.9342585995765238	3.224795303929303	-1.013269785156124	-3.334777711193786	6.325345863790405	0.03461287342620323	-0.1782080554118408	-1.513283325187316	-0.7430785545233435	-0.148923464599963	0.4499215892487389	-0.08673898335653046	-0.86883909020865	-0.1624006256472029	0.09582549126588709
0.08066444641183987	-25.37722228414921	-2.021074847898271	10.78502322555929	-78.30355405920116	-11.48433981509461	82.16458004707204	-8.508030949210941	-12.82371671763495	15.73106068871233	-56.65632238325683	11.64657127554836	5.066572918716002	34.33235511882524	23.65634706618534	-5.626343697533652	11.59132366083654	-15.13518953801474	0.03619944252307993	39.34555440501364	-9.244365491471077	-0.0008481398350879499	-3.982437498605516	0.8585443885176411	-0.2029102237931534	8.861465496397422	-13.69308548348313	-0.972097253337969	3.082446557791646	-1.147832462868314	-3.337064986724732	6.408814556651089	0.034367780242336	-0.1812074553258949	-1.496043930543031	-0.6342393520506331	-0.1503520104351709	0.4543256110687983	-0.09470545079772619	-0.8805425718488367	-0.142833340088781	0.10200017297884
0.08287410419404742	-27.56868726897879	-8.41235219002456	10.16812544005083	-75.16781770916123	-11.73428532061514	90.60970694193847	-4.006915382960631	-12.47036869559502	15.59118934079941	-58.00362122809235	16.90097213141238	5.310132247141134	31.60946622041686	21.17113516247607	-5.896287981107921	8.797161672601009	-15.06633848283768	0.03616262739742189	40.74017617961062	-7.584551233759184	-0.001997305423906773	-4.02664425934348	0.8339925060718087	-0.2135713396911081	9.009035862668236	-14.17256106520031	-1.02290713465437	3.04763804200205	-1.316330372222019	-3.342054045996312	6.517935320962932	0.03412703013311141	-0.185227074575161	-1.505377918282015	-0.4923119431668063	-0.1520729752909096	0.4604814572409144	-0.1053920062071822	-0.8958655300333602	-0.1308942023659324	0.1097962064005691
0.08560988716681352	-29.68759085189421	-15.89265469859846	9.706798939233826	-69.33781291811945	-9.813847633415094	100.5119963338714	2.022115307709925	-11.80100992805062	15.29521051725189	-59.55154117427717	23.09839612164937	5.631361176211596	28.20578736548327	18.21062859382832	-6.300211544001424	5.554839372036689	-14.84791778586344	0.03533811914288752	42.36051414940342	-5.61496733344907	-0.003457045664671409	-4.111858217825842	0.8061663089968681	-0.2259133601993961	9.175440480598068	-14.74923827618224	-1.08602788951274	3.124112986227607	-1.504604808400484	-3.352084478899104	6.648407902960133	0.03397183011082222	-0.1902113810871533	-1.538073457277372	-0.3247516543101323	-0.1539473149323168	0.4685492448789695	-0.1186474682461318	-0.914257085746359	-0.1278099198452094	0.118602505092556
0.08882864367758794	-31.46076040731954	-23.79536527892355	9.582102477576779	-60.21019618334351	-4.533978882819937	111.1877077743041	9.554758875440346	-10.67083289974153	14.77559331322414	-61.22587522459648	29.82430679665373	6.020144118876063	24.18039437553233	14.9657779818269	-6.880394338977321	2.136118092335955	-14.40255785782771	0.03333407684188278	44.09361829857758	-3.467579164858325	-0.005251609834450173	-4.259025293778897	0.7764937734585479	-0.2399220784609877	9.346053318045174	-15.40043755291028	-1.160608604253617	3.322513545529688	-1.694891028970043	-3.370686841555258	6.794963380222423	0.0339967320664647	-0.1960970525092596	-1.592172317894823	-0.1422510892864138	-0.1558792525030171	0.4787429831358257	-0.1342734474346269	-0.9350732854428154	-0.1350785675385015	0.1276224926169075
0.09247960949210787	-34.67208343681135	-30.90824630138847	9.441360183083125	-50.0073354797596	7.315837462996697	120.875076291509	16.69690691292642	-9.100552972407737	14.11870513381177	-62.97086383889454	36.5355492326436	6.449890686358897	19.62979103384395	11.70261891242778	-7.685013820941151	-0.4229220654484063	-13.7997037441696	0.03050957740366446	45.80177339992326	-1.321964579456277	-0.00742656353733925	-4.492672609899841	0.7462150900519947	-0.2561574757633173	9.504229511917973	-16.09846651650918	-1.245485863581392	3.627180169957149	-1.866675041975921	-3.402611135875593	6.951623318353554	0.03430358609444306	-0.2028097254712402	-1.669937592834658	0.04133922444093123	-0.1578444205039185	0.4913157112077122	-0.1519952100663304	-0.9576163298420481	-0.154938250561711	0.1358894037027455
0.09650520557876997	-34.30988574007603	-37.57559364482857	10.79711928577328	-36.83239057963893	20.18552979542726	131.6421034303295	27.54050371445599	-7.282260284731397	13.16989428836578	-64.75326581118362	42.59493475789644	6.877963717549504	14.69253781440722	8.752661773586397	-8.764219446575995	-4.590889652555033	-12.9956505631771	0.02668935046173996	47.3304353963504	0.6061351695757562	-0.01005001779966394	-4.838590155346806	0.7160146177426909	-0.2759545069953373	9.632035177428907	-16.81160604095623	-1.33913294805905	4.197598605870732	-1.998153529620069	-3.453224728725291	7.111918047218668	0.03498224537003558	-0.2102580254147695	-1.796182331538813	0.2098333657246113	-0.1599112754840928	0.5064876068286429	-0.1714454313156536	-0.9811645908315667	-0.1929858216177118	0.142329276993625
0.1008419453248002	-29.18637309089022	-42.63638130062688	14.02666282180891	-23.18630416569059	31.65101186262255	143.2716955085884	42.57048164198397	-5.053881845232796	11.90202719985112	-66.55926889753187	47.33796593632714	7.252743865208323	9.544410134079667	6.477032225817632	-10.16558761541541	-11.15405787467193	-11.96725962148069	0.02211839375475124	48.52283037478887	2.088713748493878	-0.01319936176052315	-5.320330186232271	0.6864366865596623	-0.3011442949213019	9.711960526707477	-17.50671855294101	-1.43964802537258	4.996229951616368	-2.068300370631672	-3.527625422382049	7.269413012220664	0.03609992987351507	-0.2183302474010633	-1.956570285671932	0.346248528633849	-0.1622107735548495	0.5243681199590496	-0.1921552935764514	-1.005024149157773	-0.243205115800969	0.1458478557034616
0.1054214354539589	-22.07645847607768	-44.06587975091517	18.33209167341598	-9.493895332377651	47.03290976160343	152.5586078645467	58.73432848199709	-1.958148814135283	10.27797919596302	-68.38314929923345	50.16615202573296	7.526627869296422	4.385027499624957	5.213708488765999	-11.92768142566363	-17.70286662324348	-10.57703240164592	0.01605430500613747	49.23985447960634	2.919463759767323	-0.01693390834765056	-5.954944065222201	0.6583602044716312	-0.333562500449353	9.728728301222223	-18.1525185685403	-1.544806848314047	5.845955655304188	-2.059284857156918	-3.629505337442098	7.418195663681574	0.03769322267749919	-0.2268886820209504	-2.103794059131767	0.4348952430406016	-0.1648762743827836	0.5448720972870702	-0.2135665253057903	-1.028564119004332	-0.2967047175393672	0.1454425339489774
0.1101714545037473	-12.63321642223226	-41.12322880549955	23.67250574049068	3.762681022809453	66.09574228005178	158.7276125101291	75.87096425894481	2.072049478137577	8.261086931211686	-70.20869213534326	50.64739658437566	7.670981241046508	-0.5801397327789657	5.217751311447539	-14.07189269530466	-24.08579203119292	-8.792174700822029	0.008079591131421857	49.38067474681801	2.950840913620741	-0.02126318664109513	-6.748733599182268	0.6331857095901895	-0.3745080673910932	9.669794438499421	-18.7229386584081	-1.652317680647282	6.694613531406043	-1.958820581207525	-3.759757365539711	7.552956690944681	0.03975730385210807	-0.2357638876185917	-2.220261548887568	0.463638865245376	-0.1679666756377978	0.5676250080500647	-0.2350979109279296	-1.05120530485482	-0.3487617417114072	0.1403369375145721
0.1150170917444269	-1.466139173637893	-33.37432893434384	29.62722231099828	15.71266194598632	89.33824356546612	160.7104274057905	93.09087765473771	7.015059982079871	5.86104252147442	-71.99183653391783	48.59340795101722	7.687145361028472	-5.169247177310707	6.592264995111474	-16.59705172479262	-29.78994018730867	-6.617734793768074	-0.001857769950905089	48.89912728029499	2.123385240687121	-0.02611751244655071	-7.693512707807932	0.6141714994224383	-0.4236288499711334	9.525911820571366	-19.2020978358739	-1.760340681044297	7.461340171215172	-1.762193077976847	-3.915323226267253	7.669382864989336	0.04225468963531487	-0.2447729965984833	-2.285810432364213	0.4258268090443733	-0.1713397025311573	0.5919156149653404	-0.2562667265770996	-1.072447155967071	-0.3937993068857442	0.1301046154142334
0.1198819285398158	11.00748844993099	-21.03100184906838	35.77169892047583	25.5914838016574	116.3186398940139	158.0899414543773	109.8499495991737	12.74222187682976	3.116268146731564	-73.6530222784925	44.11234227102403	7.608296545428921	-9.25497784958675	9.26847004725775	-19.47103881958203	-34.65712663924117	-4.0976452306731	-0.01343062168544393	47.81381839394636	0.4833148339639105	-0.03133542609379363	-8.764683322443991	0.6052168288191614	-0.4789030153110707	9.291519827211454	-19.58487977950082	-1.867566003869604	8.092934928693264	-1.473611637138002	-4.088958126761261	7.764077222666048	0.04511247841847998	-0.2537145333522062	-2.290073934312923	0.3217018057406021	-0.1746473577787166	0.6167168084491665	-0.2767336661801469	-1.091834411475705	-0.4278104261039681	0.1147751877341197
0.1246892435043931	24.69171485362861	-4.890463707846274	41.7570956158386	32.9580187930118	145.6185934257498	151.0587563553625	126.0558176464598	19.09398727137466	0.08007593996519091	-75.08787619882042	37.59237286564463	7.490057925670818	-12.77024556965695	12.99639343923434	-22.63017187467084	-38.90620999016566	-1.293312565903083	-0.02624334060766642	46.20521475893788	-1.8240607670509	-0.03668237314051941	-9.923466696936394	0.6119993283547032	-0.5360256863478901	8.965590450180891	-19.87782976238825	-1.973369733735235	8.568098389926513	-1.10628593575317	-4.269953326032281	7.834695896820543	0.04824980391319733	-0.2623860739053585	-2.232627458541624	0.1585748694259898	-0.1772960594111594	0.6408067502286576	-0.2963588226835315	-1.108968249208323	-0.4485238171697631	0.09488019399201519
0.1293632224455918	38.95637898508296	13.87314117350645	47.14000341060287	37.33720672320676	176.3468520064362	140.0263485100718	141.3368780160117	25.82695953859709	-3.144895161339683	-76.18518056024972	29.64449435345	7.393055426274008	-15.71831208544688	17.39818240507348	-25.97983984206744	-42.67241529672751	1.69185024922105	-0.03972137723953012	44.20254867839502	-4.577095949012142	-0.04189517072082403	-11.12026937086855	0.6396273867031324	-0.5895134306229264	8.552165138055585	-20.09589467986967	-2.077552123453338	8.904500120696252	-0.6812077039133461	-4.445513125374259	7.880018747801955	0.05157032397928707	-0.2705904025271115	-2.126396653467632	-0.04995850939472823	-0.178592635578817	0.6629027638101413	-0.3151555878676104	-1.123516878409626	-0.4579639059588528	0.07142615476794907
0.1338301540101398	52.72560305589244	33.85846756543577	51.45734267080838	38.38380078123017	208.3106840681808	125.5663465392809	155.0666633698483	32.62235553134328	-6.426867600554054	-76.85823887778146	20.99595184589943	7.364303354087485	-18.15078849192997	22.04082929327128	-29.40211666102831	-45.93429926053108	4.733049374259553	-0.05312175815731545	41.96281446173089	-7.51782416773077	-0.04673413005027505	-12.30195540644008	0.6916852291085993	-0.6337316260541246	8.061799891424105	-20.25791705961825	-2.179850116244921	9.14239070528015	-0.2244950325853249	-4.603186800680141	7.900094282959998	0.05497474461325169	-0.2781422876705426	-1.990990607828606	-0.2860641484804726	-0.1779028231899638	0.681883266793837	-0.3331903097215176	-1.13524303015483	-0.4610348132815458	0.04577659296553729
0.1380195921846578	65.11902978665957	53.64589611651472	54.42653994025531	36.22435429126676	241.1090863684059	108.6240051398877	166.8293597903601	39.17571585078482	-9.644292937750386	-77.07035697495974	12.36930392974082	7.424746423294004	-20.14859162466689	26.51893840582776	-32.76748336252526	-48.71719949484448	7.71856396244684	-0.06552539686344251	39.6472781945382	-10.39625272963276	-0.05102010307548054	-13.41855143815393	0.7687653817892243	-0.6642690231512005	7.513211780059447	-20.3819672869482	-2.279375470671887	9.324386748958997	0.2360826099062804	-4.733284651897442	7.896753528145685	0.05836451145041466	-0.2848802299187319	-1.844609053858346	-0.5304316536472709	-0.1748427256448611	0.6969854417332797	-0.3504408970045064	-1.144076383269869	-0.4623877186556219	0.01946526150452594
0.1418654673351004	75.57875205428644	71.99759181470894	55.9983502638155	31.6047824558385	274.1346399319266	90.37658243140278	176.4604481753305	45.22416414478481	-12.69216410862671	-76.8464531116703	4.372012912847921	7.567193552665273	-21.79603684140461	30.51573045998875	-35.94988695116679	-51.03307513768441	10.55312566648223	-0.07649071837328203	37.40039855880872	-13.00893538060679	-0.05471723524584676	-14.42920221541643	0.8678405207217458	-0.6789630080053137	6.931734581217612	-20.48270409786147	-2.374616804109581	9.47827103987062	0.6748692086770653	-4.830257157777168	7.873569697753986	0.06163686060019313	-0.2906901884144137	-1.699933289602359	-0.7652050573858858	-0.1694012814716171	0.7078960875832911	-0.3667717001540031	-1.150145254235282	-0.4648646547485815	-0.00601856116269156
0.1453071283122631	83.91501218596818	88.02690529386028	56.3391222677312	25.56689655879601	306.3866753439928	72.11130337328667	184.0307237414795	50.57341459831194	-15.48277382803914	-76.26859055860515	-2.572775829502699	7.763894355420778	-23.16252155622732	33.8422566233134	-38.8386240025493	-52.90643250907103	13.15650915774158	-0.08582098031491034	35.33708024690732	-15.22234827976386	-0.05774119271165146	-15.30577539348147	0.9820526546341123	-0.678468474535602	6.347792197336238	-20.56912521790838	-2.46336174599008	9.612339824197944	1.07122316201602	-4.893513816399795	7.835671168673561	0.06468685242426087	-0.2955112135588167	-1.563767191284002	-0.976307540353466	-0.1619950031923992	0.7147923227751096	-0.3818951279010445	-1.153774109555136	-0.4689654074310029	-0.0294116315954775
0.1482902993364854	90.21947982560738	101.2452328611798	55.7677790655543	19.15567145236827	336.5515548563239	55.06475756028031	189.7609374101461	55.09683770967712	-17.94146986954759	-75.46215751885971	-8.245066463087069	7.979007267019729	-24.29416637315104	36.43674793624108	-41.34713493103156	-54.3716423854054	15.4585523447996	-0.09350484613211883	33.5385797530605	-16.978344701242	-0.06009587496084946	-16.03347482363834	1.101766527629169	-0.6659420831866552	5.79410155024171	-20.64488688773742	-2.542975357650927	9.71930877617311	1.410970345594833	-4.927048577614865	7.789314622753905	0.06741470100065872	-0.2993415367213679	-1.438920126057577	-1.154674672168515	-0.1534022018385001	0.7182831390725982	-0.3954141562623599	-1.155452784084926	-0.4733949812205258	-0.049781647577709
0.1507679370955254	94.61448432352218	111.5407897405851	54.61590520456303	12.8650444758882	363.2848213641406	40.19865722616352	193.8236918438037	58.72473093258383	-20.00450053089807	-74.5713599363939	-12.60432547473386	8.18007915573865	-25.21363733800016	38.3326441455251	-43.41686746348827	-55.48048222654681	17.39880113597922	-0.09949452221861121	32.0547704039768	-18.28321201960498	-0.0618375289443835	-16.60889532539167	1.216390909499803	-0.6460992002288433	5.302050382239593	-20.71042783457104	-2.610918054553105	9.787742879234434	1.68638607224593	-4.938028152444359	7.741198237912722	0.06973304484700826	-0.302240583074648	-1.327309011468075	-1.296230033948985	-0.1446098596186079	0.719263438225728	-0.406924690619552	-1.155773985307266	-0.4764488300752907	-0.066544694496248
0.1527009768984096	97.34294822664812	119.0820232557574	53.20900333591027	6.531244362656984	385.0569779846288	28.30919594629609	196.4432526954994	61.4538405959601	-21.62038798372951	-73.73714918858808	-15.73199681334201	8.344643079746273	-25.92602956746975	39.62435786407403	-45.01382871047197	-56.42849545759959	18.92906831568402	-0.103668926385499	30.91154590678754	-19.18573896634386	-0.06304747800200172	-17.03651936871977	1.315504528550567	-0.6243117002189669	4.898936316353074	-20.76393148735959	-2.66496643624373	9.816747341339726	1.894916469166698	-4.935134943396975	7.697616269223083	0.07157031142835313	-0.3043040062643891	-1.232967690741957	-1.400805642285637	-0.1366595572285017	0.7187445635548897	-0.4160641418523002	-1.155334312993738	-0.4770289006659652	-0.07941179159562328
0.1540589714577417	97.80380196018029	124.0721178057009	51.62630310564396	0.4459552444083599	402.2458374689661	19.39904730009705	197.0942806130282	63.17732553345246	-22.75600941489259	-73.07910885810574	-17.76629242510589	8.461137176777445	-26.4267212204501	40.42538514711664	-46.12245793122411	-56.70562144983895	20.01469451660846	-0.1059828404095961	30.11909315163224	-19.75212653047786	-0.06381337689820624	-17.32459486099023	1.390158481887417	-0.6056094844707958	4.606277257763355	-20.80291296452054	-2.703407182912341	9.767817711756688	2.0372504080839	-4.926814274634054	7.663871206893791	0.07287327747911887	-0.3056406390918136	-1.150689016455598	-1.470510669555728	-0.1304912739819319	0.717681164143447	-0.4225533281810752	-1.154660653096636	-0.4733131734190919	-0.0882949473856319
0.1548208116596206	99.73958847653631	126.5377068030192	51.35521329482722	2.317572441917392	411.161605940592	14.72080044509431	198.8075430295735	64.25104218793176	-23.44004733032186	-72.6844017130868	-18.8440986248809	8.525933281011515	-26.70831664206808	40.83462602496733	-46.73861563925777	-56.52908883269714	20.64681472899695	-0.1090276291941564	29.67911541901714	-20.04378687166064	-0.06421106232540612	-17.48147463747292	1.433829014359175	-0.5938751252533967	4.438841255909391	-20.82530053455144	-2.725120664129717	9.725366361885392	2.115392604185017	-4.919813081980767	7.643822123271907	0.07360791081630247	-0.3063473112187176	-1.095995798458584	-1.508089751639473	-0.1268183699398309	0.7168263081574623	-0.4262140190964993	-1.154150470320803	-0.4687830679530656	-0.09321090896790593
0.155	107.9814637006913	126.861493923487	53.88186021969307	15.12215997582175	405.0734908875993	16.36436501572015	205.6125291944747	65.33428895289563	-23.67775274224067	-72.5889334022344	-19.09072618414734	8.541060719012705	-26.77465609215331	40.92660496387965	-46.88287544890211	-58.06584885801419	20.81751808609484	-0.1141939272603862	29.57615111434001	-20.10957234098239	-0.06430116311624798	-17.5178640989413	1.444285207076065	-0.5909849058627969	4.399130602453995	-20.83062040635066	-2.730241782731963	9.928052182574806	2.133581963034015	-4.917919566491108	7.638990684034622	0.0737810326675018	-0.306508873469681	-1.120728397412541	-1.516759656891324	-0.1259322485658716	0.7165979690413506	-0.4270768376074107	-1.154016659226427	-0.4755336313781772	-0.09435947644481255
0.1554542507337262	99.26697104176822	128.6896718890186	50.34465210339281	-1.922600728561861	420.0292810728335	10.35906686164606	198.5910969033234	64.94666324185226	-23.93264195425654	-72.34246573838342	-19.70395390271477	8.579158335277789	-26.94304602379989	41.15239537902474	-47.24738905963541	-56.68300965795618	21.12129878790946	-0.1094536555847634	29.31605969146172	-20.27144929957405	-0.06452360682100647	-17.6092283532709	1.471105027981523	-0.583435351035082	4.297912497960066	-20.84419905663916	-2.743246428798415	9.75478066298955	2.179356705911514	-4.912695146393375	7.62654632867624	0.07422041951757719	-0.3069103644576237	-1.072734507732116	-1.538440431283266	-0.1236479055083729	0.7159722789041064	-0.4292668748048881	-1.153653890750649	-0.4729796760426228	-0.0972573849618123
0.156515784775164	100.8283825362807	132.1453309383222	49.33549610065876	-6.648841810641223	431.9364375788293	4.115511583210505	200.2001563506798	66.37646972992997	-24.76552199445113	-71.74184575477956	-21.0683713735104	8.66637396066735	-27.33801521410994	41.63817004493415	-48.09215067880454	-57.8321380873658	21.91659127905386	-0.1110984515659225	28.71369222611815	-20.62178712640425	-0.06500937577537831	-17.81768187339921	1.535514440142363	-0.564545245906761	4.058391175944223	-20.8764559807686	-2.773751835350911	9.892013463163247	2.284368117375883	-4.898092492555992	7.596378937699926	0.07524968799346687	-0.3078026165364347	-1.050755646053752	-1.587375177599305	-0.118097181900033	0.7142461280338752	-0.4343978603282431	-1.152675051561865	-0.4835175209097899	-0.1039481747132352
0.1581644464118399	102.748329622005	136.8563164259259	47.67518797166739	-9.842313381797972	452.9366673093458	-6.218685231360141	202.2453999211201	68.39072821203678	-26.10285011727991	-70.74194372874996	-22.98904421876332	8.794598529705535	-27.95670132230359	42.27359494126397	-49.38246351234044	-58.30070049964475	23.17787273829216	-0.1147496563576074	27.79445693706752	-21.08538115051029	-0.06566555937903362	-18.12686321219482	1.640272560716933	-0.5317413319207498	3.678595071298894	-20.92803157932436	-2.821391471497594	9.992795434499495	2.441621587913772	-4.868669710063209	7.546582396276769	0.07685286702950411	-0.3090564719477564	-0.9860092839836855	-1.658240028781305	-0.1088876703381405	0.7108227188393786	-0.4423899827282264	-1.150794955291156	-0.4930635721106787	-0.1140921372376661
0.1603741041940474	103.7259964265805	142.4295886070987	44.69529879404128	-16.77205649830471	482.807266067066	-20.21859736678556	203.7641101356267	70.8299373766886	-27.87444333708654	-69.27918391173624	-25.16458474439929	8.946012161891353	-28.79892445701272	42.89234444597133	-51.06445335927363	-58.89231588640189	24.86799570341301	-0.1185941886869997	26.59676270872472	-21.54570968118868	-0.06634636986277438	-18.51202707071	1.789343460718472	-0.4812036240704733	3.156180840077581	-20.9999287159808	-2.885562587054153	10.0656895072077	2.640128915852219	-4.816144352460754	7.474453827997013	0.07900326356919585	-0.3104728652792381	-0.8844317163267917	-1.742518423546101	-0.09543124511028585	0.7047946173789865	-0.453104418553686	-1.147603140122324	-0.5015230304636091	-0.1271547891026663
0.1631098871668135	103.7304044683747	147.9328743655292	40.36199568319398	-26.33425108704115	521.5898417443101	-37.24303322118912	204.8168757854224	73.49937565719199	-30.02064274039366	-67.28800810331195	-27.19090029165583	9.086517563165669	-29.86641548566647	43.28326208050969	-53.05924685597876	-59.59329095999727	26.93140973559401	-0.1227426868063565	25.1742778037019	-21.84752607354711	-0.06684930376704798	-18.93997246710559	1.986664585405756	-0.408471677238885	2.491780128041353	-21.09282541262783	-2.965065132192855	10.11386225212897	2.864294092599117	-4.730111410593123	7.377200959742382	0.0816517000888024	-0.3117808223223431	-0.748039775578849	-1.828160914946027	-0.07705249011951315	0.6950184150100885	-0.4662667638094852	-1.142627628513869	-0.5091794164496227	-0.1423643653638273
0.1663286436775879	102.2061710988109	152.2250514170915	34.5571362585796	-37.88847186920995	569.8257335113676	-56.47383077908176	205.0569481771524	76.05800325857092	-32.433176457112	-64.71821127991475	-28.5903249159424	9.159819010636646	-31.15845244369358	43.21813290890726	-55.26081649230636	-60.25189624632122	29.2683581471327	-0.1269525030303468	23.594317467356	-21.80805938611919	-0.06669842764792086	-19.37092097108005	2.23450476224492	-0.3094162156206139	1.692608725454207	-21.20567976982819	-3.057692245213299	10.12971796337155	3.094205071907612	-4.599365506410496	7.252817318166812	0.08471530065743893	-0.3126414557894495	-0.5794112491912573	-1.899912252650043	-0.05314489515252162	0.680243854121565	-0.4813730116240442	-1.135423636684641	-0.5161499530666508	-0.1587187423913008
0.1699796094921079	98.42355430678624	154.0869891979431	27.21026035287266	-51.18998021214988	627.9566354553958	-76.74330158432504	204.0152570566324	78.08468940620256	-34.95931784698669	-61.56199641215398	-28.86693131042783	9.085561896770535	-32.66716470195279	42.48899443449534	-57.53859568758811	-60.75129948204475	31.73933859783445	-0.1307558259475212	21.93253128730726	-21.23929345948345	-0.06581845322653318	-19.76147334523009	2.531782358437025	-0.1813670765920108	0.7757586985255664	-21.33488789595934	-3.159994916847776	10.10515795600762	3.306833839551983	-4.413526762244567	7.101234876022989	0.08806350097355253	-0.3126739188734675	-0.3836881382611013	-1.940549003441024	-0.02335397726920801	0.6592738410416233	-0.4976206844739207	-1.125706570835681	-0.522561610606268	-0.1750390514667761
0.17400520557877	91.77057032921266	152.3494964535813	18.45848516732038	-65.7805632994711	696.0589156785906	-96.49255077961976	201.3181686455667	79.11037533844112	-37.3927715667257	-57.8755454462859	-27.5892446041987	8.765347169560991	-34.36921501924959	40.95716828207053	-59.74531938407197	-60.97266861091442	34.15185948299406	-0.1336567617354631	20.2641687721468	-19.98001913596353	-0.06447859488039762	-20.06912251451424	2.872294954973869	-0.02442505674670903	-0.2289186894904345	-21.47329623212653	-3.267127471917196	10.03603718981842	3.478417552707081	-4.165179114700887	6.925574450617138	0.09150683018267902	-0.3114964052202593	-0.1702274935139171	-1.933157528336824	0.01221086581552573	0.6311748739120425	-0.5138537885155561	-1.113502677716386	-0.5287036297889025	-0.190081289153428
0.1783419453248002	82.0506754824513	146.1346038872232	8.726909969412828	-80.82270739561712	773.3511787643221	-113.8091042972094	196.8743831294804	78.70477929598631	-39.48714231695439	-53.77893038240184	-24.48618809314456	8.099111985836673	-36.21404837118756	38.6118440515083	-61.72918142145148	-60.8451099602323	36.27176214652206	-0.1352696411448392	18.65450892534702	-17.93189968178128	-0.06267909898334045	-20.25805523174622	3.242942640647816	0.1572225110022409	-1.276675933151865	-21.60827995420285	-3.372649129618209	9.925000508145018	3.587866177023699	-3.852507678689644	6.733176619810877	0.09479766664643574	-0.3087672697370101	0.04728799946733128	-1.864226521662753	0.05276429259145739	0.5955387151744569	-0.528508721295564	-1.099270866534791	-0.5348939131981328	-0.2026967870387679
0.1829214354539589	69.38226723517245	135.0545170488401	-1.343894166215791	-95.51251604366082	858.3313266171671	-126.7296970465866	190.7596551397873	76.52430731298875	-40.97711998445097	-49.45034673667234	-19.52722776765672	7.011026790617853	-38.10912407610752	35.59778426071745	-63.35139203250279	-60.30561027455951	37.84216294097236	-0.1352716770999083	17.15131393002212	-15.09169645135833	-0.06046285239522878	-20.30497104366982	3.624029476012752	0.3549875421180264	-2.311302317691182	-21.72234482935529	-3.469149632090914	9.76719408242327	3.620480971197977	-3.480733116976778	6.53547442537632	0.09764104975839472	-0.3042475664827609	0.2546307867123974	-1.726924396736567	0.09678676257350165	0.5526495127205606	-0.5397520390233986	-1.083927840692921	-0.5402496097079337	-0.2119958810203832
0.1876714545037473	54.12483683019902	119.3711529117228	-11.02647889305876	-109.556888761102	948.7449089226596	-133.5685557379559	183.1490407107502	72.39233748153099	-41.61196629844991	-45.09256994983004	-12.95806761961933	5.47697883411802	-39.93439971436215	32.21167982785175	-64.50352080231437	-59.37273856387781	38.61691496080874	-0.1332890170287184	15.77871451963802	-11.56638412862713	-0.05791181976872442	-20.20081205081407	3.991085158101845	0.5568441345155366	-3.269464287058522	-21.79535833365964	-3.548992048303524	9.572310505858944	3.57075743471048	-3.062251677058506	6.347681751708848	0.09972767418857031	-0.2978624811968693	0.4330630913023614	-1.523389129031604	0.1421482423551652	0.5035428389900853	-0.5456583965355259	-1.068835444734161	-0.5447800057923833	-0.2174664421883952
0.1925170917444269	36.82979839386491	99.99806342453785	-19.6354239730785	-123.1979644754838	1041.703769932827	-133.1246491659052	174.255567656217	66.33637408615097	-41.212387774481	-40.89997489299596	-5.263879059840272	3.542933189723462	-41.54361977414714	28.87440671181214	-65.1164912786229	-58.06894296481964	38.41208302186545	-0.1291031821148581	14.54119424437156	-7.562895623491045	-0.05536261295486236	-19.95218900933522	4.317158685794296	0.7487523914606744	-4.089550665155774	-21.8043566647299	-3.604972522893088	9.332092398760995	3.443405883339952	-2.615650015426508	6.186204426128184	0.1007765161937721	-0.2896985256493978	0.5703383382390039	-1.265086867205432	0.1863438180309336	0.4499548805020422	-0.5444318858534538	-1.055523913814546	-0.5464546730339976	-0.2190178959309187
0.1973819285398158	18.35492286787975	78.38155894314087	-26.60290714831079	-136.9307766992275	1133.797728317985	-125.0241315538061	164.4634136055482	58.64281696340069	-39.70203108843266	-37.0239781017175	2.912712825494651	1.326012235035241	-42.78643347505012	26.03774019373212	-65.16580776707418	-56.49636925581807	37.13775823035167	-0.122582889342719	13.42898891490389	-3.356492331161468	-0.0526418281061692	-19.57798272891142	4.578577231207999	0.9178554990034136	-4.72225537144606	-21.72793194533131	-3.631536679546681	9.060039874256365	3.252715421880148	-2.162386145861133	6.065676469128946	0.1005939567155368	-0.2800058305214783	0.6533533568923855	-0.9712078737624064	0.2269809188396763	0.3940597335148588	-0.5347506979360531	-1.045387434679708	-0.5448214436115218	-0.2169542313088546
0.2021892435043931	-0.1970064340215032	56.28122483965975	-31.56093601595942	-151.3116182681514	1221.255580439381	-109.6656438097319	154.3201695670127	49.83284722004213	-37.13204400207553	-33.5495718961964	10.90040895723942	-1.00673271305564	-43.54095385179977	24.10594413718157	-64.66445247156601	-54.85201670440802	34.82665143971604	-0.1138851242866557	12.42609014115747	0.7597801941865625	-0.04980086576326134	-19.10374521684015	4.757673334342595	1.054566943465058	-5.138940536367936	-21.54738606838693	-3.625241623776605	8.787412498360549	3.019369246307352	-1.723030627705582	5.995803285085825	0.09910135097089734	-0.2691370430453734	0.6714751574292614	-0.66494206136272	0.2621615879412163	0.3381160006773098	-0.5159608873084384	-1.039329146331236	-0.5406945891575844	-0.2118686469366465
0.2068632224455918	-17.72683039514935	35.41566959835205	-34.39555124837538	-166.402158127568	1300.807336114735	-88.35956741821985	144.3846181524075	40.54476092966006	-33.68297458790705	-30.50088182787335	18.11471298273904	-3.272387583378587	-43.72948076560327	23.35081470707403	-63.65408555347084	-53.21394469989507	31.63293060185352	-0.1034507755552571	11.5177368953308	4.523798152334803	-0.04715113280995751	-18.55737715701813	4.846238547242701	1.15430760960069	-5.336751668034977	-21.24916586232886	-3.58511306417914	8.552220438490499	2.766331684431112	-1.314212265640371	5.978941506181946	0.09636211686671878	-0.2574801409730394	0.6192676032982666	-0.3692168448998652	0.2907915367311913	0.2841618314770428	-0.4882229727649641	-1.037501228314901	-0.5360838197096695	-0.2045116608449477
0.2113301540101398	-33.22493003419355	17.18490537155527	-35.2145552956599	-181.5632054180143	1370.059446397319	-63.14564565045686	135.2194927358721	31.43947779307582	-29.63615392651246	-27.85717124861058	24.13781651585064	-5.308805335792289	-43.33575369525256	23.85324721705081	-62.19916310260123	-51.55704317745889	27.80936993592752	-0.09197587517287849	10.69338638637211	7.741838676581764	-0.04494213013633475	-17.96529050559396	4.847119687278487	1.217985509278326	-5.338636904216351	-20.82926941492275	-3.513003717205348	8.39373972838173	2.515103853845001	-0.9464342833022473	6.009724819016427	0.09257303049892629	-0.2454234584993633	0.496887193801244	-0.1029959017354012	0.3126972818186234	0.2337586366214505	-0.4525845098923795	-1.039292936954999	-0.5338009886111976	-0.1956792557343114
0.2155195921846577	-46.04336649447831	2.472860127560478	-34.33921939688075	-195.9969980524214	1427.792370237758	-36.26407271031667	127.2137326472194	23.06725722950612	-25.32603527998632	-25.57915616955205	28.76471613984317	-7.003796467703853	-42.40740610365837	25.5131851709804	-60.38182049625256	-49.80655560092584	23.66839633253776	-0.08022662415879711	9.948914432511781	10.31027119231525	-0.04331972410422592	-17.35161340389681	4.77156298762531	1.250372289754384	-5.187389222122411	-20.29441271706849	-3.413233488125997	8.323721646694539	2.282694356646599	-0.6242236159288166	6.076444325647611	0.08802030132362876	-0.2333176244590527	0.3160715908075101	0.1212561494057484	0.3284270327408655	0.1879242015169601	-0.4108429607778554	-1.043498858777928	-0.5348435201698306	-0.1861266289666131
0.2193654673351004	-55.94746242410909	-8.396372255338392	-32.24144007805506	-209.1896523322473	1473.717524288116	-9.839412439210783	120.5566129346237	15.81558409335421	-21.08535034127266	-23.62778617765338	31.9845162498839	-8.306047367333612	-41.05157448454209	28.06594852902861	-58.30579317396018	-47.97996525617425	19.53684906354609	-0.06887765769083108	9.284060862579333	12.21245785067205	-0.04231529649573471	-16.73837048692906	4.638576791116273	1.259029792102238	-4.93584111558944	-19.66629772246288	-3.292595066854048	8.326761187776471	2.080227021330987	-0.3474999282483266	6.164339068661077	0.0830539206378591	-0.2215033049581445	0.09885241692642974	0.2981358415749435	0.3390498311751578	0.1472143747923844	-0.3654107031913129	-1.048714930375958	-0.5381004528449992	-0.176510810776042
0.2228071283122631	-63.11877362074178	-15.61167776986508	-29.44386033278211	-221.0568234056177	1508.505225072207	14.48496428887933	115.2277225311902	9.873881375437644	-17.18116996200598	-21.97273772958166	33.9490856661304	-9.223192917905568	-39.41591524944474	31.15777292899642	-56.09540207058127	-46.1890290235496	15.69158778459091	-0.05837001653745891	8.70148959035413	13.50570107936287	-0.04186630833213828	-16.14751101207613	4.469982192646915	1.251828101983534	-4.637980749787175	-18.98028163378499	-3.159878845509738	8.388439306227342	1.913041361555338	-0.1135804660868184	6.258515217136495	0.07802301583362364	-0.2103189202569573	-0.1333667941417598	0.4286096157873525	0.3457859543595015	0.1118500955116538	-0.3190685118453002	-1.053669728762102	-0.5429974695308587	-0.1673775911248085
0.2257902993364854	-67.64068932691598	-19.74848328830252	-26.30458499270343	-230.9028463071298	1533.231583948864	35.63240306189622	111.3732197353172	5.30489948216726	-13.78829812155633	-20.5976976857939	34.91335504420817	-9.806606607117216	-37.66937150485117	34.40646982970395	-53.89362797836725	-44.61547036004612	12.32378467403191	-0.04922440310608193	8.205060851604451	14.29578192629211	-0.04184346327550025	-15.60154550996018	4.288470846965767	1.236002348751272	-4.339501585659894	-18.28297412689127	-3.025124805727232	8.505098288512718	1.781661586759416	0.08050579763324195	6.346899515703449	0.07326050171974696	-0.2001148445021435	-0.3645577855424717	0.5182599841482978	0.3497966313888072	0.08192699434045081	-0.274679530427556	-1.057523410155364	-0.5497920777222596	-0.1591525182944424
0.2282679370955254	-69.82986632952117	-21.62337100534869	-23.13415699305133	-238.0893010012483	1549.593998691737	52.99945801222571	108.9978737892722	2.020827656304686	-11.00636054028559	-19.49364835233612	35.1797181627113	-10.13273844929912	-35.98570573507508	37.46108372575844	-51.8529506170711	-43.37008965508572	9.547218464944981	-0.04185426391206185	7.798372125754316	14.71198025788737	-0.04208864450993825	-15.12294925673242	4.114725501333627	1.217311161328196	-4.073728034822671	-17.62722234243658	-2.89885322324397	8.650994086137445	1.683442841371287	0.2370178302403133	6.421553530399702	0.06905176414480019	-0.1912518747612073	-0.5761075918177414	0.5752560259766731	0.3520346524294783	0.05750481063691946	-0.2349517909634983	-1.059968217218627	-0.5570060234648531	-0.15215514060111
0.2302009768984097	-70.91671730140125	-22.1179116740346	-20.46372619718009	-243.4512721495939	1560.243140310744	66.06633158531771	107.3624282004782	-0.255953724168803	-8.899036988562692	-18.65439901023558	35.04836676739969	-10.28467150290365	-34.52672714685403	40.03865016467063	-50.1223185394805	-42.25782221960507	7.428257439278229	-0.03611559595661616	7.484271043543348	14.88430753414306	-0.04244606422430592	-14.73294681903457	3.965857256999795	1.199877649940955	-3.861180427037904	-17.06573551986744	-2.791125328168085	8.778854910396475	1.614223317657716	0.3570895831266034	6.478608219440462	0.06562362687087023	-0.1840785128440392	-0.7483560585242929	0.6084308772372169	0.3532006995832808	0.0386598506785393	-0.2022393590229087	-1.061155476716138	-0.5629727182125956	-0.1466167206353084
0.2315589714577417	-71.37048308948292	-21.936805935167	-18.50879243641458	-247.314919978249	1566.461843040879	74.97001437038392	106.3135204137438	-1.689662912386986	-7.459016916229508	-18.07604211278418	34.77879944203287	-10.33724457671186	-33.42639443435087	41.93681871111475	-48.83204019035676	-41.47167471647789	5.976614574823301	-0.03202957012864371	7.265160619251738	14.9257138536267	-0.04278294811458606	-14.44996484025351	3.854817970881047	1.186389570175675	-3.711704062105142	-16.64467321724084	-2.710563295693584	8.882484725974546	1.569639811400771	0.4407671007613099	6.517235490516375	0.06314562355910863	-0.1788986647342368	-0.8740520137090149	0.6257621190948854	0.3537592681288492	0.0255026690811032	-0.1784002982657962	-1.061511218138919	-0.5678196922776318	-0.1426938979592245
0.2323208116596206	-70.89160304862841	-21.79833750808096	-17.11585538696577	-246.7480749190079	1570.47342692835	79.54515575241776	106.2859075413841	-2.416811883369068	-6.662629361113911	-17.75573297901909	34.56388471685669	-10.3471747786413	-32.78205467896549	43.02925756441643	-48.08088651513619	-40.59891749251931	5.141445523826558	-0.03047370287917231	7.142785599265185	14.92032497420881	-0.04300234730138935	-14.28791242645908	3.79033950994664	1.178438249283032	-3.628465126720648	-16.3987514828361	-2.663592083488188	8.94486467410086	1.546119401857504	0.4875598808538103	6.538159517580691	0.06173206962477393	-0.1759405382654493	-0.9495962650486013	0.6333224708281688	0.3539893564701708	0.01814447749800546	-0.1647283202158518	-1.061511510494332	-0.5710289355950373	-0.1404839477792848
0.2325	-64.3319232154374	-22.01432451206379	-14.38415901147	-231.7033813183143	1569.477897761386	81.55392897518547	111.6181061248832	-1.841920928890582	-6.286566554520146	-17.68083740990119	34.5067191610738	-10.34747307768984	-32.62768989443993	43.28882996273697	-47.90133989549631	-40.89662761874723	4.72863052211769	-0.03450164863997573	7.11405901631929	14.91608418584296	-0.04305708194629732	-14.24945028600136	3.774954743693742	1.176531539371861	-3.608991465698465	-16.33989253570921	-2.652358252815748	9.154751763171422	1.540744268639284	0.4985554610403893	6.542989988797403	0.06139725970924437	-0.1752392431109513	-1.025286692681168	0.6348751495194579	0.3540353991429974	0.01641582136103761	-0.1614822236189264	-1.061489218125606	-0.5809117982126115	-0.1399633238265866
0.2329542507337262	-71.79836924857463	-21.28862894036432	-16.53330607449432	-251.993421886623	1571.723102345989	83.87006060898879	105.1313547237424	-3.045622329228921	-6.031787971749569	-17.49174065350402	34.35055282599051	-10.34476160523735	-32.23157832729645	43.95106896353469	-47.44126051031808	-40.68992365564539	4.538394195068208	-0.02764730095372223	7.041331738667163	14.90027865986189	-0.04320112792196336	-14.15135353484578	3.735589222499193	1.171639247886864	-3.559844202163047	-16.1889436363182	-2.623561948969697	8.977114453842072	1.527386964762333	0.5264176584878911	6.555066798244303	0.06054462653416218	-0.1734519132190431	-0.9991075316595013	0.6384269468175814	0.3541389593003963	0.01203667069433441	-0.1532021511304085	-1.061392950422651	-0.5713071051908989	-0.13864222965914
0.234015784775164	-71.31142554247188	-20.43948967830132	-14.79558622459797	-254.7570624263518	1574.110107728059	90.72095399359196	104.7962786020201	-3.871924556425773	-4.972237649107839	-17.05420764503022	33.92301813783845	-10.31911192239319	-31.27924483624828	45.52030639149993	-46.33847308283281	-40.37102258129332	3.479526938109202	-0.02461663988212892	6.871906681628516	14.83521892556435	-0.0435669650010749	-13.91878028049221	3.641624332020092	1.159902951567392	-3.446506081390422	-15.82646276055386	-2.554488025579451	9.057954640454579	1.497681875031422	0.5914999487728955	6.582253534046727	0.05853117940195207	-0.16922144898906	-1.093895914132847	0.6445832176522269	0.3543116405739199	0.001817437268714014	-0.1335728781157666	-1.060934856822952	-0.5728966385716091	-0.13554865800101
0.2356644464118399	-70.69806491973809	-18.58278101759306	-12.20379827474484	-260.2532496119012	1576.623175602156	100.8865262313194	104.0045298552741	-5.021568173128735	-3.388407048196708	-16.38722130192137	33.08719796625202	-10.22620208547533	-29.72666302030954	48.00744920369508	-44.54842703872277	-39.88461188791261	1.899723365127825	-0.01947449337475948	6.610212799836526	14.6569920665728	-0.04421413367848671	-13.5482621575133	3.490548750378304	1.140949443464757	-3.276123643274486	-15.23647250640818	-2.442256237174078	9.203627250373126	1.45575405949544	0.6926955941506888	6.621136506003976	0.05534953683145979	-0.1625003635586841	-1.246360730774051	0.6482335679008223	0.3544075728863421	-0.01402828539487651	-0.1023410565150162	-1.059521702717216	-0.5771847815673276	-0.1307308973029874
0.2378741041940474	-69.61489256348158	-15.12540948772612	-8.761920569871656	-268.0600837938431	1577.868749368776	113.3854879356412	102.8546068808297	-6.245697417235363	-1.415152310017493	-15.51851726883483	31.64623807794667	-10.00267731577128	-27.50805062438426	51.40439417182856	-42.0007834740416	-39.07068841955358	-0.07741075745792697	-0.01233083432831544	6.262053057511383	14.27414176542005	-0.04522500420608232	-13.03378572366113	3.279306937762974	1.114501158897492	-3.062920805166429	-14.39453997463773	-2.282407917706794	9.422551723509635	1.407588442719543	0.8291495260449009	6.665490609615055	0.05099145019108081	-0.1532007196210317	-1.45608050102981	0.6420222731354642	0.3542671339942152	-0.0352617791584135	-0.05916305444047315	-1.056130238691217	-0.5848848849732335	-0.1242616590173878
0.2406098871668135	-67.29383028782026	-9.344017158254054	-4.390198013507298	-277.6320030759198	1575.334460073436	127.1809645791518	101.7650087798783	-7.159122486692089	0.7830352588295177	-14.48572078378444	29.37251149328522	-9.575564800387959	-24.54961024394066	55.63872367880481	-38.61082436035473	-38.12007338923982	-2.280325980631051	-0.003352161170262186	5.834576289889032	13.5806198905913	-0.0466863921490643	-12.36841257969716	3.006143545034279	1.080737617785847	-2.832233080852613	-13.27273756653027	-2.069711273856858	9.745409980007851	1.360555828577624	1.000658429496417	6.705244517143951	0.04546685106549136	-0.1412229809608352	-1.724498802157947	0.6172480523112112	0.3537807311693396	-0.06164096651876504	-0.003858836375576685	-1.049237263985715	-0.5974533677294009	-0.1162599947214281
0.2438286436775879	-62.80460946295388	-0.590583386412644	0.9943351308309096	-287.3558275227024	1566.792353037093	140.663303300855	101.2825939594822	-7.320793851797218	2.966174312951335	-13.33749920340346	26.0466771548725	-8.875772733848757	-20.78275644591579	60.52705042001612	-34.29305482083681	-37.05191278623696	-4.472644594711661	0.007007770455083412	5.335754206644555	12.47342639637491	-0.04866509743430952	-11.54617758523807	2.672376017087727	1.04047801082791	-2.623461039281707	-11.84572589442363	-1.799065886411724	10.18814580578009	1.322477973401726	1.207976190661811	6.725828743497161	0.03881869835261864	-0.1264865974193921	-2.046320158168732	0.5651931854198613	0.352926965254686	-0.09294987962682794	0.06333600239660873	-1.036805408791375	-0.6153593049614431	-0.1069020604761741
0.2474796094921079	-55.33565210640955	11.38709706192751	7.434728207232109	-294.3556823157612	1551.874465967834	151.5381817501656	101.9418123681371	-6.371531210137803	4.844304322242913	-12.13565547077981	21.5053262408515	-7.854563979782501	-16.1576933957441	65.73573339764519	-28.98159723125342	-35.44210460441573	-6.393088637926486	0.01790424027946871	4.774045500336681	10.87362485861546	-0.05117953824341386	-10.56535286482842	2.283927910130553	0.9950578041589795	-2.490707272393715	-10.0989037823733	-1.466717353134789	10.72996109622522	1.300372804712012	1.452456139680108	6.708296882476901	0.03113687718681013	-0.1089752902513457	-2.405978800363843	0.4787566036615043	0.3517538564720531	-0.1289736075135277	0.1414962836098741	-1.016380772772448	-0.6369470226342689	-0.0964282949902508
0.25150520557877	-44.68909077337352	26.57931992573006	14.72769068180616	-297.651995509312	1530.116683817208	157.5196389410198	103.8603241126748	-4.013440966153835	6.116623266132216	-10.94797548580816	15.68907214711179	-6.500129720683869	-10.66631960706454	70.75777769463825	-22.65721482669555	-33.22517233575733	-7.744305677009702	0.02904532688454453	4.157284887974892	8.747793763330602	-0.05417528565003313	-9.431232781249129	1.852373196193648	0.9460476545781199	-2.49932954545686	-8.039551729869345	-1.072072975414875	11.37604085799391	1.299144399901218	1.735590742198623	6.630981945267353	0.02255699025316715	-0.08882000885822494	-2.790367724890726	0.3541275116755737	0.3503272828330394	-0.1694746420608577	0.2287188492728387	-0.9853898204531459	-0.6632742466160042	-0.08514457791229627
0.2558419453248002	-30.93251158273066	44.42451627553267	22.62984023375892	-296.3629386441764	1502.139113623548	156.5063402786967	107.0828125901422	-0.09569628147096765	6.519387824996869	-9.843937868861783	8.686514815237301	-4.849950111411045	-4.350218697927753	74.94071390113794	-15.37563841303869	-30.37261091154628	-8.266535127766216	0.04004946466438106	3.493694901148778	6.125741328894309	-0.05750929388357296	-8.161079846120364	1.39440865722396	0.8944696403192813	-2.717983094037221	-5.706131159342245	-0.6195475521488387	12.11041633406419	1.320429145901763	2.057129057667569	6.472301433798566	0.01325872802547379	-0.06637560856345281	-3.179504757649381	0.1921833116045303	0.3485899031894467	-0.2140405209620301	0.3219434910900374	-0.941576621569838	-0.69387658382707	-0.07341947041930026
0.2604214354539589	-14.36905308987006	63.83092756036302	30.89762533276351	-289.9442049769112	1469.327006409571	147.0133128389899	111.6064583514389	5.370139871242797	5.870406508673017	-8.883225606688004	0.7575192048118902	-2.993634268942404	2.690751772556981	77.56502670694623	-7.289545626638416	-26.9827010813878	-7.778737103867679	0.0504679786010617	2.793075158967143	3.108635491330055	-0.06094971610882405	-6.787088447340741	0.92998145151221	0.840144479800921	-3.206011673311424	-3.173745163938172	-0.1201502643104007	12.90299433154847	1.361985081154961	2.413070626147543	6.214713792168942	0.003456837582295369	-0.04228279383998856	-3.549631057643079	-0.0008420309520273117	0.3462345818154023	-0.2619199592004164	0.4169628384566185	-0.8835363663665194	-0.727106087167068	-0.06167107776683937
0.2651714545037473	4.237977375660403	83.22342722592467	39.26622507643917	-278.687708691143	1433.88513575939	128.4700986176131	117.2046180018108	12.12969257959319	4.149726988632729	-8.093835580321459	-7.678080722170506	-1.062955035478771	10.2844054593386	77.95988343231619	1.344707918703645	-23.20478157380204	-6.259107665988859	0.05998877532922223	2.067089021949112	-0.1367876460305061	-0.06419781010355979	-5.354492545272545	0.4797834753692376	0.7817130155957459	-3.9986878579532	-0.5536912881072173	0.4075101647318253	13.73000797425077	1.417931937847863	2.79488127654637	5.849096694158275	-0.006618198566657962	-0.01749859080826832	-3.885019419840845	-0.2137474989312204	0.3426985396277998	-0.311969806934141	0.5086572076421678	-0.8112289689359824	-0.7622776568922863	-0.05034101881794526
0.2700170917444269	23.28123791210191	100.857233577514	47.28731018951525	-264.7295434850103	1398.508891410528	101.3171029954069	123.021780553036	19.64813371596606	1.483583082450828	-7.473268883533418	-16.08225147746651	0.7894376342205125	18.21097344260398	75.66685904327259	10.18206573431509	-18.99674171565751	-3.830395320954998	0.06856432887114694	1.333968856405832	-3.397808859483098	-0.06693511869065284	-3.921433376339478	0.06187262930649576	0.7167677511229089	-5.096478679429501	2.01591368625728	0.937260818421942	14.53798321827567	1.4797926779479	3.188324733803784	5.378177125716227	-0.0167196374077343	0.006748512804922946	-4.169142983497078	-0.4317487446360589	0.337211820185582	-0.362549714664224	0.5914512504928431	-0.7263609383990857	-0.7972287997007581	-0.03986266873240801
0.2748819285398158	40.27552199205134	115.0659966100097	54.32036455222033	-251.9083228851643	1365.588170864133	66.98679823934327	127.432846504747	27.09814075147941	-1.821432100578598	-6.962670966128764	-23.88766830687339	2.42104255348321	26.21290755718546	70.51991065712045	18.84104541375148	-13.97658220450425	-0.7844609158578486	0.07637603899332626	0.6150446477869499	-6.450771651124888	-0.06887126649021121	-2.54583644185261	-0.3113114353587644	0.6428588869516468	-6.460495733081906	4.396768066032337	1.439676250549426	15.24830533441265	1.538282686436113	3.576428841677799	4.814974499731353	-0.02662063279312599	0.02919560420736778	-4.38975933969651	-0.6390673377702547	0.3290067697028057	-0.4118301315867692	0.6602750855894266	-0.6318731803007833	-0.8290057293361692	-0.0306176944760121
0.2796892435043931	53.34161773176481	124.547183903035	59.96464889253073	-243.3824850772661	1337.126285377278	28.25877411306249	129.3321506102725	33.63655107437418	-5.299363594471256	-6.500200105217209	-30.57389665749707	3.722097985031276	34.00927968455153	62.7934973712986	26.93281601696458	-7.903222632841564	2.451990565390426	0.0837296859323223	-0.06021407286560287	-9.09201938761651	-0.06982084010828737	-1.286568460188028	-0.6330814720655421	0.5587513112828553	-8.01302675135217	6.452139416185513	1.881271532452949	15.82273715010319	1.584853098455441	3.939782565176685	4.188722491541605	-0.0360727406690205	0.04849197430317598	-4.553684420327428	-0.8209030422311527	0.3176156522394306	-0.457759018519703	0.7108435399623099	-0.532780333349008	-0.8570472958055417	-0.02287755994203568
0.2843632224455918	61.74320079995845	128.1397253470595	64.18428123876197	-240.0661245940398	1313.354432184479	-11.19162643032701	128.3307537035793	38.38292658987877	-8.291705198791327	-5.94534888451589	-35.7828258737497	4.642519700179693	41.37660212250962	52.95779137275053	34.18467797865972	-0.7362364507207144	5.28044423953208	0.09064048201177766	-0.6705103337448826	-11.17983765938076	-0.06968399025681052	-0.173707675209135	-0.9076802058036866	0.4636764535193039	-9.661669400904049	8.12233267529859	2.242928509349996	16.24539253339235	1.613595263704816	4.265146697784201	3.521999675329988	-0.04495809031301146	0.06407490491109724	-4.685818895582223	-0.9669963605053349	0.3028062554367325	-0.4990507545885182	0.7417034287576607	-0.4323567608415877	-0.8806733641175746	-0.01680316348810373
0.2888301540101398	65.51028817808361	125.7845704946592	66.97275098852876	-242.9826816087389	1295.836395028285	-47.48645425352404	124.9455202663666	40.80368193593332	-10.31500833890189	-5.324570964030766	-39.33641300060025	5.179333219428138	48.05623679003204	42.02591170045802	40.32569374115955	7.002384985421586	7.260716769947815	0.09639306859304134	-1.182188964630521	-12.64200117719574	-0.06860535687222102	0.7466336293085838	-1.132079409397697	0.3623152595970121	-11.28754312422441	9.309286260641107	2.493057971980964	16.5592857800792	1.621864722333874	4.535701999608813	2.870370182808704	-0.05293215005413449	0.07478683959090549	-4.815622700113182	-1.070926445872953	0.2854066050168997	-0.5338246683483325	0.7514708848998942	-0.3386923627961978	-0.9022591605010101	-0.01234991934461672
0.2930195921846577	66.4698062228415	116.9628204125428	68.82050772869322	-248.1754946714039	1278.953943020841	-77.085890739674	120.1839058147106	40.35124048555025	-10.76785902726284	-4.354332917768194	-41.28522657608938	5.392953019422878	54.01385197890308	30.37432350831066	45.42744754876072	14.48568788906858	7.805986670546565	0.1021249706914154	-1.608160348051767	-13.48839395356013	-0.0665960400720397	1.523507314037328	-1.333381485673311	0.2527843186962875	-12.83177185919559	10.1579103187509	2.662116627872654	16.83042582908308	1.609669844570825	4.760628260949846	2.218377233831373	-0.06030606257289034	0.08229283018291142	-4.994335993737884	-1.133894985924128	0.2654242458703713	-0.5634137807413317	0.7455562952838889	-0.247919330860316	-0.9239999853091108	-0.009449358866023064
0.2968654673351004	64.27754221353635	104.175939742515	69.21202393205368	-259.3677088199987	1268.429988961281	-98.75415806071561	114.6503467881081	37.41614599772142	-9.986529807382549	-3.451785887130953	-41.84459875095727	5.347221506314009	59.00368552407051	19.62542864665812	49.272597665263	21.16868052113367	7.176968734415357	0.1062529732258146	-1.904869386722211	-13.80183295886079	-0.06428210818741276	2.078311263815297	-1.485767096546795	0.1496898393189197	-14.16394654666811	10.50447582489386	2.700153208768993	17.08838446338266	1.58186489497529	4.917599485299775	1.671194135788009	-0.06626763974440786	0.08447219333025038	-5.207424636256866	-1.15884084094285	0.2455251783597888	-0.5848865622285875	0.722581218767671	-0.1755615641523599	-0.9472954067639608	-0.007726943195237194
0.3003071283122631	60.59768036694175	88.00304751824333	68.56142476531633	-271.7134650630002	1255.38012003347	-112.0711178832811	108.5232368571458	32.08411644191125	-7.917140591324625	-2.285686526318027	-41.37808902797961	5.147558020989776	63.17300619853776	9.627218022991771	52.20486783259506	26.69880706772815	5.251651826291687	0.1092290307100791	-2.121915911392436	-13.70899574745765	-0.06183767364627581	2.516018586357344	-1.62519571260929	0.04904525828574258	-15.3050308233445	10.64056979902215	2.683266527340246	17.32721955132158	1.542953004933233	5.034619175554379	1.171019477583367	-0.07147640597817828	0.08474721180978789	-5.466946210882524	-1.156163021767102	0.2255823209761746	-0.6017142171789519	0.692694727338468	-0.1107397073897484	-0.9694407932181934	-0.007009921065826631
0.3032902993364854	57.49084623043744	68.7735929996817	67.48439522054635	-278.5606636289717	1232.489992870796	-117.8549422990987	102.3631983793302	24.78666135597764	-4.730442248298012	-0.4861594707732051	-40.10003373409348	4.859483356416114	66.67752534589722	-0.1069035503979254	54.56024510974407	30.95910639954298	2.119851791042512	0.111544286561915	-2.305556910028979	-13.26986353770758	-0.05898377317807694	2.950339544918538	-1.790218644954238	-0.05598491379157394	-16.30469817881165	10.83178129653974	2.685589072609338	17.54311610938379	1.492207283964424	5.146165169818905	0.649161678491231	-0.07679707646293149	0.08614167126326377	-5.774945209020994	-1.131167671382896	0.2050365269349461	-0.6181078719934294	0.6640010322577564	-0.04175094455138884	-0.9884821599296043	-0.007023066538180571
0.3057679370955254	52.20014415101828	53.24411863537091	64.98628994500622	-293.5519786102697	1223.020613067179	-119.3233309576635	96.75963619178134	17.84454886411265	-2.025484408572293	0.4296650343305028	-38.64173127681479	4.551227624137582	69.14873946125687	-6.570413487811004	55.83983356103467	33.93776697708957	-0.654344763657201	0.110899235993106	-2.360021074004439	-12.77012532075324	-0.05702767070894373	3.117181286959476	-1.870722263505965	-0.1277469898403746	-16.95692793607843	10.53419703336119	2.552890018192677	17.67926570323659	1.448940238942602	5.180079422201285	0.3641764142951233	-0.07966186294508243	0.08190691281134754	-6.008860539483384	-1.097871497298392	0.189968073042532	-0.6245125502630944	0.6272838136105002	-0.008526802393898719	-1.000500515042459	-0.007249615325922075
0.3077009768984096	45.63681188084105	42.99798451109427	61.73847917782866	-315.0431125730217	1227.661260811963	-118.7345214050495	92.2482978341083	12.2340009136053	-0.15163158228669	0.3564859064709784	-37.50392719303575	4.298712851731073	70.72790158204795	-9.75606847040619	56.30457648041127	35.87302923724813	-2.670937733150125	0.1091085264228333	-2.322691438944226	-12.410765288163	-0.05614935024986033	3.052176049244033	-1.866508708682228	-0.1632449441404595	-17.29441402551663	9.88824381450635	2.325856251951665	17.73082435404677	1.422961317853909	5.14727677468543	0.3046677634116156	-0.08014782757670236	0.07368603897367687	-6.150822760102025	-1.070972722461118	0.1811241821641753	-0.6220820402687149	0.5890912083102033	-0.008049866240769171	-1.004438911977751	-0.007542593377988779
0.3090589714577417	40.89717406054621	35.54541638359841	59.17244086777231	-331.5394459370498	1239.391278234478	-117.3987407131079	89.90599583321105	7.871698341827181	1.244852706071644	0.05620556335711857	-36.73658994920692	4.1245167390556	71.72873262217925	-11.36945618902493	56.47402131536407	37.68171666864204	-4.226034133825267	0.1054360418853042	-2.273987998266297	-12.18221935249129	-0.05576089788064353	2.945372424941282	-1.842277746345298	-0.1814191076428959	-17.47018317656428	9.31098876717593	2.127558845709087	17.67277164664267	1.408297474314743	5.105014826437008	0.3163922555441139	-0.07992551908889382	0.06643944409528296	-6.230799776531589	-1.05287193573357	0.1758697491831014	-0.6179700605957175	0.5597101576206853	-0.01585054757576487	-0.9976774996437698	-0.007811593343315517
0.3098208116596206	36.42449801354748	33.07773700212155	57.2248297919482	-344.7152866144451	1236.277706138876	-116.2453977159217	86.39182081318813	5.714751076242426	1.83588445940001	-0.1547196084382527	-36.31512210595822	4.0287055160958	72.26871867865798	-12.14891048655722	56.54178350554313	37.67740630870202	-4.885287053076649	0.106580212648286	-2.242959650620409	-12.05992018286674	-0.05559028932761403	2.874431156515669	-1.824919077976079	-0.1903540386229316	-17.5544557255816	8.965282859142135	2.008711716633314	17.51993128725461	1.400904562514079	5.077682879955354	0.3336264276452986	-0.0796990294342181	0.06210864380740599	-6.217216737665144	-1.042976988990877	0.1730985417624205	-0.6152117777068923	0.5428295467321135	-0.02178967400318743	-0.9829765097123379	-0.00798075889522314
0.31	35.28146161391281	32.62426962933472	56.74109224266486	-348.0151732975507	1234.718570787018	-115.9375312361828	85.43008495160078	5.235009836629296	1.960274163234359	-0.2049508055555025	-36.21614689854647	4.006343619311757	72.39469191898503	-12.32700830466471	56.55690021655487	37.57452118637473	-5.025450514918195	0.1071164988896297	-2.235565838425772	-12.03130847485049	-0.0555521196825313	2.857432705763422	-1.820753013921213	-0.1924202414820216	-17.57337784366561	8.883297335434168	1.980424172338617	17.47719127012276	1.399200697680357	5.071133555162249	0.3381244108784434	-0.07964322469506827	0.06108099249992749	-6.210229762237029	-1.040655318549168	0.17245126167653	-0.6145483022480092	0.5388504525748627	-0.02324597757280258	-0.9787680438611237	-0.008021872763298417
